<?xml version="1.0" encoding="UTF-8"?>
<gpx version="1.1" creator="Apple Health Export" xmlns="http://www.topografix.com/GPX/1/1" xmlns:xsi="http://www.w3.org/2001/XMLSchema-instance" xsi:schemaLocation="http://www.topografix.com/GPX/1/1 http://www.topografix.com/GPX/1/1/gpx.xsd">
  <metadata>
    <time>2026-03-14T12:16:00Z</time>
  </metadata>
  <trk>
    <name>Route 2022-06-18 8:28pm</name>
    <trkseg>
      <trkpt lon="-82.310892" lat="35.642928"><ele>801.903198</ele><time>2022-06-19T00:28:48Z</time><extensions><speed>0.720000</speed><course>343.476562</course><hAcc>10.000000</hAcc><vAcc>4.000000</vAcc></extensions></trkpt>
      <trkpt lon="-82.310900" lat="35.642932"><ele>802.019287</ele><time>2022-06-19T00:28:49Z</time><extensions><speed>0.720000</speed><course>341.718750</course><hAcc>10.000000</hAcc><vAcc>4.000000</vAcc></extensions></trkpt>
      <trkpt lon="-82.310908" lat="35.642930"><ele>801.853882</ele><time>2022-06-19T00:28:50Z</time><extensions><speed>0.720000</speed><course>291.796875</course><hAcc>10.000000</hAcc><vAcc>4.000000</vAcc></extensions></trkpt>
    </trkseg>
  </trk>
</gpx>