<?xml version="1.0" encoding="UTF-8"?>
<gpx version="1.1" creator="Apple Health Export" xmlns="http://www.topografix.com/GPX/1/1" xmlns:xsi="http://www.w3.org/2001/XMLSchema-instance" xsi:schemaLocation="http://www.topografix.com/GPX/1/1 http://www.topografix.com/GPX/1/1/gpx.xsd">
  <metadata>
    <time>2026-03-14T12:16:59Z</time>
  </metadata>
  <trk>
    <name>Route 2025-07-03 11:03am</name>
    <trkseg>
      <trkpt lon="-82.309841" lat="35.643683"><ele>805.807298</ele><time>2025-07-03T14:58:37Z</time><extensions><speed>0.969149</speed><course>250.758123</course><hAcc>2.136303</hAcc><vAcc>1.912630</vAcc></extensions></trkpt>
      <trkpt lon="-82.309851" lat="35.643680"><ele>805.775763</ele><time>2025-07-03T14:58:38Z</time><extensions><speed>0.962520</speed><course>249.686493</course><hAcc>1.803489</hAcc><vAcc>1.708328</vAcc></extensions></trkpt>
      <trkpt lon="-82.309862" lat="35.643677"><ele>805.735897</ele><time>2025-07-03T14:58:39Z</time><extensions><speed>1.065542</speed><course>248.657829</course><hAcc>1.633177</hAcc><vAcc>1.541137</vAcc></extensions></trkpt>
      <trkpt lon="-82.309873" lat="35.643673"><ele>805.687616</ele><time>2025-07-03T14:58:40Z</time><extensions><speed>1.148814</speed><course>246.954718</course><hAcc>1.546169</hAcc><vAcc>1.405609</vAcc></extensions></trkpt>
      <trkpt lon="-82.309885" lat="35.643669"><ele>805.634141</ele><time>2025-07-03T14:58:42Z</time><extensions><speed>1.146564</speed><course>248.138425</course><hAcc>1.489009</hAcc><vAcc>1.296946</vAcc></extensions></trkpt>
      <trkpt lon="-82.309897" lat="35.643666"><ele>805.580789</ele><time>2025-07-03T14:58:43Z</time><extensions><speed>1.182321</speed><course>250.851519</course><hAcc>1.451795</hAcc><vAcc>1.210679</vAcc></extensions></trkpt>
      <trkpt lon="-82.309909" lat="35.643662"><ele>805.529730</ele><time>2025-07-03T14:58:44Z</time><extensions><speed>1.197758</speed><course>252.138338</course><hAcc>1.436582</hAcc><vAcc>1.142842</vAcc></extensions></trkpt>
      <trkpt lon="-82.309922" lat="35.643659"><ele>805.480421</ele><time>2025-07-03T14:58:45Z</time><extensions><speed>1.150585</speed><course>250.370683</course><hAcc>1.440946</hAcc><vAcc>1.089469</vAcc></extensions></trkpt>
      <trkpt lon="-82.309933" lat="35.643655"><ele>805.443735</ele><time>2025-07-03T14:58:46Z</time><extensions><speed>1.138430</speed><course>249.133022</course><hAcc>1.437756</hAcc><vAcc>1.047516</vAcc></extensions></trkpt>
      <trkpt lon="-82.309945" lat="35.643651"><ele>805.420492</ele><time>2025-07-03T14:58:47Z</time><extensions><speed>1.160436</speed><course>247.536322</course><hAcc>1.424449</hAcc><vAcc>1.014579</vAcc></extensions></trkpt>
      <trkpt lon="-82.309957" lat="35.643647"><ele>805.391357</ele><time>2025-07-03T14:58:48Z</time><extensions><speed>1.098802</speed><course>244.203256</course><hAcc>1.400016</hAcc><vAcc>0.987822</vAcc></extensions></trkpt>
      <trkpt lon="-82.309967" lat="35.643643"><ele>805.352156</ele><time>2025-07-03T14:58:49Z</time><extensions><speed>1.083599</speed><course>242.262959</course><hAcc>1.374063</hAcc><vAcc>0.966500</vAcc></extensions></trkpt>
      <trkpt lon="-82.309978" lat="35.643638"><ele>805.298087</ele><time>2025-07-03T14:58:50Z</time><extensions><speed>1.117146</speed><course>242.297469</course><hAcc>1.375792</hAcc><vAcc>0.948782</vAcc></extensions></trkpt>
      <trkpt lon="-82.309989" lat="35.643633"><ele>805.247388</ele><time>2025-07-03T14:58:51Z</time><extensions><speed>1.155291</speed><course>244.714435</course><hAcc>1.376132</hAcc><vAcc>0.933636</vAcc></extensions></trkpt>
      <trkpt lon="-82.310001" lat="35.643629"><ele>805.199998</ele><time>2025-07-03T14:58:52Z</time><extensions><speed>1.179596</speed><course>247.392434</course><hAcc>1.350023</hAcc><vAcc>0.921438</vAcc></extensions></trkpt>
      <trkpt lon="-82.310013" lat="35.643625"><ele>805.142083</ele><time>2025-07-03T14:58:53Z</time><extensions><speed>1.146838</speed><course>246.460840</course><hAcc>1.334159</hAcc><vAcc>0.910945</vAcc></extensions></trkpt>
      <trkpt lon="-82.310024" lat="35.643621"><ele>805.076409</ele><time>2025-07-03T14:58:54Z</time><extensions><speed>1.060474</speed><course>245.472562</course><hAcc>1.322994</hAcc><vAcc>0.901773</vAcc></extensions></trkpt>
      <trkpt lon="-82.310034" lat="35.643617"><ele>805.006957</ele><time>2025-07-03T14:58:55Z</time><extensions><speed>0.969321</speed><course>243.312560</course><hAcc>1.317875</hAcc><vAcc>0.893828</vAcc></extensions></trkpt>
      <trkpt lon="-82.310044" lat="35.643613"><ele>804.945660</ele><time>2025-07-03T14:58:56Z</time><extensions><speed>0.943156</speed><course>243.787260</course><hAcc>1.326252</hAcc><vAcc>0.886978</vAcc></extensions></trkpt>
      <trkpt lon="-82.310053" lat="35.643609"><ele>804.885116</ele><time>2025-07-03T14:58:57Z</time><extensions><speed>0.975700</speed><course>242.916406</course><hAcc>1.325934</hAcc><vAcc>0.880645</vAcc></extensions></trkpt>
      <trkpt lon="-82.310062" lat="35.643605"><ele>804.829861</ele><time>2025-07-03T14:58:58Z</time><extensions><speed>0.957250</speed><course>237.125749</course><hAcc>1.314184</hAcc><vAcc>0.875144</vAcc></extensions></trkpt>
      <trkpt lon="-82.310070" lat="35.643600"><ele>804.775573</ele><time>2025-07-03T14:58:59Z</time><extensions><speed>0.881074</speed><course>227.761167</course><hAcc>1.293307</hAcc><vAcc>0.869837</vAcc></extensions></trkpt>
      <trkpt lon="-82.310078" lat="35.643594"><ele>804.734989</ele><time>2025-07-03T14:59:00Z</time><extensions><speed>0.947101</speed><course>224.099543</course><hAcc>1.306537</hAcc><vAcc>0.864890</vAcc></extensions></trkpt>
      <trkpt lon="-82.310085" lat="35.643588"><ele>804.689164</ele><time>2025-07-03T14:59:01Z</time><extensions><speed>1.068360</speed><course>224.477308</course><hAcc>1.319111</hAcc><vAcc>0.860280</vAcc></extensions></trkpt>
      <trkpt lon="-82.310094" lat="35.643580"><ele>804.647342</ele><time>2025-07-03T14:59:02Z</time><extensions><speed>1.188041</speed><course>224.405200</course><hAcc>1.320908</hAcc><vAcc>0.856577</vAcc></extensions></trkpt>
      <trkpt lon="-82.310103" lat="35.643573"><ele>804.608691</ele><time>2025-07-03T14:59:03Z</time><extensions><speed>1.142537</speed><course>222.604927</course><hAcc>1.317897</hAcc><vAcc>0.852877</vAcc></extensions></trkpt>
      <trkpt lon="-82.310111" lat="35.643565"><ele>804.568480</ele><time>2025-07-03T14:59:04Z</time><extensions><speed>1.036621</speed><course>222.607092</course><hAcc>1.317613</hAcc><vAcc>0.849009</vAcc></extensions></trkpt>
      <trkpt lon="-82.310119" lat="35.643559"><ele>804.517394</ele><time>2025-07-03T14:59:05Z</time><extensions><speed>1.055451</speed><course>223.082788</course><hAcc>1.310691</hAcc><vAcc>0.845642</vAcc></extensions></trkpt>
      <trkpt lon="-82.310127" lat="35.643552"><ele>804.464977</ele><time>2025-07-03T14:59:06Z</time><extensions><speed>1.039603</speed><course>222.368646</course><hAcc>1.313481</hAcc><vAcc>0.842340</vAcc></extensions></trkpt>
      <trkpt lon="-82.310134" lat="35.643545"><ele>804.414242</ele><time>2025-07-03T14:59:07Z</time><extensions><speed>1.029093</speed><course>221.239869</course><hAcc>1.313260</hAcc><vAcc>0.839394</vAcc></extensions></trkpt>
      <trkpt lon="-82.310141" lat="35.643538"><ele>804.365056</ele><time>2025-07-03T14:59:08Z</time><extensions><speed>0.842886</speed><course>219.361714</course><hAcc>1.296886</hAcc><vAcc>0.837287</vAcc></extensions></trkpt>
      <trkpt lon="-82.310147" lat="35.643532"><ele>804.313687</ele><time>2025-07-03T14:59:09Z</time><extensions><speed>0.841943</speed><course>218.378682</course><hAcc>1.297524</hAcc><vAcc>0.836240</vAcc></extensions></trkpt>
      <trkpt lon="-82.310153" lat="35.643526"><ele>804.258577</ele><time>2025-07-03T14:59:10Z</time><extensions><speed>0.899965</speed><course>217.250060</course><hAcc>1.317977</hAcc><vAcc>0.836073</vAcc></extensions></trkpt>
      <trkpt lon="-82.310159" lat="35.643519"><ele>804.191033</ele><time>2025-07-03T14:59:11Z</time><extensions><speed>0.963512</speed><course>214.545008</course><hAcc>1.318135</hAcc><vAcc>0.837147</vAcc></extensions></trkpt>
      <trkpt lon="-82.310165" lat="35.643512"><ele>804.117102</ele><time>2025-07-03T14:59:12Z</time><extensions><speed>0.968354</speed><course>211.049742</course><hAcc>1.308309</hAcc><vAcc>0.839214</vAcc></extensions></trkpt>
      <trkpt lon="-82.310170" lat="35.643504"><ele>804.019194</ele><time>2025-07-03T14:59:13Z</time><extensions><speed>1.009362</speed><course>213.474594</course><hAcc>1.331190</hAcc><vAcc>0.841552</vAcc></extensions></trkpt>
      <trkpt lon="-82.310177" lat="35.643497"><ele>803.913454</ele><time>2025-07-03T14:59:14Z</time><extensions><speed>1.066661</speed><course>216.904367</course><hAcc>1.352164</hAcc><vAcc>0.844083</vAcc></extensions></trkpt>
      <trkpt lon="-82.310184" lat="35.643490"><ele>803.807659</ele><time>2025-07-03T14:59:15Z</time><extensions><speed>0.966261</speed><course>220.573306</course><hAcc>1.363867</hAcc><vAcc>0.846243</vAcc></extensions></trkpt>
      <trkpt lon="-82.310191" lat="35.643484"><ele>803.707596</ele><time>2025-07-03T14:59:16Z</time><extensions><speed>0.885967</speed><course>225.943615</course><hAcc>1.360365</hAcc><vAcc>0.848522</vAcc></extensions></trkpt>
      <trkpt lon="-82.310198" lat="35.643478"><ele>803.620700</ele><time>2025-07-03T14:59:17Z</time><extensions><speed>0.855571</speed><course>231.503257</course><hAcc>1.364486</hAcc><vAcc>0.850540</vAcc></extensions></trkpt>
      <trkpt lon="-82.310206" lat="35.643474"><ele>803.535402</ele><time>2025-07-03T14:59:18Z</time><extensions><speed>0.909672</speed><course>235.570386</course><hAcc>1.363650</hAcc><vAcc>0.852885</vAcc></extensions></trkpt>
      <trkpt lon="-82.310215" lat="35.643469"><ele>803.483388</ele><time>2025-07-03T14:59:19Z</time><extensions><speed>0.979074</speed><course>239.475187</course><hAcc>1.361018</hAcc><vAcc>0.854969</vAcc></extensions></trkpt>
      <trkpt lon="-82.310225" lat="35.643465"><ele>803.445865</ele><time>2025-07-03T14:59:20Z</time><extensions><speed>1.044997</speed><course>241.551847</course><hAcc>1.375194</hAcc><vAcc>0.856709</vAcc></extensions></trkpt>
      <trkpt lon="-82.310235" lat="35.643460"><ele>803.422687</ele><time>2025-07-03T14:59:21Z</time><extensions><speed>1.062283</speed><course>244.295224</course><hAcc>1.379836</hAcc><vAcc>0.857848</vAcc></extensions></trkpt>
      <trkpt lon="-82.310245" lat="35.643456"><ele>803.422494</ele><time>2025-07-03T14:59:22Z</time><extensions><speed>0.985960</speed><course>241.326454</course><hAcc>1.375399</hAcc><vAcc>0.858811</vAcc></extensions></trkpt>
      <trkpt lon="-82.310254" lat="35.643452"><ele>803.434921</ele><time>2025-07-03T14:59:23Z</time><extensions><speed>0.862717</speed><course>240.442901</course><hAcc>1.362377</hAcc><vAcc>0.859736</vAcc></extensions></trkpt>
      <trkpt lon="-82.310262" lat="35.643448"><ele>803.455181</ele><time>2025-07-03T14:59:24Z</time><extensions><speed>0.786546</speed><course>238.481621</course><hAcc>1.376560</hAcc><vAcc>0.860656</vAcc></extensions></trkpt>
      <trkpt lon="-82.310269" lat="35.643445"><ele>803.489768</ele><time>2025-07-03T14:59:25Z</time><extensions><speed>0.669259</speed><course>238.948439</course><hAcc>1.400081</hAcc><vAcc>0.861829</vAcc></extensions></trkpt>
      <trkpt lon="-82.310274" lat="35.643443"><ele>803.526869</ele><time>2025-07-03T14:59:26Z</time><extensions><speed>0.447566</speed><course>245.444285</course><hAcc>1.407224</hAcc><vAcc>0.863142</vAcc></extensions></trkpt>
      <trkpt lon="-82.310278" lat="35.643441"><ele>803.568486</ele><time>2025-07-03T14:59:27Z</time><extensions><speed>0.267848</speed><course>252.127454</course><hAcc>1.427222</hAcc><vAcc>0.865150</vAcc></extensions></trkpt>
      <trkpt lon="-82.310280" lat="35.643441"><ele>803.612428</ele><time>2025-07-03T14:59:28Z</time><extensions><speed>0.234010</speed><course>250.651667</course><hAcc>1.450006</hAcc><vAcc>0.867941</vAcc></extensions></trkpt>
      <trkpt lon="-82.310283" lat="35.643440"><ele>803.645376</ele><time>2025-07-03T14:59:29Z</time><extensions><speed>0.331138</speed><course>242.890210</course><hAcc>1.455808</hAcc><vAcc>0.871250</vAcc></extensions></trkpt>
      <trkpt lon="-82.310287" lat="35.643438"><ele>803.651383</ele><time>2025-07-03T14:59:30Z</time><extensions><speed>0.510085</speed><course>238.314881</course><hAcc>1.449062</hAcc><vAcc>0.873799</vAcc></extensions></trkpt>
      <trkpt lon="-82.310293" lat="35.643435"><ele>803.644281</ele><time>2025-07-03T14:59:31Z</time><extensions><speed>0.688819</speed><course>237.030507</course><hAcc>1.452013</hAcc><vAcc>0.875696</vAcc></extensions></trkpt>
      <trkpt lon="-82.310300" lat="35.643431"><ele>803.636709</ele><time>2025-07-03T14:59:32Z</time><extensions><speed>0.844550</speed><course>237.027662</course><hAcc>1.478488</hAcc><vAcc>0.877476</vAcc></extensions></trkpt>
      <trkpt lon="-82.310308" lat="35.643427"><ele>803.616664</ele><time>2025-07-03T14:59:33Z</time><extensions><speed>0.831787</speed><course>240.158484</course><hAcc>1.480721</hAcc><vAcc>0.879371</vAcc></extensions></trkpt>
      <trkpt lon="-82.310316" lat="35.643424"><ele>803.593147</ele><time>2025-07-03T14:59:34Z</time><extensions><speed>0.756950</speed><course>241.733887</course><hAcc>1.457537</hAcc><vAcc>0.881338</vAcc></extensions></trkpt>
      <trkpt lon="-82.310323" lat="35.643421"><ele>803.553430</ele><time>2025-07-03T14:59:35Z</time><extensions><speed>0.768910</speed><course>246.483594</course><hAcc>1.452103</hAcc><vAcc>0.883190</vAcc></extensions></trkpt>
      <trkpt lon="-82.310331" lat="35.643418"><ele>803.499153</ele><time>2025-07-03T14:59:36Z</time><extensions><speed>0.761991</speed><course>252.589868</course><hAcc>1.450494</hAcc><vAcc>0.884754</vAcc></extensions></trkpt>
      <trkpt lon="-82.310339" lat="35.643416"><ele>803.432279</ele><time>2025-07-03T14:59:37Z</time><extensions><speed>0.744563</speed><course>255.927795</course><hAcc>1.444355</hAcc><vAcc>0.886459</vAcc></extensions></trkpt>
      <trkpt lon="-82.310347" lat="35.643415"><ele>803.356182</ele><time>2025-07-03T14:59:38Z</time><extensions><speed>0.755075</speed><course>255.490413</course><hAcc>1.452049</hAcc><vAcc>0.886439</vAcc></extensions></trkpt>
      <trkpt lon="-82.310355" lat="35.643413"><ele>803.267661</ele><time>2025-07-03T14:59:39Z</time><extensions><speed>0.778883</speed><course>256.981839</course><hAcc>1.453947</hAcc><vAcc>0.887449</vAcc></extensions></trkpt>
      <trkpt lon="-82.310364" lat="35.643412"><ele>803.165870</ele><time>2025-07-03T14:59:40Z</time><extensions><speed>0.769677</speed><course>258.022156</course><hAcc>1.446702</hAcc><vAcc>0.888193</vAcc></extensions></trkpt>
      <trkpt lon="-82.310372" lat="35.643410"><ele>803.060855</ele><time>2025-07-03T14:59:41Z</time><extensions><speed>0.707635</speed><course>257.418019</course><hAcc>1.434720</hAcc><vAcc>0.889549</vAcc></extensions></trkpt>
      <trkpt lon="-82.310379" lat="35.643409"><ele>802.952259</ele><time>2025-07-03T14:59:42Z</time><extensions><speed>0.707753</speed><course>255.880005</course><hAcc>1.434151</hAcc><vAcc>0.891087</vAcc></extensions></trkpt>
      <trkpt lon="-82.310387" lat="35.643407"><ele>802.869301</ele><time>2025-07-03T14:59:43Z</time><extensions><speed>0.714745</speed><course>256.971521</course><hAcc>1.429395</hAcc><vAcc>0.893373</vAcc></extensions></trkpt>
      <trkpt lon="-82.310395" lat="35.643406"><ele>802.794975</ele><time>2025-07-03T14:59:44Z</time><extensions><speed>0.756081</speed><course>259.405509</course><hAcc>1.428477</hAcc><vAcc>0.895803</vAcc></extensions></trkpt>
      <trkpt lon="-82.310403" lat="35.643405"><ele>802.725022</ele><time>2025-07-03T14:59:45Z</time><extensions><speed>0.822530</speed><course>262.345367</course><hAcc>1.432873</hAcc><vAcc>0.899194</vAcc></extensions></trkpt>
      <trkpt lon="-82.310413" lat="35.643404"><ele>802.662763</ele><time>2025-07-03T14:59:46Z</time><extensions><speed>0.873743</speed><course>261.736038</course><hAcc>1.427572</hAcc><vAcc>0.903365</vAcc></extensions></trkpt>
      <trkpt lon="-82.310422" lat="35.643402"><ele>802.608500</ele><time>2025-07-03T14:59:47Z</time><extensions><speed>0.890712</speed><course>261.061651</course><hAcc>1.410509</hAcc><vAcc>0.908286</vAcc></extensions></trkpt>
      <trkpt lon="-82.310432" lat="35.643401"><ele>802.571369</ele><time>2025-07-03T14:59:48Z</time><extensions><speed>0.906889</speed><course>259.347693</course><hAcc>1.396752</hAcc><vAcc>0.913785</vAcc></extensions></trkpt>
      <trkpt lon="-82.310442" lat="35.643399"><ele>802.535304</ele><time>2025-07-03T14:59:49Z</time><extensions><speed>0.928906</speed><course>255.808712</course><hAcc>1.406771</hAcc><vAcc>0.919840</vAcc></extensions></trkpt>
      <trkpt lon="-82.310452" lat="35.643397"><ele>802.510921</ele><time>2025-07-03T14:59:50Z</time><extensions><speed>0.986850</speed><course>252.222999</course><hAcc>1.416272</hAcc><vAcc>0.925393</vAcc></extensions></trkpt>
      <trkpt lon="-82.310463" lat="35.643394"><ele>802.489161</ele><time>2025-07-03T14:59:51Z</time><extensions><speed>1.048771</speed><course>248.090048</course><hAcc>1.422085</hAcc><vAcc>0.930845</vAcc></extensions></trkpt>
      <trkpt lon="-82.310473" lat="35.643390"><ele>802.471529</ele><time>2025-07-03T14:59:52Z</time><extensions><speed>1.020950</speed><course>242.104405</course><hAcc>1.428584</hAcc><vAcc>0.935484</vAcc></extensions></trkpt>
      <trkpt lon="-82.310483" lat="35.643385"><ele>802.476672</ele><time>2025-07-03T14:59:53Z</time><extensions><speed>1.012233</speed><course>240.163238</course><hAcc>1.464357</hAcc><vAcc>0.940880</vAcc></extensions></trkpt>
      <trkpt lon="-82.310492" lat="35.643380"><ele>802.499736</ele><time>2025-07-03T14:59:54Z</time><extensions><speed>0.995559</speed><course>235.282835</course><hAcc>1.474387</hAcc><vAcc>0.945417</vAcc></extensions></trkpt>
      <trkpt lon="-82.310501" lat="35.643375"><ele>802.538207</ele><time>2025-07-03T14:59:55Z</time><extensions><speed>1.023688</speed><course>231.952755</course><hAcc>1.487493</hAcc><vAcc>0.949984</vAcc></extensions></trkpt>
      <trkpt lon="-82.310510" lat="35.643369"><ele>802.575784</ele><time>2025-07-03T14:59:56Z</time><extensions><speed>1.014173</speed><course>232.626391</course><hAcc>1.495276</hAcc><vAcc>0.954339</vAcc></extensions></trkpt>
      <trkpt lon="-82.310519" lat="35.643364"><ele>802.622853</ele><time>2025-07-03T14:59:57Z</time><extensions><speed>1.005228</speed><course>234.872521</course><hAcc>1.493246</hAcc><vAcc>0.958332</vAcc></extensions></trkpt>
      <trkpt lon="-82.310528" lat="35.643359"><ele>802.656866</ele><time>2025-07-03T14:59:58Z</time><extensions><speed>1.008519</speed><course>236.582203</course><hAcc>1.489898</hAcc><vAcc>0.961542</vAcc></extensions></trkpt>
      <trkpt lon="-82.310538" lat="35.643354"><ele>802.688036</ele><time>2025-07-03T14:59:59Z</time><extensions><speed>0.992603</speed><course>235.963160</course><hAcc>1.499746</hAcc><vAcc>0.962913</vAcc></extensions></trkpt>
      <trkpt lon="-82.310547" lat="35.643349"><ele>802.679716</ele><time>2025-07-03T15:00:00Z</time><extensions><speed>1.004356</speed><course>233.936897</course><hAcc>1.495607</hAcc><vAcc>0.963159</vAcc></extensions></trkpt>
      <trkpt lon="-82.310555" lat="35.643343"><ele>802.666855</ele><time>2025-07-03T15:00:01Z</time><extensions><speed>0.995515</speed><course>230.976494</course><hAcc>1.485425</hAcc><vAcc>0.962773</vAcc></extensions></trkpt>
      <trkpt lon="-82.310563" lat="35.643337"><ele>802.640083</ele><time>2025-07-03T15:00:02Z</time><extensions><speed>0.914746</speed><course>226.346750</course><hAcc>1.468298</hAcc><vAcc>0.961594</vAcc></extensions></trkpt>
      <trkpt lon="-82.310570" lat="35.643332"><ele>802.600652</ele><time>2025-07-03T15:00:03Z</time><extensions><speed>0.870753</speed><course>220.033028</course><hAcc>1.476143</hAcc><vAcc>0.959250</vAcc></extensions></trkpt>
      <trkpt lon="-82.310576" lat="35.643325"><ele>802.553660</ele><time>2025-07-03T15:00:04Z</time><extensions><speed>0.863441</speed><course>215.068740</course><hAcc>1.483290</hAcc><vAcc>0.957129</vAcc></extensions></trkpt>
      <trkpt lon="-82.310581" lat="35.643319"><ele>802.500712</ele><time>2025-07-03T15:00:05Z</time><extensions><speed>0.872182</speed><course>209.967671</course><hAcc>1.481260</hAcc><vAcc>0.954738</vAcc></extensions></trkpt>
      <trkpt lon="-82.310586" lat="35.643312"><ele>802.432476</ele><time>2025-07-03T15:00:06Z</time><extensions><speed>0.857542</speed><course>207.092620</course><hAcc>1.475874</hAcc><vAcc>0.952200</vAcc></extensions></trkpt>
      <trkpt lon="-82.310590" lat="35.643305"><ele>802.345266</ele><time>2025-07-03T15:00:07Z</time><extensions><speed>0.872009</speed><course>207.425943</course><hAcc>1.472171</hAcc><vAcc>0.949835</vAcc></extensions></trkpt>
      <trkpt lon="-82.310594" lat="35.643298"><ele>802.245617</ele><time>2025-07-03T15:00:08Z</time><extensions><speed>0.911293</speed><course>208.166014</course><hAcc>1.462679</hAcc><vAcc>0.947065</vAcc></extensions></trkpt>
      <trkpt lon="-82.310600" lat="35.643290"><ele>802.125423</ele><time>2025-07-03T15:00:09Z</time><extensions><speed>1.010037</speed><course>208.621867</course><hAcc>1.455266</hAcc><vAcc>0.942864</vAcc></extensions></trkpt>
      <trkpt lon="-82.310605" lat="35.643282"><ele>802.001566</ele><time>2025-07-03T15:00:10Z</time><extensions><speed>1.026296</speed><course>205.035320</course><hAcc>1.437524</hAcc><vAcc>0.939231</vAcc></extensions></trkpt>
      <trkpt lon="-82.310609" lat="35.643274"><ele>801.873545</ele><time>2025-07-03T15:00:11Z</time><extensions><speed>1.034531</speed><course>201.569306</course><hAcc>1.432297</hAcc><vAcc>0.933604</vAcc></extensions></trkpt>
      <trkpt lon="-82.310613" lat="35.643265"><ele>801.744509</ele><time>2025-07-03T15:00:12Z</time><extensions><speed>0.955051</speed><course>199.476733</course><hAcc>1.428501</hAcc><vAcc>0.929945</vAcc></extensions></trkpt>
      <trkpt lon="-82.310616" lat="35.643258"><ele>801.612758</ele><time>2025-07-03T15:00:13Z</time><extensions><speed>0.820773</speed><course>199.842922</course><hAcc>1.424468</hAcc><vAcc>0.927302</vAcc></extensions></trkpt>
      <trkpt lon="-82.310619" lat="35.643251"><ele>801.488896</ele><time>2025-07-03T15:00:14Z</time><extensions><speed>0.725682</speed><course>199.621552</course><hAcc>1.410216</hAcc><vAcc>0.925631</vAcc></extensions></trkpt>
      <trkpt lon="-82.310622" lat="35.643245"><ele>801.360674</ele><time>2025-07-03T15:00:15Z</time><extensions><speed>0.763091</speed><course>199.522405</course><hAcc>1.410144</hAcc><vAcc>0.924448</vAcc></extensions></trkpt>
      <trkpt lon="-82.310625" lat="35.643238"><ele>801.235701</ele><time>2025-07-03T15:00:16Z</time><extensions><speed>0.938830</speed><course>198.929022</course><hAcc>1.431967</hAcc><vAcc>0.924033</vAcc></extensions></trkpt>
      <trkpt lon="-82.310628" lat="35.643230"><ele>801.115249</ele><time>2025-07-03T15:00:17Z</time><extensions><speed>0.930138</speed><course>199.979890</course><hAcc>1.439150</hAcc><vAcc>0.923983</vAcc></extensions></trkpt>
      <trkpt lon="-82.310632" lat="35.643222"><ele>801.001622</ele><time>2025-07-03T15:00:18Z</time><extensions><speed>0.854013</speed><course>203.879538</course><hAcc>1.429140</hAcc><vAcc>0.924318</vAcc></extensions></trkpt>
      <trkpt lon="-82.310636" lat="35.643216"><ele>800.885537</ele><time>2025-07-03T15:00:19Z</time><extensions><speed>0.788489</speed><course>210.333177</course><hAcc>1.410784</hAcc><vAcc>0.924354</vAcc></extensions></trkpt>
      <trkpt lon="-82.310641" lat="35.643210"><ele>800.780709</ele><time>2025-07-03T15:00:20Z</time><extensions><speed>0.758504</speed><course>214.985897</course><hAcc>1.417536</hAcc><vAcc>0.925303</vAcc></extensions></trkpt>
      <trkpt lon="-82.310646" lat="35.643204"><ele>800.682474</ele><time>2025-07-03T15:00:21Z</time><extensions><speed>0.821347</speed><course>214.204642</course><hAcc>1.443360</hAcc><vAcc>0.926036</vAcc></extensions></trkpt>
      <trkpt lon="-82.310651" lat="35.643197"><ele>800.603009</ele><time>2025-07-03T15:00:22Z</time><extensions><speed>0.890902</speed><course>211.705619</course><hAcc>1.483590</hAcc><vAcc>0.927863</vAcc></extensions></trkpt>
      <trkpt lon="-82.310656" lat="35.643190"><ele>800.545597</ele><time>2025-07-03T15:00:23Z</time><extensions><speed>0.903333</speed><course>208.654966</course><hAcc>1.512918</hAcc><vAcc>0.929123</vAcc></extensions></trkpt>
      <trkpt lon="-82.310661" lat="35.643183"><ele>800.487529</ele><time>2025-07-03T15:00:24Z</time><extensions><speed>0.867322</speed><course>208.838258</course><hAcc>1.522713</hAcc><vAcc>0.930171</vAcc></extensions></trkpt>
      <trkpt lon="-82.310665" lat="35.643177"><ele>800.431050</ele><time>2025-07-03T15:00:25Z</time><extensions><speed>0.801805</speed><course>207.936568</course><hAcc>1.526276</hAcc><vAcc>0.929647</vAcc></extensions></trkpt>
      <trkpt lon="-82.310669" lat="35.643170"><ele>800.393202</ele><time>2025-07-03T15:00:26Z</time><extensions><speed>0.799256</speed><course>205.827518</course><hAcc>1.525355</hAcc><vAcc>0.928051</vAcc></extensions></trkpt>
      <trkpt lon="-82.310673" lat="35.643164"><ele>800.343469</ele><time>2025-07-03T15:00:27Z</time><extensions><speed>0.837371</speed><course>202.422234</course><hAcc>1.525280</hAcc><vAcc>0.926607</vAcc></extensions></trkpt>
      <trkpt lon="-82.310676" lat="35.643157"><ele>800.282285</ele><time>2025-07-03T15:00:28Z</time><extensions><speed>0.828383</speed><course>199.204012</course><hAcc>1.520751</hAcc><vAcc>0.924183</vAcc></extensions></trkpt>
      <trkpt lon="-82.310678" lat="35.643150"><ele>800.237987</ele><time>2025-07-03T15:00:29Z</time><extensions><speed>0.758209</speed><course>195.239606</course><hAcc>1.512818</hAcc><vAcc>0.921056</vAcc></extensions></trkpt>
      <trkpt lon="-82.310681" lat="35.643143"><ele>800.193348</ele><time>2025-07-03T15:00:30Z</time><extensions><speed>0.753076</speed><course>193.812441</course><hAcc>1.497559</hAcc><vAcc>0.917576</vAcc></extensions></trkpt>
      <trkpt lon="-82.310682" lat="35.643137"><ele>800.163838</ele><time>2025-07-03T15:00:31Z</time><extensions><speed>0.703776</speed><course>191.982930</course><hAcc>1.474728</hAcc><vAcc>0.914214</vAcc></extensions></trkpt>
      <trkpt lon="-82.310684" lat="35.643130"><ele>800.140633</ele><time>2025-07-03T15:00:32Z</time><extensions><speed>0.752734</speed><course>188.909537</course><hAcc>1.451285</hAcc><vAcc>0.910355</vAcc></extensions></trkpt>
      <trkpt lon="-82.310685" lat="35.643123"><ele>800.115288</ele><time>2025-07-03T15:00:33Z</time><extensions><speed>0.929521</speed><course>188.579558</course><hAcc>1.450412</hAcc><vAcc>0.906696</vAcc></extensions></trkpt>
      <trkpt lon="-82.310687" lat="35.643114"><ele>800.094827</ele><time>2025-07-03T15:00:34Z</time><extensions><speed>1.035320</speed><course>188.318472</course><hAcc>1.470684</hAcc><vAcc>0.903551</vAcc></extensions></trkpt>
      <trkpt lon="-82.310688" lat="35.643105"><ele>800.080545</ele><time>2025-07-03T15:00:35Z</time><extensions><speed>1.039761</speed><course>188.088161</course><hAcc>1.457871</hAcc><vAcc>0.900883</vAcc></extensions></trkpt>
      <trkpt lon="-82.310690" lat="35.643096"><ele>800.063356</ele><time>2025-07-03T15:00:36Z</time><extensions><speed>0.969981</speed><course>188.691068</course><hAcc>1.434680</hAcc><vAcc>0.898856</vAcc></extensions></trkpt>
      <trkpt lon="-82.310692" lat="35.643087"><ele>800.064559</ele><time>2025-07-03T15:00:37Z</time><extensions><speed>0.932748</speed><course>193.479585</course><hAcc>1.437519</hAcc><vAcc>0.897503</vAcc></extensions></trkpt>
      <trkpt lon="-82.310695" lat="35.643079"><ele>800.071955</ele><time>2025-07-03T15:00:38Z</time><extensions><speed>0.917279</speed><course>199.154694</course><hAcc>1.448195</hAcc><vAcc>0.897033</vAcc></extensions></trkpt>
      <trkpt lon="-82.310699" lat="35.643071"><ele>800.083852</ele><time>2025-07-03T15:00:39Z</time><extensions><speed>0.958755</speed><course>200.683056</course><hAcc>1.461046</hAcc><vAcc>0.896992</vAcc></extensions></trkpt>
      <trkpt lon="-82.310702" lat="35.643063"><ele>800.110843</ele><time>2025-07-03T15:00:40Z</time><extensions><speed>0.986235</speed><course>198.090177</course><hAcc>1.465391</hAcc><vAcc>0.897416</vAcc></extensions></trkpt>
      <trkpt lon="-82.310705" lat="35.643054"><ele>800.136288</ele><time>2025-07-03T15:00:41Z</time><extensions><speed>1.018129</speed><course>195.645787</course><hAcc>1.486879</hAcc><vAcc>0.898581</vAcc></extensions></trkpt>
      <trkpt lon="-82.310708" lat="35.643046"><ele>800.158875</ele><time>2025-07-03T15:00:42Z</time><extensions><speed>1.031934</speed><course>195.270830</course><hAcc>1.509535</hAcc><vAcc>0.899946</vAcc></extensions></trkpt>
      <trkpt lon="-82.310711" lat="35.643037"><ele>800.197690</ele><time>2025-07-03T15:00:42Z</time><extensions><speed>1.017443</speed><course>196.859707</course><hAcc>1.533011</hAcc><vAcc>0.902412</vAcc></extensions></trkpt>
      <trkpt lon="-82.310715" lat="35.643028"><ele>800.232155</ele><time>2025-07-03T15:00:43Z</time><extensions><speed>0.984414</speed><course>198.443969</course><hAcc>1.531012</hAcc><vAcc>0.906473</vAcc></extensions></trkpt>
      <trkpt lon="-82.310718" lat="35.643020"><ele>800.270181</ele><time>2025-07-03T15:00:44Z</time><extensions><speed>0.934754</speed><course>200.829369</course><hAcc>1.529446</hAcc><vAcc>0.910246</vAcc></extensions></trkpt>
      <trkpt lon="-82.310722" lat="35.643013"><ele>800.307876</ele><time>2025-07-03T15:00:45Z</time><extensions><speed>0.874105</speed><course>205.190156</course><hAcc>1.519047</hAcc><vAcc>0.915389</vAcc></extensions></trkpt>
      <trkpt lon="-82.310727" lat="35.643006"><ele>800.349882</ele><time>2025-07-03T15:00:47Z</time><extensions><speed>0.828516</speed><course>209.464930</course><hAcc>1.514422</hAcc><vAcc>0.920871</vAcc></extensions></trkpt>
      <trkpt lon="-82.310731" lat="35.643000"><ele>800.392401</ele><time>2025-07-03T15:00:48Z</time><extensions><speed>0.778522</speed><course>215.471166</course><hAcc>1.500542</hAcc><vAcc>0.927331</vAcc></extensions></trkpt>
      <trkpt lon="-82.310737" lat="35.642994"><ele>800.434241</ele><time>2025-07-03T15:00:49Z</time><extensions><speed>0.819704</speed><course>221.406774</course><hAcc>1.484047</hAcc><vAcc>0.934677</vAcc></extensions></trkpt>
      <trkpt lon="-82.310743" lat="35.642989"><ele>800.505668</ele><time>2025-07-03T15:00:50Z</time><extensions><speed>0.861567</speed><course>226.833782</course><hAcc>1.491306</hAcc><vAcc>0.942872</vAcc></extensions></trkpt>
      <trkpt lon="-82.310751" lat="35.642984"><ele>800.566089</ele><time>2025-07-03T15:00:51Z</time><extensions><speed>0.831651</speed><course>239.283997</course><hAcc>1.494354</hAcc><vAcc>0.952212</vAcc></extensions></trkpt>
      <trkpt lon="-82.310759" lat="35.642981"><ele>800.617463</ele><time>2025-07-03T15:00:52Z</time><extensions><speed>0.740137</speed><course>255.206074</course><hAcc>1.486045</hAcc><vAcc>0.961796</vAcc></extensions></trkpt>
      <trkpt lon="-82.310766" lat="35.642980"><ele>800.649259</ele><time>2025-07-03T15:00:53Z</time><extensions><speed>0.655923</speed><course>266.282962</course><hAcc>1.497879</hAcc><vAcc>0.971792</vAcc></extensions></trkpt>
      <trkpt lon="-82.310773" lat="35.642980"><ele>800.674087</ele><time>2025-07-03T15:00:54Z</time><extensions><speed>0.555918</speed><course>280.417114</course><hAcc>1.507141</hAcc><vAcc>0.982768</vAcc></extensions></trkpt>
      <trkpt lon="-82.310778" lat="35.642982"><ele>800.684566</ele><time>2025-07-03T15:00:55Z</time><extensions><speed>0.486030</speed><course>286.652255</course><hAcc>1.517181</hAcc><vAcc>0.993249</vAcc></extensions></trkpt>
      <trkpt lon="-82.310783" lat="35.642983"><ele>800.674697</ele><time>2025-07-03T15:00:56Z</time><extensions><speed>0.362181</speed><course>288.308476</course><hAcc>1.538074</hAcc><vAcc>1.002107</vAcc></extensions></trkpt>
      <trkpt lon="-82.310786" lat="35.642983"><ele>800.653997</ele><time>2025-07-03T15:00:57Z</time><extensions><speed>0.193597</speed><course>289.564861</course><hAcc>1.570442</hAcc><vAcc>1.010184</vAcc></extensions></trkpt>
      <trkpt lon="-82.310787" lat="35.642984"><ele>800.624783</ele><time>2025-07-03T15:00:58Z</time><extensions><speed>0.097472</speed><course>289.105824</course><hAcc>1.588472</hAcc><vAcc>1.017522</vAcc></extensions></trkpt>
      <trkpt lon="-82.310788" lat="35.642984"><ele>800.574483</ele><time>2025-07-03T15:00:59Z</time><extensions><speed>0.058535</speed><course>283.634812</course><hAcc>1.592430</hAcc><vAcc>1.023105</vAcc></extensions></trkpt>
      <trkpt lon="-82.310789" lat="35.642984"><ele>800.519896</ele><time>2025-07-03T15:01:00Z</time><extensions><speed>0.048542</speed><course>291.783992</course><hAcc>1.585293</hAcc><vAcc>1.028398</vAcc></extensions></trkpt>
      <trkpt lon="-82.310789" lat="35.642985"><ele>800.442499</ele><time>2025-07-03T15:01:01Z</time><extensions><speed>0.038138</speed><course>330.435805</course><hAcc>1.611279</hAcc><vAcc>1.032223</vAcc></extensions></trkpt>
      <trkpt lon="-82.310789" lat="35.642985"><ele>800.359247</ele><time>2025-07-03T15:01:02Z</time><extensions><speed>0.042559</speed><course>357.074109</course><hAcc>1.635700</hAcc><vAcc>1.034971</vAcc></extensions></trkpt>
      <trkpt lon="-82.310789" lat="35.642985"><ele>800.269946</ele><time>2025-07-03T15:01:03Z</time><extensions><speed>0.046822</speed><course>12.908820</course><hAcc>1.647876</hAcc><vAcc>1.036438</vAcc></extensions></trkpt>
      <trkpt lon="-82.310789" lat="35.642986"><ele>800.178292</ele><time>2025-07-03T15:01:04Z</time><extensions><speed>0.054086</speed><course>16.419811</course><hAcc>1.652836</hAcc><vAcc>1.036798</vAcc></extensions></trkpt>
      <trkpt lon="-82.310789" lat="35.642986"><ele>800.076064</ele><time>2025-07-03T15:01:05Z</time><extensions><speed>0.063411</speed><course>15.037232</course><hAcc>1.653548</hAcc><vAcc>1.035913</vAcc></extensions></trkpt>
      <trkpt lon="-82.310789" lat="35.642987"><ele>799.975724</ele><time>2025-07-03T15:01:06Z</time><extensions><speed>0.066684</speed><course>9.673925</course><hAcc>1.657336</hAcc><vAcc>1.035144</vAcc></extensions></trkpt>
      <trkpt lon="-82.310788" lat="35.642987"><ele>799.873672</ele><time>2025-07-03T15:01:07Z</time><extensions><speed>0.070651</speed><course>11.515832</course><hAcc>1.662037</hAcc><vAcc>1.032071</vAcc></extensions></trkpt>
      <trkpt lon="-82.310788" lat="35.642988"><ele>799.769173</ele><time>2025-07-03T15:01:08Z</time><extensions><speed>0.070130</speed><course>20.605220</course><hAcc>1.667581</hAcc><vAcc>1.028602</vAcc></extensions></trkpt>
      <trkpt lon="-82.310788" lat="35.642989"><ele>799.670076</ele><time>2025-07-03T15:01:09Z</time><extensions><speed>0.064098</speed><course>21.423004</course><hAcc>1.659347</hAcc><vAcc>1.027457</vAcc></extensions></trkpt>
      <trkpt lon="-82.310788" lat="35.642989"><ele>799.574614</ele><time>2025-07-03T15:01:10Z</time><extensions><speed>0.049734</speed><course>29.467226</course><hAcc>1.664403</hAcc><vAcc>1.025094</vAcc></extensions></trkpt>
      <trkpt lon="-82.310788" lat="35.642989"><ele>799.476926</ele><time>2025-07-03T15:01:11Z</time><extensions><speed>0.028784</speed><course>12.891060</course><hAcc>1.663592</hAcc><vAcc>1.020204</vAcc></extensions></trkpt>
      <trkpt lon="-82.310788" lat="35.642990"><ele>799.380080</ele><time>2025-07-03T15:01:12Z</time><extensions><speed>0.016068</speed><course>312.288714</course><hAcc>1.680463</hAcc><vAcc>1.017929</vAcc></extensions></trkpt>
      <trkpt lon="-82.310788" lat="35.642990"><ele>799.289640</ele><time>2025-07-03T15:01:13Z</time><extensions><speed>0.065733</speed><course>260.881319</course><hAcc>1.684249</hAcc><vAcc>1.016230</vAcc></extensions></trkpt>
      <trkpt lon="-82.310789" lat="35.642989"><ele>799.206681</ele><time>2025-07-03T15:01:14Z</time><extensions><speed>0.186693</speed><course>256.213951</course><hAcc>1.664963</hAcc><vAcc>1.013608</vAcc></extensions></trkpt>
      <trkpt lon="-82.310792" lat="35.642989"><ele>799.129439</ele><time>2025-07-03T15:01:15Z</time><extensions><speed>0.321762</speed><course>255.879878</course><hAcc>1.665007</hAcc><vAcc>1.012115</vAcc></extensions></trkpt>
      <trkpt lon="-82.310796" lat="35.642988"><ele>799.058387</ele><time>2025-07-03T15:01:16Z</time><extensions><speed>0.449788</speed><course>255.923985</course><hAcc>1.677049</hAcc><vAcc>1.010806</vAcc></extensions></trkpt>
      <trkpt lon="-82.310801" lat="35.642987"><ele>798.992721</ele><time>2025-07-03T15:01:17Z</time><extensions><speed>0.529194</speed><course>255.324289</course><hAcc>1.697875</hAcc><vAcc>1.011776</vAcc></extensions></trkpt>
      <trkpt lon="-82.310807" lat="35.642985"><ele>798.932608</ele><time>2025-07-03T15:01:18Z</time><extensions><speed>0.573183</speed><course>252.564322</course><hAcc>1.702775</hAcc><vAcc>1.014820</vAcc></extensions></trkpt>
      <trkpt lon="-82.310813" lat="35.642984"><ele>798.864560</ele><time>2025-07-03T15:01:19Z</time><extensions><speed>0.529560</speed><course>251.496256</course><hAcc>1.690249</hAcc><vAcc>1.020038</vAcc></extensions></trkpt>
      <trkpt lon="-82.310818" lat="35.642983"><ele>798.795784</ele><time>2025-07-03T15:01:20Z</time><extensions><speed>0.401797</speed><course>250.992634</course><hAcc>1.678628</hAcc><vAcc>1.026835</vAcc></extensions></trkpt>
      <trkpt lon="-82.310822" lat="35.642982"><ele>798.731300</ele><time>2025-07-03T15:01:21Z</time><extensions><speed>0.316805</speed><course>254.747806</course><hAcc>1.671861</hAcc><vAcc>1.035625</vAcc></extensions></trkpt>
      <trkpt lon="-82.310825" lat="35.642981"><ele>798.665036</ele><time>2025-07-03T15:01:22Z</time><extensions><speed>0.272834</speed><course>264.679468</course><hAcc>1.672981</hAcc><vAcc>1.044428</vAcc></extensions></trkpt>
      <trkpt lon="-82.310828" lat="35.642981"><ele>798.603179</ele><time>2025-07-03T15:01:23Z</time><extensions><speed>0.190182</speed><course>276.065714</course><hAcc>1.673564</hAcc><vAcc>1.055875</vAcc></extensions></trkpt>
      <trkpt lon="-82.310829" lat="35.642982"><ele>798.543802</ele><time>2025-07-03T15:01:24Z</time><extensions><speed>0.091325</speed><course>303.304332</course><hAcc>1.689106</hAcc><vAcc>1.068664</vAcc></extensions></trkpt>
      <trkpt lon="-82.310830" lat="35.642982"><ele>798.492612</ele><time>2025-07-03T15:01:25Z</time><extensions><speed>0.083665</speed><course>339.013381</course><hAcc>1.703170</hAcc><vAcc>1.081349</vAcc></extensions></trkpt>
      <trkpt lon="-82.310830" lat="35.642983"><ele>798.444718</ele><time>2025-07-03T15:01:26Z</time><extensions><speed>0.112604</speed><course>351.208105</course><hAcc>1.721881</hAcc><vAcc>1.094010</vAcc></extensions></trkpt>
      <trkpt lon="-82.310830" lat="35.642984"><ele>798.395499</ele><time>2025-07-03T15:01:27Z</time><extensions><speed>0.155213</speed><course>351.469536</course><hAcc>1.748499</hAcc><vAcc>1.107176</vAcc></extensions></trkpt>
      <trkpt lon="-82.310830" lat="35.642986"><ele>798.353947</ele><time>2025-07-03T15:01:28Z</time><extensions><speed>0.209419</speed><course>347.892908</course><hAcc>1.771746</hAcc><vAcc>1.122354</vAcc></extensions></trkpt>
      <trkpt lon="-82.310831" lat="35.642988"><ele>798.315214</ele><time>2025-07-03T15:01:29Z</time><extensions><speed>0.274282</speed><course>342.036148</course><hAcc>1.778646</hAcc><vAcc>1.138161</vAcc></extensions></trkpt>
      <trkpt lon="-82.310832" lat="35.642991"><ele>798.279675</ele><time>2025-07-03T15:01:30Z</time><extensions><speed>0.292031</speed><course>341.313507</course><hAcc>1.784487</hAcc><vAcc>1.153706</vAcc></extensions></trkpt>
      <trkpt lon="-82.310833" lat="35.642993"><ele>798.254618</ele><time>2025-07-03T15:01:31Z</time><extensions><speed>0.275889</speed><course>343.821870</course><hAcc>1.785668</hAcc><vAcc>1.167763</vAcc></extensions></trkpt>
      <trkpt lon="-82.310834" lat="35.642995"><ele>798.236394</ele><time>2025-07-03T15:01:32Z</time><extensions><speed>0.235241</speed><course>348.103430</course><hAcc>1.792574</hAcc><vAcc>1.179407</vAcc></extensions></trkpt>
      <trkpt lon="-82.310834" lat="35.642997"><ele>798.220359</ele><time>2025-07-03T15:01:33Z</time><extensions><speed>0.177298</speed><course>357.745494</course><hAcc>1.812436</hAcc><vAcc>1.192181</vAcc></extensions></trkpt>
      <trkpt lon="-82.310834" lat="35.642999"><ele>798.207877</ele><time>2025-07-03T15:01:34Z</time><extensions><speed>0.166212</speed><course>0.329736</course><hAcc>1.807924</hAcc><vAcc>1.204629</vAcc></extensions></trkpt>
      <trkpt lon="-82.310834" lat="35.643000"><ele>798.207739</ele><time>2025-07-03T15:01:35Z</time><extensions><speed>0.186551</speed><course>356.368716</course><hAcc>1.784046</hAcc><vAcc>1.213189</vAcc></extensions></trkpt>
      <trkpt lon="-82.310834" lat="35.643002"><ele>798.206347</ele><time>2025-07-03T15:01:36Z</time><extensions><speed>0.174645</speed><course>354.964839</course><hAcc>1.784933</hAcc><vAcc>1.220004</vAcc></extensions></trkpt>
      <trkpt lon="-82.310835" lat="35.643003"><ele>798.212207</ele><time>2025-07-03T15:01:37Z</time><extensions><speed>0.164550</speed><course>347.137934</course><hAcc>1.796499</hAcc><vAcc>1.225068</vAcc></extensions></trkpt>
      <trkpt lon="-82.310835" lat="35.643005"><ele>798.232137</ele><time>2025-07-03T15:01:38Z</time><extensions><speed>0.121975</speed><course>350.505081</course><hAcc>1.828310</hAcc><vAcc>1.230444</vAcc></extensions></trkpt>
      <trkpt lon="-82.310835" lat="35.643006"><ele>798.252954</ele><time>2025-07-03T15:01:39Z</time><extensions><speed>0.094728</speed><course>349.203875</course><hAcc>1.850028</hAcc><vAcc>1.237112</vAcc></extensions></trkpt>
      <trkpt lon="-82.310835" lat="35.643006"><ele>798.277138</ele><time>2025-07-03T15:01:40Z</time><extensions><speed>0.072660</speed><course>344.030647</course><hAcc>1.867174</hAcc><vAcc>1.241978</vAcc></extensions></trkpt>
      <trkpt lon="-82.310836" lat="35.643007"><ele>798.303709</ele><time>2025-07-03T15:01:41Z</time><extensions><speed>0.056231</speed><course>335.329672</course><hAcc>1.873651</hAcc><vAcc>1.245501</vAcc></extensions></trkpt>
      <trkpt lon="-82.310836" lat="35.643007"><ele>798.362290</ele><time>2025-07-03T15:01:42Z</time><extensions><speed>0.041347</speed><course>315.317524</course><hAcc>1.872608</hAcc><vAcc>1.247289</vAcc></extensions></trkpt>
      <trkpt lon="-82.310836" lat="35.643007"><ele>798.427330</ele><time>2025-07-03T15:01:43Z</time><extensions><speed>0.029626</speed><course>270.313857</course><hAcc>1.891722</hAcc><vAcc>1.249399</vAcc></extensions></trkpt>
      <trkpt lon="-82.310837" lat="35.643007"><ele>798.494716</ele><time>2025-07-03T15:01:44Z</time><extensions><speed>0.046160</speed><course>228.883849</course><hAcc>1.907177</hAcc><vAcc>1.252699</vAcc></extensions></trkpt>
      <trkpt lon="-82.310837" lat="35.643006"><ele>798.566648</ele><time>2025-07-03T15:01:45Z</time><extensions><speed>0.082996</speed><course>215.625188</course><hAcc>1.892899</hAcc><vAcc>1.255507</vAcc></extensions></trkpt>
      <trkpt lon="-82.310838" lat="35.643006"><ele>798.640904</ele><time>2025-07-03T15:01:46Z</time><extensions><speed>0.130373</speed><course>213.288106</course><hAcc>1.863301</hAcc><vAcc>1.258720</vAcc></extensions></trkpt>
      <trkpt lon="-82.310839" lat="35.643004"><ele>798.717001</ele><time>2025-07-03T15:01:47Z</time><extensions><speed>0.145534</speed><course>212.499665</course><hAcc>1.867469</hAcc><vAcc>1.261449</vAcc></extensions></trkpt>
      <trkpt lon="-82.310839" lat="35.643003"><ele>798.793895</ele><time>2025-07-03T15:01:48Z</time><extensions><speed>0.113466</speed><course>197.891960</course><hAcc>1.892242</hAcc><vAcc>1.264080</vAcc></extensions></trkpt>
      <trkpt lon="-82.310840" lat="35.643002"><ele>798.840052</ele><time>2025-07-03T15:01:49Z</time><extensions><speed>0.111262</speed><course>190.108465</course><hAcc>1.898585</hAcc><vAcc>1.266176</vAcc></extensions></trkpt>
      <trkpt lon="-82.310840" lat="35.643001"><ele>798.874496</ele><time>2025-07-03T15:01:50Z</time><extensions><speed>0.105092</speed><course>188.020653</course><hAcc>1.913310</hAcc><vAcc>1.269468</vAcc></extensions></trkpt>
      <trkpt lon="-82.310840" lat="35.643000"><ele>798.914657</ele><time>2025-07-03T15:01:51Z</time><extensions><speed>0.119830</speed><course>189.691343</course><hAcc>1.914170</hAcc><vAcc>1.274743</vAcc></extensions></trkpt>
      <trkpt lon="-82.310840" lat="35.642999"><ele>798.933344</ele><time>2025-07-03T15:01:52Z</time><extensions><speed>0.154651</speed><course>194.919382</course><hAcc>1.894158</hAcc><vAcc>1.282004</vAcc></extensions></trkpt>
      <trkpt lon="-82.310841" lat="35.642998"><ele>798.942755</ele><time>2025-07-03T15:01:53Z</time><extensions><speed>0.158976</speed><course>203.960237</course><hAcc>1.897485</hAcc><vAcc>1.289814</vAcc></extensions></trkpt>
      <trkpt lon="-82.310841" lat="35.642996"><ele>798.903104</ele><time>2025-07-03T15:01:54Z</time><extensions><speed>0.126864</speed><course>205.783712</course><hAcc>1.928346</hAcc><vAcc>1.291055</vAcc></extensions></trkpt>
      <trkpt lon="-82.310842" lat="35.642995"><ele>798.855720</ele><time>2025-07-03T15:01:55Z</time><extensions><speed>0.123440</speed><course>213.191548</course><hAcc>1.946720</hAcc><vAcc>1.293957</vAcc></extensions></trkpt>
      <trkpt lon="-82.310843" lat="35.642995"><ele>798.815079</ele><time>2025-07-03T15:01:56Z</time><extensions><speed>0.096803</speed><course>203.653981</course><hAcc>1.971909</hAcc><vAcc>1.301302</vAcc></extensions></trkpt>
      <trkpt lon="-82.310843" lat="35.642994"><ele>798.767844</ele><time>2025-07-03T15:01:57Z</time><extensions><speed>0.091806</speed><course>201.395386</course><hAcc>1.991364</hAcc><vAcc>1.308060</vAcc></extensions></trkpt>
      <trkpt lon="-82.310844" lat="35.642993"><ele>798.705879</ele><time>2025-07-03T15:01:58Z</time><extensions><speed>0.107031</speed><course>211.278352</course><hAcc>2.003427</hAcc><vAcc>1.314766</vAcc></extensions></trkpt>
      <trkpt lon="-82.310845" lat="35.642992"><ele>798.540861</ele><time>2025-07-03T15:01:59Z</time><extensions><speed>0.161088</speed><course>229.090983</course><hAcc>2.009518</hAcc><vAcc>1.319138</vAcc></extensions></trkpt>
      <trkpt lon="-82.310847" lat="35.642991"><ele>798.329255</ele><time>2025-07-03T15:02:00Z</time><extensions><speed>0.266898</speed><course>243.604351</course><hAcc>2.022247</hAcc><vAcc>1.320287</vAcc></extensions></trkpt>
      <trkpt lon="-82.310850" lat="35.642990"><ele>798.083098</ele><time>2025-07-03T15:02:01Z</time><extensions><speed>0.395731</speed><course>252.641614</course><hAcc>2.046319</hAcc><vAcc>1.317821</vAcc></extensions></trkpt>
      <trkpt lon="-82.310854" lat="35.642989"><ele>797.809676</ele><time>2025-07-03T15:02:02Z</time><extensions><speed>0.385287</speed><course>243.782481</course><hAcc>2.060211</hAcc><vAcc>1.312249</vAcc></extensions></trkpt>
      <trkpt lon="-82.310857" lat="35.642987"><ele>797.476713</ele><time>2025-07-03T15:02:03Z</time><extensions><speed>0.344907</speed><course>237.705360</course><hAcc>2.058412</hAcc><vAcc>1.299894</vAcc></extensions></trkpt>
      <trkpt lon="-82.310860" lat="35.642986"><ele>797.176987</ele><time>2025-07-03T15:02:04Z</time><extensions><speed>0.293027</speed><course>238.026035</course><hAcc>2.057455</hAcc><vAcc>1.289478</vAcc></extensions></trkpt>
      <trkpt lon="-82.310863" lat="35.642984"><ele>796.879463</ele><time>2025-07-03T15:02:05Z</time><extensions><speed>0.291995</speed><course>244.867451</course><hAcc>2.056691</hAcc><vAcc>1.281888</vAcc></extensions></trkpt>
      <trkpt lon="-82.310867" lat="35.642983"><ele>796.575159</ele><time>2025-07-03T15:02:06Z</time><extensions><speed>0.373769</speed><course>252.391242</course><hAcc>2.052469</hAcc><vAcc>1.272563</vAcc></extensions></trkpt>
      <trkpt lon="-82.310871" lat="35.642982"><ele>796.285307</ele><time>2025-07-03T15:02:07Z</time><extensions><speed>0.461097</speed><course>258.766887</course><hAcc>2.054093</hAcc><vAcc>1.263658</vAcc></extensions></trkpt>
      <trkpt lon="-82.310877" lat="35.642981"><ele>796.012949</ele><time>2025-07-03T15:02:08Z</time><extensions><speed>0.499430</speed><course>260.537119</course><hAcc>2.031336</hAcc><vAcc>1.253097</vAcc></extensions></trkpt>
      <trkpt lon="-82.310882" lat="35.642981"><ele>795.738852</ele><time>2025-07-03T15:02:09Z</time><extensions><speed>0.468750</speed><course>262.174428</course><hAcc>1.997365</hAcc><vAcc>1.243704</vAcc></extensions></trkpt>
      <trkpt lon="-82.310887" lat="35.642980"><ele>795.476617</ele><time>2025-07-03T15:02:10Z</time><extensions><speed>0.425949</speed><course>264.928961</course><hAcc>1.958849</hAcc><vAcc>1.234527</vAcc></extensions></trkpt>
      <trkpt lon="-82.310892" lat="35.642980"><ele>795.236714</ele><time>2025-07-03T15:02:11Z</time><extensions><speed>0.427931</speed><course>266.280435</course><hAcc>1.913449</hAcc><vAcc>1.225264</vAcc></extensions></trkpt>
      <trkpt lon="-82.310897" lat="35.642980"><ele>795.019177</ele><time>2025-07-03T15:02:12Z</time><extensions><speed>0.543055</speed><course>264.174967</course><hAcc>1.861354</hAcc><vAcc>1.212053</vAcc></extensions></trkpt>
      <trkpt lon="-82.310904" lat="35.642979"><ele>794.853232</ele><time>2025-07-03T15:02:13Z</time><extensions><speed>0.761333</speed><course>261.638596</course><hAcc>1.833418</hAcc><vAcc>1.198172</vAcc></extensions></trkpt>
      <trkpt lon="-82.310914" lat="35.642978"><ele>794.744193</ele><time>2025-07-03T15:02:14Z</time><extensions><speed>0.948173</speed><course>257.894636</course><hAcc>1.838189</hAcc><vAcc>1.179857</vAcc></extensions></trkpt>
      <trkpt lon="-82.310924" lat="35.642975"><ele>794.673476</ele><time>2025-07-03T15:02:15Z</time><extensions><speed>1.076486</speed><course>252.667746</course><hAcc>1.826433</hAcc><vAcc>1.162610</vAcc></extensions></trkpt>
      <trkpt lon="-82.310936" lat="35.642972"><ele>794.632228</ele><time>2025-07-03T15:02:16Z</time><extensions><speed>1.047390</speed><course>252.309906</course><hAcc>1.799196</hAcc><vAcc>1.148389</vAcc></extensions></trkpt>
      <trkpt lon="-82.310946" lat="35.642970"><ele>794.615658</ele><time>2025-07-03T15:02:17Z</time><extensions><speed>0.931847</speed><course>253.805437</course><hAcc>1.771040</hAcc><vAcc>1.135997</vAcc></extensions></trkpt>
      <trkpt lon="-82.310956" lat="35.642968"><ele>794.648130</ele><time>2025-07-03T15:02:18Z</time><extensions><speed>0.853212</speed><course>260.250392</course><hAcc>1.771707</hAcc><vAcc>1.122587</vAcc></extensions></trkpt>
      <trkpt lon="-82.310964" lat="35.642967"><ele>794.741192</ele><time>2025-07-03T15:02:19Z</time><extensions><speed>0.731425</speed><course>266.628560</course><hAcc>1.794580</hAcc><vAcc>1.107774</vAcc></extensions></trkpt>
      <trkpt lon="-82.310972" lat="35.642967"><ele>794.869105</ele><time>2025-07-03T15:02:20Z</time><extensions><speed>0.701301</speed><course>266.187845</course><hAcc>1.788028</hAcc><vAcc>1.092362</vAcc></extensions></trkpt>
      <trkpt lon="-82.310980" lat="35.642966"><ele>795.016906</ele><time>2025-07-03T15:02:21Z</time><extensions><speed>0.627864</speed><course>263.471946</course><hAcc>1.787889</hAcc><vAcc>1.077645</vAcc></extensions></trkpt>
      <trkpt lon="-82.310987" lat="35.642965"><ele>795.179079</ele><time>2025-07-03T15:02:22Z</time><extensions><speed>0.643813</speed><course>259.557214</course><hAcc>1.818741</hAcc><vAcc>1.064118</vAcc></extensions></trkpt>
      <trkpt lon="-82.310993" lat="35.642964"><ele>795.368640</ele><time>2025-07-03T15:02:23Z</time><extensions><speed>0.576246</speed><course>258.182813</course><hAcc>1.859787</hAcc><vAcc>1.049633</vAcc></extensions></trkpt>
      <trkpt lon="-82.310999" lat="35.642963"><ele>795.577265</ele><time>2025-07-03T15:02:24Z</time><extensions><speed>0.526250</speed><course>256.527826</course><hAcc>1.872451</hAcc><vAcc>1.034364</vAcc></extensions></trkpt>
      <trkpt lon="-82.311005" lat="35.642962"><ele>795.813943</ele><time>2025-07-03T15:02:25Z</time><extensions><speed>0.517095</speed><course>253.776727</course><hAcc>1.891362</hAcc><vAcc>1.016725</vAcc></extensions></trkpt>
      <trkpt lon="-82.311010" lat="35.642960"><ele>796.053672</ele><time>2025-07-03T15:02:26Z</time><extensions><speed>0.522084</speed><course>250.859310</course><hAcc>1.919566</hAcc><vAcc>0.998364</vAcc></extensions></trkpt>
      <trkpt lon="-82.311015" lat="35.642959"><ele>796.293802</ele><time>2025-07-03T15:02:27Z</time><extensions><speed>0.430645</speed><course>246.633142</course><hAcc>1.936328</hAcc><vAcc>0.984278</vAcc></extensions></trkpt>
      <trkpt lon="-82.311019" lat="35.642957"><ele>796.535738</ele><time>2025-07-03T15:02:28Z</time><extensions><speed>0.335584</speed><course>241.772949</course><hAcc>1.943587</hAcc><vAcc>0.971573</vAcc></extensions></trkpt>
      <trkpt lon="-82.311022" lat="35.642956"><ele>796.772121</ele><time>2025-07-03T15:02:29Z</time><extensions><speed>0.319905</speed><course>241.469416</course><hAcc>1.947523</hAcc><vAcc>0.959345</vAcc></extensions></trkpt>
      <trkpt lon="-82.311025" lat="35.642955"><ele>796.985968</ele><time>2025-07-03T15:02:30Z</time><extensions><speed>0.310740</speed><course>244.956797</course><hAcc>1.957183</hAcc><vAcc>0.943975</vAcc></extensions></trkpt>
      <trkpt lon="-82.311028" lat="35.642954"><ele>797.177146</ele><time>2025-07-03T15:02:31Z</time><extensions><speed>0.276379</speed><course>251.259358</course><hAcc>1.978508</hAcc><vAcc>0.930184</vAcc></extensions></trkpt>
      <trkpt lon="-82.311030" lat="35.642953"><ele>797.347434</ele><time>2025-07-03T15:02:32Z</time><extensions><speed>0.203226</speed><course>259.186795</course><hAcc>2.013089</hAcc><vAcc>0.915624</vAcc></extensions></trkpt>
      <trkpt lon="-82.311032" lat="35.642953"><ele>797.509637</ele><time>2025-07-03T15:02:33Z</time><extensions><speed>0.112848</speed><course>267.005846</course><hAcc>2.062527</hAcc><vAcc>0.901330</vAcc></extensions></trkpt>
      <trkpt lon="-82.311033" lat="35.642953"><ele>797.663624</ele><time>2025-07-03T15:02:34Z</time><extensions><speed>0.081367</speed><course>254.810563</course><hAcc>2.127928</hAcc><vAcc>0.887401</vAcc></extensions></trkpt>
      <trkpt lon="-82.311033" lat="35.642952"><ele>797.799933</ele><time>2025-07-03T15:02:35Z</time><extensions><speed>0.049275</speed><course>146.623774</course><hAcc>2.214767</hAcc><vAcc>0.874015</vAcc></extensions></trkpt>
      <trkpt lon="-82.311032" lat="35.642952"><ele>797.917512</ele><time>2025-07-03T15:02:36Z</time><extensions><speed>0.147798</speed><course>113.950579</course><hAcc>2.321030</hAcc><vAcc>0.861315</vAcc></extensions></trkpt>
      <trkpt lon="-82.311029" lat="35.642951"><ele>798.026364</ele><time>2025-07-03T15:02:37Z</time><extensions><speed>0.287045</speed><course>101.905751</course><hAcc>2.447294</hAcc><vAcc>0.849259</vAcc></extensions></trkpt>
      <trkpt lon="-82.311025" lat="35.642951"><ele>798.118298</ele><time>2025-07-03T15:02:38Z</time><extensions><speed>0.417677</speed><course>99.314686</course><hAcc>2.573007</hAcc><vAcc>0.837638</vAcc></extensions></trkpt>
      <trkpt lon="-82.311020" lat="35.642950"><ele>798.196725</ele><time>2025-07-03T15:02:39Z</time><extensions><speed>0.516835</speed><course>101.905359</course><hAcc>2.689640</hAcc><vAcc>0.826308</vAcc></extensions></trkpt>
      <trkpt lon="-82.311014" lat="35.642948"><ele>798.264632</ele><time>2025-07-03T15:02:40Z</time><extensions><speed>0.586563</speed><course>107.852941</course><hAcc>2.805982</hAcc><vAcc>0.815365</vAcc></extensions></trkpt>
      <trkpt lon="-82.311007" lat="35.642946"><ele>798.322146</ele><time>2025-07-03T15:02:41Z</time><extensions><speed>0.593289</speed><course>116.312598</course><hAcc>2.934079</hAcc><vAcc>0.805071</vAcc></extensions></trkpt>
      <trkpt lon="-82.311002" lat="35.642943"><ele>798.376622</ele><time>2025-07-03T15:02:42Z</time><extensions><speed>0.590858</speed><course>126.047858</course><hAcc>3.061531</hAcc><vAcc>0.795679</vAcc></extensions></trkpt>
      <trkpt lon="-82.310997" lat="35.642940"><ele>798.423263</ele><time>2025-07-03T15:02:43Z</time><extensions><speed>0.593923</speed><course>137.104444</course><hAcc>3.188158</hAcc><vAcc>0.787389</vAcc></extensions></trkpt>
      <trkpt lon="-82.310992" lat="35.642935"><ele>798.467830</ele><time>2025-07-03T15:02:44Z</time><extensions><speed>0.610750</speed><course>148.118108</course><hAcc>3.324258</hAcc><vAcc>0.780310</vAcc></extensions></trkpt>
      <trkpt lon="-82.310989" lat="35.642931"><ele>798.507055</ele><time>2025-07-03T15:02:45Z</time><extensions><speed>0.602676</speed><course>159.462623</course><hAcc>3.477843</hAcc><vAcc>0.774451</vAcc></extensions></trkpt>
      <trkpt lon="-82.310988" lat="35.642926"><ele>798.545527</ele><time>2025-07-03T15:02:46Z</time><extensions><speed>0.593126</speed><course>172.383592</course><hAcc>3.642464</hAcc><vAcc>0.769743</vAcc></extensions></trkpt>
      <trkpt lon="-82.310988" lat="35.642925"><ele>798.584078</ele><time>2025-07-03T15:02:47Z</time><extensions><speed>0.461609</speed><course>181.186848</course><hAcc>3.804261</hAcc><vAcc>0.766066</vAcc></extensions></trkpt>
      <trkpt lon="-82.310990" lat="35.642923"><ele>798.623723</ele><time>2025-07-03T15:02:48Z</time><extensions><speed>0.345977</speed><course>199.482076</course><hAcc>3.971141</hAcc><vAcc>0.763272</vAcc></extensions></trkpt>
      <trkpt lon="-82.310993" lat="35.642923"><ele>798.666555</ele><time>2025-07-03T15:02:49Z</time><extensions><speed>0.240158</speed><course>237.508047</course><hAcc>4.137469</hAcc><vAcc>0.761208</vAcc></extensions></trkpt>
      <trkpt lon="-82.310998" lat="35.642924"><ele>798.711128</ele><time>2025-07-03T15:02:50Z</time><extensions><speed>0.373571</speed><course>292.837878</course><hAcc>4.277685</hAcc><vAcc>0.759726</vAcc></extensions></trkpt>
      <trkpt lon="-82.311005" lat="35.642928"><ele>798.759979</ele><time>2025-07-03T15:02:51Z</time><extensions><speed>0.662215</speed><course>313.186030</course><hAcc>4.370089</hAcc><vAcc>0.758692</vAcc></extensions></trkpt>
      <trkpt lon="-82.311011" lat="35.642934"><ele>798.813484</ele><time>2025-07-03T15:02:52Z</time><extensions><speed>0.958904</speed><course>319.988516</course><hAcc>4.406559</hAcc><vAcc>0.757994</vAcc></extensions></trkpt>
      <trkpt lon="-82.311019" lat="35.642942"><ele>798.872768</ele><time>2025-07-03T15:02:53Z</time><extensions><speed>1.213614</speed><course>321.392013</course><hAcc>4.372083</hAcc><vAcc>0.757537</vAcc></extensions></trkpt>
      <trkpt lon="-82.311029" lat="35.642951"><ele>798.937255</ele><time>2025-07-03T15:02:54Z</time><extensions><speed>1.396494</speed><course>320.792806</course><hAcc>4.266348</hAcc><vAcc>0.757246</vAcc></extensions></trkpt>
      <trkpt lon="-82.311039" lat="35.642961"><ele>799.007357</ele><time>2025-07-03T15:02:55Z</time><extensions><speed>1.455236</speed><course>318.084394</course><hAcc>4.107225</hAcc><vAcc>0.757069</vAcc></extensions></trkpt>
      <trkpt lon="-82.311050" lat="35.642970"><ele>799.082157</ele><time>2025-07-03T15:02:56Z</time><extensions><speed>1.322317</speed><course>314.756822</course><hAcc>3.918285</hAcc><vAcc>0.756967</vAcc></extensions></trkpt>
      <trkpt lon="-82.311061" lat="35.642978"><ele>799.159707</ele><time>2025-07-03T15:02:57Z</time><extensions><speed>1.259236</speed><course>306.765115</course><hAcc>3.703950</hAcc><vAcc>0.756910</vAcc></extensions></trkpt>
      <trkpt lon="-82.311072" lat="35.642984"><ele>799.241096</ele><time>2025-07-03T15:02:58Z</time><extensions><speed>1.196039</speed><course>299.657736</course><hAcc>3.485151</hAcc><vAcc>0.756879</vAcc></extensions></trkpt>
      <trkpt lon="-82.311083" lat="35.642989"><ele>799.328103</ele><time>2025-07-03T15:02:59Z</time><extensions><speed>1.112838</speed><course>295.741558</course><hAcc>3.295001</hAcc><vAcc>0.756862</vAcc></extensions></trkpt>
      <trkpt lon="-82.311092" lat="35.642992"><ele>799.419888</ele><time>2025-07-03T15:03:00Z</time><extensions><speed>0.873131</speed><course>293.292343</course><hAcc>3.175041</hAcc><vAcc>0.756851</vAcc></extensions></trkpt>
      <trkpt lon="-82.311099" lat="35.642995"><ele>799.512721</ele><time>2025-07-03T15:03:01Z</time><extensions><speed>0.559538</speed><course>292.942107</course><hAcc>3.124298</hAcc><vAcc>0.756842</vAcc></extensions></trkpt>
      <trkpt lon="-82.311103" lat="35.642996"><ele>799.605496</ele><time>2025-07-03T15:03:02Z</time><extensions><speed>0.400116</speed><course>286.301805</course><hAcc>3.093928</hAcc><vAcc>0.756833</vAcc></extensions></trkpt>
      <trkpt lon="-82.311106" lat="35.642997"><ele>799.697038</ele><time>2025-07-03T15:03:03Z</time><extensions><speed>0.246542</speed><course>276.980089</course><hAcc>3.090984</hAcc><vAcc>0.756824</vAcc></extensions></trkpt>
      <trkpt lon="-82.311108" lat="35.642997"><ele>799.786225</ele><time>2025-07-03T15:03:04Z</time><extensions><speed>0.097708</speed><course>249.305585</course><hAcc>3.117361</hAcc><vAcc>0.756814</vAcc></extensions></trkpt>
      <trkpt lon="-82.311107" lat="35.642996"><ele>799.872051</ele><time>2025-07-03T15:03:05Z</time><extensions><speed>0.108410</speed><course>139.696044</course><hAcc>3.153959</hAcc><vAcc>0.756803</vAcc></extensions></trkpt>
      <trkpt lon="-82.311105" lat="35.642996"><ele>799.953809</ele><time>2025-07-03T15:03:06Z</time><extensions><speed>0.277658</speed><course>110.072525</course><hAcc>3.172625</hAcc><vAcc>0.756979</vAcc></extensions></trkpt>
      <trkpt lon="-82.311101" lat="35.642995"><ele>800.031370</ele><time>2025-07-03T15:03:07Z</time><extensions><speed>0.437656</speed><course>102.705987</course><hAcc>3.143573</hAcc><vAcc>0.758052</vAcc></extensions></trkpt>
      <trkpt lon="-82.311096" lat="35.642994"><ele>800.103879</ele><time>2025-07-03T15:03:08Z</time><extensions><speed>0.560507</speed><course>102.017682</course><hAcc>3.052619</hAcc><vAcc>0.760136</vAcc></extensions></trkpt>
      <trkpt lon="-82.311089" lat="35.642993"><ele>800.170404</ele><time>2025-07-03T15:03:09Z</time><extensions><speed>0.629435</speed><course>102.215759</course><hAcc>2.935677</hAcc><vAcc>0.763143</vAcc></extensions></trkpt>
      <trkpt lon="-82.311083" lat="35.642991"><ele>800.230189</ele><time>2025-07-03T15:03:10Z</time><extensions><speed>0.580917</speed><course>102.283994</course><hAcc>2.842520</hAcc><vAcc>0.766801</vAcc></extensions></trkpt>
      <trkpt lon="-82.311077" lat="35.642990"><ele>800.283194</ele><time>2025-07-03T15:03:11Z</time><extensions><speed>0.488531</speed><course>99.727506</course><hAcc>2.783827</hAcc><vAcc>0.771191</vAcc></extensions></trkpt>
      <trkpt lon="-82.311072" lat="35.642990"><ele>800.329343</ele><time>2025-07-03T15:03:12Z</time><extensions><speed>0.379239</speed><course>98.131493</course><hAcc>2.747394</hAcc><vAcc>0.776044</vAcc></extensions></trkpt>
      <trkpt lon="-82.311068" lat="35.642989"><ele>800.369779</ele><time>2025-07-03T15:03:13Z</time><extensions><speed>0.282370</speed><course>97.054277</course><hAcc>2.730918</hAcc><vAcc>0.782584</vAcc></extensions></trkpt>
      <trkpt lon="-82.311066" lat="35.642990"><ele>800.438924</ele><time>2025-07-03T15:03:14Z</time><extensions><speed>0.194919</speed><course>93.641902</course><hAcc>2.741240</hAcc><vAcc>0.790152</vAcc></extensions></trkpt>
      <trkpt lon="-82.311064" lat="35.642990"><ele>800.482126</ele><time>2025-07-03T15:03:15Z</time><extensions><speed>0.123119</speed><course>91.293811</course><hAcc>2.798091</hAcc><vAcc>0.806254</vAcc></extensions></trkpt>
      <trkpt lon="-82.311063" lat="35.642990"><ele>800.523067</ele><time>2025-07-03T15:03:16Z</time><extensions><speed>0.080399</speed><course>87.566452</course><hAcc>2.865572</hAcc><vAcc>0.828078</vAcc></extensions></trkpt>
      <trkpt lon="-82.311062" lat="35.642990"><ele>800.562379</ele><time>2025-07-03T15:03:17Z</time><extensions><speed>0.051908</speed><course>81.084909</course><hAcc>2.937747</hAcc><vAcc>0.857462</vAcc></extensions></trkpt>
      <trkpt lon="-82.311062" lat="35.642990"><ele>800.600650</ele><time>2025-07-03T15:03:18Z</time><extensions><speed>0.038868</speed><course>69.195854</course><hAcc>2.996579</hAcc><vAcc>0.896648</vAcc></extensions></trkpt>
      <trkpt lon="-82.311061" lat="35.642990"><ele>800.638406</ele><time>2025-07-03T15:03:19Z</time><extensions><speed>0.039250</speed><course>51.671389</course><hAcc>3.051961</hAcc><vAcc>0.948309</vAcc></extensions></trkpt>
      <trkpt lon="-82.311061" lat="35.642990"><ele>800.676087</ele><time>2025-07-03T15:03:20Z</time><extensions><speed>0.038269</speed><course>29.585947</course><hAcc>3.165720</hAcc><vAcc>1.015434</vAcc></extensions></trkpt>
      <trkpt lon="-82.311061" lat="35.642991"><ele>800.714023</ele><time>2025-07-03T15:03:21Z</time><extensions><speed>0.041136</speed><course>5.189950</course><hAcc>3.349214</hAcc><vAcc>1.101003</vAcc></extensions></trkpt>
      <trkpt lon="-82.311061" lat="35.642991"><ele>800.752402</ele><time>2025-07-03T15:03:22Z</time><extensions><speed>0.047754</speed><course>345.043079</course><hAcc>3.604607</hAcc><vAcc>1.207611</vAcc></extensions></trkpt>
      <trkpt lon="-82.311061" lat="35.642991"><ele>800.791225</ele><time>2025-07-03T15:03:23Z</time><extensions><speed>0.054091</speed><course>330.606395</course><hAcc>3.948238</hAcc><vAcc>1.337147</vAcc></extensions></trkpt>
      <trkpt lon="-82.311062" lat="35.642992"><ele>800.830278</ele><time>2025-07-03T15:03:24Z</time><extensions><speed>0.053374</speed><course>318.103709</course><hAcc>4.446159</hAcc><vAcc>1.490661</vAcc></extensions></trkpt>
    </trkseg>
  </trk>
</gpx>