<?xml version="1.0" encoding="UTF-8"?>
<gpx version="1.1" creator="Apple Health Export" xmlns="http://www.topografix.com/GPX/1/1" xmlns:xsi="http://www.w3.org/2001/XMLSchema-instance" xsi:schemaLocation="http://www.topografix.com/GPX/1/1 http://www.topografix.com/GPX/1/1/gpx.xsd">
  <metadata>
    <time>2026-03-14T12:16:56Z</time>
  </metadata>
  <trk>
    <name>Route 2025-05-17 10:17pm</name>
    <trkseg>
      <trkpt lon="-82.311814" lat="35.641034"><ele>782.088981</ele><time>2025-05-18T02:11:13Z</time><extensions><speed>1.447481</speed><course>1.496758</course><hAcc>2.994889</hAcc><vAcc>1.935260</vAcc></extensions></trkpt>
      <trkpt lon="-82.311812" lat="35.641046"><ele>782.134402</ele><time>2025-05-18T02:11:14Z</time><extensions><speed>1.417486</speed><course>2.874683</course><hAcc>2.770898</hAcc><vAcc>1.736505</vAcc></extensions></trkpt>
      <trkpt lon="-82.311809" lat="35.641058"><ele>782.185147</ele><time>2025-05-18T02:11:15Z</time><extensions><speed>1.369526</speed><course>6.762779</course><hAcc>2.600894</hAcc><vAcc>1.576462</vAcc></extensions></trkpt>
      <trkpt lon="-82.311806" lat="35.641069"><ele>782.238732</ele><time>2025-05-18T02:11:16Z</time><extensions><speed>1.308975</speed><course>12.747582</course><hAcc>2.461185</hAcc><vAcc>1.449836</vAcc></extensions></trkpt>
      <trkpt lon="-82.311801" lat="35.641080"><ele>782.292949</ele><time>2025-05-18T02:11:17Z</time><extensions><speed>1.280427</speed><course>15.900402</course><hAcc>2.356178</hAcc><vAcc>1.351784</vAcc></extensions></trkpt>
      <trkpt lon="-82.311797" lat="35.641090"><ele>782.340920</ele><time>2025-05-18T02:11:18Z</time><extensions><speed>1.245926</speed><course>16.327330</course><hAcc>2.286328</hAcc><vAcc>1.277718</vAcc></extensions></trkpt>
      <trkpt lon="-82.311792" lat="35.641100"><ele>782.376189</ele><time>2025-05-18T02:11:19Z</time><extensions><speed>1.241346</speed><course>18.733409</course><hAcc>2.248001</hAcc><vAcc>1.223278</vAcc></extensions></trkpt>
      <trkpt lon="-82.311785" lat="35.641110"><ele>782.386264</ele><time>2025-05-18T02:11:20Z</time><extensions><speed>1.227873</speed><course>31.094463</course><hAcc>2.184325</hAcc><vAcc>1.184349</vAcc></extensions></trkpt>
      <trkpt lon="-82.311776" lat="35.641120"><ele>782.384682</ele><time>2025-05-18T02:11:21Z</time><extensions><speed>1.250885</speed><course>38.017560</course><hAcc>2.143896</hAcc><vAcc>1.157359</vAcc></extensions></trkpt>
      <trkpt lon="-82.311766" lat="35.641129"><ele>782.382781</ele><time>2025-05-18T02:11:22Z</time><extensions><speed>1.291128</speed><course>40.683511</course><hAcc>2.146767</hAcc><vAcc>1.139191</vAcc></extensions></trkpt>
      <trkpt lon="-82.311755" lat="35.641138"><ele>782.387570</ele><time>2025-05-18T02:11:23Z</time><extensions><speed>1.339876</speed><course>47.256952</course><hAcc>2.112768</hAcc><vAcc>1.127398</vAcc></extensions></trkpt>
      <trkpt lon="-82.311743" lat="35.641146"><ele>782.397324</ele><time>2025-05-18T02:11:24Z</time><extensions><speed>1.386672</speed><course>51.763995</course><hAcc>2.096533</hAcc><vAcc>1.119980</vAcc></extensions></trkpt>
      <trkpt lon="-82.311730" lat="35.641154"><ele>782.405436</ele><time>2025-05-18T02:11:25Z</time><extensions><speed>1.437402</speed><course>59.804366</course><hAcc>2.085680</hAcc><vAcc>1.115442</vAcc></extensions></trkpt>
      <trkpt lon="-82.311715" lat="35.641161"><ele>782.412330</ele><time>2025-05-18T02:11:26Z</time><extensions><speed>1.494652</speed><course>59.233515</course><hAcc>2.058478</hAcc><vAcc>1.112788</vAcc></extensions></trkpt>
      <trkpt lon="-82.311701" lat="35.641167"><ele>782.418956</ele><time>2025-05-18T02:11:27Z</time><extensions><speed>1.433781</speed><course>61.363930</course><hAcc>2.076918</hAcc><vAcc>1.111222</vAcc></extensions></trkpt>
      <trkpt lon="-82.311686" lat="35.641174"><ele>782.427995</ele><time>2025-05-18T02:11:28Z</time><extensions><speed>1.494784</speed><course>59.539641</course><hAcc>2.049911</hAcc><vAcc>1.110377</vAcc></extensions></trkpt>
      <trkpt lon="-82.311671" lat="35.641181"><ele>782.436468</ele><time>2025-05-18T02:11:29Z</time><extensions><speed>1.534359</speed><course>57.810511</course><hAcc>2.022980</hAcc><vAcc>1.109838</vAcc></extensions></trkpt>
      <trkpt lon="-82.311657" lat="35.641188"><ele>782.452350</ele><time>2025-05-18T02:11:30Z</time><extensions><speed>1.381484</speed><course>58.168404</course><hAcc>2.025063</hAcc><vAcc>1.109343</vAcc></extensions></trkpt>
      <trkpt lon="-82.311643" lat="35.641194"><ele>782.474710</ele><time>2025-05-18T02:11:31Z</time><extensions><speed>1.589224</speed><course>56.650702</course><hAcc>1.982350</hAcc><vAcc>1.108767</vAcc></extensions></trkpt>
      <trkpt lon="-82.311628" lat="35.641202"><ele>782.497504</ele><time>2025-05-18T02:11:32Z</time><extensions><speed>1.564286</speed><course>53.814720</course><hAcc>1.986261</hAcc><vAcc>1.107988</vAcc></extensions></trkpt>
      <trkpt lon="-82.311614" lat="35.641211"><ele>782.518356</ele><time>2025-05-18T02:11:33Z</time><extensions><speed>1.583619</speed><course>48.872103</course><hAcc>1.973941</hAcc><vAcc>1.106917</vAcc></extensions></trkpt>
      <trkpt lon="-82.311600" lat="35.641220"><ele>782.542554</ele><time>2025-05-18T02:11:34Z</time><extensions><speed>1.569321</speed><course>47.563228</course><hAcc>1.955487</hAcc><vAcc>1.105579</vAcc></extensions></trkpt>
      <trkpt lon="-82.311586" lat="35.641229"><ele>782.572726</ele><time>2025-05-18T02:11:35Z</time><extensions><speed>1.518801</speed><course>50.098203</course><hAcc>1.931892</hAcc><vAcc>1.103877</vAcc></extensions></trkpt>
      <trkpt lon="-82.311572" lat="35.641238"><ele>782.606847</ele><time>2025-05-18T02:11:36Z</time><extensions><speed>1.594070</speed><course>49.093393</course><hAcc>1.914523</hAcc><vAcc>1.101815</vAcc></extensions></trkpt>
      <trkpt lon="-82.311559" lat="35.641247"><ele>782.643229</ele><time>2025-05-18T02:11:37Z</time><extensions><speed>1.557106</speed><course>46.041877</course><hAcc>1.947813</hAcc><vAcc>1.099373</vAcc></extensions></trkpt>
      <trkpt lon="-82.311545" lat="35.641256"><ele>782.674666</ele><time>2025-05-18T02:11:38Z</time><extensions><speed>1.606199</speed><course>51.034118</course><hAcc>1.875633</hAcc><vAcc>1.096641</vAcc></extensions></trkpt>
      <trkpt lon="-82.311531" lat="35.641265"><ele>782.717327</ele><time>2025-05-18T02:11:39Z</time><extensions><speed>1.562621</speed><course>49.824517</course><hAcc>1.886080</hAcc><vAcc>1.093588</vAcc></extensions></trkpt>
      <trkpt lon="-82.311518" lat="35.641274"><ele>782.761146</ele><time>2025-05-18T02:11:40Z</time><extensions><speed>1.511080</speed><course>48.282937</course><hAcc>1.903138</hAcc><vAcc>1.090273</vAcc></extensions></trkpt>
      <trkpt lon="-82.311505" lat="35.641283"><ele>782.808232</ele><time>2025-05-18T02:11:41Z</time><extensions><speed>1.491078</speed><course>43.260923</course><hAcc>1.876370</hAcc><vAcc>1.086647</vAcc></extensions></trkpt>
      <trkpt lon="-82.311495" lat="35.641293"><ele>782.856159</ele><time>2025-05-18T02:11:42Z</time><extensions><speed>1.463337</speed><course>36.088088</course><hAcc>1.881063</hAcc><vAcc>1.082709</vAcc></extensions></trkpt>
      <trkpt lon="-82.311486" lat="35.641303"><ele>782.906527</ele><time>2025-05-18T02:11:43Z</time><extensions><speed>1.447913</speed><course>30.321130</course><hAcc>1.902887</hAcc><vAcc>1.078472</vAcc></extensions></trkpt>
      <trkpt lon="-82.311477" lat="35.641314"><ele>782.960628</ele><time>2025-05-18T02:11:44Z</time><extensions><speed>1.454417</speed><course>32.676415</course><hAcc>1.857837</hAcc><vAcc>1.073988</vAcc></extensions></trkpt>
      <trkpt lon="-82.311468" lat="35.641325"><ele>783.014791</ele><time>2025-05-18T02:11:45Z</time><extensions><speed>1.473554</speed><course>28.592442</course><hAcc>1.861320</hAcc><vAcc>1.069398</vAcc></extensions></trkpt>
      <trkpt lon="-82.311460" lat="35.641336"><ele>783.064512</ele><time>2025-05-18T02:11:46Z</time><extensions><speed>1.458229</speed><course>30.619896</course><hAcc>1.804416</hAcc><vAcc>1.064870</vAcc></extensions></trkpt>
      <trkpt lon="-82.311451" lat="35.641347"><ele>783.119642</ele><time>2025-05-18T02:11:47Z</time><extensions><speed>1.456877</speed><course>30.653343</course><hAcc>1.805645</hAcc><vAcc>1.060514</vAcc></extensions></trkpt>
      <trkpt lon="-82.311443" lat="35.641359"><ele>783.181355</ele><time>2025-05-18T02:11:48Z</time><extensions><speed>1.460820</speed><course>28.579495</course><hAcc>1.838978</hAcc><vAcc>1.056396</vAcc></extensions></trkpt>
      <trkpt lon="-82.311435" lat="35.641370"><ele>783.247722</ele><time>2025-05-18T02:11:49Z</time><extensions><speed>1.421920</speed><course>29.004014</course><hAcc>1.813914</hAcc><vAcc>1.052535</vAcc></extensions></trkpt>
      <trkpt lon="-82.311427" lat="35.641381"><ele>783.316296</ele><time>2025-05-18T02:11:50Z</time><extensions><speed>1.422068</speed><course>27.947631</course><hAcc>1.814332</hAcc><vAcc>1.048961</vAcc></extensions></trkpt>
      <trkpt lon="-82.311419" lat="35.641392"><ele>783.383347</ele><time>2025-05-18T02:11:51Z</time><extensions><speed>1.398789</speed><course>32.545571</course><hAcc>1.769964</hAcc><vAcc>1.045695</vAcc></extensions></trkpt>
      <trkpt lon="-82.311411" lat="35.641402"><ele>783.452435</ele><time>2025-05-18T02:11:52Z</time><extensions><speed>1.394053</speed><course>34.223717</course><hAcc>1.785901</hAcc><vAcc>1.042734</vAcc></extensions></trkpt>
      <trkpt lon="-82.311402" lat="35.641412"><ele>783.525015</ele><time>2025-05-18T02:11:53Z</time><extensions><speed>1.395991</speed><course>37.505983</course><hAcc>1.785105</hAcc><vAcc>1.040060</vAcc></extensions></trkpt>
      <trkpt lon="-82.311393" lat="35.641422"><ele>783.598791</ele><time>2025-05-18T02:11:54Z</time><extensions><speed>1.378870</speed><course>36.986370</course><hAcc>1.773444</hAcc><vAcc>1.037731</vAcc></extensions></trkpt>
      <trkpt lon="-82.311384" lat="35.641431"><ele>783.676019</ele><time>2025-05-18T02:11:55Z</time><extensions><speed>1.387069</speed><course>39.326831</course><hAcc>1.790534</hAcc><vAcc>1.035715</vAcc></extensions></trkpt>
      <trkpt lon="-82.311374" lat="35.641440"><ele>783.751238</ele><time>2025-05-18T02:11:56Z</time><extensions><speed>1.391585</speed><course>44.054191</course><hAcc>1.760629</hAcc><vAcc>1.034000</vAcc></extensions></trkpt>
      <trkpt lon="-82.311363" lat="35.641449"><ele>783.829814</ele><time>2025-05-18T02:11:57Z</time><extensions><speed>1.393902</speed><course>50.491943</course><hAcc>1.770905</hAcc><vAcc>1.032503</vAcc></extensions></trkpt>
      <trkpt lon="-82.311352" lat="35.641456"><ele>783.909997</ele><time>2025-05-18T02:11:58Z</time><extensions><speed>1.428294</speed><course>52.010807</course><hAcc>1.807684</hAcc><vAcc>1.031128</vAcc></extensions></trkpt>
      <trkpt lon="-82.311340" lat="35.641464"><ele>783.987686</ele><time>2025-05-18T02:11:59Z</time><extensions><speed>1.354396</speed><course>49.448769</course><hAcc>1.773605</hAcc><vAcc>1.029831</vAcc></extensions></trkpt>
      <trkpt lon="-82.311331" lat="35.641472"><ele>784.068158</ele><time>2025-05-18T02:12:00Z</time><extensions><speed>1.317231</speed><course>41.570503</course><hAcc>1.767448</hAcc><vAcc>1.028594</vAcc></extensions></trkpt>
      <trkpt lon="-82.311323" lat="35.641482"><ele>784.147275</ele><time>2025-05-18T02:12:01Z</time><extensions><speed>1.358410</speed><course>31.440197</course><hAcc>1.772678</hAcc><vAcc>1.027425</vAcc></extensions></trkpt>
      <trkpt lon="-82.311317" lat="35.641492"><ele>784.226499</ele><time>2025-05-18T02:12:02Z</time><extensions><speed>1.300073</speed><course>20.862692</course><hAcc>1.740758</hAcc><vAcc>1.026309</vAcc></extensions></trkpt>
      <trkpt lon="-82.311313" lat="35.641504"><ele>784.307733</ele><time>2025-05-18T02:12:03Z</time><extensions><speed>1.342130</speed><course>13.534315</course><hAcc>1.744056</hAcc><vAcc>1.025186</vAcc></extensions></trkpt>
      <trkpt lon="-82.311311" lat="35.641515"><ele>784.393107</ele><time>2025-05-18T02:12:04Z</time><extensions><speed>1.245714</speed><course>13.010301</course><hAcc>1.712827</hAcc><vAcc>1.024051</vAcc></extensions></trkpt>
      <trkpt lon="-82.311308" lat="35.641526"><ele>784.478515</ele><time>2025-05-18T02:12:05Z</time><extensions><speed>1.237732</speed><course>16.913096</course><hAcc>1.730529</hAcc><vAcc>1.022920</vAcc></extensions></trkpt>
      <trkpt lon="-82.311304" lat="35.641537"><ele>784.559222</ele><time>2025-05-18T02:12:06Z</time><extensions><speed>1.306420</speed><course>24.566531</course><hAcc>1.766169</hAcc><vAcc>1.021778</vAcc></extensions></trkpt>
      <trkpt lon="-82.311298" lat="35.641547"><ele>784.636134</ele><time>2025-05-18T02:12:07Z</time><extensions><speed>1.242069</speed><course>27.250253</course><hAcc>1.742763</hAcc><vAcc>1.020682</vAcc></extensions></trkpt>
      <trkpt lon="-82.311292" lat="35.641557"><ele>784.710761</ele><time>2025-05-18T02:12:08Z</time><extensions><speed>1.285506</speed><course>28.378524</course><hAcc>1.752321</hAcc><vAcc>1.019658</vAcc></extensions></trkpt>
      <trkpt lon="-82.311286" lat="35.641567"><ele>784.780992</ele><time>2025-05-18T02:12:09Z</time><extensions><speed>1.218275</speed><course>27.898310</course><hAcc>1.719252</hAcc><vAcc>1.018710</vAcc></extensions></trkpt>
      <trkpt lon="-82.311281" lat="35.641577"><ele>784.849455</ele><time>2025-05-18T02:12:10Z</time><extensions><speed>1.201122</speed><course>24.541822</course><hAcc>1.711198</hAcc><vAcc>1.017829</vAcc></extensions></trkpt>
      <trkpt lon="-82.311276" lat="35.641587"><ele>784.919629</ele><time>2025-05-18T02:12:11Z</time><extensions><speed>1.266034</speed><course>25.461506</course><hAcc>1.740481</hAcc><vAcc>1.016985</vAcc></extensions></trkpt>
      <trkpt lon="-82.311272" lat="35.641597"><ele>784.990075</ele><time>2025-05-18T02:12:12Z</time><extensions><speed>1.223498</speed><course>22.833192</course><hAcc>1.719889</hAcc><vAcc>1.016164</vAcc></extensions></trkpt>
      <trkpt lon="-82.311267" lat="35.641607"><ele>785.057769</ele><time>2025-05-18T02:12:13Z</time><extensions><speed>1.288201</speed><course>24.284457</course><hAcc>1.744849</hAcc><vAcc>1.015317</vAcc></extensions></trkpt>
      <trkpt lon="-82.311263" lat="35.641617"><ele>785.121865</ele><time>2025-05-18T02:12:14Z</time><extensions><speed>1.239706</speed><course>22.072192</course><hAcc>1.716924</hAcc><vAcc>1.014383</vAcc></extensions></trkpt>
      <trkpt lon="-82.311258" lat="35.641627"><ele>785.181680</ele><time>2025-05-18T02:12:15Z</time><extensions><speed>1.229971</speed><course>21.391373</course><hAcc>1.734752</hAcc><vAcc>1.013344</vAcc></extensions></trkpt>
      <trkpt lon="-82.311254" lat="35.641638"><ele>785.240089</ele><time>2025-05-18T02:12:16Z</time><extensions><speed>1.301558</speed><course>24.578780</course><hAcc>1.768270</hAcc><vAcc>1.012160</vAcc></extensions></trkpt>
      <trkpt lon="-82.311248" lat="35.641648"><ele>785.294245</ele><time>2025-05-18T02:12:17Z</time><extensions><speed>1.231595</speed><course>22.774911</course><hAcc>1.729671</hAcc><vAcc>1.010813</vAcc></extensions></trkpt>
      <trkpt lon="-82.311244" lat="35.641658"><ele>785.342099</ele><time>2025-05-18T02:12:18Z</time><extensions><speed>1.214846</speed><course>22.103258</course><hAcc>1.721886</hAcc><vAcc>1.009245</vAcc></extensions></trkpt>
      <trkpt lon="-82.311238" lat="35.641668"><ele>785.383432</ele><time>2025-05-18T02:12:19Z</time><extensions><speed>1.277828</speed><course>26.791929</course><hAcc>1.754946</hAcc><vAcc>1.007436</vAcc></extensions></trkpt>
      <trkpt lon="-82.311233" lat="35.641678"><ele>785.422931</ele><time>2025-05-18T02:12:20Z</time><extensions><speed>1.197969</speed><course>22.983829</course><hAcc>1.720487</hAcc><vAcc>1.005457</vAcc></extensions></trkpt>
      <trkpt lon="-82.311228" lat="35.641688"><ele>785.459645</ele><time>2025-05-18T02:12:21Z</time><extensions><speed>1.253133</speed><course>27.043889</course><hAcc>1.742839</hAcc><vAcc>1.003374</vAcc></extensions></trkpt>
      <trkpt lon="-82.311222" lat="35.641698"><ele>785.491265</ele><time>2025-05-18T02:12:22Z</time><extensions><speed>1.148289</speed><course>24.837635</course><hAcc>1.698065</hAcc><vAcc>1.001273</vAcc></extensions></trkpt>
      <trkpt lon="-82.311217" lat="35.641707"><ele>785.518503</ele><time>2025-05-18T02:12:23Z</time><extensions><speed>1.131165</speed><course>24.422772</course><hAcc>1.707405</hAcc><vAcc>0.999299</vAcc></extensions></trkpt>
      <trkpt lon="-82.311212" lat="35.641717"><ele>785.540716</ele><time>2025-05-18T02:12:24Z</time><extensions><speed>1.212012</speed><course>30.051476</course><hAcc>1.756378</hAcc><vAcc>0.997532</vAcc></extensions></trkpt>
      <trkpt lon="-82.311206" lat="35.641726"><ele>785.556157</ele><time>2025-05-18T02:12:25Z</time><extensions><speed>1.179503</speed><course>31.163000</course><hAcc>1.729393</hAcc><vAcc>0.996048</vAcc></extensions></trkpt>
      <trkpt lon="-82.311199" lat="35.641735"><ele>785.570343</ele><time>2025-05-18T02:12:26Z</time><extensions><speed>1.246496</speed><course>35.122604</course><hAcc>1.751391</hAcc><vAcc>0.994897</vAcc></extensions></trkpt>
      <trkpt lon="-82.311192" lat="35.641744"><ele>785.587555</ele><time>2025-05-18T02:12:27Z</time><extensions><speed>1.197588</speed><course>32.610691</course><hAcc>1.711554</hAcc><vAcc>0.994194</vAcc></extensions></trkpt>
      <trkpt lon="-82.311186" lat="35.641753"><ele>785.608610</ele><time>2025-05-18T02:12:28Z</time><extensions><speed>1.207308</speed><course>32.170076</course><hAcc>1.723090</hAcc><vAcc>0.993978</vAcc></extensions></trkpt>
      <trkpt lon="-82.311179" lat="35.641762"><ele>785.632802</ele><time>2025-05-18T02:12:29Z</time><extensions><speed>1.271200</speed><course>33.710984</course><hAcc>1.754622</hAcc><vAcc>0.994216</vAcc></extensions></trkpt>
      <trkpt lon="-82.311172" lat="35.641772"><ele>785.662258</ele><time>2025-05-18T02:12:30Z</time><extensions><speed>1.219967</speed><course>34.668210</course><hAcc>1.745296</hAcc><vAcc>0.994931</vAcc></extensions></trkpt>
      <trkpt lon="-82.311165" lat="35.641781"><ele>785.696202</ele><time>2025-05-18T02:12:31Z</time><extensions><speed>1.272459</speed><course>38.142862</course><hAcc>1.779432</hAcc><vAcc>0.996167</vAcc></extensions></trkpt>
      <trkpt lon="-82.311158" lat="35.641790"><ele>785.729035</ele><time>2025-05-18T02:12:32Z</time><extensions><speed>1.183987</speed><course>29.938020</course><hAcc>1.733203</hAcc><vAcc>0.997906</vAcc></extensions></trkpt>
      <trkpt lon="-82.311153" lat="35.641799"><ele>785.767296</ele><time>2025-05-18T02:12:33Z</time><extensions><speed>1.179288</speed><course>27.973579</course><hAcc>1.744846</hAcc><vAcc>1.000222</vAcc></extensions></trkpt>
      <trkpt lon="-82.311149" lat="35.641809"><ele>785.800019</ele><time>2025-05-18T02:12:34Z</time><extensions><speed>1.290057</speed><course>25.061300</course><hAcc>1.777855</hAcc><vAcc>1.003014</vAcc></extensions></trkpt>
      <trkpt lon="-82.311145" lat="35.641819"><ele>785.839845</ele><time>2025-05-18T02:12:35Z</time><extensions><speed>1.217611</speed><course>22.505405</course><hAcc>1.788236</hAcc><vAcc>1.006203</vAcc></extensions></trkpt>
      <trkpt lon="-82.311141" lat="35.641829"><ele>785.884918</ele><time>2025-05-18T02:12:36Z</time><extensions><speed>1.267078</speed><course>24.275386</course><hAcc>1.814968</hAcc><vAcc>1.009635</vAcc></extensions></trkpt>
      <trkpt lon="-82.311138" lat="35.641839"><ele>785.928330</ele><time>2025-05-18T02:12:37Z</time><extensions><speed>1.157489</speed><course>14.360921</course><hAcc>1.770703</hAcc><vAcc>1.013146</vAcc></extensions></trkpt>
      <trkpt lon="-82.311137" lat="35.641849"><ele>785.972779</ele><time>2025-05-18T02:12:38Z</time><extensions><speed>1.147896</speed><course>12.474907</course><hAcc>1.786501</hAcc><vAcc>1.016689</vAcc></extensions></trkpt>
      <trkpt lon="-82.311135" lat="35.641858"><ele>786.012233</ele><time>2025-05-18T02:12:39Z</time><extensions><speed>1.234364</speed><course>18.167345</course><hAcc>1.825953</hAcc><vAcc>1.020241</vAcc></extensions></trkpt>
      <trkpt lon="-82.311133" lat="35.641868"><ele>786.080438</ele><time>2025-05-18T02:12:40Z</time><extensions><speed>1.103277</speed><course>10.092559</course><hAcc>1.776368</hAcc><vAcc>1.020312</vAcc></extensions></trkpt>
      <trkpt lon="-82.311132" lat="35.641877"><ele>786.154047</ele><time>2025-05-18T02:12:41Z</time><extensions><speed>1.091928</speed><course>10.190312</course><hAcc>1.787302</hAcc><vAcc>1.019049</vAcc></extensions></trkpt>
      <trkpt lon="-82.311131" lat="35.641886"><ele>786.233784</ele><time>2025-05-18T02:12:42Z</time><extensions><speed>1.239027</speed><course>12.768803</course><hAcc>1.823263</hAcc><vAcc>1.016575</vAcc></extensions></trkpt>
      <trkpt lon="-82.311130" lat="35.641895"><ele>786.315383</ele><time>2025-05-18T02:12:43Z</time><extensions><speed>1.130571</speed><course>7.610309</course><hAcc>1.799669</hAcc><vAcc>1.012924</vAcc></extensions></trkpt>
      <trkpt lon="-82.311129" lat="35.641905"><ele>786.401949</ele><time>2025-05-18T02:12:44Z</time><extensions><speed>1.280232</speed><course>10.978065</course><hAcc>1.815272</hAcc><vAcc>1.007525</vAcc></extensions></trkpt>
      <trkpt lon="-82.311128" lat="35.641914"><ele>786.488546</ele><time>2025-05-18T02:12:45Z</time><extensions><speed>0.998507</speed><course>12.645761</course><hAcc>1.809443</hAcc><vAcc>1.000599</vAcc></extensions></trkpt>
      <trkpt lon="-82.311126" lat="35.641922"><ele>786.575624</ele><time>2025-05-18T02:12:46Z</time><extensions><speed>0.968977</speed><course>13.475686</course><hAcc>1.825594</hAcc><vAcc>0.992143</vAcc></extensions></trkpt>
      <trkpt lon="-82.311124" lat="35.641931"><ele>786.662356</ele><time>2025-05-18T02:12:47Z</time><extensions><speed>1.165299</speed><course>14.689600</course><hAcc>1.846833</hAcc><vAcc>0.982157</vAcc></extensions></trkpt>
      <trkpt lon="-82.311122" lat="35.641939"><ele>786.750382</ele><time>2025-05-18T02:12:48Z</time><extensions><speed>0.846911</speed><course>18.777517</course><hAcc>1.854469</hAcc><vAcc>0.970684</vAcc></extensions></trkpt>
      <trkpt lon="-82.311119" lat="35.641945"><ele>786.839332</ele><time>2025-05-18T02:12:49Z</time><extensions><speed>0.761196</speed><course>25.544444</course><hAcc>1.881816</hAcc><vAcc>0.957829</vAcc></extensions></trkpt>
      <trkpt lon="-82.311117" lat="35.641950"><ele>786.928929</ele><time>2025-05-18T02:12:50Z</time><extensions><speed>0.532352</speed><course>20.009745</course><hAcc>1.868873</hAcc><vAcc>0.943777</vAcc></extensions></trkpt>
      <trkpt lon="-82.311117" lat="35.641953"><ele>787.017373</ele><time>2025-05-18T02:12:51Z</time><extensions><speed>0.228737</speed><course>352.019438</course><hAcc>1.870015</hAcc><vAcc>0.928799</vAcc></extensions></trkpt>
      <trkpt lon="-82.311118" lat="35.641954"><ele>787.104475</ele><time>2025-05-18T02:12:52Z</time><extensions><speed>0.121486</speed><course>273.805354</course><hAcc>1.915439</hAcc><vAcc>0.913183</vAcc></extensions></trkpt>
      <trkpt lon="-82.311120" lat="35.641953"><ele>787.189020</ele><time>2025-05-18T02:12:53Z</time><extensions><speed>0.157283</speed><course>248.417421</course><hAcc>1.937868</hAcc><vAcc>0.897314</vAcc></extensions></trkpt>
      <trkpt lon="-82.311122" lat="35.641952"><ele>787.271054</ele><time>2025-05-18T02:12:54Z</time><extensions><speed>0.192761</speed><course>237.443086</course><hAcc>1.951193</hAcc><vAcc>0.881515</vAcc></extensions></trkpt>
      <trkpt lon="-82.311125" lat="35.641951"><ele>787.349812</ele><time>2025-05-18T02:12:55Z</time><extensions><speed>0.191411</speed><course>233.740140</course><hAcc>1.962611</hAcc><vAcc>0.866052</vAcc></extensions></trkpt>
      <trkpt lon="-82.311125" lat="35.641957"><ele>787.339906</ele><time>2025-05-18T02:12:56Z</time><extensions><speed>0.152782</speed><course>259.055402</course><hAcc>1.909291</hAcc><vAcc>0.851999</vAcc></extensions></trkpt>
      <trkpt lon="-82.311126" lat="35.641960"><ele>787.295081</ele><time>2025-05-18T02:12:57Z</time><extensions><speed>0.135148</speed><course>286.895973</course><hAcc>1.875701</hAcc><vAcc>0.839921</vAcc></extensions></trkpt>
      <trkpt lon="-82.311127" lat="35.641962"><ele>787.207140</ele><time>2025-05-18T02:12:58Z</time><extensions><speed>0.138699</speed><course>314.730053</course><hAcc>1.853043</hAcc><vAcc>0.830097</vAcc></extensions></trkpt>
      <trkpt lon="-82.311128" lat="35.641964"><ele>787.060004</ele><time>2025-05-18T02:12:59Z</time><extensions><speed>0.184230</speed><course>332.250294</course><hAcc>1.823052</hAcc><vAcc>0.822944</vAcc></extensions></trkpt>
      <trkpt lon="-82.311129" lat="35.641966"><ele>786.887862</ele><time>2025-05-18T02:13:00Z</time><extensions><speed>0.229477</speed><course>343.479596</course><hAcc>1.792015</hAcc><vAcc>0.819126</vAcc></extensions></trkpt>
      <trkpt lon="-82.311130" lat="35.641969"><ele>786.654427</ele><time>2025-05-18T02:13:01Z</time><extensions><speed>0.291404</speed><course>351.678718</course><hAcc>1.754356</hAcc><vAcc>0.817961</vAcc></extensions></trkpt>
      <trkpt lon="-82.311130" lat="35.641972"><ele>786.389887</ele><time>2025-05-18T02:13:02Z</time><extensions><speed>0.314187</speed><course>358.256324</course><hAcc>1.721141</hAcc><vAcc>0.820729</vAcc></extensions></trkpt>
      <trkpt lon="-82.311130" lat="35.641975"><ele>786.091049</ele><time>2025-05-18T02:13:03Z</time><extensions><speed>0.415092</speed><course>3.455594</course><hAcc>1.668914</hAcc><vAcc>0.827590</vAcc></extensions></trkpt>
      <trkpt lon="-82.311130" lat="35.641979"><ele>785.770470</ele><time>2025-05-18T02:13:04Z</time><extensions><speed>0.567577</speed><course>8.785544</course><hAcc>1.611884</hAcc><vAcc>0.838410</vAcc></extensions></trkpt>
      <trkpt lon="-82.311128" lat="35.641985"><ele>785.418067</ele><time>2025-05-18T02:13:05Z</time><extensions><speed>0.655686</speed><course>11.023297</course><hAcc>1.569753</hAcc><vAcc>0.852155</vAcc></extensions></trkpt>
      <trkpt lon="-82.311128" lat="35.641985"><ele>785.401967</ele><time>2025-05-18T02:13:05Z</time><extensions><speed>0.655711</speed><course>11.024854</course><hAcc>1.569714</hAcc><vAcc>0.842573</vAcc></extensions></trkpt>
      <trkpt lon="-82.311127" lat="35.641992"><ele>785.060600</ele><time>2025-05-18T02:13:06Z</time><extensions><speed>0.961367</speed><course>3.139104</course><hAcc>1.482917</hAcc><vAcc>0.857100</vAcc></extensions></trkpt>
      <trkpt lon="-82.311128" lat="35.642001"><ele>784.722785</ele><time>2025-05-18T02:13:07Z</time><extensions><speed>1.124106</speed><course>356.226152</course><hAcc>1.441813</hAcc><vAcc>0.872964</vAcc></extensions></trkpt>
      <trkpt lon="-82.311129" lat="35.642011"><ele>784.391541</ele><time>2025-05-18T02:13:08Z</time><extensions><speed>1.128306</speed><course>349.018539</course><hAcc>1.462305</hAcc><vAcc>0.889862</vAcc></extensions></trkpt>
      <trkpt lon="-82.311131" lat="35.642021"><ele>784.091409</ele><time>2025-05-18T02:13:09Z</time><extensions><speed>0.964825</speed><course>348.956029</course><hAcc>1.485355</hAcc><vAcc>0.905952</vAcc></extensions></trkpt>
      <trkpt lon="-82.311133" lat="35.642029"><ele>783.825713</ele><time>2025-05-18T02:13:10Z</time><extensions><speed>0.960314</speed><course>350.332013</course><hAcc>1.491508</hAcc><vAcc>0.921348</vAcc></extensions></trkpt>
      <trkpt lon="-82.311135" lat="35.642037"><ele>783.601092</ele><time>2025-05-18T02:13:11Z</time><extensions><speed>0.902095</speed><course>351.463980</course><hAcc>1.496705</hAcc><vAcc>0.935426</vAcc></extensions></trkpt>
      <trkpt lon="-82.311136" lat="35.642045"><ele>783.413814</ele><time>2025-05-18T02:13:12Z</time><extensions><speed>0.813498</speed><course>349.684376</course><hAcc>1.485821</hAcc><vAcc>0.947739</vAcc></extensions></trkpt>
      <trkpt lon="-82.311138" lat="35.642052"><ele>783.284545</ele><time>2025-05-18T02:13:13Z</time><extensions><speed>0.818029</speed><course>349.303119</course><hAcc>1.481881</hAcc><vAcc>0.957414</vAcc></extensions></trkpt>
      <trkpt lon="-82.311140" lat="35.642060"><ele>783.192705</ele><time>2025-05-18T02:13:14Z</time><extensions><speed>0.853145</speed><course>350.593964</course><hAcc>1.470089</hAcc><vAcc>0.964979</vAcc></extensions></trkpt>
      <trkpt lon="-82.311141" lat="35.642067"><ele>783.156818</ele><time>2025-05-18T02:13:15Z</time><extensions><speed>0.891252</speed><course>352.130841</course><hAcc>1.439394</hAcc><vAcc>0.969677</vAcc></extensions></trkpt>
      <trkpt lon="-82.311142" lat="35.642076"><ele>783.162831</ele><time>2025-05-18T02:13:16Z</time><extensions><speed>0.998358</speed><course>352.717223</course><hAcc>1.442025</hAcc><vAcc>0.973390</vAcc></extensions></trkpt>
      <trkpt lon="-82.311144" lat="35.642085"><ele>783.189633</ele><time>2025-05-18T02:13:17Z</time><extensions><speed>1.117950</speed><course>352.097321</course><hAcc>1.438898</hAcc><vAcc>0.976015</vAcc></extensions></trkpt>
      <trkpt lon="-82.311146" lat="35.642095"><ele>783.261374</ele><time>2025-05-18T02:13:18Z</time><extensions><speed>1.039792</speed><course>349.891347</course><hAcc>1.424433</hAcc><vAcc>0.976334</vAcc></extensions></trkpt>
      <trkpt lon="-82.311148" lat="35.642104"><ele>783.355165</ele><time>2025-05-18T02:13:19Z</time><extensions><speed>0.897718</speed><course>349.750598</course><hAcc>1.394966</hAcc><vAcc>0.975691</vAcc></extensions></trkpt>
      <trkpt lon="-82.311149" lat="35.642111"><ele>783.491477</ele><time>2025-05-18T02:13:20Z</time><extensions><speed>0.898421</speed><course>351.026959</course><hAcc>1.391376</hAcc><vAcc>0.974795</vAcc></extensions></trkpt>
      <trkpt lon="-82.311151" lat="35.642120"><ele>783.688599</ele><time>2025-05-18T02:13:21Z</time><extensions><speed>1.056497</speed><course>350.603515</course><hAcc>1.395212</hAcc><vAcc>0.971894</vAcc></extensions></trkpt>
      <trkpt lon="-82.311153" lat="35.642130"><ele>783.875936</ele><time>2025-05-18T02:13:22Z</time><extensions><speed>1.098211</speed><course>350.315580</course><hAcc>1.401082</hAcc><vAcc>0.967463</vAcc></extensions></trkpt>
      <trkpt lon="-82.311155" lat="35.642138"><ele>784.072739</ele><time>2025-05-18T02:13:23Z</time><extensions><speed>0.850170</speed><course>353.909672</course><hAcc>1.384391</hAcc><vAcc>0.962599</vAcc></extensions></trkpt>
      <trkpt lon="-82.311156" lat="35.642145"><ele>784.244939</ele><time>2025-05-18T02:13:24Z</time><extensions><speed>0.729934</speed><course>352.945812</course><hAcc>1.361150</hAcc><vAcc>0.957241</vAcc></extensions></trkpt>
      <trkpt lon="-82.311157" lat="35.642152"><ele>784.397277</ele><time>2025-05-18T02:13:25Z</time><extensions><speed>0.740169</speed><course>345.628907</course><hAcc>1.365904</hAcc><vAcc>0.951546</vAcc></extensions></trkpt>
      <trkpt lon="-82.311160" lat="35.642158"><ele>784.548158</ele><time>2025-05-18T02:13:26Z</time><extensions><speed>0.682756</speed><course>334.292802</course><hAcc>1.372937</hAcc><vAcc>0.946792</vAcc></extensions></trkpt>
      <trkpt lon="-82.311163" lat="35.642164"><ele>784.694782</ele><time>2025-05-18T02:13:27Z</time><extensions><speed>0.726864</speed><course>338.022750</course><hAcc>1.382429</hAcc><vAcc>0.943091</vAcc></extensions></trkpt>
      <trkpt lon="-82.311166" lat="35.642170"><ele>784.841593</ele><time>2025-05-18T02:13:28Z</time><extensions><speed>0.655505</speed><course>337.837442</course><hAcc>1.381387</hAcc><vAcc>0.941465</vAcc></extensions></trkpt>
      <trkpt lon="-82.311169" lat="35.642174"><ele>784.984740</ele><time>2025-05-18T02:13:29Z</time><extensions><speed>0.439738</speed><course>325.563106</course><hAcc>1.375991</hAcc><vAcc>0.940465</vAcc></extensions></trkpt>
      <trkpt lon="-82.311172" lat="35.642177"><ele>785.092217</ele><time>2025-05-18T02:13:30Z</time><extensions><speed>0.360268</speed><course>307.903251</course><hAcc>1.385490</hAcc><vAcc>0.938101</vAcc></extensions></trkpt>
      <trkpt lon="-82.311174" lat="35.642178"><ele>785.178123</ele><time>2025-05-18T02:13:31Z</time><extensions><speed>0.237598</speed><course>282.821726</course><hAcc>1.402245</hAcc><vAcc>0.937665</vAcc></extensions></trkpt>
      <trkpt lon="-82.311176" lat="35.642178"><ele>785.246325</ele><time>2025-05-18T02:13:32Z</time><extensions><speed>0.117596</speed><course>261.099712</course><hAcc>1.406480</hAcc><vAcc>0.938309</vAcc></extensions></trkpt>
      <trkpt lon="-82.311177" lat="35.642178"><ele>785.285434</ele><time>2025-05-18T02:13:33Z</time><extensions><speed>0.051921</speed><course>251.582286</course><hAcc>1.417635</hAcc><vAcc>0.938960</vAcc></extensions></trkpt>
      <trkpt lon="-82.311177" lat="35.642178"><ele>785.311600</ele><time>2025-05-18T02:13:34Z</time><extensions><speed>0.018626</speed><course>129.154035</course><hAcc>1.431243</hAcc><vAcc>0.940959</vAcc></extensions></trkpt>
      <trkpt lon="-82.311177" lat="35.642178"><ele>785.323477</ele><time>2025-05-18T02:13:35Z</time><extensions><speed>0.120964</speed><course>107.678064</course><hAcc>1.446413</hAcc><vAcc>0.944497</vAcc></extensions></trkpt>
      <trkpt lon="-82.311175" lat="35.642177"><ele>785.321757</ele><time>2025-05-18T02:13:36Z</time><extensions><speed>0.306621</speed><course>107.654144</course><hAcc>1.458749</hAcc><vAcc>0.948512</vAcc></extensions></trkpt>
      <trkpt lon="-82.311170" lat="35.642176"><ele>785.309230</ele><time>2025-05-18T02:13:37Z</time><extensions><speed>0.629281</speed><course>107.387427</course><hAcc>1.470246</hAcc><vAcc>0.953044</vAcc></extensions></trkpt>
      <trkpt lon="-82.311160" lat="35.642173"><ele>785.296471</ele><time>2025-05-18T02:13:38Z</time><extensions><speed>1.169053</speed><course>107.490613</course><hAcc>1.494250</hAcc><vAcc>0.957224</vAcc></extensions></trkpt>
      <trkpt lon="-82.311149" lat="35.642172"><ele>785.276869</ele><time>2025-05-18T02:13:39Z</time><extensions><speed>0.847813</speed><course>90.685301</course><hAcc>1.524570</hAcc><vAcc>0.961717</vAcc></extensions></trkpt>
      <trkpt lon="-82.311143" lat="35.642173"><ele>785.247226</ele><time>2025-05-18T02:13:40Z</time><extensions><speed>0.320980</speed><course>46.322603</course><hAcc>1.533017</hAcc><vAcc>0.965831</vAcc></extensions></trkpt>
      <trkpt lon="-82.311142" lat="35.642175"><ele>785.208053</ele><time>2025-05-18T02:13:41Z</time><extensions><speed>0.247873</speed><course>342.390384</course><hAcc>1.527692</hAcc><vAcc>0.970320</vAcc></extensions></trkpt>
      <trkpt lon="-82.311144" lat="35.642177"><ele>785.166126</ele><time>2025-05-18T02:13:42Z</time><extensions><speed>0.296057</speed><course>325.768451</course><hAcc>1.538086</hAcc><vAcc>0.975394</vAcc></extensions></trkpt>
      <trkpt lon="-82.311146" lat="35.642179"><ele>785.122909</ele><time>2025-05-18T02:13:43Z</time><extensions><speed>0.284955</speed><course>325.340119</course><hAcc>1.558899</hAcc><vAcc>0.981493</vAcc></extensions></trkpt>
      <trkpt lon="-82.311147" lat="35.642181"><ele>785.067089</ele><time>2025-05-18T02:13:44Z</time><extensions><speed>0.231359</speed><course>328.012881</course><hAcc>1.580447</hAcc><vAcc>0.987754</vAcc></extensions></trkpt>
      <trkpt lon="-82.311148" lat="35.642183"><ele>785.009524</ele><time>2025-05-18T02:13:45Z</time><extensions><speed>0.162287</speed><course>325.990392</course><hAcc>1.597893</hAcc><vAcc>0.995460</vAcc></extensions></trkpt>
      <trkpt lon="-82.311149" lat="35.642184"><ele>784.951615</ele><time>2025-05-18T02:13:46Z</time><extensions><speed>0.106433</speed><course>325.970961</course><hAcc>1.607159</hAcc><vAcc>1.004232</vAcc></extensions></trkpt>
      <trkpt lon="-82.311150" lat="35.642184"><ele>784.893942</ele><time>2025-05-18T02:13:47Z</time><extensions><speed>0.064609</speed><course>328.610964</course><hAcc>1.611268</hAcc><vAcc>1.014382</vAcc></extensions></trkpt>
      <trkpt lon="-82.311150" lat="35.642185"><ele>784.836458</ele><time>2025-05-18T02:13:48Z</time><extensions><speed>0.034457</speed><course>335.261200</course><hAcc>1.615838</hAcc><vAcc>1.025445</vAcc></extensions></trkpt>
      <trkpt lon="-82.311150" lat="35.642185"><ele>784.779521</ele><time>2025-05-18T02:13:49Z</time><extensions><speed>0.020253</speed><course>254.933546</course><hAcc>1.626883</hAcc><vAcc>1.037393</vAcc></extensions></trkpt>
      <trkpt lon="-82.311150" lat="35.642185"><ele>784.723726</ele><time>2025-05-18T02:13:50Z</time><extensions><speed>0.027759</speed><course>227.051398</course><hAcc>1.637952</hAcc><vAcc>1.051148</vAcc></extensions></trkpt>
      <trkpt lon="-82.311151" lat="35.642184"><ele>784.669276</ele><time>2025-05-18T02:13:51Z</time><extensions><speed>0.037203</speed><course>233.076587</course><hAcc>1.650798</hAcc><vAcc>1.066496</vAcc></extensions></trkpt>
      <trkpt lon="-82.311151" lat="35.642184"><ele>784.616390</ele><time>2025-05-18T02:13:52Z</time><extensions><speed>0.064353</speed><course>240.375214</course><hAcc>1.663920</hAcc><vAcc>1.081657</vAcc></extensions></trkpt>
      <trkpt lon="-82.311152" lat="35.642184"><ele>784.565581</ele><time>2025-05-18T02:13:53Z</time><extensions><speed>0.074737</speed><course>248.691441</course><hAcc>1.670944</hAcc><vAcc>1.097208</vAcc></extensions></trkpt>
      <trkpt lon="-82.311153" lat="35.642184"><ele>784.517249</ele><time>2025-05-18T02:13:54Z</time><extensions><speed>0.066276</speed><course>257.128782</course><hAcc>1.675077</hAcc><vAcc>1.112273</vAcc></extensions></trkpt>
      <trkpt lon="-82.311153" lat="35.642184"><ele>784.471724</ele><time>2025-05-18T02:13:55Z</time><extensions><speed>0.056040</speed><course>256.254871</course><hAcc>1.683860</hAcc><vAcc>1.127218</vAcc></extensions></trkpt>
      <trkpt lon="-82.311154" lat="35.642183"><ele>784.429349</ele><time>2025-05-18T02:13:56Z</time><extensions><speed>0.043596</speed><course>255.823954</course><hAcc>1.686598</hAcc><vAcc>1.140853</vAcc></extensions></trkpt>
      <trkpt lon="-82.311154" lat="35.642183"><ele>784.390150</ele><time>2025-05-18T02:13:57Z</time><extensions><speed>0.029623</speed><course>255.573816</course><hAcc>1.697308</hAcc><vAcc>1.153984</vAcc></extensions></trkpt>
      <trkpt lon="-82.311155" lat="35.642183"><ele>784.396983</ele><time>2025-05-18T02:13:58Z</time><extensions><speed>0.024026</speed><course>255.868038</course><hAcc>1.705793</hAcc><vAcc>1.165841</vAcc></extensions></trkpt>
      <trkpt lon="-82.311155" lat="35.642183"><ele>784.406945</ele><time>2025-05-18T02:13:59Z</time><extensions><speed>0.022107</speed><course>256.476200</course><hAcc>1.719922</hAcc><vAcc>1.177598</vAcc></extensions></trkpt>
      <trkpt lon="-82.311155" lat="35.642183"><ele>784.425571</ele><time>2025-05-18T02:14:00Z</time><extensions><speed>0.024139</speed><course>258.216008</course><hAcc>1.746595</hAcc><vAcc>1.188579</vAcc></extensions></trkpt>
      <trkpt lon="-82.311156" lat="35.642183"><ele>784.439387</ele><time>2025-05-18T02:14:01Z</time><extensions><speed>0.030663</speed><course>260.945480</course><hAcc>1.777216</hAcc><vAcc>1.198821</vAcc></extensions></trkpt>
      <trkpt lon="-82.311156" lat="35.642183"><ele>784.470133</ele><time>2025-05-18T02:14:02Z</time><extensions><speed>0.051032</speed><course>263.694612</course><hAcc>1.785070</hAcc><vAcc>1.211088</vAcc></extensions></trkpt>
      <trkpt lon="-82.311157" lat="35.642183"><ele>784.523309</ele><time>2025-05-18T02:14:03Z</time><extensions><speed>0.074430</speed><course>265.777243</course><hAcc>1.807658</hAcc><vAcc>1.220286</vAcc></extensions></trkpt>
      <trkpt lon="-82.311158" lat="35.642183"><ele>784.580861</ele><time>2025-05-18T02:14:04Z</time><extensions><speed>0.103918</speed><course>268.130885</course><hAcc>1.836169</hAcc><vAcc>1.225050</vAcc></extensions></trkpt>
      <trkpt lon="-82.311159" lat="35.642183"><ele>784.635015</ele><time>2025-05-18T02:14:05Z</time><extensions><speed>0.139657</speed><course>270.646704</course><hAcc>1.859332</hAcc><vAcc>1.233173</vAcc></extensions></trkpt>
      <trkpt lon="-82.311161" lat="35.642183"><ele>784.729626</ele><time>2025-05-18T02:14:06Z</time><extensions><speed>0.183415</speed><course>273.219554</course><hAcc>1.875921</hAcc><vAcc>1.239926</vAcc></extensions></trkpt>
      <trkpt lon="-82.311163" lat="35.642183"><ele>784.849740</ele><time>2025-05-18T02:14:07Z</time><extensions><speed>0.225141</speed><course>277.719958</course><hAcc>1.888522</hAcc><vAcc>1.243603</vAcc></extensions></trkpt>
      <trkpt lon="-82.311166" lat="35.642184"><ele>784.978516</ele><time>2025-05-18T02:14:08Z</time><extensions><speed>0.247925</speed><course>287.205287</course><hAcc>1.899690</hAcc><vAcc>1.244570</vAcc></extensions></trkpt>
      <trkpt lon="-82.311169" lat="35.642185"><ele>785.120202</ele><time>2025-05-18T02:14:09Z</time><extensions><speed>0.261381</speed><course>302.760522</course><hAcc>1.909182</hAcc><vAcc>1.243596</vAcc></extensions></trkpt>
      <trkpt lon="-82.311171" lat="35.642187"><ele>785.234294</ele><time>2025-05-18T02:14:10Z</time><extensions><speed>0.305223</speed><course>326.501872</course><hAcc>1.913016</hAcc><vAcc>1.243567</vAcc></extensions></trkpt>
      <trkpt lon="-82.311173" lat="35.642189"><ele>785.346060</ele><time>2025-05-18T02:14:11Z</time><extensions><speed>0.362519</speed><course>340.045356</course><hAcc>1.920106</hAcc><vAcc>1.244529</vAcc></extensions></trkpt>
      <trkpt lon="-82.311174" lat="35.642193"><ele>785.456842</ele><time>2025-05-18T02:14:12Z</time><extensions><speed>0.371786</speed><course>342.313905</course><hAcc>1.935812</hAcc><vAcc>1.245498</vAcc></extensions></trkpt>
      <trkpt lon="-82.311175" lat="35.642196"><ele>785.566076</ele><time>2025-05-18T02:14:13Z</time><extensions><speed>0.355972</speed><course>348.294968</course><hAcc>1.947142</hAcc><vAcc>1.245855</vAcc></extensions></trkpt>
      <trkpt lon="-82.311176" lat="35.642199"><ele>785.672874</ele><time>2025-05-18T02:14:14Z</time><extensions><speed>0.312483</speed><course>336.050715</course><hAcc>1.947682</hAcc><vAcc>1.244970</vAcc></extensions></trkpt>
      <trkpt lon="-82.311178" lat="35.642201"><ele>785.776143</ele><time>2025-05-18T02:14:15Z</time><extensions><speed>0.289147</speed><course>323.798770</course><hAcc>1.950761</hAcc><vAcc>1.244178</vAcc></extensions></trkpt>
      <trkpt lon="-82.311179" lat="35.642203"><ele>785.874907</ele><time>2025-05-18T02:14:16Z</time><extensions><speed>0.305375</speed><course>332.707532</course><hAcc>1.938867</hAcc><vAcc>1.241645</vAcc></extensions></trkpt>
      <trkpt lon="-82.311181" lat="35.642206"><ele>785.968583</ele><time>2025-05-18T02:14:17Z</time><extensions><speed>0.316092</speed><course>338.874875</course><hAcc>1.921825</hAcc><vAcc>1.240528</vAcc></extensions></trkpt>
      <trkpt lon="-82.311182" lat="35.642209"><ele>786.044831</ele><time>2025-05-18T02:14:18Z</time><extensions><speed>0.318324</speed><course>348.056068</course><hAcc>1.900672</hAcc><vAcc>1.236571</vAcc></extensions></trkpt>
      <trkpt lon="-82.311182" lat="35.642211"><ele>786.112401</ele><time>2025-05-18T02:14:19Z</time><extensions><speed>0.265546</speed><course>346.808545</course><hAcc>1.882355</hAcc><vAcc>1.232040</vAcc></extensions></trkpt>
      <trkpt lon="-82.311183" lat="35.642213"><ele>786.175396</ele><time>2025-05-18T02:14:20Z</time><extensions><speed>0.193336</speed><course>340.251725</course><hAcc>1.868914</hAcc><vAcc>1.231059</vAcc></extensions></trkpt>
      <trkpt lon="-82.311184" lat="35.642215"><ele>786.230761</ele><time>2025-05-18T02:14:21Z</time><extensions><speed>0.135808</speed><course>329.047866</course><hAcc>1.857150</hAcc><vAcc>1.229790</vAcc></extensions></trkpt>
      <trkpt lon="-82.311185" lat="35.642215"><ele>786.270024</ele><time>2025-05-18T02:14:22Z</time><extensions><speed>0.101079</speed><course>327.018322</course><hAcc>1.845080</hAcc><vAcc>1.227029</vAcc></extensions></trkpt>
      <trkpt lon="-82.311185" lat="35.642216"><ele>786.315428</ele><time>2025-05-18T02:14:23Z</time><extensions><speed>0.082869</speed><course>334.798316</course><hAcc>1.833073</hAcc><vAcc>1.225087</vAcc></extensions></trkpt>
      <trkpt lon="-82.311185" lat="35.642217"><ele>786.392124</ele><time>2025-05-18T02:14:24Z</time><extensions><speed>0.083967</speed><course>348.817274</course><hAcc>1.824489</hAcc><vAcc>1.222442</vAcc></extensions></trkpt>
      <trkpt lon="-82.311186" lat="35.642218"><ele>786.505422</ele><time>2025-05-18T02:14:25Z</time><extensions><speed>0.100637</speed><course>0.043343</course><hAcc>1.821673</hAcc><vAcc>1.220378</vAcc></extensions></trkpt>
      <trkpt lon="-82.311186" lat="35.642219"><ele>786.626406</ele><time>2025-05-18T02:14:26Z</time><extensions><speed>0.131099</speed><course>5.491204</course><hAcc>1.820445</hAcc><vAcc>1.217897</vAcc></extensions></trkpt>
      <trkpt lon="-82.311185" lat="35.642220"><ele>786.786151</ele><time>2025-05-18T02:14:27Z</time><extensions><speed>0.159073</speed><course>7.290731</course><hAcc>1.825521</hAcc><vAcc>1.213963</vAcc></extensions></trkpt>
      <trkpt lon="-82.311185" lat="35.642222"><ele>786.936489</ele><time>2025-05-18T02:14:28Z</time><extensions><speed>0.193676</speed><course>5.114755</course><hAcc>1.820002</hAcc><vAcc>1.209652</vAcc></extensions></trkpt>
      <trkpt lon="-82.311185" lat="35.642224"><ele>787.089197</ele><time>2025-05-18T02:14:29Z</time><extensions><speed>0.202196</speed><course>355.522782</course><hAcc>1.822240</hAcc><vAcc>1.204911</vAcc></extensions></trkpt>
      <trkpt lon="-82.311185" lat="35.642226"><ele>787.256005</ele><time>2025-05-18T02:14:30Z</time><extensions><speed>0.241468</speed><course>347.661310</course><hAcc>1.825962</hAcc><vAcc>1.200616</vAcc></extensions></trkpt>
      <trkpt lon="-82.311186" lat="35.642228"><ele>787.384255</ele><time>2025-05-18T02:14:31Z</time><extensions><speed>0.357733</speed><course>344.622514</course><hAcc>1.812534</hAcc><vAcc>1.197528</vAcc></extensions></trkpt>
      <trkpt lon="-82.311188" lat="35.642232"><ele>787.478751</ele><time>2025-05-18T02:14:32Z</time><extensions><speed>0.592212</speed><course>345.522627</course><hAcc>1.792829</hAcc><vAcc>1.193752</vAcc></extensions></trkpt>
      <trkpt lon="-82.311190" lat="35.642239"><ele>787.564643</ele><time>2025-05-18T02:14:33Z</time><extensions><speed>0.933718</speed><course>343.303329</course><hAcc>1.790211</hAcc><vAcc>1.188286</vAcc></extensions></trkpt>
      <trkpt lon="-82.311194" lat="35.642248"><ele>787.644112</ele><time>2025-05-18T02:14:34Z</time><extensions><speed>1.192640</speed><course>339.138781</course><hAcc>1.762557</hAcc><vAcc>1.181443</vAcc></extensions></trkpt>
      <trkpt lon="-82.311199" lat="35.642259"><ele>787.700230</ele><time>2025-05-18T02:14:35Z</time><extensions><speed>1.366515</speed><course>336.649104</course><hAcc>1.735192</hAcc><vAcc>1.171603</vAcc></extensions></trkpt>
      <trkpt lon="-82.311205" lat="35.642270"><ele>787.747061</ele><time>2025-05-18T02:14:36Z</time><extensions><speed>1.426288</speed><course>336.029203</course><hAcc>1.717154</hAcc><vAcc>1.162661</vAcc></extensions></trkpt>
      <trkpt lon="-82.311211" lat="35.642282"><ele>787.767050</ele><time>2025-05-18T02:14:37Z</time><extensions><speed>1.356299</speed><course>340.094072</course><hAcc>1.696906</hAcc><vAcc>1.153793</vAcc></extensions></trkpt>
      <trkpt lon="-82.311216" lat="35.642293"><ele>787.789227</ele><time>2025-05-18T02:14:38Z</time><extensions><speed>1.294988</speed><course>345.627257</course><hAcc>1.681041</hAcc><vAcc>1.145397</vAcc></extensions></trkpt>
      <trkpt lon="-82.311218" lat="35.642304"><ele>787.796140</ele><time>2025-05-18T02:14:39Z</time><extensions><speed>1.141983</speed><course>352.583843</course><hAcc>1.666710</hAcc><vAcc>1.136897</vAcc></extensions></trkpt>
      <trkpt lon="-82.311219" lat="35.642315"><ele>787.833945</ele><time>2025-05-18T02:14:40Z</time><extensions><speed>1.219902</speed><course>357.913723</course><hAcc>1.664088</hAcc><vAcc>1.127865</vAcc></extensions></trkpt>
      <trkpt lon="-82.311219" lat="35.642326"><ele>787.836663</ele><time>2025-05-18T02:14:41Z</time><extensions><speed>1.167519</speed><course>0.043296</course><hAcc>1.659394</hAcc><vAcc>1.118362</vAcc></extensions></trkpt>
      <trkpt lon="-82.311220" lat="35.642336"><ele>787.862683</ele><time>2025-05-18T02:14:42Z</time><extensions><speed>1.012485</speed><course>356.282886</course><hAcc>1.646141</hAcc><vAcc>1.109413</vAcc></extensions></trkpt>
      <trkpt lon="-82.311221" lat="35.642344"><ele>787.894502</ele><time>2025-05-18T02:14:43Z</time><extensions><speed>0.862865</speed><course>354.436703</course><hAcc>1.636190</hAcc><vAcc>1.100738</vAcc></extensions></trkpt>
      <trkpt lon="-82.311222" lat="35.642352"><ele>787.949582</ele><time>2025-05-18T02:14:44Z</time><extensions><speed>0.780555</speed><course>352.722769</course><hAcc>1.636596</hAcc><vAcc>1.090951</vAcc></extensions></trkpt>
      <trkpt lon="-82.311223" lat="35.642359"><ele>787.993113</ele><time>2025-05-18T02:14:45Z</time><extensions><speed>0.792785</speed><course>352.309168</course><hAcc>1.634693</hAcc><vAcc>1.080809</vAcc></extensions></trkpt>
      <trkpt lon="-82.311224" lat="35.642366"><ele>788.038262</ele><time>2025-05-18T02:14:46Z</time><extensions><speed>0.786802</speed><course>350.503068</course><hAcc>1.638857</hAcc><vAcc>1.069659</vAcc></extensions></trkpt>
      <trkpt lon="-82.311226" lat="35.642373"><ele>788.100913</ele><time>2025-05-18T02:14:47Z</time><extensions><speed>0.938271</speed><course>350.032025</course><hAcc>1.631142</hAcc><vAcc>1.060427</vAcc></extensions></trkpt>
      <trkpt lon="-82.311227" lat="35.642383"><ele>788.162577</ele><time>2025-05-18T02:14:48Z</time><extensions><speed>1.129261</speed><course>350.473916</course><hAcc>1.628782</hAcc><vAcc>1.052978</vAcc></extensions></trkpt>
      <trkpt lon="-82.311230" lat="35.642393"><ele>788.215226</ele><time>2025-05-18T02:14:49Z</time><extensions><speed>1.230632</speed><course>351.466930</course><hAcc>1.616572</hAcc><vAcc>1.046824</vAcc></extensions></trkpt>
      <trkpt lon="-82.311231" lat="35.642404"><ele>788.274609</ele><time>2025-05-18T02:14:50Z</time><extensions><speed>1.127162</speed><course>351.711178</course><hAcc>1.579931</hAcc><vAcc>1.041192</vAcc></extensions></trkpt>
      <trkpt lon="-82.311233" lat="35.642413"><ele>788.349483</ele><time>2025-05-18T02:14:51Z</time><extensions><speed>1.062397</speed><course>351.991716</course><hAcc>1.554165</hAcc><vAcc>1.035738</vAcc></extensions></trkpt>
      <trkpt lon="-82.311235" lat="35.642423"><ele>788.418821</ele><time>2025-05-18T02:14:52Z</time><extensions><speed>1.154336</speed><course>352.756841</course><hAcc>1.540237</hAcc><vAcc>1.030527</vAcc></extensions></trkpt>
      <trkpt lon="-82.311236" lat="35.642434"><ele>788.503250</ele><time>2025-05-18T02:14:53Z</time><extensions><speed>1.189368</speed><course>355.150655</course><hAcc>1.526200</hAcc><vAcc>1.026259</vAcc></extensions></trkpt>
      <trkpt lon="-82.311237" lat="35.642444"><ele>788.632565</ele><time>2025-05-18T02:14:54Z</time><extensions><speed>1.121896</speed><course>358.680373</course><hAcc>1.500589</hAcc><vAcc>1.023487</vAcc></extensions></trkpt>
      <trkpt lon="-82.311237" lat="35.642454"><ele>788.793688</ele><time>2025-05-18T02:14:55Z</time><extensions><speed>1.144816</speed><course>3.489112</course><hAcc>1.480219</hAcc><vAcc>1.020629</vAcc></extensions></trkpt>
      <trkpt lon="-82.311236" lat="35.642465"><ele>788.927494</ele><time>2025-05-18T02:14:56Z</time><extensions><speed>1.137626</speed><course>3.892214</course><hAcc>1.466704</hAcc><vAcc>1.017326</vAcc></extensions></trkpt>
      <trkpt lon="-82.311235" lat="35.642475"><ele>789.037708</ele><time>2025-05-18T02:14:57Z</time><extensions><speed>1.225872</speed><course>1.666872</course><hAcc>1.457851</hAcc><vAcc>1.014513</vAcc></extensions></trkpt>
      <trkpt lon="-82.311235" lat="35.642486"><ele>789.142491</ele><time>2025-05-18T02:14:58Z</time><extensions><speed>1.168409</speed><course>357.973700</course><hAcc>1.463066</hAcc><vAcc>1.012282</vAcc></extensions></trkpt>
      <trkpt lon="-82.311236" lat="35.642496"><ele>789.237662</ele><time>2025-05-18T02:14:59Z</time><extensions><speed>0.966401</speed><course>354.573332</course><hAcc>1.470952</hAcc><vAcc>1.012688</vAcc></extensions></trkpt>
      <trkpt lon="-82.311236" lat="35.642504"><ele>789.345908</ele><time>2025-05-18T02:15:00Z</time><extensions><speed>0.957030</speed><course>0.383242</course><hAcc>1.471359</hAcc><vAcc>1.012915</vAcc></extensions></trkpt>
      <trkpt lon="-82.311236" lat="35.642513"><ele>789.439651</ele><time>2025-05-18T02:15:01Z</time><extensions><speed>0.939608</speed><course>5.238255</course><hAcc>1.463006</hAcc><vAcc>1.013920</vAcc></extensions></trkpt>
      <trkpt lon="-82.311235" lat="35.642521"><ele>789.527646</ele><time>2025-05-18T02:15:02Z</time><extensions><speed>0.951349</speed><course>6.052616</course><hAcc>1.455453</hAcc><vAcc>1.014164</vAcc></extensions></trkpt>
      <trkpt lon="-82.311234" lat="35.642530"><ele>789.595270</ele><time>2025-05-18T02:15:03Z</time><extensions><speed>1.102519</speed><course>7.192091</course><hAcc>1.480710</hAcc><vAcc>1.014007</vAcc></extensions></trkpt>
      <trkpt lon="-82.311232" lat="35.642540"><ele>789.659876</ele><time>2025-05-18T02:15:04Z</time><extensions><speed>1.022893</speed><course>6.702359</course><hAcc>1.507148</hAcc><vAcc>1.015044</vAcc></extensions></trkpt>
      <trkpt lon="-82.311231" lat="35.642549"><ele>789.720271</ele><time>2025-05-18T02:15:05Z</time><extensions><speed>0.933062</speed><course>4.704858</course><hAcc>1.474176</hAcc><vAcc>1.016001</vAcc></extensions></trkpt>
      <trkpt lon="-82.311231" lat="35.642557"><ele>789.800843</ele><time>2025-05-18T02:15:06Z</time><extensions><speed>0.939448</speed><course>1.652911</course><hAcc>1.469281</hAcc><vAcc>1.017575</vAcc></extensions></trkpt>
      <trkpt lon="-82.311231" lat="35.642565"><ele>789.756925</ele><time>2025-05-18T02:15:07Z</time><extensions><speed>0.820020</speed><course>358.268996</course><hAcc>1.454127</hAcc><vAcc>1.018304</vAcc></extensions></trkpt>
      <trkpt lon="-82.311231" lat="35.642572"><ele>789.715664</ele><time>2025-05-18T02:15:08Z</time><extensions><speed>0.764972</speed><course>359.510323</course><hAcc>1.433338</hAcc><vAcc>1.019624</vAcc></extensions></trkpt>
      <trkpt lon="-82.311231" lat="35.642579"><ele>789.653714</ele><time>2025-05-18T02:15:09Z</time><extensions><speed>0.834408</speed><course>1.321586</course><hAcc>1.440554</hAcc><vAcc>1.020858</vAcc></extensions></trkpt>
      <trkpt lon="-82.311230" lat="35.642587"><ele>789.600978</ele><time>2025-05-18T02:15:10Z</time><extensions><speed>0.836930</speed><course>2.749961</course><hAcc>1.439328</hAcc><vAcc>1.021795</vAcc></extensions></trkpt>
      <trkpt lon="-82.311230" lat="35.642594"><ele>789.539440</ele><time>2025-05-18T02:15:11Z</time><extensions><speed>0.833369</speed><course>5.016501</course><hAcc>1.439671</hAcc><vAcc>1.021643</vAcc></extensions></trkpt>
      <trkpt lon="-82.311228" lat="35.642602"><ele>789.501853</ele><time>2025-05-18T02:15:12Z</time><extensions><speed>0.893849</speed><course>9.585237</course><hAcc>1.436012</hAcc><vAcc>1.022655</vAcc></extensions></trkpt>
      <trkpt lon="-82.311227" lat="35.642610"><ele>789.461894</ele><time>2025-05-18T02:15:13Z</time><extensions><speed>0.886849</speed><course>9.963586</course><hAcc>1.435690</hAcc><vAcc>1.022743</vAcc></extensions></trkpt>
      <trkpt lon="-82.311225" lat="35.642618"><ele>789.430557</ele><time>2025-05-18T02:15:14Z</time><extensions><speed>0.798296</speed><course>8.095288</course><hAcc>1.426355</hAcc><vAcc>1.022108</vAcc></extensions></trkpt>
      <trkpt lon="-82.311224" lat="35.642625"><ele>789.433559</ele><time>2025-05-18T02:15:15Z</time><extensions><speed>0.805877</speed><course>11.151505</course><hAcc>1.432887</hAcc><vAcc>1.020090</vAcc></extensions></trkpt>
      <trkpt lon="-82.311221" lat="35.642632"><ele>789.465977</ele><time>2025-05-18T02:15:16Z</time><extensions><speed>0.846123</speed><course>20.425977</course><hAcc>1.439752</hAcc><vAcc>1.016670</vAcc></extensions></trkpt>
      <trkpt lon="-82.311216" lat="35.642639"><ele>789.506315</ele><time>2025-05-18T02:15:17Z</time><extensions><speed>1.000139</speed><course>36.047233</course><hAcc>1.436926</hAcc><vAcc>1.012172</vAcc></extensions></trkpt>
      <trkpt lon="-82.311208" lat="35.642646"><ele>789.554003</ele><time>2025-05-18T02:15:18Z</time><extensions><speed>1.210312</speed><course>44.078962</course><hAcc>1.431034</hAcc><vAcc>1.007319</vAcc></extensions></trkpt>
      <trkpt lon="-82.311199" lat="35.642655"><ele>789.623158</ele><time>2025-05-18T02:15:19Z</time><extensions><speed>1.331109</speed><course>43.563146</course><hAcc>1.434081</hAcc><vAcc>1.002392</vAcc></extensions></trkpt>
      <trkpt lon="-82.311189" lat="35.642664"><ele>789.718039</ele><time>2025-05-18T02:15:20Z</time><extensions><speed>1.289426</speed><course>38.862567</course><hAcc>1.441086</hAcc><vAcc>0.997893</vAcc></extensions></trkpt>
      <trkpt lon="-82.311181" lat="35.642672"><ele>789.842418</ele><time>2025-05-18T02:15:21Z</time><extensions><speed>1.156623</speed><course>35.062158</course><hAcc>1.440716</hAcc><vAcc>0.992798</vAcc></extensions></trkpt>
      <trkpt lon="-82.311174" lat="35.642680"><ele>789.993452</ele><time>2025-05-18T02:15:22Z</time><extensions><speed>0.901219</speed><course>38.257738</course><hAcc>1.435287</hAcc><vAcc>0.986102</vAcc></extensions></trkpt>
      <trkpt lon="-82.311168" lat="35.642686"><ele>790.161324</ele><time>2025-05-18T02:15:23Z</time><extensions><speed>0.823432</speed><course>46.517685</course><hAcc>1.438371</hAcc><vAcc>0.979174</vAcc></extensions></trkpt>
      <trkpt lon="-82.311161" lat="35.642691"><ele>790.321442</ele><time>2025-05-18T02:15:24Z</time><extensions><speed>0.894453</speed><course>53.200090</course><hAcc>1.453484</hAcc><vAcc>0.973605</vAcc></extensions></trkpt>
      <trkpt lon="-82.311152" lat="35.642695"><ele>790.481881</ele><time>2025-05-18T02:15:25Z</time><extensions><speed>0.917035</speed><course>60.879484</course><hAcc>1.462382</hAcc><vAcc>0.968529</vAcc></extensions></trkpt>
      <trkpt lon="-82.311143" lat="35.642698"><ele>790.653827</ele><time>2025-05-18T02:15:26Z</time><extensions><speed>0.861396</speed><course>68.926569</course><hAcc>1.454466</hAcc><vAcc>0.963321</vAcc></extensions></trkpt>
      <trkpt lon="-82.311134" lat="35.642701"><ele>790.846665</ele><time>2025-05-18T02:15:27Z</time><extensions><speed>0.912990</speed><course>69.716962</course><hAcc>1.436468</hAcc><vAcc>0.957643</vAcc></extensions></trkpt>
      <trkpt lon="-82.311124" lat="35.642705"><ele>791.031360</ele><time>2025-05-18T02:15:28Z</time><extensions><speed>1.035650</speed><course>66.316293</course><hAcc>1.427685</hAcc><vAcc>0.952794</vAcc></extensions></trkpt>
      <trkpt lon="-82.311114" lat="35.642709"><ele>791.216409</ele><time>2025-05-18T02:15:29Z</time><extensions><speed>1.074438</speed><course>61.369689</course><hAcc>1.434635</hAcc><vAcc>0.949013</vAcc></extensions></trkpt>
      <trkpt lon="-82.311104" lat="35.642713"><ele>791.408845</ele><time>2025-05-18T02:15:30Z</time><extensions><speed>0.999883</speed><course>60.274591</course><hAcc>1.438086</hAcc><vAcc>0.945765</vAcc></extensions></trkpt>
      <trkpt lon="-82.311094" lat="35.642718"><ele>791.611128</ele><time>2025-05-18T02:15:31Z</time><extensions><speed>1.074448</speed><course>62.847972</course><hAcc>1.390127</hAcc><vAcc>0.943829</vAcc></extensions></trkpt>
      <trkpt lon="-82.311082" lat="35.642722"><ele>791.807772</ele><time>2025-05-18T02:15:32Z</time><extensions><speed>1.165254</speed><course>63.394948</course><hAcc>1.365585</hAcc><vAcc>0.942721</vAcc></extensions></trkpt>
      <trkpt lon="-82.311070" lat="35.642727"><ele>792.007288</ele><time>2025-05-18T02:15:33Z</time><extensions><speed>1.280469</speed><course>61.477079</course><hAcc>1.366206</hAcc><vAcc>0.941557</vAcc></extensions></trkpt>
      <trkpt lon="-82.311058" lat="35.642733"><ele>792.194426</ele><time>2025-05-18T02:15:34Z</time><extensions><speed>1.236387</speed><course>59.766688</course><hAcc>1.375504</hAcc><vAcc>0.942070</vAcc></extensions></trkpt>
      <trkpt lon="-82.311046" lat="35.642739"><ele>792.371936</ele><time>2025-05-18T02:15:35Z</time><extensions><speed>1.269455</speed><course>57.334826</course><hAcc>1.377146</hAcc><vAcc>0.942597</vAcc></extensions></trkpt>
      <trkpt lon="-82.311035" lat="35.642745"><ele>792.545379</ele><time>2025-05-18T02:15:36Z</time><extensions><speed>1.220193</speed><course>57.759325</course><hAcc>1.339679</hAcc><vAcc>0.944349</vAcc></extensions></trkpt>
      <trkpt lon="-82.311024" lat="35.642750"><ele>792.713467</ele><time>2025-05-18T02:15:37Z</time><extensions><speed>1.103329</speed><course>60.980184</course><hAcc>1.302743</hAcc><vAcc>0.947310</vAcc></extensions></trkpt>
      <trkpt lon="-82.311013" lat="35.642755"><ele>792.885048</ele><time>2025-05-18T02:15:38Z</time><extensions><speed>1.034741</speed><course>63.339881</course><hAcc>1.294384</hAcc><vAcc>0.949675</vAcc></extensions></trkpt>
      <trkpt lon="-82.311003" lat="35.642759"><ele>793.043391</ele><time>2025-05-18T02:15:39Z</time><extensions><speed>1.054116</speed><course>65.286026</course><hAcc>1.299282</hAcc><vAcc>0.953803</vAcc></extensions></trkpt>
      <trkpt lon="-82.310992" lat="35.642763"><ele>793.198943</ele><time>2025-05-18T02:15:40Z</time><extensions><speed>1.117079</speed><course>66.872043</course><hAcc>1.309012</hAcc><vAcc>0.957415</vAcc></extensions></trkpt>
      <trkpt lon="-82.310980" lat="35.642767"><ele>793.345000</ele><time>2025-05-18T02:15:41Z</time><extensions><speed>1.180618</speed><course>70.106953</course><hAcc>1.286652</hAcc><vAcc>0.960138</vAcc></extensions></trkpt>
      <trkpt lon="-82.310968" lat="35.642770"><ele>793.517840</ele><time>2025-05-18T02:15:42Z</time><extensions><speed>1.126828</speed><course>70.161440</course><hAcc>1.289031</hAcc><vAcc>0.963595</vAcc></extensions></trkpt>
      <trkpt lon="-82.310957" lat="35.642774"><ele>793.685606</ele><time>2025-05-18T02:15:43Z</time><extensions><speed>1.058182</speed><course>71.209697</course><hAcc>1.268717</hAcc><vAcc>0.967249</vAcc></extensions></trkpt>
      <trkpt lon="-82.310946" lat="35.642777"><ele>793.864133</ele><time>2025-05-18T02:15:44Z</time><extensions><speed>1.028874</speed><course>68.568015</course><hAcc>1.299720</hAcc><vAcc>0.970315</vAcc></extensions></trkpt>
      <trkpt lon="-82.310935" lat="35.642781"><ele>794.026814</ele><time>2025-05-18T02:15:45Z</time><extensions><speed>1.258309</speed><course>61.177098</course><hAcc>1.279524</hAcc><vAcc>0.973213</vAcc></extensions></trkpt>
      <trkpt lon="-82.310922" lat="35.642787"><ele>794.200570</ele><time>2025-05-18T02:15:46Z</time><extensions><speed>1.300415</speed><course>58.809671</course><hAcc>1.297862</hAcc><vAcc>0.975262</vAcc></extensions></trkpt>
      <trkpt lon="-82.310911" lat="35.642793"><ele>794.375419</ele><time>2025-05-18T02:15:47Z</time><extensions><speed>1.106270</speed><course>57.921770</course><hAcc>1.319410</hAcc><vAcc>0.975493</vAcc></extensions></trkpt>
      <trkpt lon="-82.310902" lat="35.642798"><ele>794.559807</ele><time>2025-05-18T02:15:48Z</time><extensions><speed>0.965497</speed><course>49.804858</course><hAcc>1.291417</hAcc><vAcc>0.976983</vAcc></extensions></trkpt>
      <trkpt lon="-82.310894" lat="35.642804"><ele>794.757088</ele><time>2025-05-18T02:15:49Z</time><extensions><speed>0.954420</speed><course>47.292966</course><hAcc>1.320246</hAcc><vAcc>0.979554</vAcc></extensions></trkpt>
      <trkpt lon="-82.310886" lat="35.642811"><ele>794.958153</ele><time>2025-05-18T02:15:50Z</time><extensions><speed>1.102958</speed><course>39.523719</course><hAcc>1.318602</hAcc><vAcc>0.981142</vAcc></extensions></trkpt>
      <trkpt lon="-82.310879" lat="35.642819"><ele>795.146438</ele><time>2025-05-18T02:15:51Z</time><extensions><speed>1.070720</speed><course>34.704548</course><hAcc>1.317042</hAcc><vAcc>0.982589</vAcc></extensions></trkpt>
      <trkpt lon="-82.310872" lat="35.642826"><ele>795.337653</ele><time>2025-05-18T02:15:52Z</time><extensions><speed>1.054674</speed><course>32.941512</course><hAcc>1.320510</hAcc><vAcc>0.983993</vAcc></extensions></trkpt>
      <trkpt lon="-82.310866" lat="35.642834"><ele>795.536931</ele><time>2025-05-18T02:15:53Z</time><extensions><speed>1.098117</speed><course>38.213552</course><hAcc>1.357860</hAcc><vAcc>0.984897</vAcc></extensions></trkpt>
      <trkpt lon="-82.310858" lat="35.642842"><ele>795.726972</ele><time>2025-05-18T02:15:54Z</time><extensions><speed>1.144554</speed><course>37.188765</course><hAcc>1.350411</hAcc><vAcc>0.986426</vAcc></extensions></trkpt>
      <trkpt lon="-82.310851" lat="35.642850"><ele>795.887108</ele><time>2025-05-18T02:15:55Z</time><extensions><speed>0.966170</speed><course>36.681843</course><hAcc>1.351011</hAcc><vAcc>0.987596</vAcc></extensions></trkpt>
      <trkpt lon="-82.310845" lat="35.642856"><ele>796.042645</ele><time>2025-05-18T02:15:56Z</time><extensions><speed>0.770840</speed><course>42.873661</course><hAcc>1.331183</hAcc><vAcc>0.988784</vAcc></extensions></trkpt>
      <trkpt lon="-82.310838" lat="35.642861"><ele>796.189477</ele><time>2025-05-18T02:15:57Z</time><extensions><speed>0.860195</speed><course>48.613603</course><hAcc>1.343791</hAcc><vAcc>0.990527</vAcc></extensions></trkpt>
      <trkpt lon="-82.310832" lat="35.642866"><ele>796.311137</ele><time>2025-05-18T02:15:58Z</time><extensions><speed>0.763860</speed><course>50.389063</course><hAcc>1.362508</hAcc><vAcc>0.993158</vAcc></extensions></trkpt>
      <trkpt lon="-82.310825" lat="35.642870"><ele>796.399310</ele><time>2025-05-18T02:15:59Z</time><extensions><speed>0.741127</speed><course>48.492802</course><hAcc>1.376222</hAcc><vAcc>0.995605</vAcc></extensions></trkpt>
      <trkpt lon="-82.310819" lat="35.642875"><ele>796.476542</ele><time>2025-05-18T02:16:00Z</time><extensions><speed>0.774890</speed><course>44.915887</course><hAcc>1.373721</hAcc><vAcc>0.997964</vAcc></extensions></trkpt>
      <trkpt lon="-82.310813" lat="35.642880"><ele>796.531627</ele><time>2025-05-18T02:16:01Z</time><extensions><speed>0.780943</speed><course>40.470662</course><hAcc>1.380418</hAcc><vAcc>1.000275</vAcc></extensions></trkpt>
      <trkpt lon="-82.310808" lat="35.642885"><ele>796.570320</ele><time>2025-05-18T02:16:02Z</time><extensions><speed>0.700163</speed><course>35.797025</course><hAcc>1.371742</hAcc><vAcc>1.002162</vAcc></extensions></trkpt>
      <trkpt lon="-82.310804" lat="35.642890"><ele>796.558491</ele><time>2025-05-18T02:16:03Z</time><extensions><speed>0.712931</speed><course>35.520098</course><hAcc>1.377590</hAcc><vAcc>1.002717</vAcc></extensions></trkpt>
      <trkpt lon="-82.310799" lat="35.642896"><ele>796.529203</ele><time>2025-05-18T02:16:04Z</time><extensions><speed>0.765599</speed><course>36.080519</course><hAcc>1.390629</hAcc><vAcc>1.003118</vAcc></extensions></trkpt>
      <trkpt lon="-82.310795" lat="35.642901"><ele>796.495529</ele><time>2025-05-18T02:16:05Z</time><extensions><speed>0.650406</speed><course>34.645717</course><hAcc>1.388028</hAcc><vAcc>1.003483</vAcc></extensions></trkpt>
      <trkpt lon="-82.310791" lat="35.642906"><ele>796.454708</ele><time>2025-05-18T02:16:06Z</time><extensions><speed>0.649891</speed><course>27.135727</course><hAcc>1.385901</hAcc><vAcc>1.003815</vAcc></extensions></trkpt>
      <trkpt lon="-82.310788" lat="35.642912"><ele>796.412108</ele><time>2025-05-18T02:16:07Z</time><extensions><speed>0.729281</speed><course>15.257270</course><hAcc>1.396721</hAcc><vAcc>1.002951</vAcc></extensions></trkpt>
      <trkpt lon="-82.310787" lat="35.642918"><ele>796.349995</ele><time>2025-05-18T02:16:08Z</time><extensions><speed>0.738950</speed><course>9.258991</course><hAcc>1.422023</hAcc><vAcc>1.000434</vAcc></extensions></trkpt>
      <trkpt lon="-82.310786" lat="35.642925"><ele>796.255440</ele><time>2025-05-18T02:16:09Z</time><extensions><speed>0.669000</speed><course>357.901440</course><hAcc>1.403994</hAcc><vAcc>0.996903</vAcc></extensions></trkpt>
      <trkpt lon="-82.310787" lat="35.642931"><ele>796.160796</ele><time>2025-05-18T02:16:10Z</time><extensions><speed>0.662809</speed><course>350.938779</course><hAcc>1.409366</hAcc><vAcc>0.993257</vAcc></extensions></trkpt>
      <trkpt lon="-82.310788" lat="35.642937"><ele>796.062901</ele><time>2025-05-18T02:16:11Z</time><extensions><speed>0.708140</speed><course>344.741541</course><hAcc>1.414522</hAcc><vAcc>0.989619</vAcc></extensions></trkpt>
      <trkpt lon="-82.310791" lat="35.642943"><ele>795.945589</ele><time>2025-05-18T02:16:12Z</time><extensions><speed>0.703894</speed><course>333.920196</course><hAcc>1.414715</hAcc><vAcc>0.984393</vAcc></extensions></trkpt>
      <trkpt lon="-82.310795" lat="35.642948"><ele>795.822133</ele><time>2025-05-18T02:16:13Z</time><extensions><speed>0.679503</speed><course>321.717905</course><hAcc>1.422171</hAcc><vAcc>0.978478</vAcc></extensions></trkpt>
      <trkpt lon="-82.310800" lat="35.642952"><ele>795.713355</ele><time>2025-05-18T02:16:14Z</time><extensions><speed>0.676584</speed><course>313.465843</course><hAcc>1.434971</hAcc><vAcc>0.973690</vAcc></extensions></trkpt>
      <trkpt lon="-82.310806" lat="35.642956"><ele>795.601599</ele><time>2025-05-18T02:16:15Z</time><extensions><speed>0.704940</speed><course>306.222001</course><hAcc>1.434261</hAcc><vAcc>0.968277</vAcc></extensions></trkpt>
      <trkpt lon="-82.310813" lat="35.642960"><ele>795.496631</ele><time>2025-05-18T02:16:16Z</time><extensions><speed>0.800704</speed><course>301.024975</course><hAcc>1.427755</hAcc><vAcc>0.961552</vAcc></extensions></trkpt>
      <trkpt lon="-82.310821" lat="35.642963"><ele>795.385074</ele><time>2025-05-18T02:16:17Z</time><extensions><speed>0.849564</speed><course>288.170709</course><hAcc>1.414481</hAcc><vAcc>0.956081</vAcc></extensions></trkpt>
      <trkpt lon="-82.310830" lat="35.642965"><ele>795.276675</ele><time>2025-05-18T02:16:18Z</time><extensions><speed>0.858335</speed><course>278.166312</course><hAcc>1.408972</hAcc><vAcc>0.951419</vAcc></extensions></trkpt>
      <trkpt lon="-82.310840" lat="35.642966"><ele>795.189363</ele><time>2025-05-18T02:16:19Z</time><extensions><speed>0.927120</speed><course>275.664920</course><hAcc>1.408537</hAcc><vAcc>0.945311</vAcc></extensions></trkpt>
      <trkpt lon="-82.310850" lat="35.642966"><ele>795.110243</ele><time>2025-05-18T02:16:20Z</time><extensions><speed>0.923198</speed><course>272.101369</course><hAcc>1.419149</hAcc><vAcc>0.940563</vAcc></extensions></trkpt>
      <trkpt lon="-82.310860" lat="35.642966"><ele>795.049791</ele><time>2025-05-18T02:16:21Z</time><extensions><speed>0.737001</speed><course>260.760344</course><hAcc>1.401948</hAcc><vAcc>0.936148</vAcc></extensions></trkpt>
      <trkpt lon="-82.310868" lat="35.642965"><ele>794.995909</ele><time>2025-05-18T02:16:22Z</time><extensions><speed>0.909841</speed><course>256.470544</course><hAcc>1.380958</hAcc><vAcc>0.931805</vAcc></extensions></trkpt>
      <trkpt lon="-82.310879" lat="35.642962"><ele>794.941330</ele><time>2025-05-18T02:16:23Z</time><extensions><speed>1.038933</speed><course>255.654375</course><hAcc>1.386105</hAcc><vAcc>0.927097</vAcc></extensions></trkpt>
      <trkpt lon="-82.310889" lat="35.642960"><ele>794.897942</ele><time>2025-05-18T02:16:24Z</time><extensions><speed>0.829666</speed><course>254.640769</course><hAcc>1.384306</hAcc><vAcc>0.922999</vAcc></extensions></trkpt>
      <trkpt lon="-82.310897" lat="35.642959"><ele>794.868548</ele><time>2025-05-18T02:16:25Z</time><extensions><speed>0.744777</speed><course>259.789308</course><hAcc>1.371278</hAcc><vAcc>0.918978</vAcc></extensions></trkpt>
      <trkpt lon="-82.310907" lat="35.642957"><ele>794.848890</ele><time>2025-05-18T02:16:26Z</time><extensions><speed>0.939979</speed><course>261.800605</course><hAcc>1.371272</hAcc><vAcc>0.914809</vAcc></extensions></trkpt>
      <trkpt lon="-82.310917" lat="35.642956"><ele>794.823262</ele><time>2025-05-18T02:16:27Z</time><extensions><speed>0.903295</speed><course>262.095678</course><hAcc>1.382597</hAcc><vAcc>0.911045</vAcc></extensions></trkpt>
      <trkpt lon="-82.310925" lat="35.642955"><ele>794.799702</ele><time>2025-05-18T02:16:28Z</time><extensions><speed>0.686045</speed><course>263.063906</course><hAcc>1.369345</hAcc><vAcc>0.907265</vAcc></extensions></trkpt>
      <trkpt lon="-82.310935" lat="35.642955"><ele>794.795559</ele><time>2025-05-18T02:16:29Z</time><extensions><speed>0.821379</speed><course>269.272147</course><hAcc>1.327386</hAcc><vAcc>0.900751</vAcc></extensions></trkpt>
      <trkpt lon="-82.310943" lat="35.642955"><ele>794.805442</ele><time>2025-05-18T02:16:30Z</time><extensions><speed>0.915834</speed><course>270.514363</course><hAcc>1.333474</hAcc><vAcc>0.891711</vAcc></extensions></trkpt>
      <trkpt lon="-82.310954" lat="35.642955"><ele>794.831077</ele><time>2025-05-18T02:16:31Z</time><extensions><speed>1.026693</speed><course>270.461326</course><hAcc>1.351014</hAcc><vAcc>0.883979</vAcc></extensions></trkpt>
      <trkpt lon="-82.310965" lat="35.642955"><ele>794.837188</ele><time>2025-05-18T02:16:32Z</time><extensions><speed>1.025331</speed><course>271.507140</course><hAcc>1.333938</hAcc><vAcc>0.875876</vAcc></extensions></trkpt>
      <trkpt lon="-82.310976" lat="35.642955"><ele>794.883975</ele><time>2025-05-18T02:16:33Z</time><extensions><speed>1.020297</speed><course>270.386031</course><hAcc>1.338960</hAcc><vAcc>0.867378</vAcc></extensions></trkpt>
      <trkpt lon="-82.310987" lat="35.642955"><ele>794.941441</ele><time>2025-05-18T02:16:34Z</time><extensions><speed>0.944956</speed><course>269.975644</course><hAcc>1.335987</hAcc><vAcc>0.858497</vAcc></extensions></trkpt>
      <trkpt lon="-82.310997" lat="35.642955"><ele>795.007930</ele><time>2025-05-18T02:16:35Z</time><extensions><speed>0.845962</speed><course>272.411048</course><hAcc>1.318370</hAcc><vAcc>0.850166</vAcc></extensions></trkpt>
      <trkpt lon="-82.311006" lat="35.642956"><ele>795.090154</ele><time>2025-05-18T02:16:36Z</time><extensions><speed>0.774420</speed><course>277.327712</course><hAcc>1.317151</hAcc><vAcc>0.842117</vAcc></extensions></trkpt>
      <trkpt lon="-82.311014" lat="35.642957"><ele>795.196203</ele><time>2025-05-18T02:16:37Z</time><extensions><speed>0.676498</speed><course>286.113299</course><hAcc>1.326816</hAcc><vAcc>0.834636</vAcc></extensions></trkpt>
      <trkpt lon="-82.311020" lat="35.642960"><ele>795.338118</ele><time>2025-05-18T02:16:38Z</time><extensions><speed>0.530975</speed><course>301.605081</course><hAcc>1.344580</hAcc><vAcc>0.827633</vAcc></extensions></trkpt>
      <trkpt lon="-82.311024" lat="35.642962"><ele>795.479542</ele><time>2025-05-18T02:16:39Z</time><extensions><speed>0.415207</speed><course>318.042895</course><hAcc>1.356837</hAcc><vAcc>0.821958</vAcc></extensions></trkpt>
      <trkpt lon="-82.311027" lat="35.642965"><ele>795.631445</ele><time>2025-05-18T02:16:40Z</time><extensions><speed>0.331448</speed><course>314.069834</course><hAcc>1.368630</hAcc><vAcc>0.818150</vAcc></extensions></trkpt>
      <trkpt lon="-82.311029" lat="35.642966"><ele>795.797547</ele><time>2025-05-18T02:16:41Z</time><extensions><speed>0.259425</speed><course>287.938449</course><hAcc>1.409554</hAcc><vAcc>0.816346</vAcc></extensions></trkpt>
      <trkpt lon="-82.311032" lat="35.642966"><ele>795.974658</ele><time>2025-05-18T02:16:42Z</time><extensions><speed>0.297445</speed><course>234.426612</course><hAcc>1.448414</hAcc><vAcc>0.817382</vAcc></extensions></trkpt>
      <trkpt lon="-82.311034" lat="35.642963"><ele>796.150205</ele><time>2025-05-18T02:16:43Z</time><extensions><speed>0.416871</speed><course>194.970348</course><hAcc>1.465658</hAcc><vAcc>0.820162</vAcc></extensions></trkpt>
      <trkpt lon="-82.311035" lat="35.642959"><ele>796.316469</ele><time>2025-05-18T02:16:44Z</time><extensions><speed>0.479464</speed><course>184.541947</course><hAcc>1.482680</hAcc><vAcc>0.824517</vAcc></extensions></trkpt>
      <trkpt lon="-82.311035" lat="35.642955"><ele>796.482016</ele><time>2025-05-18T02:16:45Z</time><extensions><speed>0.451181</speed><course>188.633222</course><hAcc>1.490758</hAcc><vAcc>0.831563</vAcc></extensions></trkpt>
      <trkpt lon="-82.311037" lat="35.642951"><ele>796.642783</ele><time>2025-05-18T02:16:46Z</time><extensions><speed>0.360094</speed><course>202.325949</course><hAcc>1.495310</hAcc><vAcc>0.840666</vAcc></extensions></trkpt>
      <trkpt lon="-82.311039" lat="35.642949"><ele>796.796094</ele><time>2025-05-18T02:16:47Z</time><extensions><speed>0.322154</speed><course>231.958105</course><hAcc>1.498131</hAcc><vAcc>0.851774</vAcc></extensions></trkpt>
      <trkpt lon="-82.311042" lat="35.642948"><ele>796.936371</ele><time>2025-05-18T02:16:48Z</time><extensions><speed>0.362815</speed><course>258.006989</course><hAcc>1.514524</hAcc><vAcc>0.863105</vAcc></extensions></trkpt>
      <trkpt lon="-82.311047" lat="35.642948"><ele>797.064837</ele><time>2025-05-18T02:16:49Z</time><extensions><speed>0.473929</speed><course>276.672350</course><hAcc>1.549648</hAcc><vAcc>0.876055</vAcc></extensions></trkpt>
      <trkpt lon="-82.311052" lat="35.642949"><ele>797.162130</ele><time>2025-05-18T02:16:50Z</time><extensions><speed>0.473079</speed><course>292.623434</course><hAcc>1.590092</hAcc><vAcc>0.887216</vAcc></extensions></trkpt>
      <trkpt lon="-82.311055" lat="35.642950"><ele>797.227311</ele><time>2025-05-18T02:16:51Z</time><extensions><speed>0.324967</speed><course>306.632709</course><hAcc>1.630489</hAcc><vAcc>0.897192</vAcc></extensions></trkpt>
      <trkpt lon="-82.311058" lat="35.642952"><ele>797.278779</ele><time>2025-05-18T02:16:52Z</time><extensions><speed>0.185353</speed><course>321.621947</course><hAcc>1.673098</hAcc><vAcc>0.907744</vAcc></extensions></trkpt>
      <trkpt lon="-82.311058" lat="35.642953"><ele>797.325252</ele><time>2025-05-18T02:16:53Z</time><extensions><speed>0.070884</speed><course>9.140244</course><hAcc>1.724642</hAcc><vAcc>0.922299</vAcc></extensions></trkpt>
      <trkpt lon="-82.311058" lat="35.642954"><ele>797.355467</ele><time>2025-05-18T02:16:54Z</time><extensions><speed>0.079386</speed><course>51.728431</course><hAcc>1.760796</hAcc><vAcc>0.938419</vAcc></extensions></trkpt>
      <trkpt lon="-82.311057" lat="35.642954"><ele>797.367633</ele><time>2025-05-18T02:16:55Z</time><extensions><speed>0.091752</speed><course>50.328436</course><hAcc>1.777074</hAcc><vAcc>0.950464</vAcc></extensions></trkpt>
      <trkpt lon="-82.311056" lat="35.642955"><ele>797.374396</ele><time>2025-05-18T02:16:56Z</time><extensions><speed>0.110227</speed><course>35.098587</course><hAcc>1.782656</hAcc><vAcc>0.961158</vAcc></extensions></trkpt>
      <trkpt lon="-82.311055" lat="35.642956"><ele>797.378711</ele><time>2025-05-18T02:16:57Z</time><extensions><speed>0.148441</speed><course>20.399296</course><hAcc>1.788452</hAcc><vAcc>0.970986</vAcc></extensions></trkpt>
      <trkpt lon="-82.311055" lat="35.642957"><ele>797.355833</ele><time>2025-05-18T02:16:58Z</time><extensions><speed>0.206061</speed><course>11.945030</course><hAcc>1.797549</hAcc><vAcc>0.977012</vAcc></extensions></trkpt>
      <trkpt lon="-82.311054" lat="35.642959"><ele>797.333276</ele><time>2025-05-18T02:16:59Z</time><extensions><speed>0.270006</speed><course>8.152165</course><hAcc>1.808969</hAcc><vAcc>0.977534</vAcc></extensions></trkpt>
      <trkpt lon="-82.311054" lat="35.642962"><ele>797.313609</ele><time>2025-05-18T02:17:00Z</time><extensions><speed>0.321304</speed><course>7.281872</course><hAcc>1.822056</hAcc><vAcc>0.977901</vAcc></extensions></trkpt>
      <trkpt lon="-82.311053" lat="35.642965"><ele>797.316795</ele><time>2025-05-18T02:17:01Z</time><extensions><speed>0.315537</speed><course>10.300098</course><hAcc>1.852345</hAcc><vAcc>0.979366</vAcc></extensions></trkpt>
      <trkpt lon="-82.311052" lat="35.642967"><ele>797.313954</ele><time>2025-05-18T02:17:02Z</time><extensions><speed>0.224860</speed><course>36.221869</course><hAcc>1.914200</hAcc><vAcc>0.978049</vAcc></extensions></trkpt>
      <trkpt lon="-82.311050" lat="35.642968"><ele>797.316134</ele><time>2025-05-18T02:17:03Z</time><extensions><speed>0.197164</speed><course>76.167367</course><hAcc>1.991680</hAcc><vAcc>0.975130</vAcc></extensions></trkpt>
      <trkpt lon="-82.311048" lat="35.642967"><ele>797.300800</ele><time>2025-05-18T02:17:04Z</time><extensions><speed>0.280189</speed><course>115.501593</course><hAcc>2.067484</hAcc><vAcc>0.968958</vAcc></extensions></trkpt>
      <trkpt lon="-82.311045" lat="35.642966"><ele>797.317169</ele><time>2025-05-18T02:17:05Z</time><extensions><speed>0.335474</speed><course>128.835194</course><hAcc>2.118174</hAcc><vAcc>0.958594</vAcc></extensions></trkpt>
      <trkpt lon="-82.311042" lat="35.642964"><ele>797.342143</ele><time>2025-05-18T02:17:06Z</time><extensions><speed>0.346076</speed><course>136.571174</course><hAcc>2.154072</hAcc><vAcc>0.946601</vAcc></extensions></trkpt>
      <trkpt lon="-82.311040" lat="35.642961"><ele>797.375930</ele><time>2025-05-18T02:17:07Z</time><extensions><speed>0.326093</speed><course>143.526435</course><hAcc>2.177573</hAcc><vAcc>0.933125</vAcc></extensions></trkpt>
      <trkpt lon="-82.311038" lat="35.642959"><ele>797.417354</ele><time>2025-05-18T02:17:08Z</time><extensions><speed>0.333401</speed><course>149.383476</course><hAcc>2.187783</hAcc><vAcc>0.918481</vAcc></extensions></trkpt>
      <trkpt lon="-82.311036" lat="35.642956"><ele>797.462469</ele><time>2025-05-18T02:17:09Z</time><extensions><speed>0.311635</speed><course>154.278408</course><hAcc>2.194248</hAcc><vAcc>0.903091</vAcc></extensions></trkpt>
      <trkpt lon="-82.311035" lat="35.642954"><ele>797.522089</ele><time>2025-05-18T02:17:10Z</time><extensions><speed>0.272646</speed><course>157.900079</course><hAcc>2.209421</hAcc><vAcc>0.887365</vAcc></extensions></trkpt>
      <trkpt lon="-82.311034" lat="35.642952"><ele>797.595674</ele><time>2025-05-18T02:17:11Z</time><extensions><speed>0.180318</speed><course>163.611848</course><hAcc>2.236421</hAcc><vAcc>0.871597</vAcc></extensions></trkpt>
      <trkpt lon="-82.311033" lat="35.642951"><ele>797.675343</ele><time>2025-05-18T02:17:12Z</time><extensions><speed>0.113079</speed><course>162.444109</course><hAcc>2.275818</hAcc><vAcc>0.856004</vAcc></extensions></trkpt>
      <trkpt lon="-82.311033" lat="35.642950"><ele>797.762872</ele><time>2025-05-18T02:17:13Z</time><extensions><speed>0.035902</speed><course>183.410569</course><hAcc>2.328144</hAcc><vAcc>0.840828</vAcc></extensions></trkpt>
      <trkpt lon="-82.311034" lat="35.642950"><ele>797.857732</ele><time>2025-05-18T02:17:14Z</time><extensions><speed>0.039465</speed><course>272.036650</course><hAcc>2.403676</hAcc><vAcc>0.826382</vAcc></extensions></trkpt>
      <trkpt lon="-82.311035" lat="35.642949"><ele>797.951770</ele><time>2025-05-18T02:17:15Z</time><extensions><speed>0.081173</speed><course>220.123428</course><hAcc>2.512635</hAcc><vAcc>0.813039</vAcc></extensions></trkpt>
      <trkpt lon="-82.311036" lat="35.642949"><ele>798.053782</ele><time>2025-05-18T02:17:16Z</time><extensions><speed>0.139540</speed><course>216.147544</course><hAcc>2.651416</hAcc><vAcc>0.801150</vAcc></extensions></trkpt>
      <trkpt lon="-82.311038" lat="35.642949"><ele>798.170065</ele><time>2025-05-18T02:17:17Z</time><extensions><speed>0.201516</speed><course>233.333592</course><hAcc>2.808779</hAcc><vAcc>0.790929</vAcc></extensions></trkpt>
      <trkpt lon="-82.311040" lat="35.642948"><ele>798.292318</ele><time>2025-05-18T02:17:18Z</time><extensions><speed>0.294836</speed><course>259.454550</course><hAcc>2.972925</hAcc><vAcc>0.783246</vAcc></extensions></trkpt>
      <trkpt lon="-82.311044" lat="35.642949"><ele>798.419851</ele><time>2025-05-18T02:17:19Z</time><extensions><speed>0.474200</speed><course>280.091684</course><hAcc>3.132305</hAcc><vAcc>0.777905</vAcc></extensions></trkpt>
      <trkpt lon="-82.311051" lat="35.642951"><ele>798.553721</ele><time>2025-05-18T02:17:20Z</time><extensions><speed>0.715366</speed><course>293.580028</course><hAcc>3.276539</hAcc><vAcc>0.774483</vAcc></extensions></trkpt>
      <trkpt lon="-82.311059" lat="35.642955"><ele>798.702773</ele><time>2025-05-18T02:17:21Z</time><extensions><speed>0.929884</speed><course>302.108950</course><hAcc>3.389346</hAcc><vAcc>0.771958</vAcc></extensions></trkpt>
      <trkpt lon="-82.311068" lat="35.642960"><ele>798.857868</ele><time>2025-05-18T02:17:22Z</time><extensions><speed>1.074873</speed><course>307.962333</course><hAcc>3.449246</hAcc><vAcc>0.770710</vAcc></extensions></trkpt>
      <trkpt lon="-82.311077" lat="35.642967"><ele>799.020321</ele><time>2025-05-18T02:17:23Z</time><extensions><speed>1.174021</speed><course>312.907545</course><hAcc>3.437696</hAcc><vAcc>0.770506</vAcc></extensions></trkpt>
      <trkpt lon="-82.311087" lat="35.642975"><ele>799.195532</ele><time>2025-05-18T02:17:24Z</time><extensions><speed>1.219563</speed><course>317.410811</course><hAcc>3.356796</hAcc><vAcc>0.771106</vAcc></extensions></trkpt>
      <trkpt lon="-82.311095" lat="35.642983"><ele>799.375444</ele><time>2025-05-18T02:17:25Z</time><extensions><speed>1.097363</speed><course>322.592259</course><hAcc>3.230234</hAcc><vAcc>0.772259</vAcc></extensions></trkpt>
      <trkpt lon="-82.311101" lat="35.642990"><ele>799.549303</ele><time>2025-05-18T02:17:26Z</time><extensions><speed>0.888962</speed><course>328.820811</course><hAcc>3.083988</hAcc><vAcc>0.774321</vAcc></extensions></trkpt>
      <trkpt lon="-82.311106" lat="35.642996"><ele>799.734859</ele><time>2025-05-18T02:17:27Z</time><extensions><speed>0.740455</speed><course>334.311989</course><hAcc>2.927907</hAcc><vAcc>0.776570</vAcc></extensions></trkpt>
      <trkpt lon="-82.311109" lat="35.643002"><ele>799.929369</ele><time>2025-05-18T02:17:28Z</time><extensions><speed>0.664581</speed><course>336.302978</course><hAcc>2.786052</hAcc><vAcc>0.779571</vAcc></extensions></trkpt>
      <trkpt lon="-82.311111" lat="35.643007"><ele>800.098215</ele><time>2025-05-18T02:17:29Z</time><extensions><speed>0.587452</speed><course>338.359955</course><hAcc>2.654483</hAcc><vAcc>0.782938</vAcc></extensions></trkpt>
      <trkpt lon="-82.311113" lat="35.643012"><ele>800.244958</ele><time>2025-05-18T02:17:30Z</time><extensions><speed>0.521721</speed><course>339.478424</course><hAcc>2.575618</hAcc><vAcc>0.788404</vAcc></extensions></trkpt>
      <trkpt lon="-82.311114" lat="35.643015"><ele>800.394013</ele><time>2025-05-18T02:17:31Z</time><extensions><speed>0.302766</speed><course>346.722523</course><hAcc>2.539034</hAcc><vAcc>0.798425</vAcc></extensions></trkpt>
      <trkpt lon="-82.311113" lat="35.643017"><ele>800.526485</ele><time>2025-05-18T02:17:32Z</time><extensions><speed>0.176926</speed><course>15.072889</course><hAcc>2.524487</hAcc><vAcc>0.812364</vAcc></extensions></trkpt>
      <trkpt lon="-82.311111" lat="35.643018"><ele>800.644455</ele><time>2025-05-18T02:17:33Z</time><extensions><speed>0.207732</speed><course>62.327041</course><hAcc>2.534941</hAcc><vAcc>0.832070</vAcc></extensions></trkpt>
      <trkpt lon="-82.311108" lat="35.643018"><ele>800.741323</ele><time>2025-05-18T02:17:34Z</time><extensions><speed>0.366861</speed><course>85.599005</course><hAcc>2.581509</hAcc><vAcc>0.857254</vAcc></extensions></trkpt>
      <trkpt lon="-82.311102" lat="35.643018"><ele>800.816990</ele><time>2025-05-18T02:17:35Z</time><extensions><speed>0.603527</speed><course>97.422269</course><hAcc>2.643561</hAcc><vAcc>0.888122</vAcc></extensions></trkpt>
      <trkpt lon="-82.311094" lat="35.643017"><ele>800.865912</ele><time>2025-05-18T02:17:36Z</time><extensions><speed>0.847885</speed><course>100.969726</course><hAcc>2.682093</hAcc><vAcc>0.921808</vAcc></extensions></trkpt>
      <trkpt lon="-82.311084" lat="35.643016"><ele>800.926892</ele><time>2025-05-18T02:17:37Z</time><extensions><speed>1.067174</speed><course>100.193676</course><hAcc>2.673425</hAcc><vAcc>0.956631</vAcc></extensions></trkpt>
      <trkpt lon="-82.311071" lat="35.643014"><ele>800.975778</ele><time>2025-05-18T02:17:38Z</time><extensions><speed>1.217486</speed><course>100.235075</course><hAcc>2.640653</hAcc><vAcc>1.014698</vAcc></extensions></trkpt>
      <trkpt lon="-82.311058" lat="35.643012"><ele>801.013861</ele><time>2025-05-18T02:17:39Z</time><extensions><speed>1.186837</speed><course>98.650662</course><hAcc>2.607460</hAcc><vAcc>1.083322</vAcc></extensions></trkpt>
      <trkpt lon="-82.311047" lat="35.643010"><ele>801.043385</ele><time>2025-05-18T02:17:40Z</time><extensions><speed>0.887057</speed><course>101.755479</course><hAcc>2.582388</hAcc><vAcc>1.162763</vAcc></extensions></trkpt>
      <trkpt lon="-82.311039" lat="35.643009"><ele>801.066429</ele><time>2025-05-18T02:17:41Z</time><extensions><speed>0.672149</speed><course>103.635262</course><hAcc>2.559893</hAcc><vAcc>1.253325</vAcc></extensions></trkpt>
      <trkpt lon="-82.311032" lat="35.643008"><ele>801.084704</ele><time>2025-05-18T02:17:42Z</time><extensions><speed>0.489627</speed><course>104.329998</course><hAcc>2.548970</hAcc><vAcc>1.355603</vAcc></extensions></trkpt>
      <trkpt lon="-82.311028" lat="35.643007"><ele>801.099647</ele><time>2025-05-18T02:17:43Z</time><extensions><speed>0.346178</speed><course>103.720880</course><hAcc>2.562151</hAcc><vAcc>1.470521</vAcc></extensions></trkpt>
      <trkpt lon="-82.311025" lat="35.643006"><ele>801.112423</ele><time>2025-05-18T02:17:44Z</time><extensions><speed>0.231573</speed><course>101.256291</course><hAcc>2.615289</hAcc><vAcc>1.599236</vAcc></extensions></trkpt>
      <trkpt lon="-82.311023" lat="35.643006"><ele>801.123942</ele><time>2025-05-18T02:17:45Z</time><extensions><speed>0.140606</speed><course>95.221742</course><hAcc>2.723966</hAcc><vAcc>1.743055</vAcc></extensions></trkpt>
      <trkpt lon="-82.311021" lat="35.643006"><ele>801.134863</ele><time>2025-05-18T02:17:46Z</time><extensions><speed>0.080636</speed><course>82.236064</course><hAcc>2.913270</hAcc><vAcc>1.903346</vAcc></extensions></trkpt>
      <trkpt lon="-82.311021" lat="35.643006"><ele>801.145574</ele><time>2025-05-18T02:17:47Z</time><extensions><speed>0.048936</speed><course>69.911237</course><hAcc>3.245837</hAcc><vAcc>2.081429</vAcc></extensions></trkpt>
    </trkseg>
  </trk>
</gpx>