<?xml version="1.0" encoding="UTF-8"?>
<gpx version="1.1" creator="Apple Health Export" xmlns="http://www.topografix.com/GPX/1/1" xmlns:xsi="http://www.w3.org/2001/XMLSchema-instance" xsi:schemaLocation="http://www.topografix.com/GPX/1/1 http://www.topografix.com/GPX/1/1/gpx.xsd">
  <metadata>
    <time>2026-03-14T12:16:37Z</time>
  </metadata>
  <trk>
    <name>Route 2024-07-02 10:17am</name>
    <trkseg>
      <trkpt lon="-82.302644" lat="35.644300"><ele>797.120318</ele><time>2024-07-02T14:14:44Z</time><extensions><speed>0.041331</speed><course>215.322230</course><hAcc>2.817563</hAcc><vAcc>1.439208</vAcc></extensions></trkpt>
      <trkpt lon="-82.302645" lat="35.644299"><ele>797.126866</ele><time>2024-07-02T14:14:45Z</time><extensions><speed>0.058119</speed><course>215.280890</course><hAcc>2.667026</hAcc><vAcc>1.253302</vAcc></extensions></trkpt>
      <trkpt lon="-82.302646" lat="35.644298"><ele>797.160944</ele><time>2024-07-02T14:14:46Z</time><extensions><speed>0.080438</speed><course>215.964643</course><hAcc>2.546100</hAcc><vAcc>1.108741</vAcc></extensions></trkpt>
      <trkpt lon="-82.302647" lat="35.644297"><ele>797.089511</ele><time>2024-07-02T14:14:47Z</time><extensions><speed>0.142780</speed><course>217.867008</course><hAcc>2.440866</hAcc><vAcc>1.000763</vAcc></extensions></trkpt>
      <trkpt lon="-82.302649" lat="35.644296"><ele>796.960231</ele><time>2024-07-02T14:14:48Z</time><extensions><speed>0.165171</speed><course>214.038471</course><hAcc>2.342408</hAcc><vAcc>0.922815</vAcc></extensions></trkpt>
      <trkpt lon="-82.302650" lat="35.644295"><ele>796.799330</ele><time>2024-07-02T14:14:49Z</time><extensions><speed>0.178700</speed><course>208.748749</course><hAcc>2.261907</hAcc><vAcc>0.868818</vAcc></extensions></trkpt>
      <trkpt lon="-82.302652" lat="35.644293"><ele>796.619852</ele><time>2024-07-02T14:14:50Z</time><extensions><speed>0.214553</speed><course>201.658376</course><hAcc>2.192631</hAcc><vAcc>0.833100</vAcc></extensions></trkpt>
      <trkpt lon="-82.302653" lat="35.644291"><ele>796.428200</ele><time>2024-07-02T14:14:51Z</time><extensions><speed>0.248008</speed><course>194.872547</course><hAcc>2.145782</hAcc><vAcc>0.810605</vAcc></extensions></trkpt>
      <trkpt lon="-82.302653" lat="35.644288"><ele>796.227543</ele><time>2024-07-02T14:14:52Z</time><extensions><speed>0.369105</speed><course>181.164626</course><hAcc>2.113458</hAcc><vAcc>0.797106</vAcc></extensions></trkpt>
      <trkpt lon="-82.302654" lat="35.644285"><ele>796.019785</ele><time>2024-07-02T14:14:53Z</time><extensions><speed>0.272705</speed><course>179.635714</course><hAcc>2.085042</hAcc><vAcc>0.789299</vAcc></extensions></trkpt>
      <trkpt lon="-82.302654" lat="35.644283"><ele>795.806859</ele><time>2024-07-02T14:14:54Z</time><extensions><speed>0.189079</speed><course>185.364440</course><hAcc>2.058747</hAcc><vAcc>0.784740</vAcc></extensions></trkpt>
      <trkpt lon="-82.302654" lat="35.644282"><ele>795.591495</ele><time>2024-07-02T14:14:55Z</time><extensions><speed>0.140437</speed><course>194.703483</course><hAcc>2.034393</hAcc><vAcc>0.781746</vAcc></extensions></trkpt>
      <trkpt lon="-82.302655" lat="35.644281"><ele>795.378249</ele><time>2024-07-02T14:14:56Z</time><extensions><speed>0.100960</speed><course>204.631139</course><hAcc>2.015895</hAcc><vAcc>0.779317</vAcc></extensions></trkpt>
      <trkpt lon="-82.302656" lat="35.644280"><ele>795.172187</ele><time>2024-07-02T14:14:57Z</time><extensions><speed>0.075492</speed><course>220.839461</course><hAcc>2.000800</hAcc><vAcc>0.777007</vAcc></extensions></trkpt>
      <trkpt lon="-82.302656" lat="35.644280"><ele>794.977585</ele><time>2024-07-02T14:14:58Z</time><extensions><speed>0.059511</speed><course>235.009010</course><hAcc>1.990868</hAcc><vAcc>0.774677</vAcc></extensions></trkpt>
      <trkpt lon="-82.302657" lat="35.644280"><ele>794.797365</ele><time>2024-07-02T14:14:59Z</time><extensions><speed>0.050741</speed><course>245.126674</course><hAcc>1.981953</hAcc><vAcc>0.772323</vAcc></extensions></trkpt>
      <trkpt lon="-82.302657" lat="35.644279"><ele>794.633330</ele><time>2024-07-02T14:15:00Z</time><extensions><speed>0.041871</speed><course>258.364031</course><hAcc>1.979829</hAcc><vAcc>0.770005</vAcc></extensions></trkpt>
      <trkpt lon="-82.302658" lat="35.644279"><ele>794.486380</ele><time>2024-07-02T14:15:01Z</time><extensions><speed>0.027496</speed><course>262.527001</course><hAcc>1.987122</hAcc><vAcc>0.767797</vAcc></extensions></trkpt>
      <trkpt lon="-82.302658" lat="35.644279"><ele>794.356714</ele><time>2024-07-02T14:15:02Z</time><extensions><speed>0.029049</speed><course>263.798039</course><hAcc>1.972791</hAcc><vAcc>0.765766</vAcc></extensions></trkpt>
      <trkpt lon="-82.302659" lat="35.644279"><ele>794.243977</ele><time>2024-07-02T14:15:03Z</time><extensions><speed>0.033689</speed><course>264.061176</course><hAcc>1.955738</hAcc><vAcc>0.763959</vAcc></extensions></trkpt>
      <trkpt lon="-82.302659" lat="35.644279"><ele>794.147407</ele><time>2024-07-02T14:15:04Z</time><extensions><speed>0.031191</speed><course>264.122093</course><hAcc>1.956169</hAcc><vAcc>0.762400</vAcc></extensions></trkpt>
      <trkpt lon="-82.302659" lat="35.644279"><ele>794.065900</ele><time>2024-07-02T14:15:05Z</time><extensions><speed>0.027398</speed><course>264.140433</course><hAcc>1.961794</hAcc><vAcc>0.761126</vAcc></extensions></trkpt>
      <trkpt lon="-82.302660" lat="35.644279"><ele>793.997648</ele><time>2024-07-02T14:15:06Z</time><extensions><speed>0.024535</speed><course>264.146162</course><hAcc>1.967517</hAcc><vAcc>0.760540</vAcc></extensions></trkpt>
      <trkpt lon="-82.302660" lat="35.644279"><ele>793.941521</ele><time>2024-07-02T14:15:07Z</time><extensions><speed>0.018125</speed><course>264.148018</course><hAcc>1.981275</hAcc><vAcc>0.760803</vAcc></extensions></trkpt>
      <trkpt lon="-82.302662" lat="35.644278"><ele>793.919664</ele><time>2024-07-02T14:15:08Z</time><extensions><speed>0.042281</speed><course>240.663108</course><hAcc>1.981701</hAcc><vAcc>0.762156</vAcc></extensions></trkpt>
      <trkpt lon="-82.302664" lat="35.644276"><ele>793.914905</ele><time>2024-07-02T14:15:09Z</time><extensions><speed>0.070439</speed><course>234.041532</course><hAcc>1.983353</hAcc><vAcc>0.764866</vAcc></extensions></trkpt>
      <trkpt lon="-82.302666" lat="35.644275"><ele>793.922540</ele><time>2024-07-02T14:15:10Z</time><extensions><speed>0.105453</speed><course>230.765167</course><hAcc>1.985317</hAcc><vAcc>0.769226</vAcc></extensions></trkpt>
      <trkpt lon="-82.302668" lat="35.644273"><ele>793.941604</ele><time>2024-07-02T14:15:11Z</time><extensions><speed>0.130068</speed><course>228.588349</course><hAcc>1.993440</hAcc><vAcc>0.775557</vAcc></extensions></trkpt>
      <trkpt lon="-82.302670" lat="35.644271"><ele>793.968701</ele><time>2024-07-02T14:15:12Z</time><extensions><speed>0.194443</speed><course>226.628595</course><hAcc>1.989289</hAcc><vAcc>0.784132</vAcc></extensions></trkpt>
      <trkpt lon="-82.302672" lat="35.644269"><ele>794.001127</ele><time>2024-07-02T14:15:13Z</time><extensions><speed>0.218098</speed><course>225.032677</course><hAcc>2.002310</hAcc><vAcc>0.795139</vAcc></extensions></trkpt>
      <trkpt lon="-82.302674" lat="35.644267"><ele>794.037416</ele><time>2024-07-02T14:15:14Z</time><extensions><speed>0.265463</speed><course>223.726748</course><hAcc>2.011118</hAcc><vAcc>0.808711</vAcc></extensions></trkpt>
      <trkpt lon="-82.302676" lat="35.644265"><ele>794.075140</ele><time>2024-07-02T14:15:15Z</time><extensions><speed>0.325882</speed><course>222.380406</course><hAcc>2.019883</hAcc><vAcc>0.824797</vAcc></extensions></trkpt>
      <trkpt lon="-82.302679" lat="35.644262"><ele>794.112558</ele><time>2024-07-02T14:15:16Z</time><extensions><speed>0.405274</speed><course>221.162686</course><hAcc>2.033488</hAcc><vAcc>0.843156</vAcc></extensions></trkpt>
      <trkpt lon="-82.302683" lat="35.644259"><ele>794.142071</ele><time>2024-07-02T14:15:17Z</time><extensions><speed>0.651926</speed><course>220.199661</course><hAcc>2.042407</hAcc><vAcc>0.863371</vAcc></extensions></trkpt>
      <trkpt lon="-82.302690" lat="35.644252"><ele>794.167212</ele><time>2024-07-02T14:15:18Z</time><extensions><speed>1.406940</speed><course>219.546057</course><hAcc>2.050433</hAcc><vAcc>0.884796</vAcc></extensions></trkpt>
      <trkpt lon="-82.302700" lat="35.644241"><ele>794.182645</ele><time>2024-07-02T14:15:19Z</time><extensions><speed>1.559458</speed><course>220.583209</course><hAcc>2.069966</hAcc><vAcc>0.906764</vAcc></extensions></trkpt>
      <trkpt lon="-82.302710" lat="35.644230"><ele>794.187725</ele><time>2024-07-02T14:15:20Z</time><extensions><speed>1.509033</speed><course>219.523607</course><hAcc>2.080505</hAcc><vAcc>0.928715</vAcc></extensions></trkpt>
      <trkpt lon="-82.302720" lat="35.644220"><ele>794.181785</ele><time>2024-07-02T14:15:21Z</time><extensions><speed>1.458613</speed><course>217.786256</course><hAcc>2.079441</hAcc><vAcc>0.950170</vAcc></extensions></trkpt>
      <trkpt lon="-82.302729" lat="35.644209"><ele>794.173815</ele><time>2024-07-02T14:15:22Z</time><extensions><speed>1.396631</speed><course>215.167843</course><hAcc>2.076289</hAcc><vAcc>0.970691</vAcc></extensions></trkpt>
      <trkpt lon="-82.302737" lat="35.644199"><ele>794.155388</ele><time>2024-07-02T14:15:23Z</time><extensions><speed>1.266024</speed><course>214.477749</course><hAcc>2.117245</hAcc><vAcc>0.989995</vAcc></extensions></trkpt>
      <trkpt lon="-82.302745" lat="35.644190"><ele>794.132218</ele><time>2024-07-02T14:15:24Z</time><extensions><speed>1.150739</speed><course>213.155299</course><hAcc>2.149008</hAcc><vAcc>1.007893</vAcc></extensions></trkpt>
      <trkpt lon="-82.302751" lat="35.644182"><ele>794.105429</ele><time>2024-07-02T14:15:25Z</time><extensions><speed>1.088523</speed><course>211.612368</course><hAcc>2.145728</hAcc><vAcc>1.024246</vAcc></extensions></trkpt>
      <trkpt lon="-82.302756" lat="35.644173"><ele>794.071335</ele><time>2024-07-02T14:15:26Z</time><extensions><speed>1.016305</speed><course>209.312542</course><hAcc>2.122044</hAcc><vAcc>1.038960</vAcc></extensions></trkpt>
      <trkpt lon="-82.302761" lat="35.644166"><ele>794.033122</ele><time>2024-07-02T14:15:27Z</time><extensions><speed>0.949811</speed><course>208.277236</course><hAcc>2.125554</hAcc><vAcc>1.051941</vAcc></extensions></trkpt>
      <trkpt lon="-82.302765" lat="35.644158"><ele>793.993788</ele><time>2024-07-02T14:15:28Z</time><extensions><speed>0.897913</speed><course>209.615580</course><hAcc>2.154584</hAcc><vAcc>1.063262</vAcc></extensions></trkpt>
      <trkpt lon="-82.302769" lat="35.644151"><ele>793.950323</ele><time>2024-07-02T14:15:29Z</time><extensions><speed>0.882220</speed><course>208.183190</course><hAcc>2.138303</hAcc><vAcc>1.073053</vAcc></extensions></trkpt>
      <trkpt lon="-82.302773" lat="35.644143"><ele>793.894572</ele><time>2024-07-02T14:15:30Z</time><extensions><speed>0.850220</speed><course>210.281036</course><hAcc>2.113286</hAcc><vAcc>1.081536</vAcc></extensions></trkpt>
      <trkpt lon="-82.302777" lat="35.644137"><ele>793.834755</ele><time>2024-07-02T14:15:31Z</time><extensions><speed>0.819131</speed><course>221.848651</course><hAcc>2.123276</hAcc><vAcc>1.088854</vAcc></extensions></trkpt>
      <trkpt lon="-82.302783" lat="35.644132"><ele>793.835447</ele><time>2024-07-02T14:15:32Z</time><extensions><speed>0.761949</speed><course>232.774701</course><hAcc>2.118802</hAcc><vAcc>1.089674</vAcc></extensions></trkpt>
      <trkpt lon="-82.302788" lat="35.644128"><ele>793.834049</ele><time>2024-07-02T14:15:33Z</time><extensions><speed>0.739589</speed><course>231.427777</course><hAcc>2.102942</hAcc><vAcc>1.087987</vAcc></extensions></trkpt>
      <trkpt lon="-82.302793" lat="35.644124"><ele>793.825600</ele><time>2024-07-02T14:15:34Z</time><extensions><speed>0.736484</speed><course>224.463713</course><hAcc>2.093636</hAcc><vAcc>1.084102</vAcc></extensions></trkpt>
      <trkpt lon="-82.302797" lat="35.644118"><ele>793.816289</ele><time>2024-07-02T14:15:35Z</time><extensions><speed>0.747846</speed><course>216.843690</course><hAcc>2.093387</hAcc><vAcc>1.078273</vAcc></extensions></trkpt>
      <trkpt lon="-82.302800" lat="35.644112"><ele>793.801769</ele><time>2024-07-02T14:15:36Z</time><extensions><speed>0.801098</speed><course>206.250507</course><hAcc>2.099462</hAcc><vAcc>1.070800</vAcc></extensions></trkpt>
      <trkpt lon="-82.302802" lat="35.644106"><ele>793.787523</ele><time>2024-07-02T14:15:37Z</time><extensions><speed>0.828996</speed><course>204.596487</course><hAcc>2.101521</hAcc><vAcc>1.061963</vAcc></extensions></trkpt>
      <trkpt lon="-82.302805" lat="35.644099"><ele>793.771666</ele><time>2024-07-02T14:15:38Z</time><extensions><speed>0.813794</speed><course>200.266841</course><hAcc>2.090598</hAcc><vAcc>1.051952</vAcc></extensions></trkpt>
      <trkpt lon="-82.302806" lat="35.644092"><ele>793.755023</ele><time>2024-07-02T14:15:39Z</time><extensions><speed>0.808394</speed><course>190.207913</course><hAcc>2.071645</hAcc><vAcc>1.040921</vAcc></extensions></trkpt>
      <trkpt lon="-82.302806" lat="35.644084"><ele>793.739409</ele><time>2024-07-02T14:15:40Z</time><extensions><speed>0.802361</speed><course>185.065469</course><hAcc>2.076847</hAcc><vAcc>1.029050</vAcc></extensions></trkpt>
      <trkpt lon="-82.302805" lat="35.644077"><ele>793.723590</ele><time>2024-07-02T14:15:41Z</time><extensions><speed>0.777949</speed><course>186.532568</course><hAcc>2.099358</hAcc><vAcc>1.016649</vAcc></extensions></trkpt>
      <trkpt lon="-82.302805" lat="35.644070"><ele>793.708588</ele><time>2024-07-02T14:15:42Z</time><extensions><speed>0.707927</speed><course>186.592844</course><hAcc>2.113300</hAcc><vAcc>1.004102</vAcc></extensions></trkpt>
      <trkpt lon="-82.302804" lat="35.644064"><ele>793.691844</ele><time>2024-07-02T14:15:43Z</time><extensions><speed>0.625594</speed><course>179.382468</course><hAcc>2.113814</hAcc><vAcc>0.991841</vAcc></extensions></trkpt>
      <trkpt lon="-82.302801" lat="35.644059"><ele>793.676638</ele><time>2024-07-02T14:15:44Z</time><extensions><speed>0.505691</speed><course>155.178130</course><hAcc>2.089647</hAcc><vAcc>0.980335</vAcc></extensions></trkpt>
      <trkpt lon="-82.302796" lat="35.644054"><ele>793.658456</ele><time>2024-07-02T14:15:45Z</time><extensions><speed>0.536002</speed><course>141.942288</course><hAcc>2.064580</hAcc><vAcc>0.970048</vAcc></extensions></trkpt>
      <trkpt lon="-82.302791" lat="35.644050"><ele>793.639239</ele><time>2024-07-02T14:15:46Z</time><extensions><speed>0.546343</speed><course>154.334817</course><hAcc>2.069288</hAcc><vAcc>0.961329</vAcc></extensions></trkpt>
      <trkpt lon="-82.302788" lat="35.644045"><ele>793.617358</ele><time>2024-07-02T14:15:47Z</time><extensions><speed>0.533305</speed><course>171.276616</course><hAcc>2.083277</hAcc><vAcc>0.954465</vAcc></extensions></trkpt>
      <trkpt lon="-82.302785" lat="35.644038"><ele>793.590510</ele><time>2024-07-02T14:15:48Z</time><extensions><speed>0.691765</speed><course>171.437979</course><hAcc>2.059034</hAcc><vAcc>0.949675</vAcc></extensions></trkpt>
      <trkpt lon="-82.302782" lat="35.644031"><ele>793.561154</ele><time>2024-07-02T14:15:49Z</time><extensions><speed>0.774933</speed><course>171.145082</course><hAcc>2.033684</hAcc><vAcc>0.947025</vAcc></extensions></trkpt>
      <trkpt lon="-82.302779" lat="35.644024"><ele>793.531023</ele><time>2024-07-02T14:15:50Z</time><extensions><speed>0.830543</speed><course>170.590287</course><hAcc>2.024697</hAcc><vAcc>0.946431</vAcc></extensions></trkpt>
      <trkpt lon="-82.302777" lat="35.644016"><ele>793.500887</ele><time>2024-07-02T14:15:51Z</time><extensions><speed>0.881660</speed><course>175.726997</course><hAcc>2.050389</hAcc><vAcc>0.947763</vAcc></extensions></trkpt>
      <trkpt lon="-82.302776" lat="35.644007"><ele>793.467961</ele><time>2024-07-02T14:15:52Z</time><extensions><speed>0.861337</speed><course>190.724979</course><hAcc>2.094257</hAcc><vAcc>0.950819</vAcc></extensions></trkpt>
      <trkpt lon="-82.302774" lat="35.643999"><ele>793.431042</ele><time>2024-07-02T14:15:53Z</time><extensions><speed>1.040075</speed><course>168.489848</course><hAcc>2.042232</hAcc><vAcc>0.955295</vAcc></extensions></trkpt>
      <trkpt lon="-82.302769" lat="35.643989"><ele>793.391796</ele><time>2024-07-02T14:15:54Z</time><extensions><speed>1.309624</speed><course>155.811603</course><hAcc>2.010334</hAcc><vAcc>0.960851</vAcc></extensions></trkpt>
      <trkpt lon="-82.302761" lat="35.643978"><ele>793.349761</ele><time>2024-07-02T14:15:55Z</time><extensions><speed>1.516895</speed><course>152.205232</course><hAcc>2.011696</hAcc><vAcc>0.967136</vAcc></extensions></trkpt>
      <trkpt lon="-82.302753" lat="35.643966"><ele>793.307225</ele><time>2024-07-02T14:15:56Z</time><extensions><speed>1.558308</speed><course>154.317976</course><hAcc>2.028309</hAcc><vAcc>0.973879</vAcc></extensions></trkpt>
      <trkpt lon="-82.302744" lat="35.643954"><ele>793.263250</ele><time>2024-07-02T14:15:57Z</time><extensions><speed>1.578682</speed><course>153.618673</course><hAcc>2.024832</hAcc><vAcc>0.980798</vAcc></extensions></trkpt>
      <trkpt lon="-82.302736" lat="35.643942"><ele>793.224365</ele><time>2024-07-02T14:15:58Z</time><extensions><speed>1.534888</speed><course>154.747586</course><hAcc>2.021092</hAcc><vAcc>0.987663</vAcc></extensions></trkpt>
      <trkpt lon="-82.302728" lat="35.643930"><ele>793.186545</ele><time>2024-07-02T14:15:59Z</time><extensions><speed>1.565003</speed><course>153.092500</course><hAcc>2.003492</hAcc><vAcc>0.994278</vAcc></extensions></trkpt>
      <trkpt lon="-82.302719" lat="35.643918"><ele>793.145708</ele><time>2024-07-02T14:16:00Z</time><extensions><speed>1.537316</speed><course>149.991925</course><hAcc>1.998218</hAcc><vAcc>1.000440</vAcc></extensions></trkpt>
      <trkpt lon="-82.302711" lat="35.643906"><ele>793.104916</ele><time>2024-07-02T14:16:01Z</time><extensions><speed>1.503775</speed><course>151.470623</course><hAcc>1.974152</hAcc><vAcc>1.006025</vAcc></extensions></trkpt>
      <trkpt lon="-82.302703" lat="35.643894"><ele>793.064816</ele><time>2024-07-02T14:16:02Z</time><extensions><speed>1.425544</speed><course>154.330557</course><hAcc>1.985236</hAcc><vAcc>1.010920</vAcc></extensions></trkpt>
      <trkpt lon="-82.302694" lat="35.643883"><ele>793.017556</ele><time>2024-07-02T14:16:03Z</time><extensions><speed>1.431269</speed><course>141.229905</course><hAcc>1.932096</hAcc><vAcc>1.015150</vAcc></extensions></trkpt>
      <trkpt lon="-82.302684" lat="35.643873"><ele>792.967488</ele><time>2024-07-02T14:16:04Z</time><extensions><speed>1.392278</speed><course>139.299538</course><hAcc>1.919904</hAcc><vAcc>1.018802</vAcc></extensions></trkpt>
      <trkpt lon="-82.302676" lat="35.643863"><ele>792.912832</ele><time>2024-07-02T14:16:05Z</time><extensions><speed>1.310046</speed><course>148.533881</course><hAcc>1.941831</hAcc><vAcc>1.021919</vAcc></extensions></trkpt>
      <trkpt lon="-82.302669" lat="35.643853"><ele>792.856295</ele><time>2024-07-02T14:16:06Z</time><extensions><speed>1.287308</speed><course>159.141847</course><hAcc>1.904903</hAcc><vAcc>1.024579</vAcc></extensions></trkpt>
      <trkpt lon="-82.302665" lat="35.643842"><ele>792.801455</ele><time>2024-07-02T14:16:07Z</time><extensions><speed>1.305742</speed><course>164.173471</course><hAcc>1.903742</hAcc><vAcc>1.026860</vAcc></extensions></trkpt>
      <trkpt lon="-82.302661" lat="35.643831"><ele>792.753644</ele><time>2024-07-02T14:16:08Z</time><extensions><speed>1.224440</speed><course>170.431274</course><hAcc>1.890975</hAcc><vAcc>1.028848</vAcc></extensions></trkpt>
      <trkpt lon="-82.302660" lat="35.643820"><ele>792.704867</ele><time>2024-07-02T14:16:09Z</time><extensions><speed>1.210397</speed><course>178.865265</course><hAcc>1.896359</hAcc><vAcc>1.030685</vAcc></extensions></trkpt>
      <trkpt lon="-82.302660" lat="35.643809"><ele>792.663032</ele><time>2024-07-02T14:16:10Z</time><extensions><speed>1.247751</speed><course>185.747486</course><hAcc>1.931283</hAcc><vAcc>1.032465</vAcc></extensions></trkpt>
      <trkpt lon="-82.302661" lat="35.643799"><ele>792.623345</ele><time>2024-07-02T14:16:11Z</time><extensions><speed>1.251508</speed><course>187.421118</course><hAcc>1.918583</hAcc><vAcc>1.034292</vAcc></extensions></trkpt>
      <trkpt lon="-82.302663" lat="35.643788"><ele>792.588386</ele><time>2024-07-02T14:16:12Z</time><extensions><speed>1.256994</speed><course>191.510528</course><hAcc>1.946239</hAcc><vAcc>1.036226</vAcc></extensions></trkpt>
      <trkpt lon="-82.302667" lat="35.643777"><ele>792.557710</ele><time>2024-07-02T14:16:13Z</time><extensions><speed>1.303340</speed><course>197.412051</course><hAcc>2.002644</hAcc><vAcc>1.038395</vAcc></extensions></trkpt>
      <trkpt lon="-82.302672" lat="35.643767"><ele>792.528623</ele><time>2024-07-02T14:16:14Z</time><extensions><speed>1.267040</speed><course>209.051700</course><hAcc>1.967456</hAcc><vAcc>1.040855</vAcc></extensions></trkpt>
      <trkpt lon="-82.302679" lat="35.643757"><ele>792.501766</ele><time>2024-07-02T14:16:15Z</time><extensions><speed>1.324645</speed><course>213.955616</course><hAcc>1.976137</hAcc><vAcc>1.043587</vAcc></extensions></trkpt>
      <trkpt lon="-82.302687" lat="35.643748"><ele>792.478929</ele><time>2024-07-02T14:16:16Z</time><extensions><speed>1.216775</speed><course>215.631712</course><hAcc>1.957536</hAcc><vAcc>1.046514</vAcc></extensions></trkpt>
      <trkpt lon="-82.302694" lat="35.643739"><ele>792.456366</ele><time>2024-07-02T14:16:17Z</time><extensions><speed>1.208684</speed><course>216.786899</course><hAcc>1.998975</hAcc><vAcc>1.049595</vAcc></extensions></trkpt>
      <trkpt lon="-82.302702" lat="35.643730"><ele>792.437041</ele><time>2024-07-02T14:16:18Z</time><extensions><speed>1.258736</speed><course>216.887998</course><hAcc>2.031242</hAcc><vAcc>1.052866</vAcc></extensions></trkpt>
      <trkpt lon="-82.302710" lat="35.643722"><ele>792.422016</ele><time>2024-07-02T14:16:19Z</time><extensions><speed>1.132971</speed><course>216.497430</course><hAcc>2.006829</hAcc><vAcc>1.056358</vAcc></extensions></trkpt>
      <trkpt lon="-82.302717" lat="35.643714"><ele>792.406679</ele><time>2024-07-02T14:16:20Z</time><extensions><speed>1.082123</speed><course>214.434197</course><hAcc>2.007514</hAcc><vAcc>1.060159</vAcc></extensions></trkpt>
      <trkpt lon="-82.302723" lat="35.643706"><ele>792.403794</ele><time>2024-07-02T14:16:21Z</time><extensions><speed>1.063825</speed><course>210.860190</course><hAcc>2.013949</hAcc><vAcc>1.064280</vAcc></extensions></trkpt>
      <trkpt lon="-82.302729" lat="35.643698"><ele>792.404391</ele><time>2024-07-02T14:16:22Z</time><extensions><speed>1.067915</speed><course>207.450648</course><hAcc>2.039094</hAcc><vAcc>1.068717</vAcc></extensions></trkpt>
      <trkpt lon="-82.302734" lat="35.643689"><ele>792.411162</ele><time>2024-07-02T14:16:23Z</time><extensions><speed>1.158817</speed><course>206.369722</course><hAcc>2.082176</hAcc><vAcc>1.073344</vAcc></extensions></trkpt>
      <trkpt lon="-82.302739" lat="35.643681"><ele>792.413953</ele><time>2024-07-02T14:16:24Z</time><extensions><speed>1.108205</speed><course>203.629836</course><hAcc>2.070820</hAcc><vAcc>1.078067</vAcc></extensions></trkpt>
      <trkpt lon="-82.302743" lat="35.643672"><ele>792.421869</ele><time>2024-07-02T14:16:25Z</time><extensions><speed>1.177400</speed><course>198.548881</course><hAcc>2.106032</hAcc><vAcc>1.082879</vAcc></extensions></trkpt>
      <trkpt lon="-82.302747" lat="35.643662"><ele>792.430065</ele><time>2024-07-02T14:16:26Z</time><extensions><speed>1.092131</speed><course>193.879212</course><hAcc>2.062063</hAcc><vAcc>1.087856</vAcc></extensions></trkpt>
      <trkpt lon="-82.302750" lat="35.643653"><ele>792.439324</ele><time>2024-07-02T14:16:27Z</time><extensions><speed>1.071974</speed><course>192.856876</course><hAcc>2.098458</hAcc><vAcc>1.092955</vAcc></extensions></trkpt>
      <trkpt lon="-82.302752" lat="35.643644"><ele>792.449298</ele><time>2024-07-02T14:16:28Z</time><extensions><speed>1.177757</speed><course>193.610374</course><hAcc>2.178573</hAcc><vAcc>1.098152</vAcc></extensions></trkpt>
      <trkpt lon="-82.302755" lat="35.643636"><ele>792.471698</ele><time>2024-07-02T14:16:29Z</time><extensions><speed>1.030573</speed><course>194.416359</course><hAcc>2.156749</hAcc><vAcc>1.103292</vAcc></extensions></trkpt>
      <trkpt lon="-82.302758" lat="35.643628"><ele>792.504981</ele><time>2024-07-02T14:16:30Z</time><extensions><speed>1.004471</speed><course>194.860419</course><hAcc>2.234079</hAcc><vAcc>1.108445</vAcc></extensions></trkpt>
      <trkpt lon="-82.302761" lat="35.643619"><ele>792.540293</ele><time>2024-07-02T14:16:31Z</time><extensions><speed>1.149622</speed><course>192.928512</course><hAcc>2.333841</hAcc><vAcc>1.113563</vAcc></extensions></trkpt>
      <trkpt lon="-82.302763" lat="35.643610"><ele>792.580106</ele><time>2024-07-02T14:16:32Z</time><extensions><speed>1.021255</speed><course>192.139240</course><hAcc>2.340611</hAcc><vAcc>1.118620</vAcc></extensions></trkpt>
      <trkpt lon="-82.302765" lat="35.643601"><ele>792.627503</ele><time>2024-07-02T14:16:33Z</time><extensions><speed>1.133842</speed><course>191.226804</course><hAcc>2.415155</hAcc><vAcc>1.123489</vAcc></extensions></trkpt>
      <trkpt lon="-82.302767" lat="35.643593"><ele>792.682616</ele><time>2024-07-02T14:16:34Z</time><extensions><speed>0.915041</speed><course>188.951385</course><hAcc>2.451268</hAcc><vAcc>1.128024</vAcc></extensions></trkpt>
      <trkpt lon="-82.302767" lat="35.643586"><ele>792.746823</ele><time>2024-07-02T14:16:35Z</time><extensions><speed>0.748369</speed><course>181.383505</course><hAcc>2.502397</hAcc><vAcc>1.132093</vAcc></extensions></trkpt>
      <trkpt lon="-82.302767" lat="35.643580"><ele>792.812357</ele><time>2024-07-02T14:16:36Z</time><extensions><speed>0.694554</speed><course>175.734267</course><hAcc>2.582983</hAcc><vAcc>1.135572</vAcc></extensions></trkpt>
      <trkpt lon="-82.302766" lat="35.643575"><ele>792.880429</ele><time>2024-07-02T14:16:37Z</time><extensions><speed>0.653407</speed><course>172.848375</course><hAcc>2.655351</hAcc><vAcc>1.138456</vAcc></extensions></trkpt>
      <trkpt lon="-82.302765" lat="35.643571"><ele>792.950333</ele><time>2024-07-02T14:16:38Z</time><extensions><speed>0.578910</speed><course>171.870944</course><hAcc>2.718301</hAcc><vAcc>1.140710</vAcc></extensions></trkpt>
      <trkpt lon="-82.302764" lat="35.643567"><ele>793.026748</ele><time>2024-07-02T14:16:39Z</time><extensions><speed>0.609645</speed><course>175.272076</course><hAcc>2.798090</hAcc><vAcc>1.142282</vAcc></extensions></trkpt>
      <trkpt lon="-82.302764" lat="35.643562"><ele>793.106800</ele><time>2024-07-02T14:16:40Z</time><extensions><speed>0.593627</speed><course>177.772292</course><hAcc>2.875222</hAcc><vAcc>1.143208</vAcc></extensions></trkpt>
      <trkpt lon="-82.302764" lat="35.643557"><ele>793.188845</ele><time>2024-07-02T14:16:41Z</time><extensions><speed>0.773418</speed><course>184.688067</course><hAcc>2.952682</hAcc><vAcc>1.143606</vAcc></extensions></trkpt>
      <trkpt lon="-82.302765" lat="35.643552"><ele>793.270790</ele><time>2024-07-02T14:16:42Z</time><extensions><speed>0.571392</speed><course>191.296012</course><hAcc>2.920150</hAcc><vAcc>1.143578</vAcc></extensions></trkpt>
      <trkpt lon="-82.302766" lat="35.643548"><ele>793.361746</ele><time>2024-07-02T14:16:43Z</time><extensions><speed>0.363545</speed><course>199.782841</course><hAcc>2.884002</hAcc><vAcc>1.143119</vAcc></extensions></trkpt>
      <trkpt lon="-82.302767" lat="35.643547"><ele>793.453739</ele><time>2024-07-02T14:16:44Z</time><extensions><speed>0.126899</speed><course>228.203730</course><hAcc>2.872405</hAcc><vAcc>1.142237</vAcc></extensions></trkpt>
      <trkpt lon="-82.302767" lat="35.643548"><ele>793.539159</ele><time>2024-07-02T14:16:45Z</time><extensions><speed>0.090204</speed><course>277.897032</course><hAcc>2.925107</hAcc><vAcc>1.140960</vAcc></extensions></trkpt>
      <trkpt lon="-82.302768" lat="35.643549"><ele>793.619101</ele><time>2024-07-02T14:16:46Z</time><extensions><speed>0.118015</speed><course>247.966168</course><hAcc>3.009108</hAcc><vAcc>1.139393</vAcc></extensions></trkpt>
      <trkpt lon="-82.302769" lat="35.643549"><ele>793.693281</ele><time>2024-07-02T14:16:47Z</time><extensions><speed>0.168911</speed><course>235.106576</course><hAcc>3.067386</hAcc><vAcc>1.137911</vAcc></extensions></trkpt>
      <trkpt lon="-82.302770" lat="35.643548"><ele>793.756403</ele><time>2024-07-02T14:16:48Z</time><extensions><speed>0.173803</speed><course>241.116853</course><hAcc>3.099383</hAcc><vAcc>1.136966</vAcc></extensions></trkpt>
      <trkpt lon="-82.302772" lat="35.643548"><ele>793.815693</ele><time>2024-07-02T14:16:49Z</time><extensions><speed>0.202631</speed><course>249.557922</course><hAcc>3.109412</hAcc><vAcc>1.136933</vAcc></extensions></trkpt>
      <trkpt lon="-82.302774" lat="35.643547"><ele>793.870757</ele><time>2024-07-02T14:16:50Z</time><extensions><speed>0.220238</speed><course>261.623373</course><hAcc>3.112515</hAcc><vAcc>1.137984</vAcc></extensions></trkpt>
      <trkpt lon="-82.302777" lat="35.643547"><ele>793.917961</ele><time>2024-07-02T14:16:51Z</time><extensions><speed>0.243433</speed><course>258.206798</course><hAcc>3.158029</hAcc><vAcc>1.133931</vAcc></extensions></trkpt>
      <trkpt lon="-82.302779" lat="35.643547"><ele>793.959708</ele><time>2024-07-02T14:16:52Z</time><extensions><speed>0.254364</speed><course>252.528769</course><hAcc>3.229062</hAcc><vAcc>1.128082</vAcc></extensions></trkpt>
      <trkpt lon="-82.302781" lat="35.643546"><ele>793.996234</ele><time>2024-07-02T14:16:53Z</time><extensions><speed>0.138034</speed><course>266.471174</course><hAcc>3.285588</hAcc><vAcc>1.120710</vAcc></extensions></trkpt>
      <trkpt lon="-82.302782" lat="35.643546"><ele>794.027712</ele><time>2024-07-02T14:16:54Z</time><extensions><speed>0.062823</speed><course>290.080503</course><hAcc>3.332754</hAcc><vAcc>1.111966</vAcc></extensions></trkpt>
      <trkpt lon="-82.302783" lat="35.643547"><ele>794.054368</ele><time>2024-07-02T14:16:55Z</time><extensions><speed>0.067411</speed><course>358.301390</course><hAcc>3.364705</hAcc><vAcc>1.101957</vAcc></extensions></trkpt>
      <trkpt lon="-82.302782" lat="35.643548"><ele>794.076497</ele><time>2024-07-02T14:16:56Z</time><extensions><speed>0.121936</speed><course>20.065502</course><hAcc>3.415945</hAcc><vAcc>1.090685</vAcc></extensions></trkpt>
      <trkpt lon="-82.302782" lat="35.643549"><ele>794.094496</ele><time>2024-07-02T14:16:57Z</time><extensions><speed>0.172668</speed><course>25.718335</course><hAcc>3.521133</hAcc><vAcc>1.078172</vAcc></extensions></trkpt>
      <trkpt lon="-82.302781" lat="35.643550"><ele>794.108789</ele><time>2024-07-02T14:16:58Z</time><extensions><speed>0.196659</speed><course>27.908328</course><hAcc>3.697137</hAcc><vAcc>1.064370</vAcc></extensions></trkpt>
      <trkpt lon="-82.302780" lat="35.643552"><ele>794.119829</ele><time>2024-07-02T14:16:59Z</time><extensions><speed>0.199534</speed><course>28.997419</course><hAcc>3.912383</hAcc><vAcc>1.049257</vAcc></extensions></trkpt>
      <trkpt lon="-82.302779" lat="35.643553"><ele>794.128041</ele><time>2024-07-02T14:17:00Z</time><extensions><speed>0.184873</speed><course>29.689884</course><hAcc>4.116474</hAcc><vAcc>1.032859</vAcc></extensions></trkpt>
      <trkpt lon="-82.302778" lat="35.643555"><ele>794.133816</ele><time>2024-07-02T14:17:01Z</time><extensions><speed>0.170784</speed><course>30.182228</course><hAcc>4.276077</hAcc><vAcc>1.015304</vAcc></extensions></trkpt>
      <trkpt lon="-82.302777" lat="35.643556"><ele>794.137515</ele><time>2024-07-02T14:17:02Z</time><extensions><speed>0.149715</speed><course>30.550518</course><hAcc>4.400521</hAcc><vAcc>0.996832</vAcc></extensions></trkpt>
      <trkpt lon="-82.302776" lat="35.643557"><ele>794.139473</ele><time>2024-07-02T14:17:03Z</time><extensions><speed>0.125974</speed><course>30.851308</course><hAcc>4.495305</hAcc><vAcc>0.977744</vAcc></extensions></trkpt>
      <trkpt lon="-82.302775" lat="35.643558"><ele>794.139995</ele><time>2024-07-02T14:17:04Z</time><extensions><speed>0.102360</speed><course>31.119746</course><hAcc>4.544127</hAcc><vAcc>0.958345</vAcc></extensions></trkpt>
      <trkpt lon="-82.302775" lat="35.643559"><ele>794.139365</ele><time>2024-07-02T14:17:05Z</time><extensions><speed>0.080942</speed><course>31.368058</course><hAcc>4.575874</hAcc><vAcc>0.938955</vAcc></extensions></trkpt>
      <trkpt lon="-82.302774" lat="35.643559"><ele>794.137845</ele><time>2024-07-02T14:17:06Z</time><extensions><speed>0.061980</speed><course>31.612119</course><hAcc>4.587591</hAcc><vAcc>0.920036</vAcc></extensions></trkpt>
      <trkpt lon="-82.302774" lat="35.643560"><ele>794.132122</ele><time>2024-07-02T14:17:07Z</time><extensions><speed>0.067683</speed><course>31.913181</course><hAcc>4.577757</hAcc><vAcc>0.902139</vAcc></extensions></trkpt>
      <trkpt lon="-82.302773" lat="35.643562"><ele>794.123434</ele><time>2024-07-02T14:17:08Z</time><extensions><speed>0.083333</speed><course>29.887381</course><hAcc>4.543337</hAcc><vAcc>0.885825</vAcc></extensions></trkpt>
      <trkpt lon="-82.302772" lat="35.643563"><ele>794.110611</ele><time>2024-07-02T14:17:09Z</time><extensions><speed>0.105385</speed><course>29.597924</course><hAcc>4.482624</hAcc><vAcc>0.871653</vAcc></extensions></trkpt>
      <trkpt lon="-82.302771" lat="35.643565"><ele>794.094271</ele><time>2024-07-02T14:17:10Z</time><extensions><speed>0.130915</speed><course>30.148309</course><hAcc>4.401057</hAcc><vAcc>0.860230</vAcc></extensions></trkpt>
      <trkpt lon="-82.302770" lat="35.643566"><ele>794.081991</ele><time>2024-07-02T14:17:11Z</time><extensions><speed>0.136285</speed><course>30.021604</course><hAcc>4.378388</hAcc><vAcc>0.856883</vAcc></extensions></trkpt>
      <trkpt lon="-82.302769" lat="35.643567"><ele>794.068443</ele><time>2024-07-02T14:17:12Z</time><extensions><speed>0.135097</speed><course>29.906306</course><hAcc>4.410568</hAcc><vAcc>0.860652</vAcc></extensions></trkpt>
      <trkpt lon="-82.302768" lat="35.643568"><ele>794.053658</ele><time>2024-07-02T14:17:13Z</time><extensions><speed>0.121382</speed><course>29.777375</course><hAcc>4.512965</hAcc><vAcc>0.874241</vAcc></extensions></trkpt>
      <trkpt lon="-82.302768" lat="35.643569"><ele>794.037694</ele><time>2024-07-02T14:17:14Z</time><extensions><speed>0.087201</speed><course>29.546385</course><hAcc>4.649178</hAcc><vAcc>0.900829</vAcc></extensions></trkpt>
      <trkpt lon="-82.302767" lat="35.643569"><ele>794.020638</ele><time>2024-07-02T14:17:15Z</time><extensions><speed>0.071035</speed><course>28.991676</course><hAcc>4.748675</hAcc><vAcc>0.943808</vAcc></extensions></trkpt>
      <trkpt lon="-82.302767" lat="35.643570"><ele>794.002634</ele><time>2024-07-02T14:17:16Z</time><extensions><speed>0.064683</speed><course>27.639590</course><hAcc>4.826198</hAcc><vAcc>1.006395</vAcc></extensions></trkpt>
      <trkpt lon="-82.302767" lat="35.643570"><ele>793.983898</ele><time>2024-07-02T14:17:17Z</time><extensions><speed>0.048789</speed><course>23.180885</course><hAcc>4.914086</hAcc><vAcc>1.091210</vAcc></extensions></trkpt>
      <trkpt lon="-82.302767" lat="35.643570"><ele>793.964706</ele><time>2024-07-02T14:17:18Z</time><extensions><speed>0.029177</speed><course>262.549400</course><hAcc>5.030293</hAcc><vAcc>1.200011</vAcc></extensions></trkpt>
      <trkpt lon="-82.302767" lat="35.643570"><ele>793.945326</ele><time>2024-07-02T14:17:19Z</time><extensions><speed>0.084973</speed><course>238.190603</course><hAcc>5.223256</hAcc><vAcc>1.333662</vAcc></extensions></trkpt>
      <trkpt lon="-82.302768" lat="35.643570"><ele>793.925943</ele><time>2024-07-02T14:17:20Z</time><extensions><speed>0.127668</speed><course>235.559652</course><hAcc>5.597969</hAcc><vAcc>1.492296</vAcc></extensions></trkpt>
    </trkseg>
  </trk>
</gpx>