<?xml version="1.0" encoding="UTF-8"?>
<gpx version="1.1" creator="Apple Health Export" xmlns="http://www.topografix.com/GPX/1/1" xmlns:xsi="http://www.w3.org/2001/XMLSchema-instance" xsi:schemaLocation="http://www.topografix.com/GPX/1/1 http://www.topografix.com/GPX/1/1/gpx.xsd">
  <metadata>
    <time>2026-03-14T12:16:00Z</time>
  </metadata>
  <trk>
    <name>Route 2022-06-20 8:56am</name>
    <trkseg>
      <trkpt lon="-82.305184" lat="35.644312"><ele>803.676086</ele><time>2022-06-20T12:51:49Z</time><extensions><speed>1.710493</speed><course>85.262764</course><hAcc>3.428312</hAcc><vAcc>1.274302</vAcc></extensions></trkpt>
      <trkpt lon="-82.305182" lat="35.644312"><ele>803.673340</ele><time>2022-06-20T12:51:49Z</time><extensions><speed>1.709021</speed><course>85.205147</course><hAcc>3.356866</hAcc><vAcc>1.242274</vAcc></extensions></trkpt>
      <trkpt lon="-82.305170" lat="35.644313"><ele>803.656006</ele><time>2022-06-20T12:51:50Z</time><extensions><speed>1.655558</speed><course>82.504654</course><hAcc>3.234343</hAcc><vAcc>1.139420</vAcc></extensions></trkpt>
      <trkpt lon="-82.305152" lat="35.644316"><ele>803.645386</ele><time>2022-06-20T12:51:51Z</time><extensions><speed>1.550642</speed><course>82.109024</course><hAcc>3.106401</hAcc><vAcc>1.017627</vAcc></extensions></trkpt>
      <trkpt lon="-82.305136" lat="35.644317"><ele>803.631592</ele><time>2022-06-20T12:51:52Z</time><extensions><speed>1.495718</speed><course>82.153259</course><hAcc>3.016871</hAcc><vAcc>0.928898</vAcc></extensions></trkpt>
      <trkpt lon="-82.305120" lat="35.644319"><ele>803.619995</ele><time>2022-06-20T12:51:53Z</time><extensions><speed>1.446493</speed><course>87.104500</course><hAcc>2.934615</hAcc><vAcc>0.866884</vAcc></extensions></trkpt>
      <trkpt lon="-82.305105" lat="35.644320"><ele>803.613037</ele><time>2022-06-20T12:51:54Z</time><extensions><speed>1.392960</speed><course>88.023552</course><hAcc>2.869848</hAcc><vAcc>0.825440</vAcc></extensions></trkpt>
      <trkpt lon="-82.305090" lat="35.644320"><ele>803.608459</ele><time>2022-06-20T12:51:55Z</time><extensions><speed>1.276696</speed><course>92.297913</course><hAcc>2.805849</hAcc><vAcc>0.799839</vAcc></extensions></trkpt>
      <trkpt lon="-82.305077" lat="35.644319"><ele>803.609680</ele><time>2022-06-20T12:51:56Z</time><extensions><speed>1.075268</speed><course>100.642967</course><hAcc>2.759374</hAcc><vAcc>0.784441</vAcc></extensions></trkpt>
      <trkpt lon="-82.305067" lat="35.644317"><ele>803.605103</ele><time>2022-06-20T12:51:57Z</time><extensions><speed>0.782671</speed><course>112.357018</course><hAcc>2.735214</hAcc><vAcc>0.775900</vAcc></extensions></trkpt>
      <trkpt lon="-82.305059" lat="35.644314"><ele>803.598694</ele><time>2022-06-20T12:51:58Z</time><extensions><speed>0.583954</speed><course>121.641533</course><hAcc>2.709706</hAcc><vAcc>0.771412</vAcc></extensions></trkpt>
      <trkpt lon="-82.305054" lat="35.644312"><ele>803.594116</ele><time>2022-06-20T12:51:59Z</time><extensions><speed>0.379498</speed><course>114.041412</course><hAcc>2.680969</hAcc><vAcc>0.769132</vAcc></extensions></trkpt>
      <trkpt lon="-82.305051" lat="35.644311"><ele>803.593323</ele><time>2022-06-20T12:52:00Z</time><extensions><speed>0.243025</speed><course>92.351181</course><hAcc>2.670433</hAcc><vAcc>0.767972</vAcc></extensions></trkpt>
      <trkpt lon="-82.305048" lat="35.644311"><ele>803.595703</ele><time>2022-06-20T12:52:01Z</time><extensions><speed>0.156103</speed><course>33.367504</course><hAcc>2.668688</hAcc><vAcc>0.767218</vAcc></extensions></trkpt>
      <trkpt lon="-82.305045" lat="35.644315"><ele>803.597473</ele><time>2022-06-20T12:52:02Z</time><extensions><speed>0.945916</speed><course>20.130066</course><hAcc>2.656530</hAcc><vAcc>0.766568</vAcc></extensions></trkpt>
      <trkpt lon="-82.305040" lat="35.644324"><ele>803.601929</ele><time>2022-06-20T12:52:03Z</time><extensions><speed>1.106526</speed><course>24.882006</course><hAcc>2.654022</hAcc><vAcc>0.765765</vAcc></extensions></trkpt>
      <trkpt lon="-82.305031" lat="35.644332"><ele>803.608337</ele><time>2022-06-20T12:52:04Z</time><extensions><speed>1.220569</speed><course>46.005947</course><hAcc>2.667126</hAcc><vAcc>0.764778</vAcc></extensions></trkpt>
      <trkpt lon="-82.305018" lat="35.644337"><ele>803.609680</ele><time>2022-06-20T12:52:05Z</time><extensions><speed>1.335979</speed><course>80.272675</course><hAcc>2.638068</hAcc><vAcc>0.763866</vAcc></extensions></trkpt>
      <trkpt lon="-82.305001" lat="35.644336"><ele>803.612976</ele><time>2022-06-20T12:52:06Z</time><extensions><speed>1.648357</speed><course>99.803665</course><hAcc>2.594983</hAcc><vAcc>0.764509</vAcc></extensions></trkpt>
      <trkpt lon="-82.304983" lat="35.644333"><ele>803.616516</ele><time>2022-06-20T12:52:07Z</time><extensions><speed>1.679802</speed><course>108.014511</course><hAcc>2.579369</hAcc><vAcc>0.766238</vAcc></extensions></trkpt>
      <trkpt lon="-82.304966" lat="35.644329"><ele>803.622375</ele><time>2022-06-20T12:52:08Z</time><extensions><speed>1.356949</speed><course>108.653603</course><hAcc>2.597342</hAcc><vAcc>0.769268</vAcc></extensions></trkpt>
      <trkpt lon="-82.304952" lat="35.644325"><ele>803.632019</ele><time>2022-06-20T12:52:09Z</time><extensions><speed>1.165566</speed><course>105.920265</course><hAcc>2.632566</hAcc><vAcc>0.770736</vAcc></extensions></trkpt>
      <trkpt lon="-82.304938" lat="35.644323"><ele>803.656982</ele><time>2022-06-20T12:52:10Z</time><extensions><speed>1.190315</speed><course>97.810089</course><hAcc>2.631692</hAcc><vAcc>0.773160</vAcc></extensions></trkpt>
      <trkpt lon="-82.304924" lat="35.644322"><ele>803.684021</ele><time>2022-06-20T12:52:11Z</time><extensions><speed>1.273730</speed><course>93.515396</course><hAcc>2.624575</hAcc><vAcc>0.776000</vAcc></extensions></trkpt>
      <trkpt lon="-82.304908" lat="35.644322"><ele>803.713379</ele><time>2022-06-20T12:52:12Z</time><extensions><speed>1.434282</speed><course>91.842865</course><hAcc>2.608908</hAcc><vAcc>0.779018</vAcc></extensions></trkpt>
      <trkpt lon="-82.304891" lat="35.644322"><ele>803.741211</ele><time>2022-06-20T12:52:13Z</time><extensions><speed>1.610634</speed><course>90.909538</course><hAcc>2.605059</hAcc><vAcc>0.782312</vAcc></extensions></trkpt>
      <trkpt lon="-82.304872" lat="35.644322"><ele>803.765320</ele><time>2022-06-20T12:52:14Z</time><extensions><speed>1.892357</speed><course>89.795845</course><hAcc>2.607485</hAcc><vAcc>0.785555</vAcc></extensions></trkpt>
      <trkpt lon="-82.304850" lat="35.644322"><ele>803.788269</ele><time>2022-06-20T12:52:15Z</time><extensions><speed>1.988563</speed><course>89.166382</course><hAcc>2.612733</hAcc><vAcc>0.788522</vAcc></extensions></trkpt>
      <trkpt lon="-82.304827" lat="35.644323"><ele>803.813477</ele><time>2022-06-20T12:52:16Z</time><extensions><speed>1.967760</speed><course>89.223747</course><hAcc>2.629397</hAcc><vAcc>0.790232</vAcc></extensions></trkpt>
      <trkpt lon="-82.304806" lat="35.644323"><ele>803.839417</ele><time>2022-06-20T12:52:17Z</time><extensions><speed>1.873698</speed><course>93.278046</course><hAcc>2.656838</hAcc><vAcc>0.790292</vAcc></extensions></trkpt>
      <trkpt lon="-82.304786" lat="35.644322"><ele>803.867004</ele><time>2022-06-20T12:52:18Z</time><extensions><speed>1.858953</speed><course>102.801155</course><hAcc>2.654550</hAcc><vAcc>0.789228</vAcc></extensions></trkpt>
      <trkpt lon="-82.304766" lat="35.644318"><ele>803.895630</ele><time>2022-06-20T12:52:19Z</time><extensions><speed>1.881608</speed><course>110.428421</course><hAcc>2.637343</hAcc><vAcc>0.786924</vAcc></extensions></trkpt>
      <trkpt lon="-82.304745" lat="35.644311"><ele>803.929993</ele><time>2022-06-20T12:52:20Z</time><extensions><speed>1.741894</speed><course>119.684334</course><hAcc>2.648241</hAcc><vAcc>0.782883</vAcc></extensions></trkpt>
      <trkpt lon="-82.304730" lat="35.644304"><ele>803.956482</ele><time>2022-06-20T12:52:21Z</time><extensions><speed>1.637984</speed><course>124.510254</course><hAcc>2.648700</hAcc><vAcc>0.778274</vAcc></extensions></trkpt>
      <trkpt lon="-82.304717" lat="35.644297"><ele>803.970825</ele><time>2022-06-20T12:52:22Z</time><extensions><speed>1.442942</speed><course>129.527435</course><hAcc>2.652645</hAcc><vAcc>0.774458</vAcc></extensions></trkpt>
      <trkpt lon="-82.304704" lat="35.644290"><ele>803.986145</ele><time>2022-06-20T12:52:23Z</time><extensions><speed>1.257175</speed><course>124.138519</course><hAcc>2.639895</hAcc><vAcc>0.770896</vAcc></extensions></trkpt>
      <trkpt lon="-82.304693" lat="35.644286"><ele>803.999084</ele><time>2022-06-20T12:52:24Z</time><extensions><speed>1.127989</speed><course>115.425507</course><hAcc>2.634289</hAcc><vAcc>0.767731</vAcc></extensions></trkpt>
      <trkpt lon="-82.304681" lat="35.644284"><ele>804.007019</ele><time>2022-06-20T12:52:25Z</time><extensions><speed>1.023082</speed><course>103.351273</course><hAcc>2.643931</hAcc><vAcc>0.765038</vAcc></extensions></trkpt>
      <trkpt lon="-82.304669" lat="35.644284"><ele>804.015503</ele><time>2022-06-20T12:52:26Z</time><extensions><speed>1.114230</speed><course>88.706902</course><hAcc>2.648046</hAcc><vAcc>0.762697</vAcc></extensions></trkpt>
      <trkpt lon="-82.304655" lat="35.644286"><ele>804.021851</ele><time>2022-06-20T12:52:27Z</time><extensions><speed>1.305114</speed><course>76.919601</course><hAcc>2.662108</hAcc><vAcc>0.760837</vAcc></extensions></trkpt>
      <trkpt lon="-82.304640" lat="35.644291"><ele>804.026550</ele><time>2022-06-20T12:52:28Z</time><extensions><speed>1.471317</speed><course>71.879555</course><hAcc>2.687938</hAcc><vAcc>0.759458</vAcc></extensions></trkpt>
      <trkpt lon="-82.304624" lat="35.644297"><ele>804.033264</ele><time>2022-06-20T12:52:29Z</time><extensions><speed>1.572944</speed><course>62.647976</course><hAcc>2.685869</hAcc><vAcc>0.758448</vAcc></extensions></trkpt>
      <trkpt lon="-82.304609" lat="35.644305"><ele>804.037842</ele><time>2022-06-20T12:52:30Z</time><extensions><speed>1.598014</speed><course>52.440018</course><hAcc>2.689245</hAcc><vAcc>0.757802</vAcc></extensions></trkpt>
      <trkpt lon="-82.304595" lat="35.644317"><ele>804.043396</ele><time>2022-06-20T12:52:31Z</time><extensions><speed>1.903032</speed><course>41.218639</course><hAcc>2.643939</hAcc><vAcc>0.757437</vAcc></extensions></trkpt>
      <trkpt lon="-82.304581" lat="35.644331"><ele>804.050171</ele><time>2022-06-20T12:52:32Z</time><extensions><speed>2.010942</speed><course>34.321575</course><hAcc>2.590550</hAcc><vAcc>0.757219</vAcc></extensions></trkpt>
      <trkpt lon="-82.304568" lat="35.644347"><ele>804.053040</ele><time>2022-06-20T12:52:33Z</time><extensions><speed>1.978499</speed><course>34.899220</course><hAcc>2.567717</hAcc><vAcc>0.757075</vAcc></extensions></trkpt>
      <trkpt lon="-82.304555" lat="35.644361"><ele>804.056213</ele><time>2022-06-20T12:52:34Z</time><extensions><speed>1.816917</speed><course>41.192337</course><hAcc>2.567259</hAcc><vAcc>0.756956</vAcc></extensions></trkpt>
      <trkpt lon="-82.304540" lat="35.644372"><ele>804.060608</ele><time>2022-06-20T12:52:35Z</time><extensions><speed>1.656025</speed><course>51.858013</course><hAcc>2.560700</hAcc><vAcc>0.756945</vAcc></extensions></trkpt>
      <trkpt lon="-82.304524" lat="35.644380"><ele>804.072937</ele><time>2022-06-20T12:52:36Z</time><extensions><speed>1.618206</speed><course>62.665867</course><hAcc>2.563647</hAcc><vAcc>0.756784</vAcc></extensions></trkpt>
      <trkpt lon="-82.304508" lat="35.644387"><ele>804.082275</ele><time>2022-06-20T12:52:37Z</time><extensions><speed>1.571082</speed><course>61.973759</course><hAcc>2.517999</hAcc><vAcc>0.756713</vAcc></extensions></trkpt>
      <trkpt lon="-82.304493" lat="35.644394"><ele>804.088623</ele><time>2022-06-20T12:52:38Z</time><extensions><speed>1.527173</speed><course>63.576927</course><hAcc>2.493384</hAcc><vAcc>0.756770</vAcc></extensions></trkpt>
      <trkpt lon="-82.304477" lat="35.644400"><ele>804.093567</ele><time>2022-06-20T12:52:39Z</time><extensions><speed>1.484716</speed><course>65.013107</course><hAcc>2.491027</hAcc><vAcc>0.756714</vAcc></extensions></trkpt>
      <trkpt lon="-82.304462" lat="35.644405"><ele>804.104309</ele><time>2022-06-20T12:52:40Z</time><extensions><speed>1.468080</speed><course>66.910820</course><hAcc>2.486129</hAcc><vAcc>0.756706</vAcc></extensions></trkpt>
      <trkpt lon="-82.304447" lat="35.644411"><ele>804.111145</ele><time>2022-06-20T12:52:41Z</time><extensions><speed>1.482348</speed><course>68.127312</course><hAcc>2.482184</hAcc><vAcc>0.756640</vAcc></extensions></trkpt>
      <trkpt lon="-82.304432" lat="35.644416"><ele>804.113037</ele><time>2022-06-20T12:52:42Z</time><extensions><speed>1.511253</speed><course>62.704231</course><hAcc>2.476739</hAcc><vAcc>0.756636</vAcc></extensions></trkpt>
      <trkpt lon="-82.304417" lat="35.644423"><ele>804.109497</ele><time>2022-06-20T12:52:43Z</time><extensions><speed>1.571400</speed><course>59.662678</course><hAcc>2.470299</hAcc><vAcc>0.756711</vAcc></extensions></trkpt>
      <trkpt lon="-82.304401" lat="35.644431"><ele>804.098022</ele><time>2022-06-20T12:52:44Z</time><extensions><speed>1.791141</speed><course>59.768490</course><hAcc>2.447383</hAcc><vAcc>0.756670</vAcc></extensions></trkpt>
      <trkpt lon="-82.304384" lat="35.644439"><ele>804.092773</ele><time>2022-06-20T12:52:45Z</time><extensions><speed>1.732903</speed><course>66.838013</course><hAcc>2.427402</hAcc><vAcc>0.756738</vAcc></extensions></trkpt>
      <trkpt lon="-82.304366" lat="35.644444"><ele>804.078003</ele><time>2022-06-20T12:52:46Z</time><extensions><speed>1.651709</speed><course>76.262909</course><hAcc>2.448607</hAcc><vAcc>0.756810</vAcc></extensions></trkpt>
      <trkpt lon="-82.304349" lat="35.644447"><ele>804.057617</ele><time>2022-06-20T12:52:47Z</time><extensions><speed>1.563527</speed><course>91.146935</course><hAcc>2.486087</hAcc><vAcc>0.756755</vAcc></extensions></trkpt>
      <trkpt lon="-82.304332" lat="35.644449"><ele>804.033813</ele><time>2022-06-20T12:52:48Z</time><extensions><speed>1.432081</speed><course>78.114677</course><hAcc>2.468158</hAcc><vAcc>0.756822</vAcc></extensions></trkpt>
      <trkpt lon="-82.304318" lat="35.644454"><ele>803.995544</ele><time>2022-06-20T12:52:49Z</time><extensions><speed>1.434529</speed><course>65.002205</course><hAcc>2.450145</hAcc><vAcc>0.756870</vAcc></extensions></trkpt>
      <trkpt lon="-82.304303" lat="35.644459"><ele>803.947083</ele><time>2022-06-20T12:52:50Z</time><extensions><speed>1.418533</speed><course>73.193764</course><hAcc>2.426484</hAcc><vAcc>0.757007</vAcc></extensions></trkpt>
      <trkpt lon="-82.304289" lat="35.644464"><ele>803.881592</ele><time>2022-06-20T12:52:51Z</time><extensions><speed>1.409232</speed><course>68.290695</course><hAcc>2.424249</hAcc><vAcc>0.757095</vAcc></extensions></trkpt>
      <trkpt lon="-82.304275" lat="35.644469"><ele>803.809326</ele><time>2022-06-20T12:52:52Z</time><extensions><speed>1.348870</speed><course>64.868645</course><hAcc>2.445301</hAcc><vAcc>0.757046</vAcc></extensions></trkpt>
      <trkpt lon="-82.304261" lat="35.644475"><ele>803.734497</ele><time>2022-06-20T12:52:53Z</time><extensions><speed>1.419230</speed><course>64.477493</course><hAcc>2.456549</hAcc><vAcc>0.757037</vAcc></extensions></trkpt>
      <trkpt lon="-82.304245" lat="35.644483"><ele>803.660522</ele><time>2022-06-20T12:52:54Z</time><extensions><speed>1.735918</speed><course>57.451992</course><hAcc>2.441888</hAcc><vAcc>0.756957</vAcc></extensions></trkpt>
      <trkpt lon="-82.304229" lat="35.644492"><ele>803.591614</ele><time>2022-06-20T12:52:55Z</time><extensions><speed>1.744412</speed><course>53.765186</course><hAcc>2.448513</hAcc><vAcc>0.756955</vAcc></extensions></trkpt>
      <trkpt lon="-82.304214" lat="35.644502"><ele>803.518860</ele><time>2022-06-20T12:52:56Z</time><extensions><speed>1.827597</speed><course>45.241425</course><hAcc>2.447569</hAcc><vAcc>0.756909</vAcc></extensions></trkpt>
      <trkpt lon="-82.304201" lat="35.644514"><ele>803.447876</ele><time>2022-06-20T12:52:57Z</time><extensions><speed>1.747345</speed><course>38.394367</course><hAcc>2.453802</hAcc><vAcc>0.756855</vAcc></extensions></trkpt>
      <trkpt lon="-82.304190" lat="35.644526"><ele>803.374390</ele><time>2022-06-20T12:52:58Z</time><extensions><speed>1.473751</speed><course>35.730103</course><hAcc>2.487668</hAcc><vAcc>0.756854</vAcc></extensions></trkpt>
      <trkpt lon="-82.304180" lat="35.644536"><ele>803.305847</ele><time>2022-06-20T12:52:59Z</time><extensions><speed>1.459092</speed><course>43.652931</course><hAcc>2.480162</hAcc><vAcc>0.756748</vAcc></extensions></trkpt>
      <trkpt lon="-82.304168" lat="35.644544"><ele>803.237000</ele><time>2022-06-20T12:53:00Z</time><extensions><speed>1.428439</speed><course>58.144859</course><hAcc>2.486805</hAcc><vAcc>0.756742</vAcc></extensions></trkpt>
      <trkpt lon="-82.304154" lat="35.644550"><ele>803.173035</ele><time>2022-06-20T12:53:01Z</time><extensions><speed>1.428797</speed><course>67.892815</course><hAcc>2.490635</hAcc><vAcc>0.756827</vAcc></extensions></trkpt>
      <trkpt lon="-82.304139" lat="35.644555"><ele>803.119629</ele><time>2022-06-20T12:53:02Z</time><extensions><speed>1.441581</speed><course>70.552330</course><hAcc>2.500924</hAcc><vAcc>0.756887</vAcc></extensions></trkpt>
      <trkpt lon="-82.304125" lat="35.644559"><ele>803.071167</ele><time>2022-06-20T12:53:03Z</time><extensions><speed>1.105797</speed><course>70.884705</course><hAcc>2.523532</hAcc><vAcc>0.756906</vAcc></extensions></trkpt>
      <trkpt lon="-82.304114" lat="35.644562"><ele>803.032837</ele><time>2022-06-20T12:53:04Z</time><extensions><speed>1.183874</speed><course>71.177368</course><hAcc>2.516122</hAcc><vAcc>0.756823</vAcc></extensions></trkpt>
      <trkpt lon="-82.304101" lat="35.644566"><ele>803.001404</ele><time>2022-06-20T12:53:05Z</time><extensions><speed>1.222360</speed><course>74.961472</course><hAcc>2.535767</hAcc><vAcc>0.756882</vAcc></extensions></trkpt>
      <trkpt lon="-82.304088" lat="35.644569"><ele>802.976746</ele><time>2022-06-20T12:53:06Z</time><extensions><speed>1.256552</speed><course>74.930595</course><hAcc>2.575279</hAcc><vAcc>0.756865</vAcc></extensions></trkpt>
      <trkpt lon="-82.304075" lat="35.644572"><ele>802.956787</ele><time>2022-06-20T12:53:07Z</time><extensions><speed>1.267025</speed><course>71.280426</course><hAcc>2.569564</hAcc><vAcc>0.756918</vAcc></extensions></trkpt>
      <trkpt lon="-82.304062" lat="35.644576"><ele>802.941711</ele><time>2022-06-20T12:53:08Z</time><extensions><speed>1.282584</speed><course>63.993717</course><hAcc>2.553565</hAcc><vAcc>0.757080</vAcc></extensions></trkpt>
      <trkpt lon="-82.304049" lat="35.644581"><ele>802.938171</ele><time>2022-06-20T12:53:09Z</time><extensions><speed>1.287301</speed><course>60.183720</course><hAcc>2.550971</hAcc><vAcc>0.757233</vAcc></extensions></trkpt>
      <trkpt lon="-82.304037" lat="35.644587"><ele>802.935303</ele><time>2022-06-20T12:53:10Z</time><extensions><speed>1.274351</speed><course>58.271065</course><hAcc>2.558424</hAcc><vAcc>0.757340</vAcc></extensions></trkpt>
      <trkpt lon="-82.304024" lat="35.644592"><ele>802.936707</ele><time>2022-06-20T12:53:11Z</time><extensions><speed>1.314996</speed><course>60.011082</course><hAcc>2.549223</hAcc><vAcc>0.757137</vAcc></extensions></trkpt>
      <trkpt lon="-82.304011" lat="35.644597"><ele>802.944580</ele><time>2022-06-20T12:53:12Z</time><extensions><speed>1.428951</speed><course>60.984577</course><hAcc>2.543607</hAcc><vAcc>0.756499</vAcc></extensions></trkpt>
      <trkpt lon="-82.303996" lat="35.644603"><ele>802.957214</ele><time>2022-06-20T12:53:13Z</time><extensions><speed>1.587326</speed><course>62.502319</course><hAcc>2.553600</hAcc><vAcc>0.756438</vAcc></extensions></trkpt>
      <trkpt lon="-82.303979" lat="35.644608"><ele>802.970886</ele><time>2022-06-20T12:53:14Z</time><extensions><speed>1.659140</speed><course>73.564987</course><hAcc>2.578907</hAcc><vAcc>0.756622</vAcc></extensions></trkpt>
      <trkpt lon="-82.303963" lat="35.644613"><ele>802.984863</ele><time>2022-06-20T12:53:15Z</time><extensions><speed>1.618770</speed><course>58.540520</course><hAcc>2.551007</hAcc><vAcc>0.756810</vAcc></extensions></trkpt>
      <trkpt lon="-82.303948" lat="35.644620"><ele>802.999573</ele><time>2022-06-20T12:53:16Z</time><extensions><speed>1.453389</speed><course>60.939068</course><hAcc>2.505259</hAcc><vAcc>0.756930</vAcc></extensions></trkpt>
      <trkpt lon="-82.303934" lat="35.644625"><ele>803.012451</ele><time>2022-06-20T12:53:17Z</time><extensions><speed>1.242083</speed><course>70.993042</course><hAcc>2.494128</hAcc><vAcc>0.756885</vAcc></extensions></trkpt>
      <trkpt lon="-82.303921" lat="35.644627"><ele>803.021545</ele><time>2022-06-20T12:53:18Z</time><extensions><speed>1.208593</speed><course>81.122375</course><hAcc>2.520705</hAcc><vAcc>0.756864</vAcc></extensions></trkpt>
      <trkpt lon="-82.303908" lat="35.644626"><ele>803.029358</ele><time>2022-06-20T12:53:19Z</time><extensions><speed>1.292211</speed><course>110.778885</course><hAcc>2.522202</hAcc><vAcc>0.757019</vAcc></extensions></trkpt>
      <trkpt lon="-82.303893" lat="35.644622"><ele>803.032837</ele><time>2022-06-20T12:53:20Z</time><extensions><speed>1.497951</speed><course>108.589935</course><hAcc>2.511827</hAcc><vAcc>0.757175</vAcc></extensions></trkpt>
      <trkpt lon="-82.303878" lat="35.644618"><ele>803.032410</ele><time>2022-06-20T12:53:21Z</time><extensions><speed>1.525148</speed><course>110.159370</course><hAcc>2.510136</hAcc><vAcc>0.757301</vAcc></extensions></trkpt>
      <trkpt lon="-82.303863" lat="35.644614"><ele>803.024963</ele><time>2022-06-20T12:53:22Z</time><extensions><speed>1.319066</speed><course>102.893051</course><hAcc>2.514270</hAcc><vAcc>0.757373</vAcc></extensions></trkpt>
      <trkpt lon="-82.303849" lat="35.644612"><ele>803.018066</ele><time>2022-06-20T12:53:23Z</time><extensions><speed>1.315872</speed><course>99.720238</course><hAcc>2.523653</hAcc><vAcc>0.757360</vAcc></extensions></trkpt>
      <trkpt lon="-82.303834" lat="35.644612"><ele>803.001892</ele><time>2022-06-20T12:53:24Z</time><extensions><speed>1.221841</speed><course>91.744637</course><hAcc>2.505648</hAcc><vAcc>0.757394</vAcc></extensions></trkpt>
      <trkpt lon="-82.303821" lat="35.644612"><ele>802.981934</ele><time>2022-06-20T12:53:25Z</time><extensions><speed>1.185151</speed><course>83.381958</course><hAcc>2.513125</hAcc><vAcc>0.756800</vAcc></extensions></trkpt>
      <trkpt lon="-82.303809" lat="35.644614"><ele>802.962158</ele><time>2022-06-20T12:53:26Z</time><extensions><speed>1.181206</speed><course>76.893692</course><hAcc>2.539888</hAcc><vAcc>0.756251</vAcc></extensions></trkpt>
      <trkpt lon="-82.303796" lat="35.644618"><ele>802.942932</ele><time>2022-06-20T12:53:27Z</time><extensions><speed>1.216545</speed><course>69.494492</course><hAcc>2.527594</hAcc><vAcc>0.756483</vAcc></extensions></trkpt>
      <trkpt lon="-82.303784" lat="35.644623"><ele>802.924622</ele><time>2022-06-20T12:53:28Z</time><extensions><speed>1.259960</speed><course>63.826439</course><hAcc>2.510823</hAcc><vAcc>0.756992</vAcc></extensions></trkpt>
      <trkpt lon="-82.303771" lat="35.644629"><ele>802.903931</ele><time>2022-06-20T12:53:29Z</time><extensions><speed>1.283442</speed><course>60.767494</course><hAcc>2.523326</hAcc><vAcc>0.757253</vAcc></extensions></trkpt>
      <trkpt lon="-82.303758" lat="35.644635"><ele>802.881409</ele><time>2022-06-20T12:53:30Z</time><extensions><speed>1.310476</speed><course>62.290470</course><hAcc>2.510855</hAcc><vAcc>0.756833</vAcc></extensions></trkpt>
      <trkpt lon="-82.303745" lat="35.644640"><ele>802.857178</ele><time>2022-06-20T12:53:31Z</time><extensions><speed>1.309483</speed><course>70.413185</course><hAcc>2.520283</hAcc><vAcc>0.756302</vAcc></extensions></trkpt>
      <trkpt lon="-82.303731" lat="35.644643"><ele>802.833191</ele><time>2022-06-20T12:53:32Z</time><extensions><speed>1.332649</speed><course>82.920738</course><hAcc>2.508655</hAcc><vAcc>0.756563</vAcc></extensions></trkpt>
      <trkpt lon="-82.303716" lat="35.644645"><ele>802.819275</ele><time>2022-06-20T12:53:33Z</time><extensions><speed>1.305178</speed><course>82.689552</course><hAcc>2.497618</hAcc><vAcc>0.756763</vAcc></extensions></trkpt>
      <trkpt lon="-82.303702" lat="35.644646"><ele>802.805298</ele><time>2022-06-20T12:53:34Z</time><extensions><speed>1.280046</speed><course>92.322876</course><hAcc>2.499354</hAcc><vAcc>0.756932</vAcc></extensions></trkpt>
      <trkpt lon="-82.303688" lat="35.644648"><ele>802.794617</ele><time>2022-06-20T12:53:35Z</time><extensions><speed>1.317660</speed><course>81.401985</course><hAcc>2.491744</hAcc><vAcc>0.757152</vAcc></extensions></trkpt>
      <trkpt lon="-82.303673" lat="35.644651"><ele>802.790527</ele><time>2022-06-20T12:53:36Z</time><extensions><speed>1.302708</speed><course>72.164124</course><hAcc>2.494969</hAcc><vAcc>0.757159</vAcc></extensions></trkpt>
      <trkpt lon="-82.303660" lat="35.644654"><ele>802.786194</ele><time>2022-06-20T12:53:37Z</time><extensions><speed>1.226860</speed><course>83.005157</course><hAcc>2.510958</hAcc><vAcc>0.756729</vAcc></extensions></trkpt>
      <trkpt lon="-82.303647" lat="35.644655"><ele>802.779602</ele><time>2022-06-20T12:53:38Z</time><extensions><speed>1.080019</speed><course>102.983597</course><hAcc>2.487484</hAcc><vAcc>0.756303</vAcc></extensions></trkpt>
      <trkpt lon="-82.303636" lat="35.644653"><ele>802.772583</ele><time>2022-06-20T12:53:39Z</time><extensions><speed>1.052482</speed><course>108.050186</course><hAcc>2.478258</hAcc><vAcc>0.755942</vAcc></extensions></trkpt>
      <trkpt lon="-82.303624" lat="35.644651"><ele>802.765381</ele><time>2022-06-20T12:53:40Z</time><extensions><speed>1.123242</speed><course>103.991852</course><hAcc>2.509468</hAcc><vAcc>0.756181</vAcc></extensions></trkpt>
      <trkpt lon="-82.303612" lat="35.644650"><ele>802.761597</ele><time>2022-06-20T12:53:41Z</time><extensions><speed>1.194175</speed><course>98.217773</course><hAcc>2.564401</hAcc><vAcc>0.756387</vAcc></extensions></trkpt>
      <trkpt lon="-82.303598" lat="35.644650"><ele>802.761719</ele><time>2022-06-20T12:53:42Z</time><extensions><speed>1.221830</speed><course>83.062447</course><hAcc>2.580743</hAcc><vAcc>0.756591</vAcc></extensions></trkpt>
      <trkpt lon="-82.303585" lat="35.644654"><ele>802.762329</ele><time>2022-06-20T12:53:43Z</time><extensions><speed>1.152111</speed><course>67.582199</course><hAcc>2.555724</hAcc><vAcc>0.756918</vAcc></extensions></trkpt>
      <trkpt lon="-82.303574" lat="35.644659"><ele>802.766052</ele><time>2022-06-20T12:53:44Z</time><extensions><speed>1.060215</speed><course>53.841980</course><hAcc>2.537478</hAcc><vAcc>0.756829</vAcc></extensions></trkpt>
      <trkpt lon="-82.303563" lat="35.644667"><ele>802.781738</ele><time>2022-06-20T12:53:45Z</time><extensions><speed>1.434345</speed><course>49.377884</course><hAcc>2.528457</hAcc><vAcc>0.756259</vAcc></extensions></trkpt>
      <trkpt lon="-82.303551" lat="35.644676"><ele>802.809875</ele><time>2022-06-20T12:53:46Z</time><extensions><speed>1.546478</speed><course>45.853260</course><hAcc>2.525274</hAcc><vAcc>0.756100</vAcc></extensions></trkpt>
      <trkpt lon="-82.303538" lat="35.644687"><ele>802.837463</ele><time>2022-06-20T12:53:47Z</time><extensions><speed>1.496101</speed><course>44.575974</course><hAcc>2.552200</hAcc><vAcc>0.756269</vAcc></extensions></trkpt>
      <trkpt lon="-82.303527" lat="35.644697"><ele>802.867310</ele><time>2022-06-20T12:53:48Z</time><extensions><speed>1.276355</speed><course>44.112484</course><hAcc>2.553459</hAcc><vAcc>0.756466</vAcc></extensions></trkpt>
      <trkpt lon="-82.303517" lat="35.644706"><ele>802.898010</ele><time>2022-06-20T12:53:49Z</time><extensions><speed>1.308956</speed><course>43.114128</course><hAcc>2.525997</hAcc><vAcc>0.756590</vAcc></extensions></trkpt>
      <trkpt lon="-82.303506" lat="35.644715"><ele>802.937988</ele><time>2022-06-20T12:53:50Z</time><extensions><speed>1.358557</speed><course>44.235336</course><hAcc>2.522982</hAcc><vAcc>0.756659</vAcc></extensions></trkpt>
      <trkpt lon="-82.303494" lat="35.644724"><ele>802.981262</ele><time>2022-06-20T12:53:51Z</time><extensions><speed>1.427085</speed><course>44.538879</course><hAcc>2.511620</hAcc><vAcc>0.756705</vAcc></extensions></trkpt>
      <trkpt lon="-82.303482" lat="35.644733"><ele>803.025818</ele><time>2022-06-20T12:53:52Z</time><extensions><speed>1.465114</speed><course>49.199696</course><hAcc>2.518853</hAcc><vAcc>0.756783</vAcc></extensions></trkpt>
      <trkpt lon="-82.303467" lat="35.644742"><ele>803.062744</ele><time>2022-06-20T12:53:53Z</time><extensions><speed>1.627890</speed><course>56.264427</course><hAcc>2.522843</hAcc><vAcc>0.756674</vAcc></extensions></trkpt>
      <trkpt lon="-82.303452" lat="35.644751"><ele>803.097656</ele><time>2022-06-20T12:53:54Z</time><extensions><speed>1.659940</speed><course>54.897045</course><hAcc>2.522379</hAcc><vAcc>0.756356</vAcc></extensions></trkpt>
      <trkpt lon="-82.303438" lat="35.644760"><ele>803.130798</ele><time>2022-06-20T12:53:55Z</time><extensions><speed>1.562024</speed><course>50.788654</course><hAcc>2.529169</hAcc><vAcc>0.756403</vAcc></extensions></trkpt>
      <trkpt lon="-82.303424" lat="35.644770"><ele>803.164551</ele><time>2022-06-20T12:53:56Z</time><extensions><speed>1.571690</speed><course>48.103611</course><hAcc>2.514059</hAcc><vAcc>0.756432</vAcc></extensions></trkpt>
      <trkpt lon="-82.303411" lat="35.644779"><ele>803.198486</ele><time>2022-06-20T12:53:57Z</time><extensions><speed>1.612008</speed><course>52.335484</course><hAcc>2.507179</hAcc><vAcc>0.756539</vAcc></extensions></trkpt>
      <trkpt lon="-82.303396" lat="35.644788"><ele>803.224670</ele><time>2022-06-20T12:53:58Z</time><extensions><speed>1.618836</speed><course>58.678440</course><hAcc>2.528760</hAcc><vAcc>0.756678</vAcc></extensions></trkpt>
      <trkpt lon="-82.303381" lat="35.644795"><ele>803.244812</ele><time>2022-06-20T12:53:59Z</time><extensions><speed>1.614129</speed><course>62.916313</course><hAcc>2.527255</hAcc><vAcc>0.756789</vAcc></extensions></trkpt>
      <trkpt lon="-82.303364" lat="35.644802"><ele>803.263977</ele><time>2022-06-20T12:54:00Z</time><extensions><speed>1.564029</speed><course>66.729904</course><hAcc>2.513330</hAcc><vAcc>0.756884</vAcc></extensions></trkpt>
      <trkpt lon="-82.303348" lat="35.644807"><ele>803.271973</ele><time>2022-06-20T12:54:01Z</time><extensions><speed>1.582164</speed><course>71.092178</course><hAcc>2.498842</hAcc><vAcc>0.756746</vAcc></extensions></trkpt>
      <trkpt lon="-82.303331" lat="35.644811"><ele>803.275818</ele><time>2022-06-20T12:54:02Z</time><extensions><speed>1.611420</speed><course>78.206566</course><hAcc>2.510827</hAcc><vAcc>0.756712</vAcc></extensions></trkpt>
      <trkpt lon="-82.303312" lat="35.644813"><ele>803.281433</ele><time>2022-06-20T12:54:03Z</time><extensions><speed>1.713171</speed><course>82.011543</course><hAcc>2.523147</hAcc><vAcc>0.756806</vAcc></extensions></trkpt>
      <trkpt lon="-82.303294" lat="35.644815"><ele>803.286316</ele><time>2022-06-20T12:54:04Z</time><extensions><speed>1.656738</speed><course>81.157112</course><hAcc>2.520384</hAcc><vAcc>0.756744</vAcc></extensions></trkpt>
      <trkpt lon="-82.303277" lat="35.644818"><ele>803.292847</ele><time>2022-06-20T12:54:05Z</time><extensions><speed>1.441504</speed><course>75.230347</course><hAcc>2.530977</hAcc><vAcc>0.756796</vAcc></extensions></trkpt>
      <trkpt lon="-82.303262" lat="35.644822"><ele>803.301514</ele><time>2022-06-20T12:54:06Z</time><extensions><speed>1.413284</speed><course>73.688751</course><hAcc>2.516242</hAcc><vAcc>0.756787</vAcc></extensions></trkpt>
      <trkpt lon="-82.303246" lat="35.644825"><ele>803.301880</ele><time>2022-06-20T12:54:07Z</time><extensions><speed>1.467912</speed><course>74.672920</course><hAcc>2.496426</hAcc><vAcc>0.756873</vAcc></extensions></trkpt>
      <trkpt lon="-82.303230" lat="35.644828"><ele>803.301819</ele><time>2022-06-20T12:54:08Z</time><extensions><speed>1.587953</speed><course>80.531487</course><hAcc>2.502674</hAcc><vAcc>0.756947</vAcc></extensions></trkpt>
      <trkpt lon="-82.303213" lat="35.644830"><ele>803.303345</ele><time>2022-06-20T12:54:09Z</time><extensions><speed>1.561705</speed><course>88.233719</course><hAcc>2.531081</hAcc><vAcc>0.756853</vAcc></extensions></trkpt>
      <trkpt lon="-82.303196" lat="35.644829"><ele>803.301880</ele><time>2022-06-20T12:54:10Z</time><extensions><speed>1.373739</speed><course>98.273270</course><hAcc>2.563324</hAcc><vAcc>0.756782</vAcc></extensions></trkpt>
      <trkpt lon="-82.303181" lat="35.644827"><ele>803.302979</ele><time>2022-06-20T12:54:11Z</time><extensions><speed>1.364171</speed><course>101.024803</course><hAcc>2.553617</hAcc><vAcc>0.756760</vAcc></extensions></trkpt>
      <trkpt lon="-82.303166" lat="35.644825"><ele>803.302673</ele><time>2022-06-20T12:54:12Z</time><extensions><speed>1.400420</speed><course>99.928276</course><hAcc>2.543552</hAcc><vAcc>0.756754</vAcc></extensions></trkpt>
      <trkpt lon="-82.303151" lat="35.644823"><ele>803.298279</ele><time>2022-06-20T12:54:13Z</time><extensions><speed>1.341083</speed><course>96.692390</course><hAcc>2.565826</hAcc><vAcc>0.756816</vAcc></extensions></trkpt>
      <trkpt lon="-82.303137" lat="35.644822"><ele>803.296082</ele><time>2022-06-20T12:54:14Z</time><extensions><speed>1.287609</speed><course>91.890923</course><hAcc>2.595282</hAcc><vAcc>0.756750</vAcc></extensions></trkpt>
      <trkpt lon="-82.303123" lat="35.644823"><ele>803.293579</ele><time>2022-06-20T12:54:15Z</time><extensions><speed>1.222530</speed><course>84.781860</course><hAcc>2.618721</hAcc><vAcc>0.756725</vAcc></extensions></trkpt>
      <trkpt lon="-82.303109" lat="35.644824"><ele>803.285828</ele><time>2022-06-20T12:54:16Z</time><extensions><speed>1.217731</speed><course>80.580597</course><hAcc>2.641128</hAcc><vAcc>0.756634</vAcc></extensions></trkpt>
      <trkpt lon="-82.303095" lat="35.644826"><ele>803.270020</ele><time>2022-06-20T12:54:17Z</time><extensions><speed>1.306226</speed><course>84.215408</course><hAcc>2.671941</hAcc><vAcc>0.756540</vAcc></extensions></trkpt>
      <trkpt lon="-82.303078" lat="35.644826"><ele>803.259827</ele><time>2022-06-20T12:54:18Z</time><extensions><speed>1.599987</speed><course>95.250076</course><hAcc>2.707635</hAcc><vAcc>0.756623</vAcc></extensions></trkpt>
      <trkpt lon="-82.303061" lat="35.644823"><ele>803.249695</ele><time>2022-06-20T12:54:19Z</time><extensions><speed>1.661577</speed><course>106.371460</course><hAcc>2.695265</hAcc><vAcc>0.756662</vAcc></extensions></trkpt>
      <trkpt lon="-82.303043" lat="35.644819"><ele>803.237793</ele><time>2022-06-20T12:54:20Z</time><extensions><speed>1.622800</speed><course>110.518341</course><hAcc>2.668020</hAcc><vAcc>0.756663</vAcc></extensions></trkpt>
      <trkpt lon="-82.303027" lat="35.644815"><ele>803.220520</ele><time>2022-06-20T12:54:21Z</time><extensions><speed>1.514816</speed><course>105.593399</course><hAcc>2.642193</hAcc><vAcc>0.756673</vAcc></extensions></trkpt>
      <trkpt lon="-82.303011" lat="35.644812"><ele>803.201599</ele><time>2022-06-20T12:54:22Z</time><extensions><speed>1.463366</speed><course>97.235413</course><hAcc>2.621923</hAcc><vAcc>0.756709</vAcc></extensions></trkpt>
      <trkpt lon="-82.302996" lat="35.644811"><ele>803.181030</ele><time>2022-06-20T12:54:23Z</time><extensions><speed>1.425537</speed><course>94.187996</course><hAcc>2.606306</hAcc><vAcc>0.756755</vAcc></extensions></trkpt>
      <trkpt lon="-82.302981" lat="35.644810"><ele>803.159424</ele><time>2022-06-20T12:54:24Z</time><extensions><speed>1.376663</speed><course>99.642403</course><hAcc>2.614699</hAcc><vAcc>0.756735</vAcc></extensions></trkpt>
      <trkpt lon="-82.302967" lat="35.644806"><ele>803.137451</ele><time>2022-06-20T12:54:25Z</time><extensions><speed>1.377408</speed><course>118.824448</course><hAcc>2.600878</hAcc><vAcc>0.756792</vAcc></extensions></trkpt>
      <trkpt lon="-82.302954" lat="35.644799"><ele>803.117004</ele><time>2022-06-20T12:54:26Z</time><extensions><speed>1.471565</speed><course>128.213409</course><hAcc>2.576968</hAcc><vAcc>0.756833</vAcc></extensions></trkpt>
      <trkpt lon="-82.302941" lat="35.644791"><ele>803.097107</ele><time>2022-06-20T12:54:27Z</time><extensions><speed>1.430355</speed><course>128.631973</course><hAcc>2.554710</hAcc><vAcc>0.756885</vAcc></extensions></trkpt>
      <trkpt lon="-82.302928" lat="35.644784"><ele>803.084290</ele><time>2022-06-20T12:54:28Z</time><extensions><speed>1.257793</speed><course>119.301071</course><hAcc>2.548061</hAcc><vAcc>0.757015</vAcc></extensions></trkpt>
      <trkpt lon="-82.302916" lat="35.644779"><ele>803.071899</ele><time>2022-06-20T12:54:29Z</time><extensions><speed>1.098238</speed><course>108.080780</course><hAcc>2.516857</hAcc><vAcc>0.756952</vAcc></extensions></trkpt>
      <trkpt lon="-82.302906" lat="35.644777"><ele>803.062378</ele><time>2022-06-20T12:54:30Z</time><extensions><speed>0.768268</speed><course>106.632347</course><hAcc>2.492815</hAcc><vAcc>0.756724</vAcc></extensions></trkpt>
      <trkpt lon="-82.302898" lat="35.644774"><ele>803.055176</ele><time>2022-06-20T12:54:31Z</time><extensions><speed>0.642897</speed><course>112.434822</course><hAcc>2.497915</hAcc><vAcc>0.756821</vAcc></extensions></trkpt>
      <trkpt lon="-82.302892" lat="35.644771"><ele>803.051453</ele><time>2022-06-20T12:54:32Z</time><extensions><speed>0.716704</speed><course>124.779678</course><hAcc>2.487518</hAcc><vAcc>0.756899</vAcc></extensions></trkpt>
      <trkpt lon="-82.302883" lat="35.644766"><ele>803.038940</ele><time>2022-06-20T12:54:33Z</time><extensions><speed>1.049782</speed><course>119.041000</course><hAcc>2.489388</hAcc><vAcc>0.756937</vAcc></extensions></trkpt>
      <trkpt lon="-82.302871" lat="35.644761"><ele>803.031494</ele><time>2022-06-20T12:54:34Z</time><extensions><speed>1.449445</speed><course>113.368706</course><hAcc>2.496351</hAcc><vAcc>0.756914</vAcc></extensions></trkpt>
      <trkpt lon="-82.302856" lat="35.644755"><ele>803.013672</ele><time>2022-06-20T12:54:35Z</time><extensions><speed>1.554000</speed><course>114.918983</course><hAcc>2.498600</hAcc><vAcc>0.757038</vAcc></extensions></trkpt>
      <trkpt lon="-82.302841" lat="35.644749"><ele>802.990234</ele><time>2022-06-20T12:54:36Z</time><extensions><speed>1.592849</speed><course>114.253922</course><hAcc>2.529958</hAcc><vAcc>0.756964</vAcc></extensions></trkpt>
      <trkpt lon="-82.302825" lat="35.644743"><ele>802.951416</ele><time>2022-06-20T12:54:37Z</time><extensions><speed>1.624138</speed><course>112.498230</course><hAcc>2.530117</hAcc><vAcc>0.756703</vAcc></extensions></trkpt>
      <trkpt lon="-82.302809" lat="35.644737"><ele>802.897949</ele><time>2022-06-20T12:54:38Z</time><extensions><speed>1.670691</speed><course>111.282982</course><hAcc>2.529899</hAcc><vAcc>0.756797</vAcc></extensions></trkpt>
      <trkpt lon="-82.302793" lat="35.644730"><ele>802.833313</ele><time>2022-06-20T12:54:39Z</time><extensions><speed>1.643757</speed><course>116.077744</course><hAcc>2.521049</hAcc><vAcc>0.756821</vAcc></extensions></trkpt>
      <trkpt lon="-82.302779" lat="35.644723"><ele>802.750610</ele><time>2022-06-20T12:54:40Z</time><extensions><speed>1.560055</speed><course>123.956291</course><hAcc>2.514690</hAcc><vAcc>0.756859</vAcc></extensions></trkpt>
      <trkpt lon="-82.302767" lat="35.644714"><ele>802.655579</ele><time>2022-06-20T12:54:41Z</time><extensions><speed>1.509716</speed><course>134.622635</course><hAcc>2.509193</hAcc><vAcc>0.756882</vAcc></extensions></trkpt>
      <trkpt lon="-82.302757" lat="35.644703"><ele>802.552490</ele><time>2022-06-20T12:54:42Z</time><extensions><speed>1.480658</speed><course>143.115631</course><hAcc>2.527992</hAcc><vAcc>0.756950</vAcc></extensions></trkpt>
      <trkpt lon="-82.302748" lat="35.644691"><ele>802.432190</ele><time>2022-06-20T12:54:43Z</time><extensions><speed>1.603349</speed><course>147.214386</course><hAcc>2.560523</hAcc><vAcc>0.757164</vAcc></extensions></trkpt>
      <trkpt lon="-82.302738" lat="35.644678"><ele>802.293213</ele><time>2022-06-20T12:54:44Z</time><extensions><speed>1.583043</speed><course>147.682220</course><hAcc>2.559563</hAcc><vAcc>0.757042</vAcc></extensions></trkpt>
      <trkpt lon="-82.302730" lat="35.644666"><ele>802.154541</ele><time>2022-06-20T12:54:45Z</time><extensions><speed>1.451017</speed><course>148.284729</course><hAcc>2.545159</hAcc><vAcc>0.756573</vAcc></extensions></trkpt>
      <trkpt lon="-82.302723" lat="35.644655"><ele>802.008545</ele><time>2022-06-20T12:54:46Z</time><extensions><speed>1.289990</speed><course>147.127243</course><hAcc>2.545970</hAcc><vAcc>0.756486</vAcc></extensions></trkpt>
      <trkpt lon="-82.302715" lat="35.644646"><ele>801.863892</ele><time>2022-06-20T12:54:47Z</time><extensions><speed>1.137052</speed><course>140.131165</course><hAcc>2.574636</hAcc><vAcc>0.756571</vAcc></extensions></trkpt>
      <trkpt lon="-82.302709" lat="35.644638"><ele>801.720337</ele><time>2022-06-20T12:54:48Z</time><extensions><speed>0.917074</speed><course>145.341812</course><hAcc>2.577106</hAcc><vAcc>0.756784</vAcc></extensions></trkpt>
      <trkpt lon="-82.302704" lat="35.644631"><ele>801.570984</ele><time>2022-06-20T12:54:49Z</time><extensions><speed>0.911129</speed><course>150.880539</course><hAcc>2.576973</hAcc><vAcc>0.756990</vAcc></extensions></trkpt>
      <trkpt lon="-82.302700" lat="35.644623"><ele>801.414795</ele><time>2022-06-20T12:54:50Z</time><extensions><speed>1.009413</speed><course>163.163284</course><hAcc>2.548752</hAcc><vAcc>0.756920</vAcc></extensions></trkpt>
      <trkpt lon="-82.302698" lat="35.644613"><ele>801.269592</ele><time>2022-06-20T12:54:51Z</time><extensions><speed>1.172038</speed><course>166.398560</course><hAcc>2.530674</hAcc><vAcc>0.756629</vAcc></extensions></trkpt>
      <trkpt lon="-82.302696" lat="35.644602"><ele>801.131165</ele><time>2022-06-20T12:54:52Z</time><extensions><speed>1.390068</speed><course>164.923355</course><hAcc>2.536928</hAcc><vAcc>0.756647</vAcc></extensions></trkpt>
      <trkpt lon="-82.302692" lat="35.644588"><ele>800.992920</ele><time>2022-06-20T12:54:53Z</time><extensions><speed>1.473075</speed><course>163.574905</course><hAcc>2.561671</hAcc><vAcc>0.756773</vAcc></extensions></trkpt>
      <trkpt lon="-82.302688" lat="35.644575"><ele>800.863342</ele><time>2022-06-20T12:54:54Z</time><extensions><speed>1.464637</speed><course>159.246704</course><hAcc>2.589346</hAcc><vAcc>0.756847</vAcc></extensions></trkpt>
      <trkpt lon="-82.302682" lat="35.644563"><ele>800.736938</ele><time>2022-06-20T12:54:55Z</time><extensions><speed>1.447910</speed><course>152.891922</course><hAcc>2.558279</hAcc><vAcc>0.756805</vAcc></extensions></trkpt>
      <trkpt lon="-82.302674" lat="35.644552"><ele>800.626404</ele><time>2022-06-20T12:54:56Z</time><extensions><speed>1.543766</speed><course>138.928528</course><hAcc>2.530192</hAcc><vAcc>0.756492</vAcc></extensions></trkpt>
      <trkpt lon="-82.302662" lat="35.644542"><ele>800.520325</ele><time>2022-06-20T12:54:57Z</time><extensions><speed>1.492027</speed><course>125.895439</course><hAcc>2.526538</hAcc><vAcc>0.756644</vAcc></extensions></trkpt>
      <trkpt lon="-82.302650" lat="35.644536"><ele>800.419434</ele><time>2022-06-20T12:54:58Z</time><extensions><speed>1.240844</speed><course>121.719673</course><hAcc>2.541913</hAcc><vAcc>0.756825</vAcc></extensions></trkpt>
      <trkpt lon="-82.302640" lat="35.644529"><ele>800.316406</ele><time>2022-06-20T12:54:59Z</time><extensions><speed>1.196844</speed><course>135.744370</course><hAcc>2.549990</hAcc><vAcc>0.756718</vAcc></extensions></trkpt>
      <trkpt lon="-82.302634" lat="35.644520"><ele>800.218872</ele><time>2022-06-20T12:55:00Z</time><extensions><speed>1.207410</speed><course>160.043228</course><hAcc>2.530082</hAcc><vAcc>0.756443</vAcc></extensions></trkpt>
      <trkpt lon="-82.302631" lat="35.644510"><ele>800.120117</ele><time>2022-06-20T12:55:01Z</time><extensions><speed>1.270388</speed><course>172.918777</course><hAcc>2.534599</hAcc><vAcc>0.756470</vAcc></extensions></trkpt>
      <trkpt lon="-82.302632" lat="35.644498"><ele>800.029114</ele><time>2022-06-20T12:55:02Z</time><extensions><speed>1.343624</speed><course>184.669586</course><hAcc>2.525548</hAcc><vAcc>0.756647</vAcc></extensions></trkpt>
      <trkpt lon="-82.302634" lat="35.644485"><ele>799.939880</ele><time>2022-06-20T12:55:03Z</time><extensions><speed>1.438749</speed><course>186.419449</course><hAcc>2.514229</hAcc><vAcc>0.756781</vAcc></extensions></trkpt>
      <trkpt lon="-82.302635" lat="35.644473"><ele>799.857788</ele><time>2022-06-20T12:55:04Z</time><extensions><speed>1.380259</speed><course>182.009308</course><hAcc>2.517353</hAcc><vAcc>0.756810</vAcc></extensions></trkpt>
      <trkpt lon="-82.302634" lat="35.644461"><ele>799.779419</ele><time>2022-06-20T12:55:05Z</time><extensions><speed>1.185697</speed><course>165.936295</course><hAcc>2.516969</hAcc><vAcc>0.756895</vAcc></extensions></trkpt>
      <trkpt lon="-82.302629" lat="35.644451"><ele>799.708069</ele><time>2022-06-20T12:55:06Z</time><extensions><speed>1.411240</speed><course>148.492767</course><hAcc>2.533281</hAcc><vAcc>0.756787</vAcc></extensions></trkpt>
      <trkpt lon="-82.302622" lat="35.644441"><ele>799.647278</ele><time>2022-06-20T12:55:07Z</time><extensions><speed>0.934191</speed><course>151.630386</course><hAcc>2.557096</hAcc><vAcc>0.756775</vAcc></extensions></trkpt>
      <trkpt lon="-82.302619" lat="35.644434"><ele>799.597656</ele><time>2022-06-20T12:55:08Z</time><extensions><speed>0.895936</speed><course>168.194641</course><hAcc>2.559273</hAcc><vAcc>0.756638</vAcc></extensions></trkpt>
      <trkpt lon="-82.302621" lat="35.644427"><ele>799.549133</ele><time>2022-06-20T12:55:09Z</time><extensions><speed>0.932437</speed><course>223.498505</course><hAcc>2.540770</hAcc><vAcc>0.756752</vAcc></extensions></trkpt>
      <trkpt lon="-82.302629" lat="35.644420"><ele>799.507996</ele><time>2022-06-20T12:55:10Z</time><extensions><speed>1.166703</speed><course>231.202240</course><hAcc>2.528093</hAcc><vAcc>0.756828</vAcc></extensions></trkpt>
      <trkpt lon="-82.302639" lat="35.644412"><ele>799.470642</ele><time>2022-06-20T12:55:11Z</time><extensions><speed>1.322122</speed><course>221.655487</course><hAcc>2.529382</hAcc><vAcc>0.756827</vAcc></extensions></trkpt>
      <trkpt lon="-82.302648" lat="35.644402"><ele>799.438782</ele><time>2022-06-20T12:55:12Z</time><extensions><speed>1.306996</speed><course>214.567993</course><hAcc>2.529969</hAcc><vAcc>0.756697</vAcc></extensions></trkpt>
      <trkpt lon="-82.302655" lat="35.644392"><ele>799.411743</ele><time>2022-06-20T12:55:13Z</time><extensions><speed>1.264989</speed><course>210.623535</course><hAcc>2.511500</hAcc><vAcc>0.756579</vAcc></extensions></trkpt>
      <trkpt lon="-82.302661" lat="35.644382"><ele>799.394958</ele><time>2022-06-20T12:55:14Z</time><extensions><speed>1.136638</speed><course>208.354248</course><hAcc>2.499441</hAcc><vAcc>0.756638</vAcc></extensions></trkpt>
      <trkpt lon="-82.302666" lat="35.644373"><ele>799.378784</ele><time>2022-06-20T12:55:15Z</time><extensions><speed>0.907259</speed><course>206.607407</course><hAcc>2.484695</hAcc><vAcc>0.756711</vAcc></extensions></trkpt>
      <trkpt lon="-82.302669" lat="35.644366"><ele>799.365662</ele><time>2022-06-20T12:55:16Z</time><extensions><speed>0.780862</speed><course>200.955597</course><hAcc>2.467892</hAcc><vAcc>0.756712</vAcc></extensions></trkpt>
      <trkpt lon="-82.302671" lat="35.644359"><ele>799.358826</ele><time>2022-06-20T12:55:17Z</time><extensions><speed>0.598464</speed><course>192.635727</course><hAcc>2.484904</hAcc><vAcc>0.756742</vAcc></extensions></trkpt>
      <trkpt lon="-82.302672" lat="35.644354"><ele>799.358521</ele><time>2022-06-20T12:55:18Z</time><extensions><speed>0.603098</speed><course>185.774124</course><hAcc>2.487817</hAcc><vAcc>0.756881</vAcc></extensions></trkpt>
      <trkpt lon="-82.302672" lat="35.644348"><ele>799.359131</ele><time>2022-06-20T12:55:19Z</time><extensions><speed>0.649229</speed><course>191.482300</course><hAcc>2.508397</hAcc><vAcc>0.756929</vAcc></extensions></trkpt>
      <trkpt lon="-82.302675" lat="35.644341"><ele>799.365356</ele><time>2022-06-20T12:55:20Z</time><extensions><speed>0.923722</speed><course>201.734314</course><hAcc>2.518532</hAcc><vAcc>0.757069</vAcc></extensions></trkpt>
      <trkpt lon="-82.302679" lat="35.644330"><ele>799.371277</ele><time>2022-06-20T12:55:21Z</time><extensions><speed>1.404141</speed><course>199.775879</course><hAcc>2.524096</hAcc><vAcc>0.757111</vAcc></extensions></trkpt>
      <trkpt lon="-82.302683" lat="35.644318"><ele>799.372925</ele><time>2022-06-20T12:55:22Z</time><extensions><speed>1.440059</speed><course>194.700256</course><hAcc>2.520464</hAcc><vAcc>0.757072</vAcc></extensions></trkpt>
      <trkpt lon="-82.302687" lat="35.644305"><ele>799.374634</ele><time>2022-06-20T12:55:23Z</time><extensions><speed>1.404386</speed><course>189.272812</course><hAcc>2.502247</hAcc><vAcc>0.756947</vAcc></extensions></trkpt>
      <trkpt lon="-82.302689" lat="35.644293"><ele>799.370361</ele><time>2022-06-20T12:55:24Z</time><extensions><speed>1.250793</speed><course>186.461105</course><hAcc>2.512925</hAcc><vAcc>0.756396</vAcc></extensions></trkpt>
      <trkpt lon="-82.302690" lat="35.644283"><ele>799.365417</ele><time>2022-06-20T12:55:25Z</time><extensions><speed>0.883661</speed><course>183.154984</course><hAcc>2.552278</hAcc><vAcc>0.756623</vAcc></extensions></trkpt>
      <trkpt lon="-82.302690" lat="35.644276"><ele>799.356934</ele><time>2022-06-20T12:55:26Z</time><extensions><speed>0.842468</speed><course>180.309250</course><hAcc>2.548709</hAcc><vAcc>0.756733</vAcc></extensions></trkpt>
      <trkpt lon="-82.302690" lat="35.644268"><ele>799.346558</ele><time>2022-06-20T12:55:27Z</time><extensions><speed>0.864504</speed><course>181.741180</course><hAcc>2.562422</hAcc><vAcc>0.756898</vAcc></extensions></trkpt>
      <trkpt lon="-82.302689" lat="35.644259"><ele>799.330933</ele><time>2022-06-20T12:55:28Z</time><extensions><speed>1.001128</speed><course>182.017105</course><hAcc>2.594899</hAcc><vAcc>0.756905</vAcc></extensions></trkpt>
      <trkpt lon="-82.302690" lat="35.644249"><ele>799.307373</ele><time>2022-06-20T12:55:29Z</time><extensions><speed>1.120280</speed><course>188.135361</course><hAcc>2.592526</hAcc><vAcc>0.756706</vAcc></extensions></trkpt>
      <trkpt lon="-82.302692" lat="35.644237"><ele>799.281616</ele><time>2022-06-20T12:55:30Z</time><extensions><speed>1.358389</speed><course>195.567780</course><hAcc>2.569955</hAcc><vAcc>0.756836</vAcc></extensions></trkpt>
      <trkpt lon="-82.302698" lat="35.644224"><ele>799.254578</ele><time>2022-06-20T12:55:31Z</time><extensions><speed>1.775790</speed><course>208.851913</course><hAcc>2.568470</hAcc><vAcc>0.756926</vAcc></extensions></trkpt>
      <trkpt lon="-82.302708" lat="35.644210"><ele>799.206543</ele><time>2022-06-20T12:55:32Z</time><extensions><speed>1.751846</speed><course>213.668884</course><hAcc>2.561218</hAcc><vAcc>0.756862</vAcc></extensions></trkpt>
      <trkpt lon="-82.302718" lat="35.644196"><ele>799.151062</ele><time>2022-06-20T12:55:33Z</time><extensions><speed>1.678775</speed><course>214.850357</course><hAcc>2.558442</hAcc><vAcc>0.756701</vAcc></extensions></trkpt>
      <trkpt lon="-82.302726" lat="35.644184"><ele>799.092590</ele><time>2022-06-20T12:55:34Z</time><extensions><speed>1.452849</speed><course>207.648743</course><hAcc>2.537337</hAcc><vAcc>0.756768</vAcc></extensions></trkpt>
      <trkpt lon="-82.302731" lat="35.644172"><ele>799.028076</ele><time>2022-06-20T12:55:35Z</time><extensions><speed>1.179217</speed><course>191.768707</course><hAcc>2.527697</hAcc><vAcc>0.756795</vAcc></extensions></trkpt>
      <trkpt lon="-82.302732" lat="35.644161"><ele>798.967529</ele><time>2022-06-20T12:55:36Z</time><extensions><speed>1.248209</speed><course>178.478485</course><hAcc>2.546607</hAcc><vAcc>0.756630</vAcc></extensions></trkpt>
      <trkpt lon="-82.302730" lat="35.644151"><ele>798.900574</ele><time>2022-06-20T12:55:37Z</time><extensions><speed>1.036350</speed><course>161.301086</course><hAcc>2.553029</hAcc><vAcc>0.756642</vAcc></extensions></trkpt>
      <trkpt lon="-82.302724" lat="35.644141"><ele>798.829651</ele><time>2022-06-20T12:55:38Z</time><extensions><speed>1.413496</speed><course>148.021347</course><hAcc>2.540459</hAcc><vAcc>0.756504</vAcc></extensions></trkpt>
      <trkpt lon="-82.302714" lat="35.644129"><ele>798.758362</ele><time>2022-06-20T12:55:39Z</time><extensions><speed>1.617312</speed><course>141.642075</course><hAcc>2.526168</hAcc><vAcc>0.756640</vAcc></extensions></trkpt>
      <trkpt lon="-82.302704" lat="35.644118"><ele>798.691833</ele><time>2022-06-20T12:55:40Z</time><extensions><speed>1.566125</speed><course>145.205292</course><hAcc>2.530220</hAcc><vAcc>0.756724</vAcc></extensions></trkpt>
      <trkpt lon="-82.302695" lat="35.644106"><ele>798.626892</ele><time>2022-06-20T12:55:41Z</time><extensions><speed>1.538156</speed><course>152.097748</course><hAcc>2.508096</hAcc><vAcc>0.756728</vAcc></extensions></trkpt>
      <trkpt lon="-82.302689" lat="35.644094"><ele>798.564697</ele><time>2022-06-20T12:55:42Z</time><extensions><speed>1.425540</speed><course>159.538849</course><hAcc>2.501542</hAcc><vAcc>0.756822</vAcc></extensions></trkpt>
      <trkpt lon="-82.302684" lat="35.644082"><ele>798.497498</ele><time>2022-06-20T12:55:43Z</time><extensions><speed>1.227103</speed><course>159.165878</course><hAcc>2.485568</hAcc><vAcc>0.757027</vAcc></extensions></trkpt>
      <trkpt lon="-82.302680" lat="35.644072"><ele>798.437378</ele><time>2022-06-20T12:55:44Z</time><extensions><speed>1.168380</speed><course>158.636032</course><hAcc>2.499989</hAcc><vAcc>0.757176</vAcc></extensions></trkpt>
      <trkpt lon="-82.302675" lat="35.644062"><ele>798.377380</ele><time>2022-06-20T12:55:45Z</time><extensions><speed>1.264688</speed><course>153.315216</course><hAcc>2.533465</hAcc><vAcc>0.757114</vAcc></extensions></trkpt>
      <trkpt lon="-82.302668" lat="35.644052"><ele>798.324341</ele><time>2022-06-20T12:55:46Z</time><extensions><speed>1.263681</speed><course>147.919052</course><hAcc>2.533276</hAcc><vAcc>0.756663</vAcc></extensions></trkpt>
      <trkpt lon="-82.302661" lat="35.644043"><ele>798.274475</ele><time>2022-06-20T12:55:47Z</time><extensions><speed>1.215806</speed><course>144.129013</course><hAcc>2.528899</hAcc><vAcc>0.756326</vAcc></extensions></trkpt>
      <trkpt lon="-82.302654" lat="35.644035"><ele>798.226013</ele><time>2022-06-20T12:55:48Z</time><extensions><speed>1.190908</speed><course>148.937042</course><hAcc>2.551985</hAcc><vAcc>0.756231</vAcc></extensions></trkpt>
      <trkpt lon="-82.302650" lat="35.644025"><ele>798.179443</ele><time>2022-06-20T12:55:49Z</time><extensions><speed>1.230819</speed><course>169.506134</course><hAcc>2.538609</hAcc><vAcc>0.756421</vAcc></extensions></trkpt>
      <trkpt lon="-82.302650" lat="35.644014"><ele>798.140686</ele><time>2022-06-20T12:55:50Z</time><extensions><speed>1.562225</speed><course>185.934341</course><hAcc>2.533788</hAcc><vAcc>0.756494</vAcc></extensions></trkpt>
      <trkpt lon="-82.302654" lat="35.643998"><ele>798.108154</ele><time>2022-06-20T12:55:51Z</time><extensions><speed>2.045960</speed><course>191.942947</course><hAcc>2.549077</hAcc><vAcc>0.756560</vAcc></extensions></trkpt>
      <trkpt lon="-82.302659" lat="35.643981"><ele>798.076111</ele><time>2022-06-20T12:55:52Z</time><extensions><speed>2.066128</speed><course>193.068512</course><hAcc>2.531089</hAcc><vAcc>0.756631</vAcc></extensions></trkpt>
      <trkpt lon="-82.302664" lat="35.643964"><ele>798.044250</ele><time>2022-06-20T12:55:53Z</time><extensions><speed>1.910089</speed><course>191.106293</course><hAcc>2.526618</hAcc><vAcc>0.756676</vAcc></extensions></trkpt>
      <trkpt lon="-82.302668" lat="35.643949"><ele>798.015686</ele><time>2022-06-20T12:55:54Z</time><extensions><speed>1.520183</speed><course>185.201630</course><hAcc>2.559268</hAcc><vAcc>0.756708</vAcc></extensions></trkpt>
      <trkpt lon="-82.302669" lat="35.643938"><ele>797.979309</ele><time>2022-06-20T12:55:55Z</time><extensions><speed>1.061998</speed><course>175.535507</course><hAcc>2.598461</hAcc><vAcc>0.756792</vAcc></extensions></trkpt>
      <trkpt lon="-82.302667" lat="35.643928"><ele>797.951416</ele><time>2022-06-20T12:55:56Z</time><extensions><speed>1.042419</speed><course>165.914032</course><hAcc>2.616538</hAcc><vAcc>0.761892</vAcc></extensions></trkpt>
      <trkpt lon="-82.302664" lat="35.643920"><ele>797.925720</ele><time>2022-06-20T12:55:57Z</time><extensions><speed>0.960207</speed><course>170.114960</course><hAcc>2.621745</hAcc><vAcc>0.770492</vAcc></extensions></trkpt>
      <trkpt lon="-82.302663" lat="35.643912"><ele>797.900818</ele><time>2022-06-20T12:55:58Z</time><extensions><speed>0.858872</speed><course>178.046082</course><hAcc>2.648365</hAcc><vAcc>0.785219</vAcc></extensions></trkpt>
      <trkpt lon="-82.302664" lat="35.643904"><ele>797.877014</ele><time>2022-06-20T12:55:59Z</time><extensions><speed>0.735481</speed><course>196.704453</course><hAcc>2.700469</hAcc><vAcc>0.808556</vAcc></extensions></trkpt>
      <trkpt lon="-82.302668" lat="35.643899"><ele>797.854187</ele><time>2022-06-20T12:56:00Z</time><extensions><speed>0.736819</speed><course>213.263916</course><hAcc>2.762791</hAcc><vAcc>0.843709</vAcc></extensions></trkpt>
      <trkpt lon="-82.302673" lat="35.643893"><ele>797.830811</ele><time>2022-06-20T12:56:01Z</time><extensions><speed>0.794010</speed><course>223.533096</course><hAcc>2.876953</hAcc><vAcc>0.896438</vAcc></extensions></trkpt>
      <trkpt lon="-82.302679" lat="35.643888"><ele>797.808228</ele><time>2022-06-20T12:56:02Z</time><extensions><speed>0.877140</speed><course>220.474228</course><hAcc>3.037240</hAcc><vAcc>0.966717</vAcc></extensions></trkpt>
      <trkpt lon="-82.302686" lat="35.643880"><ele>797.785156</ele><time>2022-06-20T12:56:03Z</time><extensions><speed>1.114420</speed><course>215.345474</course><hAcc>3.185238</hAcc><vAcc>1.060770</vAcc></extensions></trkpt>
      <trkpt lon="-82.302692" lat="35.643872"><ele>797.761780</ele><time>2022-06-20T12:56:04Z</time><extensions><speed>1.067259</speed><course>202.707138</course><hAcc>3.368425</hAcc><vAcc>1.180464</vAcc></extensions></trkpt>
      <trkpt lon="-82.302695" lat="35.643862"><ele>797.738037</ele><time>2022-06-20T12:56:05Z</time><extensions><speed>1.171349</speed><course>191.813568</course><hAcc>3.610227</hAcc><vAcc>1.328252</vAcc></extensions></trkpt>
    </trkseg>
  </trk>
</gpx>