<?xml version="1.0" encoding="UTF-8"?>
<gpx version="1.1" creator="Apple Health Export" xmlns="http://www.topografix.com/GPX/1/1" xmlns:xsi="http://www.w3.org/2001/XMLSchema-instance" xsi:schemaLocation="http://www.topografix.com/GPX/1/1 http://www.topografix.com/GPX/1/1/gpx.xsd">
  <metadata>
    <time>2026-03-14T12:16:13Z</time>
  </metadata>
  <trk>
    <name>Route 2023-03-17 11:00am</name>
    <trkseg>
      <trkpt lon="-77.071328" lat="38.877936"><ele>44.108544</ele><time>2023-03-17T14:55:43Z</time><extensions><speed>1.482694</speed><course>194.948038</course><hAcc>2.105876</hAcc><vAcc>1.438630</vAcc></extensions></trkpt>
      <trkpt lon="-77.071331" lat="38.877923"><ele>44.117775</ele><time>2023-03-17T14:55:44Z</time><extensions><speed>1.485632</speed><course>184.194782</course><hAcc>2.009017</hAcc><vAcc>1.252903</vAcc></extensions></trkpt>
      <trkpt lon="-77.071331" lat="38.877909"><ele>44.132021</ele><time>2023-03-17T14:55:45Z</time><extensions><speed>1.486784</speed><course>176.515278</course><hAcc>1.856606</hAcc><vAcc>1.108417</vAcc></extensions></trkpt>
      <trkpt lon="-77.071330" lat="38.877896"><ele>44.133930</ele><time>2023-03-17T14:55:46Z</time><extensions><speed>1.498906</speed><course>179.546157</course><hAcc>1.694055</hAcc><vAcc>0.999256</vAcc></extensions></trkpt>
      <trkpt lon="-77.071330" lat="38.877883"><ele>44.126508</ele><time>2023-03-17T14:55:47Z</time><extensions><speed>1.478074</speed><course>180.240295</course><hAcc>1.613672</hAcc><vAcc>0.919664</vAcc></extensions></trkpt>
      <trkpt lon="-77.071330" lat="38.877870"><ele>44.117862</ele><time>2023-03-17T14:55:48Z</time><extensions><speed>1.411529</speed><course>179.974104</course><hAcc>1.586404</hAcc><vAcc>0.863919</vAcc></extensions></trkpt>
      <trkpt lon="-77.071331" lat="38.877857"><ele>44.109228</ele><time>2023-03-17T14:55:49Z</time><extensions><speed>1.384552</speed><course>187.017700</course><hAcc>1.570986</hAcc><vAcc>0.826519</vAcc></extensions></trkpt>
      <trkpt lon="-77.071332" lat="38.877845"><ele>44.103452</ele><time>2023-03-17T14:55:50Z</time><extensions><speed>1.357961</speed><course>183.359834</course><hAcc>1.542567</hAcc><vAcc>0.802501</vAcc></extensions></trkpt>
      <trkpt lon="-77.071333" lat="38.877833"><ele>44.096709</ele><time>2023-03-17T14:55:51Z</time><extensions><speed>1.359325</speed><course>181.879709</course><hAcc>1.533448</hAcc><vAcc>0.787723</vAcc></extensions></trkpt>
      <trkpt lon="-77.071334" lat="38.877821"><ele>44.088710</ele><time>2023-03-17T14:55:52Z</time><extensions><speed>1.405167</speed><course>186.306390</course><hAcc>1.546451</hAcc><vAcc>0.778975</vAcc></extensions></trkpt>
      <trkpt lon="-77.071334" lat="38.877807"><ele>44.079354</ele><time>2023-03-17T14:55:53Z</time><extensions><speed>1.639710</speed><course>171.104423</course><hAcc>1.523951</hAcc><vAcc>0.773931</vAcc></extensions></trkpt>
      <trkpt lon="-77.071330" lat="38.877793"><ele>44.068875</ele><time>2023-03-17T14:55:54Z</time><extensions><speed>1.678382</speed><course>165.684068</course><hAcc>1.515806</hAcc><vAcc>0.771011</vAcc></extensions></trkpt>
      <trkpt lon="-77.071324" lat="38.877778"><ele>44.058461</ele><time>2023-03-17T14:55:55Z</time><extensions><speed>1.658346</speed><course>160.646461</course><hAcc>1.537937</hAcc><vAcc>0.769204</vAcc></extensions></trkpt>
      <trkpt lon="-77.071318" lat="38.877765"><ele>44.058396</ele><time>2023-03-17T14:55:56Z</time><extensions><speed>1.567501</speed><course>158.602911</course><hAcc>1.541754</hAcc><vAcc>0.767909</vAcc></extensions></trkpt>
      <trkpt lon="-77.071311" lat="38.877752"><ele>44.063512</ele><time>2023-03-17T14:55:57Z</time><extensions><speed>1.455581</speed><course>158.738666</course><hAcc>1.563057</hAcc><vAcc>0.766800</vAcc></extensions></trkpt>
      <trkpt lon="-77.071307" lat="38.877742"><ele>44.065917</ele><time>2023-03-17T14:55:58Z</time><extensions><speed>0.970883</speed><course>164.177562</course><hAcc>1.577010</hAcc><vAcc>0.765727</vAcc></extensions></trkpt>
      <trkpt lon="-77.071305" lat="38.877734"><ele>44.065112</ele><time>2023-03-17T14:55:59Z</time><extensions><speed>0.803817</speed><course>172.511721</course><hAcc>1.578316</hAcc><vAcc>0.764644</vAcc></extensions></trkpt>
      <trkpt lon="-77.071303" lat="38.877728"><ele>44.057481</ele><time>2023-03-17T14:56:00Z</time><extensions><speed>0.717939</speed><course>172.441382</course><hAcc>1.595259</hAcc><vAcc>0.763557</vAcc></extensions></trkpt>
      <trkpt lon="-77.071301" lat="38.877721"><ele>44.044439</ele><time>2023-03-17T14:56:01Z</time><extensions><speed>0.805858</speed><course>158.364607</course><hAcc>1.605587</hAcc><vAcc>0.762496</vAcc></extensions></trkpt>
      <trkpt lon="-77.071296" lat="38.877713"><ele>44.036377</ele><time>2023-03-17T14:56:02Z</time><extensions><speed>1.159444</speed><course>148.278813</course><hAcc>1.629844</hAcc><vAcc>0.761496</vAcc></extensions></trkpt>
      <trkpt lon="-77.071287" lat="38.877704"><ele>44.033988</ele><time>2023-03-17T14:56:03Z</time><extensions><speed>1.374078</speed><course>140.858754</course><hAcc>1.629211</hAcc><vAcc>0.760585</vAcc></extensions></trkpt>
      <trkpt lon="-77.071277" lat="38.877694"><ele>44.036041</ele><time>2023-03-17T14:56:04Z</time><extensions><speed>1.443930</speed><course>136.751337</course><hAcc>1.615762</hAcc><vAcc>0.759782</vAcc></extensions></trkpt>
      <trkpt lon="-77.071264" lat="38.877685"><ele>44.046230</ele><time>2023-03-17T14:56:05Z</time><extensions><speed>1.500149</speed><course>131.791757</course><hAcc>1.633482</hAcc><vAcc>0.759095</vAcc></extensions></trkpt>
      <trkpt lon="-77.071250" lat="38.877676"><ele>44.061113</ele><time>2023-03-17T14:56:06Z</time><extensions><speed>1.591577</speed><course>125.564661</course><hAcc>1.685259</hAcc><vAcc>0.758525</vAcc></extensions></trkpt>
      <trkpt lon="-77.071235" lat="38.877668"><ele>44.083914</ele><time>2023-03-17T14:56:07Z</time><extensions><speed>1.504530</speed><course>117.241163</course><hAcc>1.680102</hAcc><vAcc>0.758064</vAcc></extensions></trkpt>
      <trkpt lon="-77.071221" lat="38.877663"><ele>44.111124</ele><time>2023-03-17T14:56:08Z</time><extensions><speed>1.200178</speed><course>115.062997</course><hAcc>1.655179</hAcc><vAcc>0.757702</vAcc></extensions></trkpt>
      <trkpt lon="-77.071209" lat="38.877657"><ele>44.135536</ele><time>2023-03-17T14:56:09Z</time><extensions><speed>1.232190</speed><course>126.197778</course><hAcc>1.653581</hAcc><vAcc>0.757423</vAcc></extensions></trkpt>
      <trkpt lon="-77.071199" lat="38.877649"><ele>44.164139</ele><time>2023-03-17T14:56:10Z</time><extensions><speed>1.340470</speed><course>143.972867</course><hAcc>1.640205</hAcc><vAcc>0.757215</vAcc></extensions></trkpt>
      <trkpt lon="-77.071190" lat="38.877638"><ele>44.197954</ele><time>2023-03-17T14:56:11Z</time><extensions><speed>1.533873</speed><course>150.484364</course><hAcc>1.615799</hAcc><vAcc>0.757064</vAcc></extensions></trkpt>
      <trkpt lon="-77.071181" lat="38.877625"><ele>44.232750</ele><time>2023-03-17T14:56:12Z</time><extensions><speed>1.679609</speed><course>150.075187</course><hAcc>1.613112</hAcc><vAcc>0.756956</vAcc></extensions></trkpt>
      <trkpt lon="-77.071171" lat="38.877612"><ele>44.268034</ele><time>2023-03-17T14:56:13Z</time><extensions><speed>1.667111</speed><course>146.009536</course><hAcc>1.615889</hAcc><vAcc>0.756882</vAcc></extensions></trkpt>
      <trkpt lon="-77.071160" lat="38.877600"><ele>44.304704</ele><time>2023-03-17T14:56:14Z</time><extensions><speed>1.637735</speed><course>146.757013</course><hAcc>1.608786</hAcc><vAcc>0.756832</vAcc></extensions></trkpt>
      <trkpt lon="-77.071150" lat="38.877588"><ele>44.333168</ele><time>2023-03-17T14:56:15Z</time><extensions><speed>1.560815</speed><course>147.616908</course><hAcc>1.605069</hAcc><vAcc>0.756800</vAcc></extensions></trkpt>
      <trkpt lon="-77.071141" lat="38.877575"><ele>44.354079</ele><time>2023-03-17T14:56:16Z</time><extensions><speed>1.575566</speed><course>151.604797</course><hAcc>1.597778</hAcc><vAcc>0.756779</vAcc></extensions></trkpt>
      <trkpt lon="-77.071132" lat="38.877563"><ele>44.350208</ele><time>2023-03-17T14:56:17Z</time><extensions><speed>1.525225</speed><course>151.276302</course><hAcc>1.628879</hAcc><vAcc>0.756767</vAcc></extensions></trkpt>
      <trkpt lon="-77.071125" lat="38.877550"><ele>44.339762</ele><time>2023-03-17T14:56:18Z</time><extensions><speed>1.609079</speed><course>156.219554</course><hAcc>1.654010</hAcc><vAcc>0.756760</vAcc></extensions></trkpt>
      <trkpt lon="-77.071118" lat="38.877537"><ele>44.314218</ele><time>2023-03-17T14:56:19Z</time><extensions><speed>1.603191</speed><course>158.106056</course><hAcc>1.691255</hAcc><vAcc>0.756756</vAcc></extensions></trkpt>
      <trkpt lon="-77.071112" lat="38.877523"><ele>44.272845</ele><time>2023-03-17T14:56:20Z</time><extensions><speed>1.556267</speed><course>166.392208</course><hAcc>1.746637</hAcc><vAcc>0.756753</vAcc></extensions></trkpt>
      <trkpt lon="-77.071109" lat="38.877510"><ele>44.214588</ele><time>2023-03-17T14:56:21Z</time><extensions><speed>1.457130</speed><course>172.445972</course><hAcc>1.826526</hAcc><vAcc>0.756752</vAcc></extensions></trkpt>
      <trkpt lon="-77.071106" lat="38.877497"><ele>44.145100</ele><time>2023-03-17T14:56:22Z</time><extensions><speed>1.422601</speed><course>166.256099</course><hAcc>1.952411</hAcc><vAcc>0.756751</vAcc></extensions></trkpt>
      <trkpt lon="-77.071101" lat="38.877485"><ele>44.060097</ele><time>2023-03-17T14:56:23Z</time><extensions><speed>1.478265</speed><course>151.078266</course><hAcc>2.091494</hAcc><vAcc>0.756750</vAcc></extensions></trkpt>
      <trkpt lon="-77.071091" lat="38.877475"><ele>43.960079</ele><time>2023-03-17T14:56:24Z</time><extensions><speed>1.454013</speed><course>137.408896</course><hAcc>2.193617</hAcc><vAcc>0.756749</vAcc></extensions></trkpt>
      <trkpt lon="-77.071081" lat="38.877466"><ele>43.859068</ele><time>2023-03-17T14:56:25Z</time><extensions><speed>1.301008</speed><course>134.231982</course><hAcc>2.259595</hAcc><vAcc>0.756748</vAcc></extensions></trkpt>
      <trkpt lon="-77.071073" lat="38.877457"><ele>43.744950</ele><time>2023-03-17T14:56:26Z</time><extensions><speed>1.232205</speed><course>150.456505</course><hAcc>2.268172</hAcc><vAcc>0.756747</vAcc></extensions></trkpt>
      <trkpt lon="-77.071068" lat="38.877447"><ele>43.622091</ele><time>2023-03-17T14:56:27Z</time><extensions><speed>1.221806</speed><course>165.726714</course><hAcc>2.288987</hAcc><vAcc>0.756746</vAcc></extensions></trkpt>
      <trkpt lon="-77.071066" lat="38.877437"><ele>43.496310</ele><time>2023-03-17T14:56:28Z</time><extensions><speed>1.245814</speed><course>173.734425</course><hAcc>2.341527</hAcc><vAcc>0.756745</vAcc></extensions></trkpt>
      <trkpt lon="-77.071066" lat="38.877426"><ele>43.372021</ele><time>2023-03-17T14:56:29Z</time><extensions><speed>1.230705</speed><course>177.675529</course><hAcc>2.384762</hAcc><vAcc>0.756744</vAcc></extensions></trkpt>
      <trkpt lon="-77.071068" lat="38.877414"><ele>43.261550</ele><time>2023-03-17T14:56:30Z</time><extensions><speed>1.170860</speed><course>185.640004</course><hAcc>2.362663</hAcc><vAcc>0.756744</vAcc></extensions></trkpt>
      <trkpt lon="-77.071072" lat="38.877404"><ele>43.163192</ele><time>2023-03-17T14:56:31Z</time><extensions><speed>1.047126</speed><course>192.419677</course><hAcc>2.343655</hAcc><vAcc>0.756743</vAcc></extensions></trkpt>
      <trkpt lon="-77.071076" lat="38.877395"><ele>43.077303</ele><time>2023-03-17T14:56:32Z</time><extensions><speed>0.849915</speed><course>204.064797</course><hAcc>2.317324</hAcc><vAcc>0.756743</vAcc></extensions></trkpt>
      <trkpt lon="-77.071080" lat="38.877390"><ele>43.006846</ele><time>2023-03-17T14:56:33Z</time><extensions><speed>0.484458</speed><course>233.100733</course><hAcc>2.301784</hAcc><vAcc>0.756742</vAcc></extensions></trkpt>
      <trkpt lon="-77.071085" lat="38.877388"><ele>42.946694</ele><time>2023-03-17T14:56:34Z</time><extensions><speed>0.469355</speed><course>264.764987</course><hAcc>2.299988</hAcc><vAcc>0.756742</vAcc></extensions></trkpt>
      <trkpt lon="-77.071090" lat="38.877388"><ele>42.895294</ele><time>2023-03-17T14:56:35Z</time><extensions><speed>0.416520</speed><course>285.668076</course><hAcc>2.259241</hAcc><vAcc>0.756742</vAcc></extensions></trkpt>
      <trkpt lon="-77.071095" lat="38.877389"><ele>42.854597</ele><time>2023-03-17T14:56:36Z</time><extensions><speed>0.416554</speed><course>276.135075</course><hAcc>2.207418</hAcc><vAcc>0.756742</vAcc></extensions></trkpt>
      <trkpt lon="-77.071102" lat="38.877387"><ele>42.825636</ele><time>2023-03-17T14:56:37Z</time><extensions><speed>0.806862</speed><course>238.694871</course><hAcc>2.160813</hAcc><vAcc>0.756742</vAcc></extensions></trkpt>
      <trkpt lon="-77.071112" lat="38.877382"><ele>42.811050</ele><time>2023-03-17T14:56:38Z</time><extensions><speed>1.142565</speed><course>236.507053</course><hAcc>2.061950</hAcc><vAcc>0.756741</vAcc></extensions></trkpt>
      <trkpt lon="-77.071124" lat="38.877377"><ele>42.808289</ele><time>2023-03-17T14:56:39Z</time><extensions><speed>1.317028</speed><course>244.308983</course><hAcc>1.981021</hAcc><vAcc>0.756741</vAcc></extensions></trkpt>
      <trkpt lon="-77.071138" lat="38.877371"><ele>42.812683</ele><time>2023-03-17T14:56:40Z</time><extensions><speed>1.368972</speed><course>240.404607</course><hAcc>1.918956</hAcc><vAcc>0.756741</vAcc></extensions></trkpt>
      <trkpt lon="-77.071152" lat="38.877365"><ele>42.826478</ele><time>2023-03-17T14:56:40Z</time><extensions><speed>1.483164</speed><course>238.950875</course><hAcc>1.818195</hAcc><vAcc>0.756741</vAcc></extensions></trkpt>
      <trkpt lon="-77.071166" lat="38.877358"><ele>42.850604</ele><time>2023-03-17T14:56:41Z</time><extensions><speed>1.399184</speed><course>238.228257</course><hAcc>1.740329</hAcc><vAcc>0.756741</vAcc></extensions></trkpt>
      <trkpt lon="-77.071178" lat="38.877352"><ele>42.880710</ele><time>2023-03-17T14:56:42Z</time><extensions><speed>1.099475</speed><course>238.401336</course><hAcc>1.707394</hAcc><vAcc>0.756741</vAcc></extensions></trkpt>
      <trkpt lon="-77.071190" lat="38.877347"><ele>42.912485</ele><time>2023-03-17T14:56:43Z</time><extensions><speed>1.201345</speed><course>246.972354</course><hAcc>1.713150</hAcc><vAcc>0.756741</vAcc></extensions></trkpt>
      <trkpt lon="-77.071203" lat="38.877342"><ele>42.946306</ele><time>2023-03-17T14:56:44Z</time><extensions><speed>1.365016</speed><course>244.615727</course><hAcc>1.708797</hAcc><vAcc>0.756741</vAcc></extensions></trkpt>
      <trkpt lon="-77.071219" lat="38.877336"><ele>42.985691</ele><time>2023-03-17T14:56:45Z</time><extensions><speed>1.621756</speed><course>245.628641</course><hAcc>1.706626</hAcc><vAcc>0.756741</vAcc></extensions></trkpt>
      <trkpt lon="-77.071237" lat="38.877330"><ele>43.030985</ele><time>2023-03-17T14:56:46Z</time><extensions><speed>1.836924</speed><course>245.183785</course><hAcc>1.683073</hAcc><vAcc>0.756741</vAcc></extensions></trkpt>
      <trkpt lon="-77.071257" lat="38.877322"><ele>43.073827</ele><time>2023-03-17T14:56:47Z</time><extensions><speed>1.999888</speed><course>244.759598</course><hAcc>1.666261</hAcc><vAcc>0.756741</vAcc></extensions></trkpt>
      <trkpt lon="-77.071278" lat="38.877315"><ele>43.118304</ele><time>2023-03-17T14:56:48Z</time><extensions><speed>2.008299</speed><course>244.224055</course><hAcc>1.666685</hAcc><vAcc>0.756741</vAcc></extensions></trkpt>
      <trkpt lon="-77.071298" lat="38.877307"><ele>43.164330</ele><time>2023-03-17T14:56:49Z</time><extensions><speed>1.910921</speed><course>239.258890</course><hAcc>1.661444</hAcc><vAcc>0.756741</vAcc></extensions></trkpt>
      <trkpt lon="-77.071315" lat="38.877298"><ele>43.208920</ele><time>2023-03-17T14:56:50Z</time><extensions><speed>1.678739</speed><course>230.408414</course><hAcc>1.658539</hAcc><vAcc>0.756741</vAcc></extensions></trkpt>
      <trkpt lon="-77.071328" lat="38.877287"><ele>43.255506</ele><time>2023-03-17T14:56:51Z</time><extensions><speed>1.609303</speed><course>214.370812</course><hAcc>1.635673</hAcc><vAcc>0.756741</vAcc></extensions></trkpt>
      <trkpt lon="-77.071337" lat="38.877275"><ele>43.303403</ele><time>2023-03-17T14:56:52Z</time><extensions><speed>1.532380</speed><course>204.299459</course><hAcc>1.615953</hAcc><vAcc>0.756741</vAcc></extensions></trkpt>
      <trkpt lon="-77.071344" lat="38.877263"><ele>43.349635</ele><time>2023-03-17T14:56:53Z</time><extensions><speed>1.464084</speed><course>204.666200</course><hAcc>1.609331</hAcc><vAcc>0.756741</vAcc></extensions></trkpt>
      <trkpt lon="-77.071352" lat="38.877252"><ele>43.393603</ele><time>2023-03-17T14:56:54Z</time><extensions><speed>1.383005</speed><course>216.161555</course><hAcc>1.606184</hAcc><vAcc>0.756741</vAcc></extensions></trkpt>
      <trkpt lon="-77.071362" lat="38.877243"><ele>43.431344</ele><time>2023-03-17T14:56:55Z</time><extensions><speed>1.268759</speed><course>229.064296</course><hAcc>1.589552</hAcc><vAcc>0.756741</vAcc></extensions></trkpt>
      <trkpt lon="-77.071374" lat="38.877238"><ele>43.463251</ele><time>2023-03-17T14:56:56Z</time><extensions><speed>1.120265</speed><course>246.451112</course><hAcc>1.580376</hAcc><vAcc>0.756741</vAcc></extensions></trkpt>
      <trkpt lon="-77.071387" lat="38.877235"><ele>43.495860</ele><time>2023-03-17T14:56:57Z</time><extensions><speed>1.299534</speed><course>259.626821</course><hAcc>1.582109</hAcc><vAcc>0.756741</vAcc></extensions></trkpt>
      <trkpt lon="-77.071403" lat="38.877234"><ele>43.521228</ele><time>2023-03-17T14:56:58Z</time><extensions><speed>1.495111</speed><course>269.849371</course><hAcc>1.576729</hAcc><vAcc>0.756741</vAcc></extensions></trkpt>
      <trkpt lon="-77.071420" lat="38.877234"><ele>43.543366</ele><time>2023-03-17T14:56:59Z</time><extensions><speed>1.381874</speed><course>269.178519</course><hAcc>1.581505</hAcc><vAcc>0.756741</vAcc></extensions></trkpt>
      <trkpt lon="-77.071435" lat="38.877234"><ele>43.563081</ele><time>2023-03-17T14:57:00Z</time><extensions><speed>1.307256</speed><course>268.412884</course><hAcc>1.564711</hAcc><vAcc>0.756741</vAcc></extensions></trkpt>
      <trkpt lon="-77.071450" lat="38.877233"><ele>43.582272</ele><time>2023-03-17T14:57:01Z</time><extensions><speed>1.272036</speed><course>265.485533</course><hAcc>1.560071</hAcc><vAcc>0.756741</vAcc></extensions></trkpt>
      <trkpt lon="-77.071465" lat="38.877233"><ele>43.596094</ele><time>2023-03-17T14:57:02Z</time><extensions><speed>1.306642</speed><course>266.281531</course><hAcc>1.541841</hAcc><vAcc>0.756741</vAcc></extensions></trkpt>
      <trkpt lon="-77.071481" lat="38.877232"><ele>43.609898</ele><time>2023-03-17T14:57:03Z</time><extensions><speed>1.466657</speed><course>263.800182</course><hAcc>1.543933</hAcc><vAcc>0.756741</vAcc></extensions></trkpt>
      <trkpt lon="-77.071497" lat="38.877231"><ele>43.622152</ele><time>2023-03-17T14:57:04Z</time><extensions><speed>1.359796</speed><course>265.573810</course><hAcc>1.530031</hAcc><vAcc>0.756741</vAcc></extensions></trkpt>
      <trkpt lon="-77.071512" lat="38.877230"><ele>43.633377</ele><time>2023-03-17T14:57:05Z</time><extensions><speed>1.298598</speed><course>266.001060</course><hAcc>1.517437</hAcc><vAcc>0.756741</vAcc></extensions></trkpt>
      <trkpt lon="-77.071527" lat="38.877229"><ele>43.651493</ele><time>2023-03-17T14:57:06Z</time><extensions><speed>1.190893</speed><course>263.718128</course><hAcc>1.506705</hAcc><vAcc>0.756741</vAcc></extensions></trkpt>
      <trkpt lon="-77.071541" lat="38.877227"><ele>43.676654</ele><time>2023-03-17T14:57:07Z</time><extensions><speed>1.290927</speed><course>248.348584</course><hAcc>1.506760</hAcc><vAcc>0.756741</vAcc></extensions></trkpt>
      <trkpt lon="-77.071556" lat="38.877222"><ele>43.708781</ele><time>2023-03-17T14:57:08Z</time><extensions><speed>1.519817</speed><course>245.570279</course><hAcc>1.516012</hAcc><vAcc>0.756741</vAcc></extensions></trkpt>
      <trkpt lon="-77.071573" lat="38.877218"><ele>43.749510</ele><time>2023-03-17T14:57:09Z</time><extensions><speed>1.570275</speed><course>260.018097</course><hAcc>1.513148</hAcc><vAcc>0.756741</vAcc></extensions></trkpt>
      <trkpt lon="-77.071590" lat="38.877215"><ele>43.794606</ele><time>2023-03-17T14:57:10Z</time><extensions><speed>1.524341</speed><course>252.664051</course><hAcc>1.511716</hAcc><vAcc>0.756741</vAcc></extensions></trkpt>
      <trkpt lon="-77.071606" lat="38.877211"><ele>43.847618</ele><time>2023-03-17T14:57:11Z</time><extensions><speed>1.355512</speed><course>253.219091</course><hAcc>1.526946</hAcc><vAcc>0.756741</vAcc></extensions></trkpt>
      <trkpt lon="-77.071621" lat="38.877209"><ele>43.903548</ele><time>2023-03-17T14:57:12Z</time><extensions><speed>1.267878</speed><course>263.223364</course><hAcc>1.520971</hAcc><vAcc>0.756741</vAcc></extensions></trkpt>
      <trkpt lon="-77.071636" lat="38.877207"><ele>43.963077</ele><time>2023-03-17T14:57:13Z</time><extensions><speed>1.278131</speed><course>264.824492</course><hAcc>1.514051</hAcc><vAcc>0.756741</vAcc></extensions></trkpt>
      <trkpt lon="-77.071650" lat="38.877206"><ele>44.030576</ele><time>2023-03-17T14:57:14Z</time><extensions><speed>1.318433</speed><course>259.682744</course><hAcc>1.527785</hAcc><vAcc>0.756741</vAcc></extensions></trkpt>
      <trkpt lon="-77.071666" lat="38.877203"><ele>44.099111</ele><time>2023-03-17T14:57:15Z</time><extensions><speed>1.412885</speed><course>254.312077</course><hAcc>1.579324</hAcc><vAcc>0.756741</vAcc></extensions></trkpt>
      <trkpt lon="-77.071682" lat="38.877199"><ele>44.169097</ele><time>2023-03-17T14:57:16Z</time><extensions><speed>1.462879</speed><course>246.462643</course><hAcc>1.608024</hAcc><vAcc>0.756741</vAcc></extensions></trkpt>
      <trkpt lon="-77.071696" lat="38.877195"><ele>44.234483</ele><time>2023-03-17T14:57:17Z</time><extensions><speed>1.223359</speed><course>252.666045</course><hAcc>1.584022</hAcc><vAcc>0.756741</vAcc></extensions></trkpt>
      <trkpt lon="-77.071710" lat="38.877192"><ele>44.299795</ele><time>2023-03-17T14:57:18Z</time><extensions><speed>1.286002</speed><course>251.016582</course><hAcc>1.570987</hAcc><vAcc>0.756741</vAcc></extensions></trkpt>
      <trkpt lon="-77.071724" lat="38.877188"><ele>44.360418</ele><time>2023-03-17T14:57:19Z</time><extensions><speed>1.249272</speed><course>252.054494</course><hAcc>1.560224</hAcc><vAcc>0.756741</vAcc></extensions></trkpt>
      <trkpt lon="-77.071738" lat="38.877185"><ele>44.423368</ele><time>2023-03-17T14:57:20Z</time><extensions><speed>1.241015</speed><course>257.894862</course><hAcc>1.574662</hAcc><vAcc>0.756741</vAcc></extensions></trkpt>
      <trkpt lon="-77.071753" lat="38.877184"><ele>44.486878</ele><time>2023-03-17T14:57:21Z</time><extensions><speed>1.317154</speed><course>272.691113</course><hAcc>1.614901</hAcc><vAcc>0.756741</vAcc></extensions></trkpt>
      <trkpt lon="-77.071769" lat="38.877185"><ele>44.544459</ele><time>2023-03-17T14:57:22Z</time><extensions><speed>1.547837</speed><course>275.742950</course><hAcc>1.586996</hAcc><vAcc>0.756741</vAcc></extensions></trkpt>
      <trkpt lon="-77.071787" lat="38.877186"><ele>44.599992</ele><time>2023-03-17T14:57:23Z</time><extensions><speed>1.583121</speed><course>276.882192</course><hAcc>1.578314</hAcc><vAcc>0.756741</vAcc></extensions></trkpt>
      <trkpt lon="-77.071804" lat="38.877188"><ele>44.649672</ele><time>2023-03-17T14:57:24Z</time><extensions><speed>1.448203</speed><course>278.051620</course><hAcc>1.556089</hAcc><vAcc>0.756741</vAcc></extensions></trkpt>
      <trkpt lon="-77.071821" lat="38.877188"><ele>44.703959</ele><time>2023-03-17T14:57:25Z</time><extensions><speed>1.389063</speed><course>262.249859</course><hAcc>1.553974</hAcc><vAcc>0.756741</vAcc></extensions></trkpt>
      <trkpt lon="-77.071836" lat="38.877185"><ele>44.755430</ele><time>2023-03-17T14:57:26Z</time><extensions><speed>1.358954</speed><course>248.112091</course><hAcc>1.601276</hAcc><vAcc>0.756741</vAcc></extensions></trkpt>
      <trkpt lon="-77.071849" lat="38.877179"><ele>44.804258</ele><time>2023-03-17T14:57:27Z</time><extensions><speed>1.217376</speed><course>235.144565</course><hAcc>1.577272</hAcc><vAcc>0.756741</vAcc></extensions></trkpt>
      <trkpt lon="-77.071858" lat="38.877171"><ele>44.859082</ele><time>2023-03-17T14:57:28Z</time><extensions><speed>1.183509</speed><course>208.416609</course><hAcc>1.571085</hAcc><vAcc>0.756741</vAcc></extensions></trkpt>
      <trkpt lon="-77.071866" lat="38.877162"><ele>44.916980</ele><time>2023-03-17T14:57:29Z</time><extensions><speed>1.261653</speed><course>212.362264</course><hAcc>1.579624</hAcc><vAcc>0.756741</vAcc></extensions></trkpt>
      <trkpt lon="-77.071874" lat="38.877153"><ele>44.969924</ele><time>2023-03-17T14:57:30Z</time><extensions><speed>1.301449</speed><course>220.706206</course><hAcc>1.574855</hAcc><vAcc>0.756741</vAcc></extensions></trkpt>
      <trkpt lon="-77.071884" lat="38.877144"><ele>45.024250</ele><time>2023-03-17T14:57:31Z</time><extensions><speed>1.315415</speed><course>219.436330</course><hAcc>1.580736</hAcc><vAcc>0.756741</vAcc></extensions></trkpt>
      <trkpt lon="-77.071894" lat="38.877135"><ele>45.083979</ele><time>2023-03-17T14:57:32Z</time><extensions><speed>1.303700</speed><course>223.686962</course><hAcc>1.584623</hAcc><vAcc>0.756741</vAcc></extensions></trkpt>
      <trkpt lon="-77.071905" lat="38.877128"><ele>45.151283</ele><time>2023-03-17T14:57:33Z</time><extensions><speed>1.314776</speed><course>229.010927</course><hAcc>1.583980</hAcc><vAcc>0.756741</vAcc></extensions></trkpt>
      <trkpt lon="-77.071917" lat="38.877120"><ele>45.229087</ele><time>2023-03-17T14:57:34Z</time><extensions><speed>1.294692</speed><course>234.744775</course><hAcc>1.590728</hAcc><vAcc>0.756741</vAcc></extensions></trkpt>
      <trkpt lon="-77.071930" lat="38.877115"><ele>45.303898</ele><time>2023-03-17T14:57:35Z</time><extensions><speed>1.312100</speed><course>245.048117</course><hAcc>1.585161</hAcc><vAcc>0.756741</vAcc></extensions></trkpt>
      <trkpt lon="-77.071945" lat="38.877111"><ele>45.380437</ele><time>2023-03-17T14:57:36Z</time><extensions><speed>1.360262</speed><course>256.555380</course><hAcc>1.609618</hAcc><vAcc>0.756741</vAcc></extensions></trkpt>
      <trkpt lon="-77.071961" lat="38.877109"><ele>45.454024</ele><time>2023-03-17T14:57:37Z</time><extensions><speed>1.501098</speed><course>265.763413</course><hAcc>1.593853</hAcc><vAcc>0.756741</vAcc></extensions></trkpt>
      <trkpt lon="-77.071979" lat="38.877110"><ele>45.529992</ele><time>2023-03-17T14:57:38Z</time><extensions><speed>1.616772</speed><course>276.089254</course><hAcc>1.582953</hAcc><vAcc>0.756741</vAcc></extensions></trkpt>
      <trkpt lon="-77.071998" lat="38.877113"><ele>45.606137</ele><time>2023-03-17T14:57:39Z</time><extensions><speed>1.638689</speed><course>286.576555</course><hAcc>1.583131</hAcc><vAcc>0.756741</vAcc></extensions></trkpt>
      <trkpt lon="-77.072015" lat="38.877118"><ele>45.676162</ele><time>2023-03-17T14:57:40Z</time><extensions><speed>1.622137</speed><course>298.457527</course><hAcc>1.570455</hAcc><vAcc>0.756741</vAcc></extensions></trkpt>
      <trkpt lon="-77.072031" lat="38.877125"><ele>45.745645</ele><time>2023-03-17T14:57:41Z</time><extensions><speed>1.447505</speed><course>299.536104</course><hAcc>1.586295</hAcc><vAcc>0.756741</vAcc></extensions></trkpt>
      <trkpt lon="-77.072044" lat="38.877130"><ele>45.808952</ele><time>2023-03-17T14:57:42Z</time><extensions><speed>1.072219</speed><course>293.314343</course><hAcc>1.628260</hAcc><vAcc>0.756741</vAcc></extensions></trkpt>
      <trkpt lon="-77.072053" lat="38.877133"><ele>45.862940</ele><time>2023-03-17T14:57:43Z</time><extensions><speed>0.588955</speed><course>293.913823</course><hAcc>1.623423</hAcc><vAcc>0.756741</vAcc></extensions></trkpt>
      <trkpt lon="-77.072060" lat="38.877136"><ele>45.906398</ele><time>2023-03-17T14:57:44Z</time><extensions><speed>0.665615</speed><course>302.250807</course><hAcc>1.591327</hAcc><vAcc>0.756741</vAcc></extensions></trkpt>
      <trkpt lon="-77.072068" lat="38.877139"><ele>45.951557</ele><time>2023-03-17T14:57:45Z</time><extensions><speed>0.881648</speed><course>291.417603</course><hAcc>1.584777</hAcc><vAcc>0.756741</vAcc></extensions></trkpt>
      <trkpt lon="-77.072081" lat="38.877142"><ele>45.983870</ele><time>2023-03-17T14:57:46Z</time><extensions><speed>1.341223</speed><course>280.064265</course><hAcc>1.601312</hAcc><vAcc>0.756741</vAcc></extensions></trkpt>
      <trkpt lon="-77.072098" lat="38.877143"><ele>46.001475</ele><time>2023-03-17T14:57:47Z</time><extensions><speed>1.646899</speed><course>272.389687</course><hAcc>1.595629</hAcc><vAcc>0.756741</vAcc></extensions></trkpt>
      <trkpt lon="-77.072118" lat="38.877143"><ele>46.013283</ele><time>2023-03-17T14:57:48Z</time><extensions><speed>1.748369</speed><course>267.210694</course><hAcc>1.585166</hAcc><vAcc>0.756741</vAcc></extensions></trkpt>
      <trkpt lon="-77.072138" lat="38.877142"><ele>46.026192</ele><time>2023-03-17T14:57:49Z</time><extensions><speed>1.831947</speed><course>267.901649</course><hAcc>1.565023</hAcc><vAcc>0.756741</vAcc></extensions></trkpt>
      <trkpt lon="-77.072160" lat="38.877142"><ele>46.039043</ele><time>2023-03-17T14:57:50Z</time><extensions><speed>1.867095</speed><course>271.074088</course><hAcc>1.554715</hAcc><vAcc>0.756741</vAcc></extensions></trkpt>
      <trkpt lon="-77.072182" lat="38.877143"><ele>46.054303</ele><time>2023-03-17T14:57:51Z</time><extensions><speed>1.966703</speed><course>272.690198</course><hAcc>1.530828</hAcc><vAcc>0.756741</vAcc></extensions></trkpt>
      <trkpt lon="-77.072202" lat="38.877143"><ele>46.070905</ele><time>2023-03-17T14:57:52Z</time><extensions><speed>1.617933</speed><course>268.495091</course><hAcc>1.533025</hAcc><vAcc>0.756741</vAcc></extensions></trkpt>
      <trkpt lon="-77.072220" lat="38.877142"><ele>46.089544</ele><time>2023-03-17T14:57:53Z</time><extensions><speed>1.523457</speed><course>263.636517</course><hAcc>1.524043</hAcc><vAcc>0.756741</vAcc></extensions></trkpt>
      <trkpt lon="-77.072237" lat="38.877139"><ele>46.115303</ele><time>2023-03-17T14:57:54Z</time><extensions><speed>1.395742</speed><course>253.974713</course><hAcc>1.564487</hAcc><vAcc>0.756741</vAcc></extensions></trkpt>
      <trkpt lon="-77.072252" lat="38.877136"><ele>46.147782</ele><time>2023-03-17T14:57:55Z</time><extensions><speed>1.374753</speed><course>251.384700</course><hAcc>1.524891</hAcc><vAcc>0.756741</vAcc></extensions></trkpt>
      <trkpt lon="-77.072266" lat="38.877130"><ele>46.189641</ele><time>2023-03-17T14:57:56Z</time><extensions><speed>1.303763</speed><course>236.370585</course><hAcc>1.523863</hAcc><vAcc>0.756741</vAcc></extensions></trkpt>
      <trkpt lon="-77.072279" lat="38.877126"><ele>46.231697</ele><time>2023-03-17T14:57:57Z</time><extensions><speed>1.378811</speed><course>260.194742</course><hAcc>1.541919</hAcc><vAcc>0.756741</vAcc></extensions></trkpt>
      <trkpt lon="-77.072295" lat="38.877125"><ele>46.275940</ele><time>2023-03-17T14:57:58Z</time><extensions><speed>1.394357</speed><course>271.852947</course><hAcc>1.559040</hAcc><vAcc>0.756741</vAcc></extensions></trkpt>
      <trkpt lon="-77.072311" lat="38.877126"><ele>46.326112</ele><time>2023-03-17T14:57:59Z</time><extensions><speed>1.302052</speed><course>276.924872</course><hAcc>1.595010</hAcc><vAcc>0.756741</vAcc></extensions></trkpt>
      <trkpt lon="-77.072324" lat="38.877127"><ele>46.380439</ele><time>2023-03-17T14:58:00Z</time><extensions><speed>1.026477</speed><course>271.693339</course><hAcc>1.628698</hAcc><vAcc>0.756741</vAcc></extensions></trkpt>
      <trkpt lon="-77.072334" lat="38.877127"><ele>46.437153</ele><time>2023-03-17T14:58:01Z</time><extensions><speed>0.758659</speed><course>271.495681</course><hAcc>1.624634</hAcc><vAcc>0.756741</vAcc></extensions></trkpt>
      <trkpt lon="-77.072340" lat="38.877127"><ele>46.490654</ele><time>2023-03-17T14:58:02Z</time><extensions><speed>0.378042</speed><course>274.356092</course><hAcc>1.641032</hAcc><vAcc>0.756741</vAcc></extensions></trkpt>
      <trkpt lon="-77.072344" lat="38.877127"><ele>46.545880</ele><time>2023-03-17T14:58:03Z</time><extensions><speed>0.198214</speed><course>270.771395</course><hAcc>1.655730</hAcc><vAcc>0.756741</vAcc></extensions></trkpt>
      <trkpt lon="-77.072345" lat="38.877126"><ele>46.591873</ele><time>2023-03-17T14:58:04Z</time><extensions><speed>0.087575</speed><course>192.258826</course><hAcc>1.649404</hAcc><vAcc>0.756741</vAcc></extensions></trkpt>
      <trkpt lon="-77.072345" lat="38.877124"><ele>46.629673</ele><time>2023-03-17T14:58:05Z</time><extensions><speed>0.340559</speed><course>170.472784</course><hAcc>1.651124</hAcc><vAcc>0.756741</vAcc></extensions></trkpt>
      <trkpt lon="-77.072344" lat="38.877121"><ele>46.660991</ele><time>2023-03-17T14:58:06Z</time><extensions><speed>0.476138</speed><course>163.449939</course><hAcc>1.667436</hAcc><vAcc>0.756741</vAcc></extensions></trkpt>
      <trkpt lon="-77.072345" lat="38.877114"><ele>46.689144</ele><time>2023-03-17T14:58:07Z</time><extensions><speed>0.958773</speed><course>199.228069</course><hAcc>1.665709</hAcc><vAcc>0.756741</vAcc></extensions></trkpt>
      <trkpt lon="-77.072348" lat="38.877105"><ele>46.712249</ele><time>2023-03-17T14:58:08Z</time><extensions><speed>1.205765</speed><course>193.678224</course><hAcc>1.648057</hAcc><vAcc>0.756741</vAcc></extensions></trkpt>
      <trkpt lon="-77.072350" lat="38.877093"><ele>46.729391</ele><time>2023-03-17T14:58:09Z</time><extensions><speed>1.385531</speed><course>183.081679</course><hAcc>1.605809</hAcc><vAcc>0.756741</vAcc></extensions></trkpt>
      <trkpt lon="-77.072351" lat="38.877080"><ele>46.747944</ele><time>2023-03-17T14:58:10Z</time><extensions><speed>1.482798</speed><course>181.845025</course><hAcc>1.599119</hAcc><vAcc>0.756741</vAcc></extensions></trkpt>
      <trkpt lon="-77.072351" lat="38.877066"><ele>46.757687</ele><time>2023-03-17T14:58:11Z</time><extensions><speed>1.598204</speed><course>181.412291</course><hAcc>1.625241</hAcc><vAcc>0.756741</vAcc></extensions></trkpt>
      <trkpt lon="-77.072352" lat="38.877052"><ele>46.769400</ele><time>2023-03-17T14:58:12Z</time><extensions><speed>1.626142</speed><course>184.000472</course><hAcc>1.644226</hAcc><vAcc>0.756741</vAcc></extensions></trkpt>
      <trkpt lon="-77.072354" lat="38.877037"><ele>46.785730</ele><time>2023-03-17T14:58:13Z</time><extensions><speed>1.633733</speed><course>188.673178</course><hAcc>1.639840</hAcc><vAcc>0.756741</vAcc></extensions></trkpt>
      <trkpt lon="-77.072358" lat="38.877022"><ele>46.806485</ele><time>2023-03-17T14:58:14Z</time><extensions><speed>1.599219</speed><course>197.468051</course><hAcc>1.687054</hAcc><vAcc>0.756741</vAcc></extensions></trkpt>
      <trkpt lon="-77.072365" lat="38.877009"><ele>46.831023</ele><time>2023-03-17T14:58:15Z</time><extensions><speed>1.580411</speed><course>203.405101</course><hAcc>1.746145</hAcc><vAcc>0.756741</vAcc></extensions></trkpt>
      <trkpt lon="-77.072371" lat="38.876996"><ele>46.860662</ele><time>2023-03-17T14:58:16Z</time><extensions><speed>1.499512</speed><course>202.499381</course><hAcc>1.843471</hAcc><vAcc>0.756741</vAcc></extensions></trkpt>
      <trkpt lon="-77.072376" lat="38.876984"><ele>46.893686</ele><time>2023-03-17T14:58:17Z</time><extensions><speed>1.198919</speed><course>195.831650</course><hAcc>1.945538</hAcc><vAcc>0.756742</vAcc></extensions></trkpt>
      <trkpt lon="-77.072379" lat="38.876974"><ele>46.930248</ele><time>2023-03-17T14:58:18Z</time><extensions><speed>1.128632</speed><course>190.002511</course><hAcc>2.031974</hAcc><vAcc>0.756742</vAcc></extensions></trkpt>
      <trkpt lon="-77.072381" lat="38.876963"><ele>46.975575</ele><time>2023-03-17T14:58:19Z</time><extensions><speed>1.128921</speed><course>189.631385</course><hAcc>2.102005</hAcc><vAcc>0.756742</vAcc></extensions></trkpt>
      <trkpt lon="-77.072383" lat="38.876953"><ele>47.027952</ele><time>2023-03-17T14:58:20Z</time><extensions><speed>1.108472</speed><course>186.593346</course><hAcc>2.182641</hAcc><vAcc>0.756741</vAcc></extensions></trkpt>
      <trkpt lon="-77.072383" lat="38.876943"><ele>47.096151</ele><time>2023-03-17T14:58:21Z</time><extensions><speed>1.204095</speed><course>177.038068</course><hAcc>2.214138</hAcc><vAcc>0.756741</vAcc></extensions></trkpt>
      <trkpt lon="-77.072381" lat="38.876932"><ele>47.178086</ele><time>2023-03-17T14:58:22Z</time><extensions><speed>1.045975</speed><course>167.808791</course><hAcc>2.262820</hAcc><vAcc>0.756741</vAcc></extensions></trkpt>
      <trkpt lon="-77.072377" lat="38.876922"><ele>47.277312</ele><time>2023-03-17T14:58:23Z</time><extensions><speed>1.183602</speed><course>162.437579</course><hAcc>2.252218</hAcc><vAcc>0.756741</vAcc></extensions></trkpt>
      <trkpt lon="-77.072373" lat="38.876911"><ele>47.389575</ele><time>2023-03-17T14:58:24Z</time><extensions><speed>1.309767</speed><course>158.330539</course><hAcc>2.229006</hAcc><vAcc>0.756741</vAcc></extensions></trkpt>
      <trkpt lon="-77.072367" lat="38.876899"><ele>47.519256</ele><time>2023-03-17T14:58:25Z</time><extensions><speed>1.414507</speed><course>155.742284</course><hAcc>2.233774</hAcc><vAcc>0.756741</vAcc></extensions></trkpt>
      <trkpt lon="-77.072359" lat="38.876887"><ele>47.663845</ele><time>2023-03-17T14:58:26Z</time><extensions><speed>1.443768</speed><course>152.064431</course><hAcc>2.193842</hAcc><vAcc>0.756741</vAcc></extensions></trkpt>
      <trkpt lon="-77.072351" lat="38.876876"><ele>47.823968</ele><time>2023-03-17T14:58:27Z</time><extensions><speed>1.391769</speed><course>146.838822</course><hAcc>2.165400</hAcc><vAcc>0.756741</vAcc></extensions></trkpt>
      <trkpt lon="-77.072340" lat="38.876865"><ele>48.001239</ele><time>2023-03-17T14:58:28Z</time><extensions><speed>1.480720</speed><course>139.291329</course><hAcc>2.139967</hAcc><vAcc>0.756741</vAcc></extensions></trkpt>
      <trkpt lon="-77.072332" lat="38.876855"><ele>48.191923</ele><time>2023-03-17T14:58:29Z</time><extensions><speed>1.196813</speed><course>158.792222</course><hAcc>2.118030</hAcc><vAcc>0.756741</vAcc></extensions></trkpt>
      <trkpt lon="-77.072332" lat="38.876844"><ele>48.398552</ele><time>2023-03-17T14:58:30Z</time><extensions><speed>1.217663</speed><course>204.191882</course><hAcc>2.081772</hAcc><vAcc>0.756741</vAcc></extensions></trkpt>
      <trkpt lon="-77.072337" lat="38.876834"><ele>48.619094</ele><time>2023-03-17T14:58:31Z</time><extensions><speed>1.255141</speed><course>194.152364</course><hAcc>1.983660</hAcc><vAcc>0.756741</vAcc></extensions></trkpt>
      <trkpt lon="-77.072339" lat="38.876822"><ele>48.850716</ele><time>2023-03-17T14:58:32Z</time><extensions><speed>1.236480</speed><course>184.339278</course><hAcc>1.865742</hAcc><vAcc>0.756741</vAcc></extensions></trkpt>
      <trkpt lon="-77.072339" lat="38.876811"><ele>49.088886</ele><time>2023-03-17T14:58:33Z</time><extensions><speed>1.361261</speed><course>178.483610</course><hAcc>1.788228</hAcc><vAcc>0.756741</vAcc></extensions></trkpt>
      <trkpt lon="-77.072336" lat="38.876799"><ele>49.329893</ele><time>2023-03-17T14:58:34Z</time><extensions><speed>1.323548</speed><course>158.435607</course><hAcc>1.737627</hAcc><vAcc>0.756741</vAcc></extensions></trkpt>
      <trkpt lon="-77.072331" lat="38.876787"><ele>49.573928</ele><time>2023-03-17T14:58:35Z</time><extensions><speed>1.468809</speed><course>158.385144</course><hAcc>1.680985</hAcc><vAcc>0.756741</vAcc></extensions></trkpt>
      <trkpt lon="-77.072325" lat="38.876774"><ele>49.813948</ele><time>2023-03-17T14:58:36Z</time><extensions><speed>1.460061</speed><course>163.292921</course><hAcc>1.634606</hAcc><vAcc>0.756741</vAcc></extensions></trkpt>
      <trkpt lon="-77.072321" lat="38.876762"><ele>50.051255</ele><time>2023-03-17T14:58:37Z</time><extensions><speed>1.258298</speed><course>166.329259</course><hAcc>1.609374</hAcc><vAcc>0.756741</vAcc></extensions></trkpt>
      <trkpt lon="-77.072317" lat="38.876751"><ele>50.283399</ele><time>2023-03-17T14:58:38Z</time><extensions><speed>1.296029</speed><course>165.024131</course><hAcc>1.609107</hAcc><vAcc>0.756741</vAcc></extensions></trkpt>
      <trkpt lon="-77.072313" lat="38.876742"><ele>50.512825</ele><time>2023-03-17T14:58:39Z</time><extensions><speed>0.899049</speed><course>155.749693</course><hAcc>1.610057</hAcc><vAcc>0.756741</vAcc></extensions></trkpt>
      <trkpt lon="-77.072311" lat="38.876735"><ele>50.742274</ele><time>2023-03-17T14:58:40Z</time><extensions><speed>0.623397</speed><course>183.132419</course><hAcc>1.615979</hAcc><vAcc>0.756741</vAcc></extensions></trkpt>
      <trkpt lon="-77.072312" lat="38.876730"><ele>50.962825</ele><time>2023-03-17T14:58:41Z</time><extensions><speed>0.463813</speed><course>196.823618</course><hAcc>1.606312</hAcc><vAcc>0.756741</vAcc></extensions></trkpt>
      <trkpt lon="-77.072316" lat="38.876726"><ele>51.173708</ele><time>2023-03-17T14:58:42Z</time><extensions><speed>0.630151</speed><course>219.151129</course><hAcc>1.625111</hAcc><vAcc>0.756741</vAcc></extensions></trkpt>
      <trkpt lon="-77.072321" lat="38.876722"><ele>51.378461</ele><time>2023-03-17T14:58:43Z</time><extensions><speed>0.666718</speed><course>221.163840</course><hAcc>1.620508</hAcc><vAcc>0.756741</vAcc></extensions></trkpt>
      <trkpt lon="-77.072325" lat="38.876716"><ele>51.574469</ele><time>2023-03-17T14:58:44Z</time><extensions><speed>0.805437</speed><course>198.854910</course><hAcc>1.626101</hAcc><vAcc>0.756741</vAcc></extensions></trkpt>
      <trkpt lon="-77.072327" lat="38.876708"><ele>51.763665</ele><time>2023-03-17T14:58:45Z</time><extensions><speed>1.001007</speed><course>180.054320</course><hAcc>1.614742</hAcc><vAcc>0.756741</vAcc></extensions></trkpt>
      <trkpt lon="-77.072326" lat="38.876699"><ele>51.942215</ele><time>2023-03-17T14:58:46Z</time><extensions><speed>1.031332</speed><course>173.280983</course><hAcc>1.619237</hAcc><vAcc>0.756741</vAcc></extensions></trkpt>
      <trkpt lon="-77.072325" lat="38.876690"><ele>52.112063</ele><time>2023-03-17T14:58:47Z</time><extensions><speed>0.900380</speed><course>173.765084</course><hAcc>1.666456</hAcc><vAcc>0.756741</vAcc></extensions></trkpt>
      <trkpt lon="-77.072326" lat="38.876682"><ele>52.272450</ele><time>2023-03-17T14:58:48Z</time><extensions><speed>0.865787</speed><course>194.467793</course><hAcc>1.665037</hAcc><vAcc>0.756741</vAcc></extensions></trkpt>
      <trkpt lon="-77.072331" lat="38.876677"><ele>52.428438</ele><time>2023-03-17T14:58:49Z</time><extensions><speed>0.868512</speed><course>239.911234</course><hAcc>1.636251</hAcc><vAcc>0.756741</vAcc></extensions></trkpt>
      <trkpt lon="-77.072342" lat="38.876674"><ele>52.577825</ele><time>2023-03-17T14:58:50Z</time><extensions><speed>0.998851</speed><course>266.239593</course><hAcc>1.620595</hAcc><vAcc>0.756741</vAcc></extensions></trkpt>
      <trkpt lon="-77.072353" lat="38.876675"><ele>52.719040</ele><time>2023-03-17T14:58:51Z</time><extensions><speed>1.018130</speed><course>274.722165</course><hAcc>1.641514</hAcc><vAcc>0.756741</vAcc></extensions></trkpt>
      <trkpt lon="-77.072364" lat="38.876675"><ele>52.845750</ele><time>2023-03-17T14:58:52Z</time><extensions><speed>0.884965</speed><course>270.599318</course><hAcc>1.670647</hAcc><vAcc>0.756741</vAcc></extensions></trkpt>
      <trkpt lon="-77.072375" lat="38.876675"><ele>52.962661</ele><time>2023-03-17T14:58:53Z</time><extensions><speed>1.062134</speed><course>267.760051</course><hAcc>1.677129</hAcc><vAcc>0.756741</vAcc></extensions></trkpt>
      <trkpt lon="-77.072387" lat="38.876675"><ele>53.075138</ele><time>2023-03-17T14:58:54Z</time><extensions><speed>1.047471</speed><course>272.638901</course><hAcc>1.690207</hAcc><vAcc>0.756741</vAcc></extensions></trkpt>
      <trkpt lon="-77.072399" lat="38.876676"><ele>53.181925</ele><time>2023-03-17T14:58:55Z</time><extensions><speed>1.003812</speed><course>281.086626</course><hAcc>1.681028</hAcc><vAcc>0.756741</vAcc></extensions></trkpt>
      <trkpt lon="-77.072409" lat="38.876678"><ele>53.274681</ele><time>2023-03-17T14:58:56Z</time><extensions><speed>0.885365</speed><course>285.570597</course><hAcc>1.663846</hAcc><vAcc>0.756741</vAcc></extensions></trkpt>
      <trkpt lon="-77.072418" lat="38.876680"><ele>53.355592</ele><time>2023-03-17T14:58:57Z</time><extensions><speed>0.665432</speed><course>283.293131</course><hAcc>1.666272</hAcc><vAcc>0.756741</vAcc></extensions></trkpt>
      <trkpt lon="-77.072425" lat="38.876681"><ele>53.424665</ele><time>2023-03-17T14:58:58Z</time><extensions><speed>0.740124</speed><course>281.292877</course><hAcc>1.688289</hAcc><vAcc>0.756741</vAcc></extensions></trkpt>
      <trkpt lon="-77.072431" lat="38.876682"><ele>53.487803</ele><time>2023-03-17T14:58:59Z</time><extensions><speed>0.369151</speed><course>281.342318</course><hAcc>1.718804</hAcc><vAcc>0.756741</vAcc></extensions></trkpt>
      <trkpt lon="-77.072433" lat="38.876683"><ele>53.536817</ele><time>2023-03-17T14:59:00Z</time><extensions><speed>0.038065</speed><course>23.021918</course><hAcc>1.700882</hAcc><vAcc>0.756741</vAcc></extensions></trkpt>
      <trkpt lon="-77.072431" lat="38.876683"><ele>53.576479</ele><time>2023-03-17T14:59:01Z</time><extensions><speed>0.267464</speed><course>89.872574</course><hAcc>1.661085</hAcc><vAcc>0.756741</vAcc></extensions></trkpt>
      <trkpt lon="-77.072427" lat="38.876683"><ele>53.606145</ele><time>2023-03-17T14:59:02Z</time><extensions><speed>0.409598</speed><course>86.551045</course><hAcc>1.667877</hAcc><vAcc>0.756741</vAcc></extensions></trkpt>
      <trkpt lon="-77.072422" lat="38.876683"><ele>53.626247</ele><time>2023-03-17T14:59:03Z</time><extensions><speed>0.427696</speed><course>78.076018</course><hAcc>1.684764</hAcc><vAcc>0.756741</vAcc></extensions></trkpt>
      <trkpt lon="-77.072416" lat="38.876683"><ele>53.637961</ele><time>2023-03-17T14:59:04Z</time><extensions><speed>0.657896</speed><course>85.859757</course><hAcc>1.650546</hAcc><vAcc>0.756741</vAcc></extensions></trkpt>
      <trkpt lon="-77.072408" lat="38.876683"><ele>53.642249</ele><time>2023-03-17T14:59:05Z</time><extensions><speed>0.842903</speed><course>91.985726</course><hAcc>1.634531</hAcc><vAcc>0.756741</vAcc></extensions></trkpt>
      <trkpt lon="-77.072397" lat="38.876683"><ele>53.639822</ele><time>2023-03-17T14:59:06Z</time><extensions><speed>0.947468</speed><course>91.838808</course><hAcc>1.661470</hAcc><vAcc>0.756741</vAcc></extensions></trkpt>
      <trkpt lon="-77.072385" lat="38.876683"><ele>53.631616</ele><time>2023-03-17T14:59:07Z</time><extensions><speed>1.192934</speed><course>90.838155</course><hAcc>1.673756</hAcc><vAcc>0.756741</vAcc></extensions></trkpt>
      <trkpt lon="-77.072372" lat="38.876682"><ele>53.618694</ele><time>2023-03-17T14:59:08Z</time><extensions><speed>1.154679</speed><course>91.717047</course><hAcc>1.689335</hAcc><vAcc>0.756741</vAcc></extensions></trkpt>
      <trkpt lon="-77.072360" lat="38.876681"><ele>53.601975</ele><time>2023-03-17T14:59:09Z</time><extensions><speed>0.915961</speed><course>104.107051</course><hAcc>1.673185</hAcc><vAcc>0.756741</vAcc></extensions></trkpt>
      <trkpt lon="-77.072351" lat="38.876678"><ele>53.582531</ele><time>2023-03-17T14:59:10Z</time><extensions><speed>0.879450</speed><course>120.112555</course><hAcc>1.640204</hAcc><vAcc>0.756741</vAcc></extensions></trkpt>
      <trkpt lon="-77.072342" lat="38.876673"><ele>53.561261</ele><time>2023-03-17T14:59:11Z</time><extensions><speed>0.877856</speed><course>130.606553</course><hAcc>1.584327</hAcc><vAcc>0.756741</vAcc></extensions></trkpt>
      <trkpt lon="-77.072336" lat="38.876668"><ele>53.541236</ele><time>2023-03-17T14:59:12Z</time><extensions><speed>0.754171</speed><course>134.345842</course><hAcc>1.491342</hAcc><vAcc>0.756741</vAcc></extensions></trkpt>
      <trkpt lon="-77.072330" lat="38.876664"><ele>53.532245</ele><time>2023-03-17T14:59:13Z</time><extensions><speed>0.541962</speed><course>126.942958</course><hAcc>1.425298</hAcc><vAcc>0.756741</vAcc></extensions></trkpt>
      <trkpt lon="-77.072326" lat="38.876662"><ele>53.527658</ele><time>2023-03-17T14:59:14Z</time><extensions><speed>0.380354</speed><course>87.454998</course><hAcc>1.469720</hAcc><vAcc>0.756741</vAcc></extensions></trkpt>
      <trkpt lon="-77.072323" lat="38.876663"><ele>53.529400</ele><time>2023-03-17T14:59:15Z</time><extensions><speed>0.189092</speed><course>86.901732</course><hAcc>1.457695</hAcc><vAcc>0.756741</vAcc></extensions></trkpt>
      <trkpt lon="-77.072322" lat="38.876663"><ele>53.538097</ele><time>2023-03-17T14:59:16Z</time><extensions><speed>0.001078</speed><course>174.003419</course><hAcc>1.448749</hAcc><vAcc>0.756741</vAcc></extensions></trkpt>
      <trkpt lon="-77.072322" lat="38.876663"><ele>53.551826</ele><time>2023-03-17T14:59:17Z</time><extensions><speed>0.000683</speed><course>214.811585</course><hAcc>1.444081</hAcc><vAcc>0.756741</vAcc></extensions></trkpt>
      <trkpt lon="-77.072322" lat="38.876663"><ele>53.573570</ele><time>2023-03-17T14:59:18Z</time><extensions><speed>0.009446</speed><course>208.338516</course><hAcc>1.436451</hAcc><vAcc>0.756741</vAcc></extensions></trkpt>
      <trkpt lon="-77.072323" lat="38.876662"><ele>53.605490</ele><time>2023-03-17T14:59:19Z</time><extensions><speed>0.149805</speed><course>198.825911</course><hAcc>1.377056</hAcc><vAcc>0.756741</vAcc></extensions></trkpt>
      <trkpt lon="-77.072323" lat="38.876660"><ele>53.648051</ele><time>2023-03-17T14:59:20Z</time><extensions><speed>0.306578</speed><course>187.224365</course><hAcc>1.373601</hAcc><vAcc>0.756741</vAcc></extensions></trkpt>
      <trkpt lon="-77.072324" lat="38.876657"><ele>53.698946</ele><time>2023-03-17T14:59:21Z</time><extensions><speed>0.336738</speed><course>185.855876</course><hAcc>1.473523</hAcc><vAcc>0.756741</vAcc></extensions></trkpt>
      <trkpt lon="-77.072324" lat="38.876654"><ele>53.762381</ele><time>2023-03-17T14:59:22Z</time><extensions><speed>0.257879</speed><course>174.692118</course><hAcc>1.585702</hAcc><vAcc>0.756741</vAcc></extensions></trkpt>
      <trkpt lon="-77.072326" lat="38.876652"><ele>53.833027</ele><time>2023-03-17T14:59:23Z</time><extensions><speed>0.446320</speed><course>250.632052</course><hAcc>1.532739</hAcc><vAcc>0.756741</vAcc></extensions></trkpt>
      <trkpt lon="-77.072331" lat="38.876652"><ele>53.911062</ele><time>2023-03-17T14:59:24Z</time><extensions><speed>0.358393</speed><course>289.982716</course><hAcc>1.531360</hAcc><vAcc>0.756741</vAcc></extensions></trkpt>
      <trkpt lon="-77.072334" lat="38.876654"><ele>53.993936</ele><time>2023-03-17T14:59:25Z</time><extensions><speed>0.313656</speed><course>300.117648</course><hAcc>1.558802</hAcc><vAcc>0.756741</vAcc></extensions></trkpt>
      <trkpt lon="-77.072337" lat="38.876655"><ele>54.079959</ele><time>2023-03-17T14:59:26Z</time><extensions><speed>0.182420</speed><course>294.594605</course><hAcc>1.606350</hAcc><vAcc>0.756741</vAcc></extensions></trkpt>
      <trkpt lon="-77.072338" lat="38.876655"><ele>54.167869</ele><time>2023-03-17T14:59:27Z</time><extensions><speed>0.111008</speed><course>310.223524</course><hAcc>1.653024</hAcc><vAcc>0.756741</vAcc></extensions></trkpt>
      <trkpt lon="-77.072339" lat="38.876656"><ele>54.256404</ele><time>2023-03-17T14:59:28Z</time><extensions><speed>0.040158</speed><course>260.141084</course><hAcc>1.679180</hAcc><vAcc>0.756741</vAcc></extensions></trkpt>
      <trkpt lon="-77.072339" lat="38.876655"><ele>54.344404</ele><time>2023-03-17T14:59:29Z</time><extensions><speed>0.094847</speed><course>127.699962</course><hAcc>1.680880</hAcc><vAcc>0.756741</vAcc></extensions></trkpt>
      <trkpt lon="-77.072337" lat="38.876655"><ele>54.430600</ele><time>2023-03-17T14:59:30Z</time><extensions><speed>0.197175</speed><course>105.153908</course><hAcc>1.656131</hAcc><vAcc>0.756741</vAcc></extensions></trkpt>
      <trkpt lon="-77.072334" lat="38.876655"><ele>54.513668</ele><time>2023-03-17T14:59:31Z</time><extensions><speed>0.357084</speed><course>95.137053</course><hAcc>1.620215</hAcc><vAcc>0.756741</vAcc></extensions></trkpt>
      <trkpt lon="-77.072330" lat="38.876655"><ele>54.592436</ele><time>2023-03-17T14:59:32Z</time><extensions><speed>0.356269</speed><course>74.457099</course><hAcc>1.572908</hAcc><vAcc>0.756741</vAcc></extensions></trkpt>
      <trkpt lon="-77.072328" lat="38.876657"><ele>54.665932</ele><time>2023-03-17T14:59:33Z</time><extensions><speed>0.437047</speed><course>10.063094</course><hAcc>1.532148</hAcc><vAcc>0.756741</vAcc></extensions></trkpt>
      <trkpt lon="-77.072328" lat="38.876660"><ele>54.733441</ele><time>2023-03-17T14:59:34Z</time><extensions><speed>0.153504</speed><course>350.126533</course><hAcc>1.520650</hAcc><vAcc>0.756741</vAcc></extensions></trkpt>
      <trkpt lon="-77.072328" lat="38.876661"><ele>54.794492</ele><time>2023-03-17T14:59:35Z</time><extensions><speed>0.001114</speed><course>316.131305</course><hAcc>1.571452</hAcc><vAcc>0.756741</vAcc></extensions></trkpt>
      <trkpt lon="-77.072328" lat="38.876661"><ele>54.848861</ele><time>2023-03-17T14:59:36Z</time><extensions><speed>0.000602</speed><course>276.466818</course><hAcc>1.555621</hAcc><vAcc>0.756741</vAcc></extensions></trkpt>
      <trkpt lon="-77.072328" lat="38.876661"><ele>54.896643</ele><time>2023-03-17T14:59:37Z</time><extensions><speed>0.011750</speed><course>276.137747</course><hAcc>1.528134</hAcc><vAcc>0.756741</vAcc></extensions></trkpt>
      <trkpt lon="-77.072328" lat="38.876661"><ele>54.938043</ele><time>2023-03-17T14:59:38Z</time><extensions><speed>0.000420</speed><course>276.135897</course><hAcc>1.538821</hAcc><vAcc>0.756741</vAcc></extensions></trkpt>
      <trkpt lon="-77.072328" lat="38.876661"><ele>54.973453</ele><time>2023-03-17T14:59:39Z</time><extensions><speed>0.000304</speed><course>276.135609</course><hAcc>1.524579</hAcc><vAcc>0.756741</vAcc></extensions></trkpt>
      <trkpt lon="-77.072328" lat="38.876661"><ele>55.003275</ele><time>2023-03-17T14:59:40Z</time><extensions><speed>0.005559</speed><course>276.135607</course><hAcc>1.511163</hAcc><vAcc>0.756741</vAcc></extensions></trkpt>
      <trkpt lon="-77.072329" lat="38.876661"><ele>55.027978</ele><time>2023-03-17T14:59:41Z</time><extensions><speed>0.006210</speed><course>276.135607</course><hAcc>1.531960</hAcc><vAcc>0.756741</vAcc></extensions></trkpt>
      <trkpt lon="-77.072329" lat="38.876661"><ele>55.048133</ele><time>2023-03-17T14:59:42Z</time><extensions><speed>0.008641</speed><course>276.135606</course><hAcc>1.559407</hAcc><vAcc>0.756741</vAcc></extensions></trkpt>
      <trkpt lon="-77.072329" lat="38.876661"><ele>55.064316</ele><time>2023-03-17T14:59:43Z</time><extensions><speed>0.000258</speed><course>276.135606</course><hAcc>1.599243</hAcc><vAcc>0.756741</vAcc></extensions></trkpt>
      <trkpt lon="-77.072329" lat="38.876661"><ele>55.077025</ele><time>2023-03-17T14:59:44Z</time><extensions><speed>0.000209</speed><course>276.135606</course><hAcc>1.581163</hAcc><vAcc>0.756741</vAcc></extensions></trkpt>
      <trkpt lon="-77.072329" lat="38.876661"><ele>55.087732</ele><time>2023-03-17T14:59:45Z</time><extensions><speed>0.000204</speed><course>276.135606</course><hAcc>1.563446</hAcc><vAcc>0.756741</vAcc></extensions></trkpt>
      <trkpt lon="-77.072329" lat="38.876661"><ele>55.096316</ele><time>2023-03-17T14:59:46Z</time><extensions><speed>0.000198</speed><course>276.135606</course><hAcc>1.546521</hAcc><vAcc>0.756741</vAcc></extensions></trkpt>
      <trkpt lon="-77.072329" lat="38.876661"><ele>55.103111</ele><time>2023-03-17T14:59:47Z</time><extensions><speed>0.000193</speed><course>276.135606</course><hAcc>1.530364</hAcc><vAcc>0.756741</vAcc></extensions></trkpt>
      <trkpt lon="-77.072329" lat="38.876661"><ele>55.108469</ele><time>2023-03-17T14:59:48Z</time><extensions><speed>0.000189</speed><course>276.135606</course><hAcc>1.514955</hAcc><vAcc>0.756741</vAcc></extensions></trkpt>
      <trkpt lon="-77.072329" lat="38.876661"><ele>55.112733</ele><time>2023-03-17T14:59:49Z</time><extensions><speed>0.000183</speed><course>276.135606</course><hAcc>1.500324</hAcc><vAcc>0.756741</vAcc></extensions></trkpt>
      <trkpt lon="-77.072329" lat="38.876661"><ele>55.116196</ele><time>2023-03-17T14:59:50Z</time><extensions><speed>0.000132</speed><course>276.135606</course><hAcc>1.486420</hAcc><vAcc>0.756741</vAcc></extensions></trkpt>
      <trkpt lon="-77.072329" lat="38.876661"><ele>55.119097</ele><time>2023-03-17T14:59:51Z</time><extensions><speed>0.000128</speed><course>276.135606</course><hAcc>1.472776</hAcc><vAcc>0.756741</vAcc></extensions></trkpt>
      <trkpt lon="-77.072329" lat="38.876661"><ele>55.121639</ele><time>2023-03-17T14:59:52Z</time><extensions><speed>0.000127</speed><course>276.135606</course><hAcc>1.459777</hAcc><vAcc>0.756741</vAcc></extensions></trkpt>
      <trkpt lon="-77.072329" lat="38.876661"><ele>55.123973</ele><time>2023-03-17T14:59:53Z</time><extensions><speed>0.000923</speed><course>276.135606</course><hAcc>1.448046</hAcc><vAcc>0.756741</vAcc></extensions></trkpt>
      <trkpt lon="-77.072329" lat="38.876661"><ele>55.126178</ele><time>2023-03-17T14:59:54Z</time><extensions><speed>0.000137</speed><course>276.135606</course><hAcc>1.444598</hAcc><vAcc>0.756741</vAcc></extensions></trkpt>
      <trkpt lon="-77.072329" lat="38.876661"><ele>55.128373</ele><time>2023-03-17T14:59:55Z</time><extensions><speed>0.005308</speed><course>276.135606</course><hAcc>1.437662</hAcc><vAcc>0.756741</vAcc></extensions></trkpt>
      <trkpt lon="-77.072330" lat="38.876661"><ele>55.130507</ele><time>2023-03-17T14:59:56Z</time><extensions><speed>0.000133</speed><course>276.135606</course><hAcc>1.482761</hAcc><vAcc>0.756741</vAcc></extensions></trkpt>
      <trkpt lon="-77.072330" lat="38.876661"><ele>55.132573</ele><time>2023-03-17T14:59:57Z</time><extensions><speed>0.000947</speed><course>276.135606</course><hAcc>1.469452</hAcc><vAcc>0.756741</vAcc></extensions></trkpt>
      <trkpt lon="-77.072330" lat="38.876661"><ele>55.134563</ele><time>2023-03-17T14:59:58Z</time><extensions><speed>0.005041</speed><course>276.135606</course><hAcc>1.469027</hAcc><vAcc>0.756741</vAcc></extensions></trkpt>
      <trkpt lon="-77.072330" lat="38.876661"><ele>55.136491</ele><time>2023-03-17T14:59:59Z</time><extensions><speed>0.000164</speed><course>276.135606</course><hAcc>1.511511</hAcc><vAcc>0.756741</vAcc></extensions></trkpt>
      <trkpt lon="-77.072330" lat="38.876661"><ele>55.138356</ele><time>2023-03-17T15:00:00Z</time><extensions><speed>0.000136</speed><course>276.135606</course><hAcc>1.496714</hAcc><vAcc>0.756741</vAcc></extensions></trkpt>
      <trkpt lon="-77.072330" lat="38.876661"><ele>55.140184</ele><time>2023-03-17T15:00:01Z</time><extensions><speed>0.000098</speed><course>276.135606</course><hAcc>1.482042</hAcc><vAcc>0.756741</vAcc></extensions></trkpt>
      <trkpt lon="-77.072330" lat="38.876661"><ele>55.141616</ele><time>2023-03-17T15:00:02Z</time><extensions><speed>0.000095</speed><course>276.135606</course><hAcc>1.467478</hAcc><vAcc>0.756741</vAcc></extensions></trkpt>
      <trkpt lon="-77.072330" lat="38.876661"><ele>55.142887</ele><time>2023-03-17T15:00:03Z</time><extensions><speed>0.000093</speed><course>276.135606</course><hAcc>1.453510</hAcc><vAcc>0.756741</vAcc></extensions></trkpt>
      <trkpt lon="-77.072330" lat="38.876661"><ele>55.143992</ele><time>2023-03-17T15:00:04Z</time><extensions><speed>0.000091</speed><course>276.135606</course><hAcc>1.440127</hAcc><vAcc>0.756741</vAcc></extensions></trkpt>
      <trkpt lon="-77.072330" lat="38.876661"><ele>55.144997</ele><time>2023-03-17T15:00:05Z</time><extensions><speed>0.000089</speed><course>276.135606</course><hAcc>1.427294</hAcc><vAcc>0.756741</vAcc></extensions></trkpt>
      <trkpt lon="-77.072330" lat="38.876661"><ele>55.145894</ele><time>2023-03-17T15:00:06Z</time><extensions><speed>0.000087</speed><course>276.135606</course><hAcc>1.414989</hAcc><vAcc>0.756741</vAcc></extensions></trkpt>
      <trkpt lon="-77.072330" lat="38.876661"><ele>55.146673</ele><time>2023-03-17T15:00:07Z</time><extensions><speed>0.000115</speed><course>276.135606</course><hAcc>1.403231</hAcc><vAcc>0.756741</vAcc></extensions></trkpt>
      <trkpt lon="-77.072330" lat="38.876661"><ele>55.147335</ele><time>2023-03-17T15:00:08Z</time><extensions><speed>0.000083</speed><course>276.135606</course><hAcc>1.392384</hAcc><vAcc>0.756741</vAcc></extensions></trkpt>
      <trkpt lon="-77.072330" lat="38.876661"><ele>55.147822</ele><time>2023-03-17T15:00:09Z</time><extensions><speed>0.000110</speed><course>276.135606</course><hAcc>1.381541</hAcc><vAcc>0.756741</vAcc></extensions></trkpt>
      <trkpt lon="-77.072330" lat="38.876661"><ele>55.148174</ele><time>2023-03-17T15:00:10Z</time><extensions><speed>0.000110</speed><course>276.135606</course><hAcc>1.371607</hAcc><vAcc>0.756741</vAcc></extensions></trkpt>
      <trkpt lon="-77.072331" lat="38.876661"><ele>55.150608</ele><time>2023-03-17T15:00:11Z</time><extensions><speed>0.002107</speed><course>291.882403</course><hAcc>1.362609</hAcc><vAcc>0.756741</vAcc></extensions></trkpt>
      <trkpt lon="-77.072331" lat="38.876661"><ele>55.153835</ele><time>2023-03-17T15:00:12Z</time><extensions><speed>0.019015</speed><course>294.651239</course><hAcc>1.371086</hAcc><vAcc>0.756741</vAcc></extensions></trkpt>
      <trkpt lon="-77.072332" lat="38.876661"><ele>55.157548</ele><time>2023-03-17T15:00:13Z</time><extensions><speed>0.000877</speed><course>295.821229</course><hAcc>1.425071</hAcc><vAcc>0.756741</vAcc></extensions></trkpt>
      <trkpt lon="-77.072332" lat="38.876662"><ele>55.161790</ele><time>2023-03-17T15:00:14Z</time><extensions><speed>0.000985</speed><course>296.496631</course><hAcc>1.414690</hAcc><vAcc>0.756741</vAcc></extensions></trkpt>
      <trkpt lon="-77.072333" lat="38.876662"><ele>55.166583</ele><time>2023-03-17T15:00:15Z</time><extensions><speed>0.006572</speed><course>296.889852</course><hAcc>1.405486</hAcc><vAcc>0.756741</vAcc></extensions></trkpt>
      <trkpt lon="-77.072333" lat="38.876662"><ele>55.171903</ele><time>2023-03-17T15:00:16Z</time><extensions><speed>0.001398</speed><course>297.163674</course><hAcc>1.404641</hAcc><vAcc>0.756741</vAcc></extensions></trkpt>
      <trkpt lon="-77.072334" lat="38.876662"><ele>55.177737</ele><time>2023-03-17T15:00:17Z</time><extensions><speed>0.001566</speed><course>297.372932</course><hAcc>1.395719</hAcc><vAcc>0.756741</vAcc></extensions></trkpt>
      <trkpt lon="-77.072334" lat="38.876662"><ele>55.184116</ele><time>2023-03-17T15:00:18Z</time><extensions><speed>0.001758</speed><course>297.532041</course><hAcc>1.387381</hAcc><vAcc>0.756741</vAcc></extensions></trkpt>
      <trkpt lon="-77.072335" lat="38.876663"><ele>55.190933</ele><time>2023-03-17T15:00:19Z</time><extensions><speed>0.001438</speed><course>297.685611</course><hAcc>1.379573</hAcc><vAcc>0.756741</vAcc></extensions></trkpt>
      <trkpt lon="-77.072335" lat="38.876663"><ele>55.198114</ele><time>2023-03-17T15:00:20Z</time><extensions><speed>0.002094</speed><course>302.787536</course><hAcc>1.371608</hAcc><vAcc>0.756741</vAcc></extensions></trkpt>
      <trkpt lon="-77.072336" lat="38.876663"><ele>55.208251</ele><time>2023-03-17T15:00:21Z</time><extensions><speed>0.167930</speed><course>315.541737</course><hAcc>1.368918</hAcc><vAcc>0.756741</vAcc></extensions></trkpt>
      <trkpt lon="-77.072338" lat="38.876665"><ele>55.216039</ele><time>2023-03-17T15:00:22Z</time><extensions><speed>0.193491</speed><course>303.197057</course><hAcc>1.534659</hAcc><vAcc>0.756741</vAcc></extensions></trkpt>
      <trkpt lon="-77.072340" lat="38.876666"><ele>55.226487</ele><time>2023-03-17T15:00:23Z</time><extensions><speed>0.002237</speed><course>300.438319</course><hAcc>1.668210</hAcc><vAcc>0.756741</vAcc></extensions></trkpt>
      <trkpt lon="-77.072340" lat="38.876666"><ele>55.236643</ele><time>2023-03-17T15:00:24Z</time><extensions><speed>0.001490</speed><course>299.676840</course><hAcc>1.649711</hAcc><vAcc>0.756741</vAcc></extensions></trkpt>
      <trkpt lon="-77.072341" lat="38.876666"><ele>55.246854</ele><time>2023-03-17T15:00:25Z</time><extensions><speed>0.009641</speed><course>300.389304</course><hAcc>1.632153</hAcc><vAcc>0.756741</vAcc></extensions></trkpt>
      <trkpt lon="-77.072341" lat="38.876666"><ele>55.257050</ele><time>2023-03-17T15:00:26Z</time><extensions><speed>0.001934</speed><course>301.155369</course><hAcc>1.622166</hAcc><vAcc>0.756741</vAcc></extensions></trkpt>
      <trkpt lon="-77.072342" lat="38.876667"><ele>55.267145</ele><time>2023-03-17T15:00:27Z</time><extensions><speed>0.010061</speed><course>301.967940</course><hAcc>1.607880</hAcc><vAcc>0.756741</vAcc></extensions></trkpt>
      <trkpt lon="-77.072342" lat="38.876667"><ele>55.277199</ele><time>2023-03-17T15:00:28Z</time><extensions><speed>0.001296</speed><course>302.826441</course><hAcc>1.601466</hAcc><vAcc>0.756741</vAcc></extensions></trkpt>
      <trkpt lon="-77.072342" lat="38.876667"><ele>55.287157</ele><time>2023-03-17T15:00:29Z</time><extensions><speed>0.001214</speed><course>303.790244</course><hAcc>1.588830</hAcc><vAcc>0.756741</vAcc></extensions></trkpt>
      <trkpt lon="-77.072343" lat="38.876667"><ele>55.296956</ele><time>2023-03-17T15:00:30Z</time><extensions><speed>0.002009</speed><course>305.215761</course><hAcc>1.576961</hAcc><vAcc>0.756741</vAcc></extensions></trkpt>
      <trkpt lon="-77.072343" lat="38.876667"><ele>55.306429</ele><time>2023-03-17T15:00:31Z</time><extensions><speed>0.091326</speed><course>306.654993</course><hAcc>1.574049</hAcc><vAcc>0.761841</vAcc></extensions></trkpt>
      <trkpt lon="-77.072343" lat="38.876668"><ele>55.315688</ele><time>2023-03-17T15:00:32Z</time><extensions><speed>0.013257</speed><course>323.572381</course><hAcc>1.695832</hAcc><vAcc>0.770611</vAcc></extensions></trkpt>
      <trkpt lon="-77.072344" lat="38.876668"><ele>55.324680</ele><time>2023-03-17T15:00:33Z</time><extensions><speed>0.076294</speed><course>307.459779</course><hAcc>1.854109</hAcc><vAcc>0.785222</vAcc></extensions></trkpt>
      <trkpt lon="-77.072344" lat="38.876668"><ele>55.333362</ele><time>2023-03-17T15:00:34Z</time><extensions><speed>0.000983</speed><course>306.784376</course><hAcc>1.985764</hAcc><vAcc>0.808550</vAcc></extensions></trkpt>
      <trkpt lon="-77.072344" lat="38.876668"><ele>55.341715</ele><time>2023-03-17T15:00:35Z</time><extensions><speed>0.004117</speed><course>306.526719</course><hAcc>1.987651</hAcc><vAcc>0.844089</vAcc></extensions></trkpt>
      <trkpt lon="-77.072344" lat="38.876668"><ele>55.349757</ele><time>2023-03-17T15:00:36Z</time><extensions><speed>0.003451</speed><course>306.525255</course><hAcc>1.995221</hAcc><vAcc>0.895686</vAcc></extensions></trkpt>
      <trkpt lon="-77.072344" lat="38.876668"><ele>55.357529</ele><time>2023-03-17T15:00:37Z</time><extensions><speed>0.002961</speed><course>306.525212</course><hAcc>2.004134</hAcc><vAcc>0.967093</vAcc></extensions></trkpt>
      <trkpt lon="-77.072344" lat="38.876668"><ele>55.365084</ele><time>2023-03-17T15:00:38Z</time><extensions><speed>0.000278</speed><course>306.525212</course><hAcc>2.013001</hAcc><vAcc>1.061477</vAcc></extensions></trkpt>
      <trkpt lon="-77.072344" lat="38.876668"><ele>55.372485</ele><time>2023-03-17T15:00:39Z</time><extensions><speed>0.000219</speed><course>306.525212</course><hAcc>2.014658</hAcc><vAcc>1.181048</vAcc></extensions></trkpt>
      <trkpt lon="-77.072344" lat="38.876668"><ele>55.379794</ele><time>2023-03-17T15:00:40Z</time><extensions><speed>0.000074</speed><course>306.525213</course><hAcc>2.016891</hAcc><vAcc>1.326893</vAcc></extensions></trkpt>
    </trkseg>
  </trk>
</gpx>