<?xml version="1.0" encoding="UTF-8"?>
<gpx version="1.1" creator="Apple Health Export" xmlns="http://www.topografix.com/GPX/1/1" xmlns:xsi="http://www.w3.org/2001/XMLSchema-instance" xsi:schemaLocation="http://www.topografix.com/GPX/1/1 http://www.topografix.com/GPX/1/1/gpx.xsd">
  <metadata>
    <time>2026-03-14T12:16:25Z</time>
  </metadata>
  <trk>
    <name>Route 2023-12-23 10:56am</name>
    <trkseg>
      <trkpt lon="-82.146322" lat="33.556454"><ele>85.974940</ele><time>2023-12-23T15:51:40Z</time><extensions><speed>0.122873</speed><course>227.981418</course><hAcc>9.304726</hAcc><vAcc>8.806007</vAcc></extensions></trkpt>
      <trkpt lon="-82.146333" lat="33.556449"><ele>85.998298</ele><time>2023-12-23T15:51:41Z</time><extensions><speed>0.200393</speed><course>228.523187</course><hAcc>8.635192</hAcc><vAcc>8.051721</vAcc></extensions></trkpt>
      <trkpt lon="-82.146352" lat="33.556440"><ele>86.004867</ele><time>2023-12-23T15:51:45Z</time><extensions><speed>0.439309</speed><course>228.895820</course><hAcc>6.839961</hAcc><vAcc>7.022469</vAcc></extensions></trkpt>
      <trkpt lon="-82.146357" lat="33.556438"><ele>86.007682</ele><time>2023-12-23T15:51:46Z</time><extensions><speed>0.378982</speed><course>228.956050</course><hAcc>6.469200</hAcc><vAcc>6.665676</vAcc></extensions></trkpt>
      <trkpt lon="-82.146363" lat="33.556435"><ele>86.004515</ele><time>2023-12-23T15:51:47Z</time><extensions><speed>0.314720</speed><course>229.003346</course><hAcc>6.191823</hAcc><vAcc>6.435264</vAcc></extensions></trkpt>
      <trkpt lon="-82.146368" lat="33.556433"><ele>86.003069</ele><time>2023-12-23T15:51:48Z</time><extensions><speed>0.319529</speed><course>229.766565</course><hAcc>5.948126</hAcc><vAcc>6.264573</vAcc></extensions></trkpt>
      <trkpt lon="-82.146376" lat="33.556430"><ele>86.008253</ele><time>2023-12-23T15:51:49Z</time><extensions><speed>0.287201</speed><course>232.164743</course><hAcc>5.641322</hAcc><vAcc>5.925686</vAcc></extensions></trkpt>
      <trkpt lon="-82.146380" lat="33.556428"><ele>86.009715</ele><time>2023-12-23T15:51:50Z</time><extensions><speed>0.274618</speed><course>235.054990</course><hAcc>5.486816</hAcc><vAcc>5.824405</vAcc></extensions></trkpt>
      <trkpt lon="-82.146394" lat="33.556425"><ele>86.027228</ele><time>2023-12-23T15:51:51Z</time><extensions><speed>0.301183</speed><course>242.791888</course><hAcc>5.148597</hAcc><vAcc>5.517421</vAcc></extensions></trkpt>
      <trkpt lon="-82.146401" lat="33.556422"><ele>86.644268</ele><time>2023-12-23T15:51:52Z</time><extensions><speed>0.355641</speed><course>247.754478</course><hAcc>4.957761</hAcc><vAcc>5.013542</vAcc></extensions></trkpt>
      <trkpt lon="-82.146407" lat="33.556418"><ele>86.971922</ele><time>2023-12-23T15:51:53Z</time><extensions><speed>0.361413</speed><course>249.201444</course><hAcc>4.819768</hAcc><vAcc>4.462890</vAcc></extensions></trkpt>
      <trkpt lon="-82.146413" lat="33.556415"><ele>87.147767</ele><time>2023-12-23T15:51:54Z</time><extensions><speed>0.407692</speed><course>249.511021</course><hAcc>4.724735</hAcc><vAcc>3.978408</vAcc></extensions></trkpt>
      <trkpt lon="-82.146419" lat="33.556413"><ele>87.232760</ele><time>2023-12-23T15:51:55Z</time><extensions><speed>0.426527</speed><course>249.223583</course><hAcc>4.672337</hAcc><vAcc>3.579569</vAcc></extensions></trkpt>
      <trkpt lon="-82.146423" lat="33.556411"><ele>87.304285</ele><time>2023-12-23T15:51:56Z</time><extensions><speed>0.413894</speed><course>248.546166</course><hAcc>4.677206</hAcc><vAcc>3.254651</vAcc></extensions></trkpt>
      <trkpt lon="-82.146427" lat="33.556410"><ele>87.316573</ele><time>2023-12-23T15:51:57Z</time><extensions><speed>0.372103</speed><course>247.219402</course><hAcc>4.701083</hAcc><vAcc>2.986235</vAcc></extensions></trkpt>
      <trkpt lon="-82.146439" lat="33.556405"><ele>87.297234</ele><time>2023-12-23T15:51:58Z</time><extensions><speed>0.465765</speed><course>245.032199</course><hAcc>4.570803</hAcc><vAcc>2.759141</vAcc></extensions></trkpt>
      <trkpt lon="-82.146445" lat="33.556403"><ele>87.279573</ele><time>2023-12-23T15:51:59Z</time><extensions><speed>0.588789</speed><course>243.568761</course><hAcc>4.533128</hAcc><vAcc>2.563239</vAcc></extensions></trkpt>
      <trkpt lon="-82.146452" lat="33.556400"><ele>87.279948</ele><time>2023-12-23T15:52:00Z</time><extensions><speed>0.739407</speed><course>242.307564</course><hAcc>4.475119</hAcc><vAcc>2.390582</vAcc></extensions></trkpt>
      <trkpt lon="-82.146461" lat="33.556396"><ele>87.273692</ele><time>2023-12-23T15:52:01Z</time><extensions><speed>1.007359</speed><course>241.112675</course><hAcc>4.369374</hAcc><vAcc>2.235878</vAcc></extensions></trkpt>
      <trkpt lon="-82.146473" lat="33.556390"><ele>87.256031</ele><time>2023-12-23T15:52:02Z</time><extensions><speed>1.509517</speed><course>240.812677</course><hAcc>4.195107</hAcc><vAcc>2.095800</vAcc></extensions></trkpt>
      <trkpt lon="-82.146489" lat="33.556383"><ele>87.231881</ele><time>2023-12-23T15:52:03Z</time><extensions><speed>1.809425</speed><course>241.340861</course><hAcc>4.025266</hAcc><vAcc>1.968480</vAcc></extensions></trkpt>
      <trkpt lon="-82.146515" lat="33.556371"><ele>87.223073</ele><time>2023-12-23T15:52:05Z</time><extensions><speed>1.910310</speed><course>243.222896</course><hAcc>3.730023</hAcc><vAcc>1.810885</vAcc></extensions></trkpt>
      <trkpt lon="-82.146533" lat="33.556364"><ele>87.224950</ele><time>2023-12-23T15:52:06Z</time><extensions><speed>1.728828</speed><course>244.180225</course><hAcc>3.488201</hAcc><vAcc>1.701231</vAcc></extensions></trkpt>
      <trkpt lon="-82.146548" lat="33.556357"><ele>87.229417</ele><time>2023-12-23T15:52:07Z</time><extensions><speed>1.354397</speed><course>245.034355</course><hAcc>3.364055</hAcc><vAcc>1.602363</vAcc></extensions></trkpt>
      <trkpt lon="-82.146558" lat="33.556353"><ele>87.233114</ele><time>2023-12-23T15:52:08Z</time><extensions><speed>0.782843</speed><course>245.764768</course><hAcc>3.386728</hAcc><vAcc>1.514013</vAcc></extensions></trkpt>
      <trkpt lon="-82.146561" lat="33.556351"><ele>87.229712</ele><time>2023-12-23T15:52:09Z</time><extensions><speed>0.026453</speed><course>265.582144</course><hAcc>3.442483</hAcc><vAcc>1.435930</vAcc></extensions></trkpt>
      <trkpt lon="-82.146565" lat="33.556351"><ele>87.221776</ele><time>2023-12-23T15:52:10Z</time><extensions><speed>0.981792</speed><course>284.604242</course><hAcc>3.347671</hAcc><vAcc>1.367867</vAcc></extensions></trkpt>
      <trkpt lon="-82.146576" lat="33.556352"><ele>87.210733</ele><time>2023-12-23T15:52:11Z</time><extensions><speed>1.238059</speed><course>280.050603</course><hAcc>3.248165</hAcc><vAcc>1.309420</vAcc></extensions></trkpt>
      <trkpt lon="-82.146589" lat="33.556353"><ele>87.193452</ele><time>2023-12-23T15:52:12Z</time><extensions><speed>1.287374</speed><course>274.665745</course><hAcc>3.162016</hAcc><vAcc>1.260063</vAcc></extensions></trkpt>
      <trkpt lon="-82.146602" lat="33.556352"><ele>87.177504</ele><time>2023-12-23T15:52:13Z</time><extensions><speed>1.274893</speed><course>270.121445</course><hAcc>3.100258</hAcc><vAcc>1.219157</vAcc></extensions></trkpt>
      <trkpt lon="-82.146615" lat="33.556351"><ele>87.163258</ele><time>2023-12-23T15:52:14Z</time><extensions><speed>1.220762</speed><course>265.090110</course><hAcc>3.047496</hAcc><vAcc>1.185844</vAcc></extensions></trkpt>
      <trkpt lon="-82.146627" lat="33.556348"><ele>87.151922</ele><time>2023-12-23T15:52:15Z</time><extensions><speed>1.157132</speed><course>258.040972</course><hAcc>3.001961</hAcc><vAcc>1.159364</vAcc></extensions></trkpt>
      <trkpt lon="-82.146639" lat="33.556344"><ele>87.137109</ele><time>2023-12-23T15:52:16Z</time><extensions><speed>1.044435</speed><course>253.031376</course><hAcc>2.963364</hAcc><vAcc>1.138899</vAcc></extensions></trkpt>
      <trkpt lon="-82.146649" lat="33.556340"><ele>87.108158</ele><time>2023-12-23T15:52:17Z</time><extensions><speed>0.917473</speed><course>250.208474</course><hAcc>2.960999</hAcc><vAcc>1.123490</vAcc></extensions></trkpt>
      <trkpt lon="-82.146658" lat="33.556336"><ele>87.079443</ele><time>2023-12-23T15:52:18Z</time><extensions><speed>0.863479</speed><course>244.490160</course><hAcc>2.946926</hAcc><vAcc>1.112217</vAcc></extensions></trkpt>
      <trkpt lon="-82.146666" lat="33.556331"><ele>87.066348</ele><time>2023-12-23T15:52:19Z</time><extensions><speed>0.781525</speed><course>238.638257</course><hAcc>2.909879</hAcc><vAcc>1.104246</vAcc></extensions></trkpt>
      <trkpt lon="-82.146673" lat="33.556325"><ele>87.061338</ele><time>2023-12-23T15:52:20Z</time><extensions><speed>0.696766</speed><course>231.348098</course><hAcc>2.816385</hAcc><vAcc>1.098923</vAcc></extensions></trkpt>
      <trkpt lon="-82.146680" lat="33.556319"><ele>87.058296</ele><time>2023-12-23T15:52:21Z</time><extensions><speed>0.718531</speed><course>232.469411</course><hAcc>2.735661</hAcc><vAcc>1.095798</vAcc></extensions></trkpt>
      <trkpt lon="-82.146689" lat="33.556314"><ele>87.065491</ele><time>2023-12-23T15:52:22Z</time><extensions><speed>0.794216</speed><course>243.903685</course><hAcc>2.676539</hAcc><vAcc>1.094292</vAcc></extensions></trkpt>
      <trkpt lon="-82.146698" lat="33.556310"><ele>87.076551</ele><time>2023-12-23T15:52:23Z</time><extensions><speed>0.838205</speed><course>254.587291</course><hAcc>2.631058</hAcc><vAcc>1.094078</vAcc></extensions></trkpt>
      <trkpt lon="-82.146707" lat="33.556307"><ele>87.086383</ele><time>2023-12-23T15:52:24Z</time><extensions><speed>0.839024</speed><course>275.866659</course><hAcc>2.622302</hAcc><vAcc>1.094640</vAcc></extensions></trkpt>
      <trkpt lon="-82.146717" lat="33.556307"><ele>87.104179</ele><time>2023-12-23T15:52:25Z</time><extensions><speed>1.017044</speed><course>270.962384</course><hAcc>2.517828</hAcc><vAcc>1.095560</vAcc></extensions></trkpt>
      <trkpt lon="-82.146730" lat="33.556306"><ele>87.120990</ele><time>2023-12-23T15:52:26Z</time><extensions><speed>1.117559</speed><course>268.566279</course><hAcc>2.411451</hAcc><vAcc>1.096670</vAcc></extensions></trkpt>
      <trkpt lon="-82.146742" lat="33.556306"><ele>87.151252</ele><time>2023-12-23T15:52:27Z</time><extensions><speed>1.157082</speed><course>278.645014</course><hAcc>2.381824</hAcc><vAcc>1.097764</vAcc></extensions></trkpt>
      <trkpt lon="-82.146756" lat="33.556307"><ele>87.187619</ele><time>2023-12-23T15:52:28Z</time><extensions><speed>1.297588</speed><course>277.160997</course><hAcc>2.306398</hAcc><vAcc>1.098630</vAcc></extensions></trkpt>
      <trkpt lon="-82.146770" lat="33.556308"><ele>87.229323</ele><time>2023-12-23T15:52:29Z</time><extensions><speed>1.349021</speed><course>275.951299</course><hAcc>2.254512</hAcc><vAcc>1.099085</vAcc></extensions></trkpt>
      <trkpt lon="-82.146785" lat="33.556309"><ele>87.270505</ele><time>2023-12-23T15:52:30Z</time><extensions><speed>1.338387</speed><course>279.750213</course><hAcc>2.256155</hAcc><vAcc>1.099016</vAcc></extensions></trkpt>
      <trkpt lon="-82.146800" lat="33.556310"><ele>87.305607</ele><time>2023-12-23T15:52:31Z</time><extensions><speed>1.439966</speed><course>275.344972</course><hAcc>2.194026</hAcc><vAcc>1.098473</vAcc></extensions></trkpt>
      <trkpt lon="-82.146817" lat="33.556310"><ele>87.343881</ele><time>2023-12-23T15:52:32Z</time><extensions><speed>1.524263</speed><course>269.660335</course><hAcc>2.177003</hAcc><vAcc>1.097523</vAcc></extensions></trkpt>
      <trkpt lon="-82.146834" lat="33.556309"><ele>87.385453</ele><time>2023-12-23T15:52:33Z</time><extensions><speed>1.593830</speed><course>266.541409</course><hAcc>2.123808</hAcc><vAcc>1.096207</vAcc></extensions></trkpt>
      <trkpt lon="-82.146853" lat="33.556307"><ele>87.435916</ele><time>2023-12-23T15:52:34Z</time><extensions><speed>1.636865</speed><course>263.824710</course><hAcc>2.086082</hAcc><vAcc>1.094642</vAcc></extensions></trkpt>
      <trkpt lon="-82.146871" lat="33.556305"><ele>87.487653</ele><time>2023-12-23T15:52:35Z</time><extensions><speed>1.645609</speed><course>263.514058</course><hAcc>2.076781</hAcc><vAcc>1.092873</vAcc></extensions></trkpt>
      <trkpt lon="-82.146891" lat="33.556303"><ele>87.536399</ele><time>2023-12-23T15:52:36Z</time><extensions><speed>1.672858</speed><course>264.709912</course><hAcc>2.069580</hAcc><vAcc>1.090940</vAcc></extensions></trkpt>
      <trkpt lon="-82.146910" lat="33.556302"><ele>87.579615</ele><time>2023-12-23T15:52:37Z</time><extensions><speed>1.572692</speed><course>266.515480</course><hAcc>2.095366</hAcc><vAcc>1.088907</vAcc></extensions></trkpt>
      <trkpt lon="-82.146929" lat="33.556301"><ele>87.619796</ele><time>2023-12-23T15:52:38Z</time><extensions><speed>1.635238</speed><course>274.385325</course><hAcc>2.079280</hAcc><vAcc>1.086711</vAcc></extensions></trkpt>
      <trkpt lon="-82.146949" lat="33.556301"><ele>87.655727</ele><time>2023-12-23T15:52:39Z</time><extensions><speed>1.653079</speed><course>275.328052</course><hAcc>2.063459</hAcc><vAcc>1.084428</vAcc></extensions></trkpt>
      <trkpt lon="-82.146968" lat="33.556301"><ele>87.695792</ele><time>2023-12-23T15:52:40Z</time><extensions><speed>1.528351</speed><course>276.037969</course><hAcc>2.055840</hAcc><vAcc>1.082062</vAcc></extensions></trkpt>
      <trkpt lon="-82.146986" lat="33.556303"><ele>87.731380</ele><time>2023-12-23T15:52:41Z</time><extensions><speed>1.618231</speed><course>289.361502</course><hAcc>2.033739</hAcc><vAcc>1.079686</vAcc></extensions></trkpt>
      <trkpt lon="-82.147004" lat="33.556308"><ele>87.763353</ele><time>2023-12-23T15:52:42Z</time><extensions><speed>1.624070</speed><course>302.937964</course><hAcc>2.046279</hAcc><vAcc>1.077427</vAcc></extensions></trkpt>
      <trkpt lon="-82.147020" lat="33.556316"><ele>87.794905</ele><time>2023-12-23T15:52:43Z</time><extensions><speed>1.670570</speed><course>311.810866</course><hAcc>2.008476</hAcc><vAcc>1.075300</vAcc></extensions></trkpt>
      <trkpt lon="-82.147035" lat="33.556325"><ele>87.879578</ele><time>2023-12-23T15:52:44Z</time><extensions><speed>1.688855</speed><course>311.258104</course><hAcc>1.985986</hAcc><vAcc>1.069176</vAcc></extensions></trkpt>
      <trkpt lon="-82.147049" lat="33.556335"><ele>87.962750</ele><time>2023-12-23T15:52:45Z</time><extensions><speed>1.527681</speed><course>322.191622</course><hAcc>2.001822</hAcc><vAcc>1.061972</vAcc></extensions></trkpt>
      <trkpt lon="-82.147056" lat="33.556345"><ele>88.041525</ele><time>2023-12-23T15:52:46Z</time><extensions><speed>1.196164</speed><course>355.169613</course><hAcc>2.036838</hAcc><vAcc>1.053761</vAcc></extensions></trkpt>
      <trkpt lon="-82.147059" lat="33.556354"><ele>88.116852</ele><time>2023-12-23T15:52:47Z</time><extensions><speed>1.186542</speed><course>342.990827</course><hAcc>2.023913</hAcc><vAcc>1.044569</vAcc></extensions></trkpt>
      <trkpt lon="-82.147062" lat="33.556364"><ele>88.191046</ele><time>2023-12-23T15:52:48Z</time><extensions><speed>1.132466</speed><course>0.075891</course><hAcc>2.037925</hAcc><vAcc>1.034421</vAcc></extensions></trkpt>
      <trkpt lon="-82.147064" lat="33.556373"><ele>88.263345</ele><time>2023-12-23T15:52:49Z</time><extensions><speed>1.102165</speed><course>346.254772</course><hAcc>2.015892</hAcc><vAcc>1.023362</vAcc></extensions></trkpt>
      <trkpt lon="-82.147068" lat="33.556382"><ele>88.337662</ele><time>2023-12-23T15:52:50Z</time><extensions><speed>0.969471</speed><course>343.415877</course><hAcc>2.001328</hAcc><vAcc>1.010963</vAcc></extensions></trkpt>
      <trkpt lon="-82.147073" lat="33.556388"><ele>88.409918</ele><time>2023-12-23T15:52:51Z</time><extensions><speed>0.723844</speed><course>315.267683</course><hAcc>1.986000</hAcc><vAcc>0.997371</vAcc></extensions></trkpt>
      <trkpt lon="-82.147078" lat="33.556391"><ele>88.481404</ele><time>2023-12-23T15:52:52Z</time><extensions><speed>0.435178</speed><course>284.310434</course><hAcc>2.023498</hAcc><vAcc>0.982646</vAcc></extensions></trkpt>
      <trkpt lon="-82.147083" lat="33.556391"><ele>88.550078</ele><time>2023-12-23T15:52:53Z</time><extensions><speed>0.345721</speed><course>266.896215</course><hAcc>2.044662</hAcc><vAcc>0.966924</vAcc></extensions></trkpt>
      <trkpt lon="-82.147086" lat="33.556390"><ele>88.613633</ele><time>2023-12-23T15:52:54Z</time><extensions><speed>0.334881</speed><course>253.419793</course><hAcc>2.045739</hAcc><vAcc>0.950477</vAcc></extensions></trkpt>
      <trkpt lon="-82.147090" lat="33.556389"><ele>88.671405</ele><time>2023-12-23T15:52:55Z</time><extensions><speed>0.266202</speed><course>249.068409</course><hAcc>2.054545</hAcc><vAcc>0.933687</vAcc></extensions></trkpt>
      <trkpt lon="-82.147092" lat="33.556388"><ele>88.723767</ele><time>2023-12-23T15:52:56Z</time><extensions><speed>0.179002</speed><course>260.560501</course><hAcc>2.068048</hAcc><vAcc>0.916954</vAcc></extensions></trkpt>
      <trkpt lon="-82.147094" lat="33.556387"><ele>88.769390</ele><time>2023-12-23T15:52:57Z</time><extensions><speed>0.182199</speed><course>248.728783</course><hAcc>2.067799</hAcc><vAcc>0.900651</vAcc></extensions></trkpt>
      <trkpt lon="-82.147095" lat="33.556386"><ele>88.809869</ele><time>2023-12-23T15:52:58Z</time><extensions><speed>0.140373</speed><course>244.899038</course><hAcc>2.086992</hAcc><vAcc>0.885122</vAcc></extensions></trkpt>
      <trkpt lon="-82.147096" lat="33.556385"><ele>88.844714</ele><time>2023-12-23T15:52:59Z</time><extensions><speed>0.099007</speed><course>232.829077</course><hAcc>2.116441</hAcc><vAcc>0.870686</vAcc></extensions></trkpt>
      <trkpt lon="-82.147096" lat="33.556384"><ele>88.874256</ele><time>2023-12-23T15:53:00Z</time><extensions><speed>0.099407</speed><course>211.185079</course><hAcc>2.134714</hAcc><vAcc>0.857661</vAcc></extensions></trkpt>
      <trkpt lon="-82.147096" lat="33.556382"><ele>88.898475</ele><time>2023-12-23T15:53:01Z</time><extensions><speed>0.126234</speed><course>190.780370</course><hAcc>2.154305</hAcc><vAcc>0.846359</vAcc></extensions></trkpt>
      <trkpt lon="-82.147096" lat="33.556381"><ele>88.917391</ele><time>2023-12-23T15:53:02Z</time><extensions><speed>0.121710</speed><course>165.129139</course><hAcc>2.199692</hAcc><vAcc>0.837060</vAcc></extensions></trkpt>
      <trkpt lon="-82.147095" lat="33.556379"><ele>88.930275</ele><time>2023-12-23T15:53:03Z</time><extensions><speed>0.181500</speed><course>125.937025</course><hAcc>2.240953</hAcc><vAcc>0.829998</vAcc></extensions></trkpt>
      <trkpt lon="-82.147092" lat="33.556377"><ele>88.937659</ele><time>2023-12-23T15:53:04Z</time><extensions><speed>0.304148</speed><course>119.446981</course><hAcc>2.286187</hAcc><vAcc>0.825369</vAcc></extensions></trkpt>
      <trkpt lon="-82.147088" lat="33.556376"><ele>88.939290</ele><time>2023-12-23T15:53:05Z</time><extensions><speed>0.460474</speed><course>105.007920</course><hAcc>2.358018</hAcc><vAcc>0.823284</vAcc></extensions></trkpt>
      <trkpt lon="-82.147082" lat="33.556374"><ele>88.938757</ele><time>2023-12-23T15:53:06Z</time><extensions><speed>0.650065</speed><course>95.165936</course><hAcc>2.459126</hAcc><vAcc>0.823748</vAcc></extensions></trkpt>
      <trkpt lon="-82.147073" lat="33.556374"><ele>88.935453</ele><time>2023-12-23T15:53:07Z</time><extensions><speed>0.827794</speed><course>88.138435</course><hAcc>2.553831</hAcc><vAcc>0.826680</vAcc></extensions></trkpt>
      <trkpt lon="-82.147063" lat="33.556373"><ele>88.927175</ele><time>2023-12-23T15:53:08Z</time><extensions><speed>0.969693</speed><course>85.662649</course><hAcc>2.625319</hAcc><vAcc>0.831926</vAcc></extensions></trkpt>
      <trkpt lon="-82.147052" lat="33.556374"><ele>88.914219</ele><time>2023-12-23T15:53:09Z</time><extensions><speed>1.037751</speed><course>84.017993</course><hAcc>2.680012</hAcc><vAcc>0.839262</vAcc></extensions></trkpt>
      <trkpt lon="-82.147040" lat="33.556374"><ele>88.894951</ele><time>2023-12-23T15:53:10Z</time><extensions><speed>1.116359</speed><course>85.332776</course><hAcc>2.717346</hAcc><vAcc>0.848415</vAcc></extensions></trkpt>
      <trkpt lon="-82.147028" lat="33.556374"><ele>88.871262</ele><time>2023-12-23T15:53:11Z</time><extensions><speed>1.214519</speed><course>89.352129</course><hAcc>2.741586</hAcc><vAcc>0.859052</vAcc></extensions></trkpt>
      <trkpt lon="-82.147014" lat="33.556374"><ele>88.844934</ele><time>2023-12-23T15:53:12Z</time><extensions><speed>1.285673</speed><course>90.552565</course><hAcc>2.762913</hAcc><vAcc>0.870856</vAcc></extensions></trkpt>
      <trkpt lon="-82.147000" lat="33.556373"><ele>88.813362</ele><time>2023-12-23T15:53:13Z</time><extensions><speed>1.309601</speed><course>92.639879</course><hAcc>2.782318</hAcc><vAcc>0.883566</vAcc></extensions></trkpt>
      <trkpt lon="-82.146985" lat="33.556373"><ele>88.778433</ele><time>2023-12-23T15:53:14Z</time><extensions><speed>1.299194</speed><course>94.633882</course><hAcc>2.800638</hAcc><vAcc>0.896993</vAcc></extensions></trkpt>
      <trkpt lon="-82.146971" lat="33.556371"><ele>88.737379</ele><time>2023-12-23T15:53:15Z</time><extensions><speed>1.304076</speed><course>103.714210</course><hAcc>2.807962</hAcc><vAcc>0.910974</vAcc></extensions></trkpt>
      <trkpt lon="-82.146957" lat="33.556368"><ele>88.692166</ele><time>2023-12-23T15:53:16Z</time><extensions><speed>1.316224</speed><course>107.840769</course><hAcc>2.806017</hAcc><vAcc>0.925223</vAcc></extensions></trkpt>
      <trkpt lon="-82.146943" lat="33.556365"><ele>88.646903</ele><time>2023-12-23T15:53:17Z</time><extensions><speed>1.335009</speed><course>105.300130</course><hAcc>2.802773</hAcc><vAcc>0.939534</vAcc></extensions></trkpt>
      <trkpt lon="-82.146928" lat="33.556363"><ele>88.605992</ele><time>2023-12-23T15:53:18Z</time><extensions><speed>1.330084</speed><course>100.699564</course><hAcc>2.795333</hAcc><vAcc>0.953673</vAcc></extensions></trkpt>
      <trkpt lon="-82.146914" lat="33.556362"><ele>88.557887</ele><time>2023-12-23T15:53:19Z</time><extensions><speed>1.326878</speed><course>97.581964</course><hAcc>2.775842</hAcc><vAcc>0.967411</vAcc></extensions></trkpt>
      <trkpt lon="-82.146900" lat="33.556361"><ele>88.509678</ele><time>2023-12-23T15:53:20Z</time><extensions><speed>1.313210</speed><course>95.071068</course><hAcc>2.713721</hAcc><vAcc>0.980687</vAcc></extensions></trkpt>
      <trkpt lon="-82.146885" lat="33.556361"><ele>88.460178</ele><time>2023-12-23T15:53:21Z</time><extensions><speed>1.306563</speed><course>92.747939</course><hAcc>2.648025</hAcc><vAcc>0.993432</vAcc></extensions></trkpt>
      <trkpt lon="-82.146872" lat="33.556361"><ele>88.407447</ele><time>2023-12-23T15:53:22Z</time><extensions><speed>1.303896</speed><course>89.939905</course><hAcc>2.578864</hAcc><vAcc>1.005622</vAcc></extensions></trkpt>
      <trkpt lon="-82.146858" lat="33.556362"><ele>88.353736</ele><time>2023-12-23T15:53:23Z</time><extensions><speed>1.283522</speed><course>87.340250</course><hAcc>2.548310</hAcc><vAcc>1.017113</vAcc></extensions></trkpt>
      <trkpt lon="-82.146845" lat="33.556363"><ele>88.298516</ele><time>2023-12-23T15:53:24Z</time><extensions><speed>1.243674</speed><course>85.738717</course><hAcc>2.541524</hAcc><vAcc>1.027769</vAcc></extensions></trkpt>
      <trkpt lon="-82.146832" lat="33.556365"><ele>88.242579</ele><time>2023-12-23T15:53:25Z</time><extensions><speed>1.325908</speed><course>82.325270</course><hAcc>2.453560</hAcc><vAcc>1.037486</vAcc></extensions></trkpt>
      <trkpt lon="-82.146818" lat="33.556367"><ele>88.189627</ele><time>2023-12-23T15:53:26Z</time><extensions><speed>1.354616</speed><course>80.451532</course><hAcc>2.398050</hAcc><vAcc>1.046139</vAcc></extensions></trkpt>
      <trkpt lon="-82.146804" lat="33.556369"><ele>88.135423</ele><time>2023-12-23T15:53:27Z</time><extensions><speed>1.352252</speed><course>79.215010</course><hAcc>2.315738</hAcc><vAcc>1.053685</vAcc></extensions></trkpt>
      <trkpt lon="-82.146790" lat="33.556372"><ele>88.075643</ele><time>2023-12-23T15:53:28Z</time><extensions><speed>1.349478</speed><course>75.492507</course><hAcc>2.240996</hAcc><vAcc>1.060080</vAcc></extensions></trkpt>
      <trkpt lon="-82.146777" lat="33.556376"><ele>88.012571</ele><time>2023-12-23T15:53:29Z</time><extensions><speed>1.355499</speed><course>71.927893</course><hAcc>2.190472</hAcc><vAcc>1.065336</vAcc></extensions></trkpt>
      <trkpt lon="-82.146765" lat="33.556380"><ele>87.945298</ele><time>2023-12-23T15:53:30Z</time><extensions><speed>1.299461</speed><course>67.366721</course><hAcc>2.125232</hAcc><vAcc>1.069533</vAcc></extensions></trkpt>
      <trkpt lon="-82.146753" lat="33.556385"><ele>87.883817</ele><time>2023-12-23T15:53:31Z</time><extensions><speed>1.302773</speed><course>60.251043</course><hAcc>2.115298</hAcc><vAcc>1.072658</vAcc></extensions></trkpt>
      <trkpt lon="-82.146742" lat="33.556391"><ele>87.824656</ele><time>2023-12-23T15:53:32Z</time><extensions><speed>1.238878</speed><course>56.007733</course><hAcc>2.032288</hAcc><vAcc>1.074730</vAcc></extensions></trkpt>
      <trkpt lon="-82.146732" lat="33.556397"><ele>87.761731</ele><time>2023-12-23T15:53:33Z</time><extensions><speed>1.219258</speed><course>55.486572</course><hAcc>1.993814</hAcc><vAcc>1.075782</vAcc></extensions></trkpt>
      <trkpt lon="-82.146721" lat="33.556403"><ele>87.697446</ele><time>2023-12-23T15:53:34Z</time><extensions><speed>1.255386</speed><course>59.361352</course><hAcc>2.012776</hAcc><vAcc>1.075904</vAcc></extensions></trkpt>
      <trkpt lon="-82.146710" lat="33.556408"><ele>87.629197</ele><time>2023-12-23T15:53:35Z</time><extensions><speed>1.183844</speed><course>56.950250</course><hAcc>1.946060</hAcc><vAcc>1.075303</vAcc></extensions></trkpt>
      <trkpt lon="-82.146699" lat="33.556414"><ele>87.559383</ele><time>2023-12-23T15:53:36Z</time><extensions><speed>1.158258</speed><course>59.318474</course><hAcc>1.927580</hAcc><vAcc>1.074134</vAcc></extensions></trkpt>
      <trkpt lon="-82.146688" lat="33.556419"><ele>87.495571</ele><time>2023-12-23T15:53:37Z</time><extensions><speed>1.196625</speed><course>64.859857</course><hAcc>1.956789</hAcc><vAcc>1.072465</vAcc></extensions></trkpt>
      <trkpt lon="-82.146677" lat="33.556423"><ele>87.431976</ele><time>2023-12-23T15:53:38Z</time><extensions><speed>1.138376</speed><course>66.899889</course><hAcc>1.907884</hAcc><vAcc>1.070384</vAcc></extensions></trkpt>
      <trkpt lon="-82.146665" lat="33.556428"><ele>87.375891</ele><time>2023-12-23T15:53:39Z</time><extensions><speed>1.191301</speed><course>66.588809</course><hAcc>1.897576</hAcc><vAcc>1.067965</vAcc></extensions></trkpt>
      <trkpt lon="-82.146654" lat="33.556432"><ele>87.325735</ele><time>2023-12-23T15:53:40Z</time><extensions><speed>1.086767</speed><course>67.679541</course><hAcc>1.869740</hAcc><vAcc>1.065274</vAcc></extensions></trkpt>
      <trkpt lon="-82.146643" lat="33.556435"><ele>87.283396</ele><time>2023-12-23T15:53:41Z</time><extensions><speed>1.071871</speed><course>71.872468</course><hAcc>1.879613</hAcc><vAcc>1.062363</vAcc></extensions></trkpt>
      <trkpt lon="-82.146631" lat="33.556437"><ele>87.241524</ele><time>2023-12-23T15:53:42Z</time><extensions><speed>1.111357</speed><course>76.355505</course><hAcc>1.918401</hAcc><vAcc>1.059301</vAcc></extensions></trkpt>
      <trkpt lon="-82.146619" lat="33.556440"><ele>87.200403</ele><time>2023-12-23T15:53:43Z</time><extensions><speed>1.109541</speed><course>72.324390</course><hAcc>1.883320</hAcc><vAcc>1.056152</vAcc></extensions></trkpt>
      <trkpt lon="-82.146607" lat="33.556443"><ele>87.162470</ele><time>2023-12-23T15:53:44Z</time><extensions><speed>1.120546</speed><course>71.789612</course><hAcc>1.887404</hAcc><vAcc>1.052884</vAcc></extensions></trkpt>
      <trkpt lon="-82.146595" lat="33.556446"><ele>87.123027</ele><time>2023-12-23T15:53:45Z</time><extensions><speed>1.175678</speed><course>68.876894</course><hAcc>1.842675</hAcc><vAcc>1.049520</vAcc></extensions></trkpt>
      <trkpt lon="-82.146583" lat="33.556451"><ele>87.078716</ele><time>2023-12-23T15:53:46Z</time><extensions><speed>1.222327</speed><course>65.212564</course><hAcc>1.845937</hAcc><vAcc>1.046118</vAcc></extensions></trkpt>
      <trkpt lon="-82.146571" lat="33.556456"><ele>87.033284</ele><time>2023-12-23T15:53:47Z</time><extensions><speed>1.219987</speed><course>59.581788</course><hAcc>1.890531</hAcc><vAcc>1.042761</vAcc></extensions></trkpt>
      <trkpt lon="-82.146560" lat="33.556462"><ele>86.983609</ele><time>2023-12-23T15:53:48Z</time><extensions><speed>1.263702</speed><course>55.717987</course><hAcc>1.843941</hAcc><vAcc>1.039508</vAcc></extensions></trkpt>
      <trkpt lon="-82.146549" lat="33.556469"><ele>86.930493</ele><time>2023-12-23T15:53:49Z</time><extensions><speed>1.238421</speed><course>53.103459</course><hAcc>1.863456</hAcc><vAcc>1.036393</vAcc></extensions></trkpt>
      <trkpt lon="-82.146537" lat="33.556475"><ele>86.877311</ele><time>2023-12-23T15:53:50Z</time><extensions><speed>1.307423</speed><course>58.200934</course><hAcc>1.820447</hAcc><vAcc>1.033419</vAcc></extensions></trkpt>
      <trkpt lon="-82.146525" lat="33.556481"><ele>86.819501</ele><time>2023-12-23T15:53:51Z</time><extensions><speed>1.323006</speed><course>61.230051</course><hAcc>1.833059</hAcc><vAcc>1.030573</vAcc></extensions></trkpt>
      <trkpt lon="-82.146513" lat="33.556487"><ele>86.758448</ele><time>2023-12-23T15:53:52Z</time><extensions><speed>1.283955</speed><course>62.123302</course><hAcc>1.890337</hAcc><vAcc>1.027866</vAcc></extensions></trkpt>
      <trkpt lon="-82.146500" lat="33.556492"><ele>86.691801</ele><time>2023-12-23T15:53:53Z</time><extensions><speed>1.339539</speed><course>65.019837</course><hAcc>1.852275</hAcc><vAcc>1.025301</vAcc></extensions></trkpt>
      <trkpt lon="-82.146487" lat="33.556497"><ele>86.620705</ele><time>2023-12-23T15:53:54Z</time><extensions><speed>1.344602</speed><course>67.631297</course><hAcc>1.885025</hAcc><vAcc>1.022906</vAcc></extensions></trkpt>
      <trkpt lon="-82.146474" lat="33.556501"><ele>86.545543</ele><time>2023-12-23T15:53:55Z</time><extensions><speed>1.338016</speed><course>68.910069</course><hAcc>1.945494</hAcc><vAcc>1.020667</vAcc></extensions></trkpt>
      <trkpt lon="-82.146461" lat="33.556505"><ele>86.467879</ele><time>2023-12-23T15:53:56Z</time><extensions><speed>1.369072</speed><course>66.518870</course><hAcc>1.932344</hAcc><vAcc>1.018584</vAcc></extensions></trkpt>
      <trkpt lon="-82.146447" lat="33.556510"><ele>86.392432</ele><time>2023-12-23T15:53:57Z</time><extensions><speed>1.366077</speed><course>66.154078</course><hAcc>1.967230</hAcc><vAcc>1.016653</vAcc></extensions></trkpt>
      <trkpt lon="-82.146434" lat="33.556515"><ele>86.315471</ele><time>2023-12-23T15:53:58Z</time><extensions><speed>1.348600</speed><course>64.925637</course><hAcc>1.957612</hAcc><vAcc>1.014837</vAcc></extensions></trkpt>
      <trkpt lon="-82.146421" lat="33.556520"><ele>86.240218</ele><time>2023-12-23T15:53:59Z</time><extensions><speed>1.333822</speed><course>63.184885</course><hAcc>2.002366</hAcc><vAcc>1.013117</vAcc></extensions></trkpt>
      <trkpt lon="-82.146408" lat="33.556525"><ele>86.165068</ele><time>2023-12-23T15:54:00Z</time><extensions><speed>1.343829</speed><course>63.951656</course><hAcc>2.068809</hAcc><vAcc>1.011436</vAcc></extensions></trkpt>
      <trkpt lon="-82.146395" lat="33.556530"><ele>86.090269</ele><time>2023-12-23T15:54:01Z</time><extensions><speed>1.299767</speed><course>61.390306</course><hAcc>2.087790</hAcc><vAcc>1.009747</vAcc></extensions></trkpt>
      <trkpt lon="-82.146383" lat="33.556536"><ele>86.017646</ele><time>2023-12-23T15:54:02Z</time><extensions><speed>1.294493</speed><course>59.896402</course><hAcc>2.137926</hAcc><vAcc>1.008026</vAcc></extensions></trkpt>
      <trkpt lon="-82.146372" lat="33.556541"><ele>85.948744</ele><time>2023-12-23T15:54:03Z</time><extensions><speed>1.249090</speed><course>60.116075</course><hAcc>2.127894</hAcc><vAcc>1.006223</vAcc></extensions></trkpt>
      <trkpt lon="-82.146361" lat="33.556547"><ele>85.882213</ele><time>2023-12-23T15:54:04Z</time><extensions><speed>1.227397</speed><course>59.268024</course><hAcc>2.180821</hAcc><vAcc>1.004317</vAcc></extensions></trkpt>
      <trkpt lon="-82.146350" lat="33.556553"><ele>85.818906</ele><time>2023-12-23T15:54:05Z</time><extensions><speed>1.242187</speed><course>57.160901</course><hAcc>2.248792</hAcc><vAcc>1.002286</vAcc></extensions></trkpt>
      <trkpt lon="-82.146339" lat="33.556558"><ele>85.757913</ele><time>2023-12-23T15:54:06Z</time><extensions><speed>1.215673</speed><course>58.862749</course><hAcc>2.229268</hAcc><vAcc>1.000142</vAcc></extensions></trkpt>
      <trkpt lon="-82.146327" lat="33.556564"><ele>85.703339</ele><time>2023-12-23T15:54:07Z</time><extensions><speed>1.296292</speed><course>59.471871</course><hAcc>2.262967</hAcc><vAcc>0.997882</vAcc></extensions></trkpt>
      <trkpt lon="-82.146315" lat="33.556570"><ele>85.652646</ele><time>2023-12-23T15:54:08Z</time><extensions><speed>1.271071</speed><course>62.702673</course><hAcc>2.228639</hAcc><vAcc>0.995527</vAcc></extensions></trkpt>
      <trkpt lon="-82.146303" lat="33.556575"><ele>85.607252</ele><time>2023-12-23T15:54:09Z</time><extensions><speed>1.266368</speed><course>66.015865</course><hAcc>2.257606</hAcc><vAcc>0.993119</vAcc></extensions></trkpt>
      <trkpt lon="-82.146290" lat="33.556579"><ele>85.567280</ele><time>2023-12-23T15:54:10Z</time><extensions><speed>1.298807</speed><course>67.068437</course><hAcc>2.308009</hAcc><vAcc>0.990716</vAcc></extensions></trkpt>
      <trkpt lon="-82.146277" lat="33.556584"><ele>85.526238</ele><time>2023-12-23T15:54:11Z</time><extensions><speed>1.292463</speed><course>66.224305</course><hAcc>2.317138</hAcc><vAcc>0.988363</vAcc></extensions></trkpt>
      <trkpt lon="-82.146265" lat="33.556589"><ele>85.485974</ele><time>2023-12-23T15:54:12Z</time><extensions><speed>1.302229</speed><course>62.540259</course><hAcc>2.365184</hAcc><vAcc>0.986099</vAcc></extensions></trkpt>
      <trkpt lon="-82.146253" lat="33.556595"><ele>85.446333</ele><time>2023-12-23T15:54:13Z</time><extensions><speed>1.331726</speed><course>60.329320</course><hAcc>2.413511</hAcc><vAcc>0.983954</vAcc></extensions></trkpt>
      <trkpt lon="-82.146241" lat="33.556602"><ele>85.406062</ele><time>2023-12-23T15:54:14Z</time><extensions><speed>1.307573</speed><course>59.705674</course><hAcc>2.381154</hAcc><vAcc>0.981963</vAcc></extensions></trkpt>
      <trkpt lon="-82.146229" lat="33.556608"><ele>85.365291</ele><time>2023-12-23T15:54:15Z</time><extensions><speed>1.313130</speed><course>58.802971</course><hAcc>2.391664</hAcc><vAcc>0.980147</vAcc></extensions></trkpt>
      <trkpt lon="-82.146219" lat="33.556615"><ele>85.325663</ele><time>2023-12-23T15:54:16Z</time><extensions><speed>1.293837</speed><course>57.122671</course><hAcc>2.314035</hAcc><vAcc>0.978529</vAcc></extensions></trkpt>
      <trkpt lon="-82.146208" lat="33.556621"><ele>85.287120</ele><time>2023-12-23T15:54:17Z</time><extensions><speed>1.289420</speed><course>59.634052</course><hAcc>2.296229</hAcc><vAcc>0.977087</vAcc></extensions></trkpt>
      <trkpt lon="-82.146197" lat="33.556627"><ele>85.249279</ele><time>2023-12-23T15:54:18Z</time><extensions><speed>1.319718</speed><course>61.756776</course><hAcc>2.300920</hAcc><vAcc>0.975801</vAcc></extensions></trkpt>
      <trkpt lon="-82.146186" lat="33.556633"><ele>85.207550</ele><time>2023-12-23T15:54:19Z</time><extensions><speed>1.377321</speed><course>59.894771</course><hAcc>2.243625</hAcc><vAcc>0.974660</vAcc></extensions></trkpt>
      <trkpt lon="-82.146173" lat="33.556639"><ele>85.162678</ele><time>2023-12-23T15:54:20Z</time><extensions><speed>1.435575</speed><course>60.981771</course><hAcc>2.226435</hAcc><vAcc>0.973664</vAcc></extensions></trkpt>
      <trkpt lon="-82.146161" lat="33.556646"><ele>85.117490</ele><time>2023-12-23T15:54:21Z</time><extensions><speed>1.348565</speed><course>58.835232</course><hAcc>2.173781</hAcc><vAcc>0.972779</vAcc></extensions></trkpt>
      <trkpt lon="-82.146150" lat="33.556652"><ele>85.067586</ele><time>2023-12-23T15:54:22Z</time><extensions><speed>1.329536</speed><course>57.254111</course><hAcc>2.158258</hAcc><vAcc>0.972079</vAcc></extensions></trkpt>
      <trkpt lon="-82.146138" lat="33.556659"><ele>85.016483</ele><time>2023-12-23T15:54:23Z</time><extensions><speed>1.382883</speed><course>59.346284</course><hAcc>2.169917</hAcc><vAcc>0.971622</vAcc></extensions></trkpt>
      <trkpt lon="-82.146125" lat="33.556665"><ele>84.961599</ele><time>2023-12-23T15:54:24Z</time><extensions><speed>1.305321</speed><course>56.404172</course><hAcc>2.118728</hAcc><vAcc>0.971515</vAcc></extensions></trkpt>
      <trkpt lon="-82.146114" lat="33.556672"><ele>84.901611</ele><time>2023-12-23T15:54:25Z</time><extensions><speed>1.287252</speed><course>52.796059</course><hAcc>2.093469</hAcc><vAcc>0.971813</vAcc></extensions></trkpt>
      <trkpt lon="-82.146103" lat="33.556680"><ele>84.837910</ele><time>2023-12-23T15:54:26Z</time><extensions><speed>1.345200</speed><course>48.976083</course><hAcc>2.109642</hAcc><vAcc>0.972531</vAcc></extensions></trkpt>
      <trkpt lon="-82.146093" lat="33.556687"><ele>84.775987</ele><time>2023-12-23T15:54:27Z</time><extensions><speed>1.271065</speed><course>49.913036</course><hAcc>2.079604</hAcc><vAcc>0.973688</vAcc></extensions></trkpt>
      <trkpt lon="-82.146082" lat="33.556695"><ele>84.709355</ele><time>2023-12-23T15:54:28Z</time><extensions><speed>1.302927</speed><course>53.310714</course><hAcc>2.090386</hAcc><vAcc>0.975367</vAcc></extensions></trkpt>
      <trkpt lon="-82.146072" lat="33.556702"><ele>84.638334</ele><time>2023-12-23T15:54:29Z</time><extensions><speed>1.246222</speed><course>53.818633</course><hAcc>2.063066</hAcc><vAcc>0.977590</vAcc></extensions></trkpt>
      <trkpt lon="-82.146061" lat="33.556708"><ele>84.565089</ele><time>2023-12-23T15:54:30Z</time><extensions><speed>1.221008</speed><course>55.954070</course><hAcc>2.069967</hAcc><vAcc>0.980379</vAcc></extensions></trkpt>
      <trkpt lon="-82.146051" lat="33.556714"><ele>84.491745</ele><time>2023-12-23T15:54:31Z</time><extensions><speed>1.247895</speed><course>61.948806</course><hAcc>2.109147</hAcc><vAcc>0.983786</vAcc></extensions></trkpt>
      <trkpt lon="-82.146039" lat="33.556718"><ele>84.417910</ele><time>2023-12-23T15:54:32Z</time><extensions><speed>1.207694</speed><course>74.525758</course><hAcc>2.137993</hAcc><vAcc>0.987788</vAcc></extensions></trkpt>
      <trkpt lon="-82.146026" lat="33.556719"><ele>84.345416</ele><time>2023-12-23T15:54:33Z</time><extensions><speed>1.271718</speed><course>85.414926</course><hAcc>2.194286</hAcc><vAcc>0.992320</vAcc></extensions></trkpt>
      <trkpt lon="-82.146014" lat="33.556720"><ele>84.275174</ele><time>2023-12-23T15:54:34Z</time><extensions><speed>1.233428</speed><course>83.142410</course><hAcc>2.167390</hAcc><vAcc>0.997259</vAcc></extensions></trkpt>
      <trkpt lon="-82.146001" lat="33.556722"><ele>84.207066</ele><time>2023-12-23T15:54:35Z</time><extensions><speed>1.238912</speed><course>82.172242</course><hAcc>2.224479</hAcc><vAcc>1.002457</vAcc></extensions></trkpt>
      <trkpt lon="-82.145988" lat="33.556723"><ele>84.141312</ele><time>2023-12-23T15:54:36Z</time><extensions><speed>1.329736</speed><course>82.184770</course><hAcc>2.302717</hAcc><vAcc>1.007763</vAcc></extensions></trkpt>
      <trkpt lon="-82.145975" lat="33.556724"><ele>84.077094</ele><time>2023-12-23T15:54:37Z</time><extensions><speed>1.225960</speed><course>82.454390</course><hAcc>2.284190</hAcc><vAcc>1.013006</vAcc></extensions></trkpt>
      <trkpt lon="-82.145963" lat="33.556725"><ele>84.015869</ele><time>2023-12-23T15:54:38Z</time><extensions><speed>1.191719</speed><course>84.434048</course><hAcc>2.324918</hAcc><vAcc>1.018027</vAcc></extensions></trkpt>
      <trkpt lon="-82.145951" lat="33.556726"><ele>83.957250</ele><time>2023-12-23T15:54:39Z</time><extensions><speed>1.089496</speed><course>88.093568</course><hAcc>2.362897</hAcc><vAcc>1.022673</vAcc></extensions></trkpt>
      <trkpt lon="-82.145940" lat="33.556726"><ele>83.901531</ele><time>2023-12-23T15:54:40Z</time><extensions><speed>1.076688</speed><course>95.764690</course><hAcc>2.441141</hAcc><vAcc>1.026801</vAcc></extensions></trkpt>
      <trkpt lon="-82.145928" lat="33.556723"><ele>83.849131</ele><time>2023-12-23T15:54:41Z</time><extensions><speed>1.185600</speed><course>107.498442</course><hAcc>2.532113</hAcc><vAcc>1.030316</vAcc></extensions></trkpt>
      <trkpt lon="-82.145917" lat="33.556719"><ele>83.800154</ele><time>2023-12-23T15:54:42Z</time><extensions><speed>1.066028</speed><course>120.496343</course><hAcc>2.583403</hAcc><vAcc>1.033188</vAcc></extensions></trkpt>
      <trkpt lon="-82.145908" lat="33.556714"><ele>83.754585</ele><time>2023-12-23T15:54:43Z</time><extensions><speed>1.046940</speed><course>135.303485</course><hAcc>2.663713</hAcc><vAcc>1.035410</vAcc></extensions></trkpt>
      <trkpt lon="-82.145901" lat="33.556706"><ele>83.712309</ele><time>2023-12-23T15:54:44Z</time><extensions><speed>1.077915</speed><course>147.535169</course><hAcc>2.770877</hAcc><vAcc>1.037012</vAcc></extensions></trkpt>
      <trkpt lon="-82.145896" lat="33.556697"><ele>83.673167</ele><time>2023-12-23T15:54:45Z</time><extensions><speed>1.098751</speed><course>153.417706</course><hAcc>2.880117</hAcc><vAcc>1.038053</vAcc></extensions></trkpt>
      <trkpt lon="-82.145890" lat="33.556689"><ele>83.636926</ele><time>2023-12-23T15:54:46Z</time><extensions><speed>1.094658</speed><course>154.360393</course><hAcc>2.999299</hAcc><vAcc>1.038589</vAcc></extensions></trkpt>
      <trkpt lon="-82.145885" lat="33.556680"><ele>83.602797</ele><time>2023-12-23T15:54:47Z</time><extensions><speed>1.085447</speed><course>151.742896</course><hAcc>3.148224</hAcc><vAcc>1.054515</vAcc></extensions></trkpt>
      <trkpt lon="-82.145879" lat="33.556671"><ele>83.570783</ele><time>2023-12-23T15:54:48Z</time><extensions><speed>1.085383</speed><course>148.175088</course><hAcc>3.313064</hAcc><vAcc>1.076451</vAcc></extensions></trkpt>
      <trkpt lon="-82.145873" lat="33.556663"><ele>83.540660</ele><time>2023-12-23T15:54:49Z</time><extensions><speed>1.086290</speed><course>145.510772</course><hAcc>3.484212</hAcc><vAcc>1.106572</vAcc></extensions></trkpt>
      <trkpt lon="-82.145866" lat="33.556655"><ele>83.512201</ele><time>2023-12-23T15:54:50Z</time><extensions><speed>1.092932</speed><course>142.089562</course><hAcc>3.698327</hAcc><vAcc>1.147366</vAcc></extensions></trkpt>
      <trkpt lon="-82.145858" lat="33.556648"><ele>83.485174</ele><time>2023-12-23T15:54:51Z</time><extensions><speed>1.105938</speed><course>138.721454</course><hAcc>3.964828</hAcc><vAcc>1.201512</vAcc></extensions></trkpt>
      <trkpt lon="-82.145850" lat="33.556640"><ele>83.459346</ele><time>2023-12-23T15:54:52Z</time><extensions><speed>1.122216</speed><course>136.221808</course><hAcc>4.273338</hAcc><vAcc>1.271695</vAcc></extensions></trkpt>
      <trkpt lon="-82.145842" lat="33.556633"><ele>83.434484</ele><time>2023-12-23T15:54:53Z</time><extensions><speed>1.133833</speed><course>134.847870</course><hAcc>4.628559</hAcc><vAcc>1.360402</vAcc></extensions></trkpt>
      <trkpt lon="-82.145833" lat="33.556626"><ele>83.410357</ele><time>2023-12-23T15:54:54Z</time><extensions><speed>1.143125</speed><course>133.938770</course><hAcc>5.088652</hAcc><vAcc>1.469733</vAcc></extensions></trkpt>
      <trkpt lon="-82.145824" lat="33.556619"><ele>83.386741</ele><time>2023-12-23T15:54:55Z</time><extensions><speed>1.150017</speed><course>133.338635</course><hAcc>5.727792</hAcc><vAcc>1.601277</vAcc></extensions></trkpt>
      <trkpt lon="-82.145815" lat="33.556612"><ele>83.363423</ele><time>2023-12-23T15:54:56Z</time><extensions><speed>1.153526</speed><course>133.032640</course><hAcc>6.636584</hAcc><vAcc>1.756058</vAcc></extensions></trkpt>
      <trkpt lon="-82.146135" lat="33.556723"><ele>85.324184</ele><time>2023-12-23T15:56:50Z</time><extensions><speed>0.975369</speed><course>89.261384</course><hAcc>10.368316</hAcc><vAcc>3.652907</vAcc></extensions></trkpt>
      <trkpt lon="-82.146124" lat="33.556723"><ele>85.283762</ele><time>2023-12-23T15:56:51Z</time><extensions><speed>1.018437</speed><course>85.958846</course><hAcc>10.209310</hAcc><vAcc>3.477865</vAcc></extensions></trkpt>
      <trkpt lon="-82.146114" lat="33.556723"><ele>85.243082</ele><time>2023-12-23T15:56:52Z</time><extensions><speed>0.931475</speed><course>88.388259</course><hAcc>10.129148</hAcc><vAcc>3.346802</vAcc></extensions></trkpt>
      <trkpt lon="-82.146101" lat="33.556724"><ele>85.202173</ele><time>2023-12-23T15:56:53Z</time><extensions><speed>1.510404</speed><course>90.462229</course><hAcc>10.094151</hAcc><vAcc>3.263200</vAcc></extensions></trkpt>
      <trkpt lon="-82.146083" lat="33.556723"><ele>85.161209</ele><time>2023-12-23T15:56:54Z</time><extensions><speed>1.724490</speed><course>90.996228</course><hAcc>10.088657</hAcc><vAcc>3.230265</vAcc></extensions></trkpt>
      <trkpt lon="-82.146065" lat="33.556723"><ele>85.120377</ele><time>2023-12-23T15:56:55Z</time><extensions><speed>1.738601</speed><course>90.652299</course><hAcc>10.123716</hAcc><vAcc>3.250306</vAcc></extensions></trkpt>
      <trkpt lon="-82.146046" lat="33.556723"><ele>85.079752</ele><time>2023-12-23T15:56:56Z</time><extensions><speed>1.681279</speed><course>90.760849</course><hAcc>10.224851</hAcc><vAcc>3.324262</vAcc></extensions></trkpt>
    </trkseg>
  </trk>
</gpx>