<?xml version="1.0" encoding="UTF-8"?>
<gpx version="1.1" creator="Apple Health Export" xmlns="http://www.topografix.com/GPX/1/1" xmlns:xsi="http://www.w3.org/2001/XMLSchema-instance" xsi:schemaLocation="http://www.topografix.com/GPX/1/1 http://www.topografix.com/GPX/1/1/gpx.xsd">
  <metadata>
    <time>2026-03-14T12:16:26Z</time>
  </metadata>
  <trk>
    <name>Route 2023-12-26 12:25pm</name>
    <trkseg>
      <trkpt lon="-82.146316" lat="33.556778"><ele>84.158320</ele><time>2023-12-26T17:18:26Z</time><extensions><speed>0.515934</speed><course>89.903211</course><hAcc>10.592845</hAcc><vAcc>5.265918</vAcc></extensions></trkpt>
      <trkpt lon="-82.146267" lat="33.556777"><ele>84.145263</ele><time>2023-12-26T17:18:33Z</time><extensions><speed>0.821634</speed><course>93.750965</course><hAcc>10.161707</hAcc><vAcc>3.085748</vAcc></extensions></trkpt>
      <trkpt lon="-82.146257" lat="33.556777"><ele>84.098913</ele><time>2023-12-26T17:18:34Z</time><extensions><speed>0.979107</speed><course>95.823165</course><hAcc>9.976350</hAcc><vAcc>2.804556</vAcc></extensions></trkpt>
      <trkpt lon="-82.146246" lat="33.556777"><ele>84.096722</ele><time>2023-12-26T17:18:35Z</time><extensions><speed>1.097861</speed><course>98.416288</course><hAcc>9.695525</hAcc><vAcc>2.559796</vAcc></extensions></trkpt>
      <trkpt lon="-82.146227" lat="33.556774"><ele>84.106048</ele><time>2023-12-26T17:18:36Z</time><extensions><speed>1.281869</speed><course>104.188651</course><hAcc>9.112090</hAcc><vAcc>2.273914</vAcc></extensions></trkpt>
      <trkpt lon="-82.146212" lat="33.556773"><ele>84.114693</ele><time>2023-12-26T17:18:37Z</time><extensions><speed>1.337426</speed><course>108.637712</course><hAcc>8.568447</hAcc><vAcc>2.092440</vAcc></extensions></trkpt>
      <trkpt lon="-82.146196" lat="33.556769"><ele>84.104310</ele><time>2023-12-26T17:18:38Z</time><extensions><speed>1.377874</speed><course>113.158831</course><hAcc>8.062453</hAcc><vAcc>1.934629</vAcc></extensions></trkpt>
      <trkpt lon="-82.146180" lat="33.556765"><ele>84.086746</ele><time>2023-12-26T17:18:39Z</time><extensions><speed>1.402424</speed><course>118.135225</course><hAcc>7.580981</hAcc><vAcc>1.798101</vAcc></extensions></trkpt>
      <trkpt lon="-82.146164" lat="33.556751"><ele>84.047430</ele><time>2023-12-26T17:18:40Z</time><extensions><speed>1.482090</speed><course>127.203284</course><hAcc>6.909186</hAcc><vAcc>1.680812</vAcc></extensions></trkpt>
      <trkpt lon="-82.146148" lat="33.556744"><ele>83.969991</ele><time>2023-12-26T17:18:41Z</time><extensions><speed>1.523980</speed><course>133.481812</course><hAcc>6.457393</hAcc><vAcc>1.580879</vAcc></extensions></trkpt>
      <trkpt lon="-82.146136" lat="33.556733"><ele>83.885680</ele><time>2023-12-26T17:18:42Z</time><extensions><speed>1.582505</speed><course>141.754696</course><hAcc>6.007690</hAcc><vAcc>1.496542</vAcc></extensions></trkpt>
      <trkpt lon="-82.146126" lat="33.556721"><ele>83.819214</ele><time>2023-12-26T17:18:43Z</time><extensions><speed>1.651882</speed><course>150.386955</course><hAcc>5.561575</hAcc><vAcc>1.426016</vAcc></extensions></trkpt>
      <trkpt lon="-82.146118" lat="33.556706"><ele>83.777252</ele><time>2023-12-26T17:18:44Z</time><extensions><speed>1.737920</speed><course>158.817579</course><hAcc>5.119382</hAcc><vAcc>1.367814</vAcc></extensions></trkpt>
      <trkpt lon="-82.146112" lat="33.556690"><ele>83.746629</ele><time>2023-12-26T17:18:45Z</time><extensions><speed>1.812246</speed><course>165.968279</course><hAcc>4.683535</hAcc><vAcc>1.320134</vAcc></extensions></trkpt>
      <trkpt lon="-82.146106" lat="33.556673"><ele>83.731876</ele><time>2023-12-26T17:18:46Z</time><extensions><speed>1.837429</speed><course>171.916230</course><hAcc>4.261575</hAcc><vAcc>1.281495</vAcc></extensions></trkpt>
      <trkpt lon="-82.146102" lat="33.556657"><ele>83.756060</ele><time>2023-12-26T17:18:47Z</time><extensions><speed>1.774721</speed><course>177.143145</course><hAcc>3.882876</hAcc><vAcc>1.250583</vAcc></extensions></trkpt>
      <trkpt lon="-82.146100" lat="33.556642"><ele>83.781532</ele><time>2023-12-26T17:18:48Z</time><extensions><speed>1.600321</speed><course>182.829193</course><hAcc>3.601458</hAcc><vAcc>1.226014</vAcc></extensions></trkpt>
      <trkpt lon="-82.146098" lat="33.556632"><ele>83.847412</ele><time>2023-12-26T17:18:49Z</time><extensions><speed>1.265702</speed><course>191.261673</course><hAcc>3.393388</hAcc><vAcc>1.206456</vAcc></extensions></trkpt>
      <trkpt lon="-82.146099" lat="33.556625"><ele>83.931566</ele><time>2023-12-26T17:18:50Z</time><extensions><speed>0.871797</speed><course>213.165837</course><hAcc>3.294783</hAcc><vAcc>1.191018</vAcc></extensions></trkpt>
      <trkpt lon="-82.146108" lat="33.556618"><ele>84.032960</ele><time>2023-12-26T17:18:51Z</time><extensions><speed>1.997693</speed><course>231.836894</course><hAcc>3.168733</hAcc><vAcc>1.178805</vAcc></extensions></trkpt>
      <trkpt lon="-82.146127" lat="33.556608"><ele>84.357540</ele><time>2023-12-26T17:18:52Z</time><extensions><speed>2.602822</speed><course>240.927417</course><hAcc>3.067021</hAcc><vAcc>1.163510</vAcc></extensions></trkpt>
      <trkpt lon="-82.146149" lat="33.556596"><ele>84.676166</ele><time>2023-12-26T17:18:53Z</time><extensions><speed>2.709945</speed><course>234.875343</course><hAcc>2.935189</hAcc><vAcc>1.148421</vAcc></extensions></trkpt>
      <trkpt lon="-82.146168" lat="33.556583"><ele>84.983835</ele><time>2023-12-26T17:18:54Z</time><extensions><speed>2.401409</speed><course>230.442683</course><hAcc>2.806378</hAcc><vAcc>1.133487</vAcc></extensions></trkpt>
      <trkpt lon="-82.146185" lat="33.556570"><ele>85.278222</ele><time>2023-12-26T17:18:55Z</time><extensions><speed>2.132747</speed><course>226.356077</course><hAcc>2.709299</hAcc><vAcc>1.118777</vAcc></extensions></trkpt>
      <trkpt lon="-82.146198" lat="33.556558"><ele>85.563100</ele><time>2023-12-26T17:18:56Z</time><extensions><speed>1.808675</speed><course>224.123541</course><hAcc>2.580663</hAcc><vAcc>1.104171</vAcc></extensions></trkpt>
      <trkpt lon="-82.146210" lat="33.556548"><ele>85.843996</ele><time>2023-12-26T17:18:57Z</time><extensions><speed>1.603793</speed><course>227.718002</course><hAcc>2.454589</hAcc><vAcc>1.089726</vAcc></extensions></trkpt>
      <trkpt lon="-82.146219" lat="33.556540"><ele>86.124410</ele><time>2023-12-26T17:18:58Z</time><extensions><speed>0.991025</speed><course>232.822658</course><hAcc>2.378297</hAcc><vAcc>1.075562</vAcc></extensions></trkpt>
      <trkpt lon="-82.146226" lat="33.556536"><ele>86.388933</ele><time>2023-12-26T17:18:59Z</time><extensions><speed>0.775883</speed><course>240.037649</course><hAcc>2.315134</hAcc><vAcc>1.061750</vAcc></extensions></trkpt>
      <trkpt lon="-82.146232" lat="33.556533"><ele>86.644914</ele><time>2023-12-26T17:19:00Z</time><extensions><speed>0.680302</speed><course>240.036181</course><hAcc>2.251945</hAcc><vAcc>1.048341</vAcc></extensions></trkpt>
      <trkpt lon="-82.146237" lat="33.556530"><ele>86.881672</ele><time>2023-12-26T17:19:01Z</time><extensions><speed>0.630818</speed><course>239.234336</course><hAcc>2.191473</hAcc><vAcc>1.035510</vAcc></extensions></trkpt>
      <trkpt lon="-82.146242" lat="33.556527"><ele>87.102773</ele><time>2023-12-26T17:19:02Z</time><extensions><speed>0.599003</speed><course>230.346571</course><hAcc>2.143004</hAcc><vAcc>1.023622</vAcc></extensions></trkpt>
      <trkpt lon="-82.146246" lat="33.556524"><ele>87.301138</ele><time>2023-12-26T17:19:03Z</time><extensions><speed>0.526117</speed><course>225.411714</course><hAcc>2.108969</hAcc><vAcc>1.013114</vAcc></extensions></trkpt>
      <trkpt lon="-82.146250" lat="33.556520"><ele>87.466523</ele><time>2023-12-26T17:19:04Z</time><extensions><speed>0.542622</speed><course>226.310855</course><hAcc>2.095195</hAcc><vAcc>1.004329</vAcc></extensions></trkpt>
      <trkpt lon="-82.146255" lat="33.556516"><ele>87.595110</ele><time>2023-12-26T17:19:05Z</time><extensions><speed>0.539476</speed><course>224.342466</course><hAcc>2.059793</hAcc><vAcc>0.997603</vAcc></extensions></trkpt>
      <trkpt lon="-82.146260" lat="33.556512"><ele>87.683849</ele><time>2023-12-26T17:19:06Z</time><extensions><speed>0.613244</speed><course>222.566241</course><hAcc>2.039206</hAcc><vAcc>0.993041</vAcc></extensions></trkpt>
      <trkpt lon="-82.146266" lat="33.556508"><ele>87.742347</ele><time>2023-12-26T17:19:07Z</time><extensions><speed>0.658152</speed><course>223.243833</course><hAcc>2.030905</hAcc><vAcc>0.990601</vAcc></extensions></trkpt>
      <trkpt lon="-82.146272" lat="33.556504"><ele>87.773978</ele><time>2023-12-26T17:19:08Z</time><extensions><speed>0.697532</speed><course>229.024867</course><hAcc>2.032654</hAcc><vAcc>0.990126</vAcc></extensions></trkpt>
      <trkpt lon="-82.146278" lat="33.556500"><ele>87.776727</ele><time>2023-12-26T17:19:09Z</time><extensions><speed>0.727995</speed><course>231.844233</course><hAcc>2.031272</hAcc><vAcc>0.991342</vAcc></extensions></trkpt>
      <trkpt lon="-82.146286" lat="33.556496"><ele>87.759825</ele><time>2023-12-26T17:19:10Z</time><extensions><speed>0.730592</speed><course>234.285516</course><hAcc>2.021505</hAcc><vAcc>0.993826</vAcc></extensions></trkpt>
      <trkpt lon="-82.146293" lat="33.556491"><ele>87.723599</ele><time>2023-12-26T17:19:11Z</time><extensions><speed>0.787850</speed><course>237.229086</course><hAcc>2.011097</hAcc><vAcc>0.997197</vAcc></extensions></trkpt>
      <trkpt lon="-82.146302" lat="33.556487"><ele>87.669237</ele><time>2023-12-26T17:19:12Z</time><extensions><speed>0.854473</speed><course>238.647493</course><hAcc>2.005732</hAcc><vAcc>1.001016</vAcc></extensions></trkpt>
      <trkpt lon="-82.146311" lat="33.556483"><ele>87.598713</ele><time>2023-12-26T17:19:13Z</time><extensions><speed>0.955857</speed><course>239.872749</course><hAcc>2.000466</hAcc><vAcc>1.004951</vAcc></extensions></trkpt>
      <trkpt lon="-82.146321" lat="33.556479"><ele>87.520440</ele><time>2023-12-26T17:19:14Z</time><extensions><speed>1.079982</speed><course>242.218447</course><hAcc>2.001920</hAcc><vAcc>1.008842</vAcc></extensions></trkpt>
      <trkpt lon="-82.146334" lat="33.556474"><ele>87.431919</ele><time>2023-12-26T17:19:15Z</time><extensions><speed>1.429259</speed><course>242.410131</course><hAcc>2.003196</hAcc><vAcc>1.012523</vAcc></extensions></trkpt>
      <trkpt lon="-82.146349" lat="33.556468"><ele>87.339090</ele><time>2023-12-26T17:19:16Z</time><extensions><speed>1.585861</speed><course>242.631597</course><hAcc>2.011108</hAcc><vAcc>1.015867</vAcc></extensions></trkpt>
      <trkpt lon="-82.146364" lat="33.556463"><ele>87.246281</ele><time>2023-12-26T17:19:17Z</time><extensions><speed>1.546127</speed><course>244.509683</course><hAcc>1.984198</hAcc><vAcc>1.018906</vAcc></extensions></trkpt>
      <trkpt lon="-82.146379" lat="33.556457"><ele>87.157560</ele><time>2023-12-26T17:19:18Z</time><extensions><speed>1.545825</speed><course>245.586267</course><hAcc>1.961149</hAcc><vAcc>1.021641</vAcc></extensions></trkpt>
      <trkpt lon="-82.146394" lat="33.556452"><ele>87.071065</ele><time>2023-12-26T17:19:19Z</time><extensions><speed>1.556177</speed><course>247.932602</course><hAcc>1.944751</hAcc><vAcc>1.024087</vAcc></extensions></trkpt>
      <trkpt lon="-82.146410" lat="33.556447"><ele>86.988789</ele><time>2023-12-26T17:19:20Z</time><extensions><speed>1.561813</speed><course>247.765971</course><hAcc>1.964886</hAcc><vAcc>1.026358</vAcc></extensions></trkpt>
      <trkpt lon="-82.146425" lat="33.556442"><ele>86.908058</ele><time>2023-12-26T17:19:21Z</time><extensions><speed>1.618580</speed><course>243.483022</course><hAcc>1.967785</hAcc><vAcc>1.028436</vAcc></extensions></trkpt>
      <trkpt lon="-82.146441" lat="33.556436"><ele>86.827076</ele><time>2023-12-26T17:19:22Z</time><extensions><speed>1.590888</speed><course>244.219106</course><hAcc>1.968536</hAcc><vAcc>1.030309</vAcc></extensions></trkpt>
      <trkpt lon="-82.146456" lat="33.556431"><ele>86.755774</ele><time>2023-12-26T17:19:23Z</time><extensions><speed>1.558707</speed><course>246.401027</course><hAcc>1.968183</hAcc><vAcc>1.032022</vAcc></extensions></trkpt>
      <trkpt lon="-82.146471" lat="33.556426"><ele>86.690567</ele><time>2023-12-26T17:19:24Z</time><extensions><speed>1.484917</speed><course>245.940561</course><hAcc>1.971402</hAcc><vAcc>1.033621</vAcc></extensions></trkpt>
      <trkpt lon="-82.146486" lat="33.556422"><ele>86.628961</ele><time>2023-12-26T17:19:25Z</time><extensions><speed>1.406630</speed><course>254.498323</course><hAcc>1.956565</hAcc><vAcc>1.035066</vAcc></extensions></trkpt>
      <trkpt lon="-82.146500" lat="33.556419"><ele>86.575645</ele><time>2023-12-26T17:19:26Z</time><extensions><speed>1.362146</speed><course>258.693560</course><hAcc>1.965801</hAcc><vAcc>1.036311</vAcc></extensions></trkpt>
      <trkpt lon="-82.146514" lat="33.556417"><ele>86.524700</ele><time>2023-12-26T17:19:27Z</time><extensions><speed>1.287821</speed><course>260.937773</course><hAcc>1.984760</hAcc><vAcc>1.037335</vAcc></extensions></trkpt>
      <trkpt lon="-82.146526" lat="33.556415"><ele>86.484226</ele><time>2023-12-26T17:19:28Z</time><extensions><speed>1.145383</speed><course>259.053340</course><hAcc>2.006972</hAcc><vAcc>1.038156</vAcc></extensions></trkpt>
      <trkpt lon="-82.146537" lat="33.556412"><ele>86.450049</ele><time>2023-12-26T17:19:29Z</time><extensions><speed>0.982751</speed><course>252.407155</course><hAcc>2.023789</hAcc><vAcc>1.038794</vAcc></extensions></trkpt>
      <trkpt lon="-82.146545" lat="33.556409"><ele>86.425693</ele><time>2023-12-26T17:19:30Z</time><extensions><speed>0.729967</speed><course>252.907664</course><hAcc>2.038431</hAcc><vAcc>1.039337</vAcc></extensions></trkpt>
      <trkpt lon="-82.146552" lat="33.556407"><ele>86.406730</ele><time>2023-12-26T17:19:31Z</time><extensions><speed>0.644371</speed><course>249.796015</course><hAcc>2.057923</hAcc><vAcc>1.039789</vAcc></extensions></trkpt>
      <trkpt lon="-82.146558" lat="33.556404"><ele>86.392261</ele><time>2023-12-26T17:19:32Z</time><extensions><speed>0.607528</speed><course>248.995107</course><hAcc>2.068120</hAcc><vAcc>1.040191</vAcc></extensions></trkpt>
      <trkpt lon="-82.146564" lat="33.556402"><ele>86.426446</ele><time>2023-12-26T17:19:33Z</time><extensions><speed>0.573896</speed><course>245.222134</course><hAcc>2.073730</hAcc><vAcc>1.036190</vAcc></extensions></trkpt>
      <trkpt lon="-82.146568" lat="33.556399"><ele>86.469424</ele><time>2023-12-26T17:19:34Z</time><extensions><speed>0.471898</speed><course>236.830553</course><hAcc>2.066567</hAcc><vAcc>1.030770</vAcc></extensions></trkpt>
      <trkpt lon="-82.146571" lat="33.556397"><ele>86.519960</ele><time>2023-12-26T17:19:35Z</time><extensions><speed>0.347411</speed><course>221.840769</course><hAcc>2.080643</hAcc><vAcc>1.024079</vAcc></extensions></trkpt>
      <trkpt lon="-82.146573" lat="33.556394"><ele>86.575286</ele><time>2023-12-26T17:19:36Z</time><extensions><speed>0.418397</speed><course>216.316575</course><hAcc>2.108821</hAcc><vAcc>1.016175</vAcc></extensions></trkpt>
      <trkpt lon="-82.146575" lat="33.556390"><ele>86.636180</ele><time>2023-12-26T17:19:37Z</time><extensions><speed>0.437770</speed><course>214.514366</course><hAcc>2.112412</hAcc><vAcc>1.007108</vAcc></extensions></trkpt>
      <trkpt lon="-82.146578" lat="33.556387"><ele>86.702737</ele><time>2023-12-26T17:19:38Z</time><extensions><speed>0.453295</speed><course>206.546102</course><hAcc>2.089741</hAcc><vAcc>0.996923</vAcc></extensions></trkpt>
      <trkpt lon="-82.146580" lat="33.556382"><ele>86.771643</ele><time>2023-12-26T17:19:39Z</time><extensions><speed>0.453317</speed><course>201.657808</course><hAcc>2.080553</hAcc><vAcc>0.985714</vAcc></extensions></trkpt>
      <trkpt lon="-82.146582" lat="33.556378"><ele>86.843309</ele><time>2023-12-26T17:19:40Z</time><extensions><speed>0.467304</speed><course>201.430674</course><hAcc>2.085896</hAcc><vAcc>0.973607</vAcc></extensions></trkpt>
      <trkpt lon="-82.146584" lat="33.556374"><ele>86.916043</ele><time>2023-12-26T17:19:41Z</time><extensions><speed>0.442315</speed><course>209.370078</course><hAcc>2.117375</hAcc><vAcc>0.960777</vAcc></extensions></trkpt>
      <trkpt lon="-82.146588" lat="33.556370"><ele>86.988136</ele><time>2023-12-26T17:19:42Z</time><extensions><speed>0.423899</speed><course>213.644540</course><hAcc>2.137777</hAcc><vAcc>0.947484</vAcc></extensions></trkpt>
      <trkpt lon="-82.146591" lat="33.556366"><ele>87.060229</ele><time>2023-12-26T17:19:43Z</time><extensions><speed>0.395479</speed><course>211.933735</course><hAcc>2.138568</hAcc><vAcc>0.934130</vAcc></extensions></trkpt>
      <trkpt lon="-82.146594" lat="33.556363"><ele>87.128085</ele><time>2023-12-26T17:19:44Z</time><extensions><speed>0.329211</speed><course>205.505724</course><hAcc>2.128206</hAcc><vAcc>0.921217</vAcc></extensions></trkpt>
      <trkpt lon="-82.146596" lat="33.556360"><ele>87.189834</ele><time>2023-12-26T17:19:45Z</time><extensions><speed>0.348354</speed><course>206.021798</course><hAcc>2.120563</hAcc><vAcc>0.909296</vAcc></extensions></trkpt>
      <trkpt lon="-82.146599" lat="33.556356"><ele>87.244303</ele><time>2023-12-26T17:19:46Z</time><extensions><speed>0.464438</speed><course>213.238986</course><hAcc>2.119109</hAcc><vAcc>0.898861</vAcc></extensions></trkpt>
      <trkpt lon="-82.146604" lat="33.556352"><ele>87.292960</ele><time>2023-12-26T17:19:47Z</time><extensions><speed>0.582177</speed><course>218.898839</course><hAcc>2.118950</hAcc><vAcc>0.890368</vAcc></extensions></trkpt>
      <trkpt lon="-82.146609" lat="33.556347"><ele>87.335415</ele><time>2023-12-26T17:19:48Z</time><extensions><speed>0.696726</speed><course>223.490236</course><hAcc>2.124321</hAcc><vAcc>0.884184</vAcc></extensions></trkpt>
      <trkpt lon="-82.146616" lat="33.556342"><ele>87.371220</ele><time>2023-12-26T17:19:49Z</time><extensions><speed>0.805553</speed><course>226.905827</course><hAcc>2.132197</hAcc><vAcc>0.880543</vAcc></extensions></trkpt>
      <trkpt lon="-82.146626" lat="33.556336"><ele>87.394156</ele><time>2023-12-26T17:19:50Z</time><extensions><speed>1.002231</speed><course>230.038396</course><hAcc>2.130173</hAcc><vAcc>0.879519</vAcc></extensions></trkpt>
      <trkpt lon="-82.146638" lat="33.556329"><ele>87.411996</ele><time>2023-12-26T17:19:51Z</time><extensions><speed>1.393460</speed><course>233.061757</course><hAcc>2.114967</hAcc><vAcc>0.881043</vAcc></extensions></trkpt>
      <trkpt lon="-82.146653" lat="33.556321"><ele>87.430678</ele><time>2023-12-26T17:19:52Z</time><extensions><speed>1.556965</speed><course>237.874838</course><hAcc>2.100838</hAcc><vAcc>0.884980</vAcc></extensions></trkpt>
      <trkpt lon="-82.146670" lat="33.556314"><ele>87.447591</ele><time>2023-12-26T17:19:53Z</time><extensions><speed>1.637042</speed><course>240.171478</course><hAcc>2.095828</hAcc><vAcc>0.891037</vAcc></extensions></trkpt>
      <trkpt lon="-82.146688" lat="33.556307"><ele>87.461401</ele><time>2023-12-26T17:19:54Z</time><extensions><speed>1.793123</speed><course>243.073398</course><hAcc>2.084103</hAcc><vAcc>0.898832</vAcc></extensions></trkpt>
      <trkpt lon="-82.146708" lat="33.556299"><ele>87.476556</ele><time>2023-12-26T17:19:55Z</time><extensions><speed>1.895440</speed><course>245.585181</course><hAcc>2.077997</hAcc><vAcc>0.907865</vAcc></extensions></trkpt>
      <trkpt lon="-82.146727" lat="33.556293"><ele>87.493173</ele><time>2023-12-26T17:19:56Z</time><extensions><speed>1.939351</speed><course>247.776740</course><hAcc>2.084505</hAcc><vAcc>0.917683</vAcc></extensions></trkpt>
      <trkpt lon="-82.146747" lat="33.556287"><ele>87.511130</ele><time>2023-12-26T17:19:57Z</time><extensions><speed>1.937495</speed><course>250.822927</course><hAcc>2.056187</hAcc><vAcc>0.927887</vAcc></extensions></trkpt>
      <trkpt lon="-82.146768" lat="33.556281"><ele>87.539802</ele><time>2023-12-26T17:19:58Z</time><extensions><speed>1.920194</speed><course>250.863635</course><hAcc>2.066870</hAcc><vAcc>0.935808</vAcc></extensions></trkpt>
      <trkpt lon="-82.146787" lat="33.556276"><ele>87.570974</ele><time>2023-12-26T17:19:59Z</time><extensions><speed>1.779627</speed><course>251.292167</course><hAcc>2.083611</hAcc><vAcc>0.942194</vAcc></extensions></trkpt>
      <trkpt lon="-82.146803" lat="33.556272"><ele>87.606949</ele><time>2023-12-26T17:20:00Z</time><extensions><speed>1.331768</speed><course>253.182363</course><hAcc>2.099530</hAcc><vAcc>0.946892</vAcc></extensions></trkpt>
      <trkpt lon="-82.146819" lat="33.556268"><ele>87.645308</ele><time>2023-12-26T17:20:01Z</time><extensions><speed>1.668861</speed><course>253.503054</course><hAcc>2.096984</hAcc><vAcc>0.949744</vAcc></extensions></trkpt>
      <trkpt lon="-82.146836" lat="33.556265"><ele>87.684308</ele><time>2023-12-26T17:20:02Z</time><extensions><speed>1.657113</speed><course>258.399905</course><hAcc>2.101897</hAcc><vAcc>0.950686</vAcc></extensions></trkpt>
      <trkpt lon="-82.146855" lat="33.556262"><ele>87.723148</ele><time>2023-12-26T17:20:03Z</time><extensions><speed>1.727056</speed><course>257.341465</course><hAcc>2.121730</hAcc><vAcc>0.949814</vAcc></extensions></trkpt>
      <trkpt lon="-82.146874" lat="33.556260"><ele>87.762030</ele><time>2023-12-26T17:20:04Z</time><extensions><speed>1.691072</speed><course>259.316428</course><hAcc>2.124421</hAcc><vAcc>0.947243</vAcc></extensions></trkpt>
      <trkpt lon="-82.146892" lat="33.556259"><ele>87.801541</ele><time>2023-12-26T17:20:05Z</time><extensions><speed>1.541749</speed><course>264.852639</course><hAcc>2.113219</hAcc><vAcc>0.943058</vAcc></extensions></trkpt>
      <trkpt lon="-82.146908" lat="33.556259"><ele>87.843304</ele><time>2023-12-26T17:20:06Z</time><extensions><speed>1.355360</speed><course>269.268578</course><hAcc>2.118216</hAcc><vAcc>0.937404</vAcc></extensions></trkpt>
      <trkpt lon="-82.146922" lat="33.556261"><ele>87.887525</ele><time>2023-12-26T17:20:07Z</time><extensions><speed>1.061610</speed><course>274.554422</course><hAcc>2.136742</hAcc><vAcc>0.930475</vAcc></extensions></trkpt>
      <trkpt lon="-82.146931" lat="33.556263"><ele>87.931706</ele><time>2023-12-26T17:20:08Z</time><extensions><speed>0.566748</speed><course>283.665045</course><hAcc>2.170776</hAcc><vAcc>0.922585</vAcc></extensions></trkpt>
      <trkpt lon="-82.146937" lat="33.556266"><ele>87.973576</ele><time>2023-12-26T17:20:09Z</time><extensions><speed>0.399542</speed><course>296.604790</course><hAcc>2.175397</hAcc><vAcc>0.914221</vAcc></extensions></trkpt>
      <trkpt lon="-82.146942" lat="33.556269"><ele>88.013021</ele><time>2023-12-26T17:20:10Z</time><extensions><speed>0.415364</speed><course>308.194765</course><hAcc>2.164271</hAcc><vAcc>0.905883</vAcc></extensions></trkpt>
      <trkpt lon="-82.146946" lat="33.556272"><ele>88.051151</ele><time>2023-12-26T17:20:11Z</time><extensions><speed>0.395209</speed><course>312.294059</course><hAcc>2.177256</hAcc><vAcc>0.898069</vAcc></extensions></trkpt>
      <trkpt lon="-82.146950" lat="33.556276"><ele>88.090510</ele><time>2023-12-26T17:20:12Z</time><extensions><speed>0.467513</speed><course>310.959646</course><hAcc>2.182023</hAcc><vAcc>0.890013</vAcc></extensions></trkpt>
      <trkpt lon="-82.146957" lat="33.556281"><ele>88.127570</ele><time>2023-12-26T17:20:13Z</time><extensions><speed>0.987894</speed><course>309.589729</course><hAcc>2.142630</hAcc><vAcc>0.882526</vAcc></extensions></trkpt>
      <trkpt lon="-82.146967" lat="33.556288"><ele>88.162180</ele><time>2023-12-26T17:20:14Z</time><extensions><speed>1.328460</speed><course>309.820324</course><hAcc>2.120678</hAcc><vAcc>0.875742</vAcc></extensions></trkpt>
      <trkpt lon="-82.146979" lat="33.556297"><ele>88.195392</ele><time>2023-12-26T17:20:15Z</time><extensions><speed>1.616565</speed><course>308.995480</course><hAcc>2.120241</hAcc><vAcc>0.869673</vAcc></extensions></trkpt>
      <trkpt lon="-82.146992" lat="33.556307"><ele>88.226799</ele><time>2023-12-26T17:20:16Z</time><extensions><speed>1.471655</speed><course>308.431326</course><hAcc>2.146262</hAcc><vAcc>0.864041</vAcc></extensions></trkpt>
      <trkpt lon="-82.147002" lat="33.556314"><ele>88.255470</ele><time>2023-12-26T17:20:17Z</time><extensions><speed>0.911529</speed><course>315.030054</course><hAcc>2.162246</hAcc><vAcc>0.858673</vAcc></extensions></trkpt>
      <trkpt lon="-82.147008" lat="33.556320"><ele>88.281820</ele><time>2023-12-26T17:20:18Z</time><extensions><speed>0.637369</speed><course>319.271934</course><hAcc>2.165456</hAcc><vAcc>0.853315</vAcc></extensions></trkpt>
      <trkpt lon="-82.147013" lat="33.556325"><ele>88.306692</ele><time>2023-12-26T17:20:19Z</time><extensions><speed>0.617854</speed><course>321.065862</course><hAcc>2.151659</hAcc><vAcc>0.847689</vAcc></extensions></trkpt>
      <trkpt lon="-82.147017" lat="33.556329"><ele>88.330176</ele><time>2023-12-26T17:20:20Z</time><extensions><speed>0.528704</speed><course>322.608169</course><hAcc>2.146250</hAcc><vAcc>0.841722</vAcc></extensions></trkpt>
      <trkpt lon="-82.147020" lat="33.556333"><ele>88.352226</ele><time>2023-12-26T17:20:21Z</time><extensions><speed>0.464082</speed><course>325.749883</course><hAcc>2.136474</hAcc><vAcc>0.835261</vAcc></extensions></trkpt>
      <trkpt lon="-82.147023" lat="33.556337"><ele>88.373166</ele><time>2023-12-26T17:20:22Z</time><extensions><speed>0.397472</speed><course>328.940023</course><hAcc>2.130185</hAcc><vAcc>0.828279</vAcc></extensions></trkpt>
      <trkpt lon="-82.147025" lat="33.556340"><ele>88.391614</ele><time>2023-12-26T17:20:23Z</time><extensions><speed>0.367767</speed><course>331.457020</course><hAcc>2.125382</hAcc><vAcc>0.820874</vAcc></extensions></trkpt>
      <trkpt lon="-82.147026" lat="33.556343"><ele>88.408535</ele><time>2023-12-26T17:20:24Z</time><extensions><speed>0.323531</speed><course>333.073338</course><hAcc>2.130511</hAcc><vAcc>0.813217</vAcc></extensions></trkpt>
      <trkpt lon="-82.147027" lat="33.556346"><ele>88.424246</ele><time>2023-12-26T17:20:25Z</time><extensions><speed>0.291158</speed><course>337.688104</course><hAcc>2.130649</hAcc><vAcc>0.805510</vAcc></extensions></trkpt>
      <trkpt lon="-82.147027" lat="33.556349"><ele>88.437867</ele><time>2023-12-26T17:20:26Z</time><extensions><speed>0.262084</speed><course>347.083860</course><hAcc>2.125917</hAcc><vAcc>0.797973</vAcc></extensions></trkpt>
      <trkpt lon="-82.147025" lat="33.556352"><ele>88.449383</ele><time>2023-12-26T17:20:27Z</time><extensions><speed>0.242262</speed><course>359.531690</course><hAcc>2.121550</hAcc><vAcc>0.790826</vAcc></extensions></trkpt>
      <trkpt lon="-82.147023" lat="33.556355"><ele>88.459585</ele><time>2023-12-26T17:20:28Z</time><extensions><speed>0.255093</speed><course>13.823541</course><hAcc>2.116450</hAcc><vAcc>0.784266</vAcc></extensions></trkpt>
      <trkpt lon="-82.147022" lat="33.556358"><ele>88.468013</ele><time>2023-12-26T17:20:29Z</time><extensions><speed>0.230926</speed><course>23.036065</course><hAcc>2.138212</hAcc><vAcc>0.778532</vAcc></extensions></trkpt>
      <trkpt lon="-82.147020" lat="33.556360"><ele>88.475920</ele><time>2023-12-26T17:20:30Z</time><extensions><speed>0.211455</speed><course>30.573465</course><hAcc>2.161400</hAcc><vAcc>0.773953</vAcc></extensions></trkpt>
      <trkpt lon="-82.147018" lat="33.556362"><ele>88.480485</ele><time>2023-12-26T17:20:31Z</time><extensions><speed>0.264984</speed><course>32.883345</course><hAcc>2.166601</hAcc><vAcc>0.770737</vAcc></extensions></trkpt>
      <trkpt lon="-82.147015" lat="33.556365"><ele>88.482624</ele><time>2023-12-26T17:20:32Z</time><extensions><speed>0.309341</speed><course>36.950626</course><hAcc>2.175000</hAcc><vAcc>0.769061</vAcc></extensions></trkpt>
      <trkpt lon="-82.147011" lat="33.556368"><ele>88.485907</ele><time>2023-12-26T17:20:33Z</time><extensions><speed>0.457288</speed><course>42.281608</course><hAcc>2.176238</hAcc><vAcc>0.769094</vAcc></extensions></trkpt>
      <trkpt lon="-82.147007" lat="33.556372"><ele>88.488423</ele><time>2023-12-26T17:20:34Z</time><extensions><speed>0.526250</speed><course>42.009976</course><hAcc>2.202177</hAcc><vAcc>0.771042</vAcc></extensions></trkpt>
      <trkpt lon="-82.147001" lat="33.556377"><ele>88.491185</ele><time>2023-12-26T17:20:35Z</time><extensions><speed>0.717723</speed><course>45.765926</course><hAcc>2.221143</hAcc><vAcc>0.775082</vAcc></extensions></trkpt>
      <trkpt lon="-82.146994" lat="33.556382"><ele>88.496873</ele><time>2023-12-26T17:20:36Z</time><extensions><speed>0.825525</speed><course>51.148042</course><hAcc>2.264332</hAcc><vAcc>0.781383</vAcc></extensions></trkpt>
      <trkpt lon="-82.146985" lat="33.556387"><ele>88.504855</ele><time>2023-12-26T17:20:37Z</time><extensions><speed>0.826708</speed><course>60.363522</course><hAcc>2.328808</hAcc><vAcc>0.790111</vAcc></extensions></trkpt>
      <trkpt lon="-82.146975" lat="33.556391"><ele>88.516565</ele><time>2023-12-26T17:20:38Z</time><extensions><speed>0.952190</speed><course>72.226638</course><hAcc>2.386236</hAcc><vAcc>0.801337</vAcc></extensions></trkpt>
      <trkpt lon="-82.146962" lat="33.556394"><ele>88.520297</ele><time>2023-12-26T17:20:39Z</time><extensions><speed>1.426542</speed><course>79.232714</course><hAcc>2.423910</hAcc><vAcc>0.815062</vAcc></extensions></trkpt>
      <trkpt lon="-82.146945" lat="33.556397"><ele>88.516185</ele><time>2023-12-26T17:20:40Z</time><extensions><speed>1.552315</speed><course>80.624391</course><hAcc>2.449989</hAcc><vAcc>0.831146</vAcc></extensions></trkpt>
      <trkpt lon="-82.146928" lat="33.556400"><ele>88.507004</ele><time>2023-12-26T17:20:41Z</time><extensions><speed>1.569820</speed><course>79.903916</course><hAcc>2.478840</hAcc><vAcc>0.849281</vAcc></extensions></trkpt>
      <trkpt lon="-82.146910" lat="33.556404"><ele>88.488761</ele><time>2023-12-26T17:20:42Z</time><extensions><speed>1.542434</speed><course>79.413695</course><hAcc>2.505949</hAcc><vAcc>0.869124</vAcc></extensions></trkpt>
      <trkpt lon="-82.146893" lat="33.556408"><ele>88.441477</ele><time>2023-12-26T17:20:43Z</time><extensions><speed>1.508507</speed><course>78.283696</course><hAcc>2.528940</hAcc><vAcc>0.885353</vAcc></extensions></trkpt>
      <trkpt lon="-82.146877" lat="33.556412"><ele>88.387259</ele><time>2023-12-26T17:20:44Z</time><extensions><speed>1.528346</speed><course>74.844178</course><hAcc>2.545394</hAcc><vAcc>0.900050</vAcc></extensions></trkpt>
      <trkpt lon="-82.146860" lat="33.556416"><ele>88.327883</ele><time>2023-12-26T17:20:45Z</time><extensions><speed>1.577365</speed><course>79.068453</course><hAcc>2.564268</hAcc><vAcc>0.912821</vAcc></extensions></trkpt>
      <trkpt lon="-82.146843" lat="33.556418"><ele>88.263977</ele><time>2023-12-26T17:20:46Z</time><extensions><speed>1.562045</speed><course>84.284878</course><hAcc>2.592755</hAcc><vAcc>0.923333</vAcc></extensions></trkpt>
      <trkpt lon="-82.146826" lat="33.556420"><ele>88.196034</ele><time>2023-12-26T17:20:47Z</time><extensions><speed>1.522994</speed><course>90.427149</course><hAcc>2.628268</hAcc><vAcc>0.931308</vAcc></extensions></trkpt>
      <trkpt lon="-82.146810" lat="33.556420"><ele>88.123825</ele><time>2023-12-26T17:20:48Z</time><extensions><speed>1.464797</speed><course>95.555034</course><hAcc>2.661960</hAcc><vAcc>0.936554</vAcc></extensions></trkpt>
      <trkpt lon="-82.146794" lat="33.556420"><ele>88.046393</ele><time>2023-12-26T17:20:49Z</time><extensions><speed>1.469087</speed><course>89.170238</course><hAcc>2.654674</hAcc><vAcc>0.938938</vAcc></extensions></trkpt>
      <trkpt lon="-82.146777" lat="33.556422"><ele>87.966323</ele><time>2023-12-26T17:20:50Z</time><extensions><speed>1.451341</speed><course>81.059628</course><hAcc>2.639164</hAcc><vAcc>0.938415</vAcc></extensions></trkpt>
      <trkpt lon="-82.146762" lat="33.556425"><ele>87.882989</ele><time>2023-12-26T17:20:51Z</time><extensions><speed>1.353340</speed><course>76.897868</course><hAcc>2.666202</hAcc><vAcc>0.935039</vAcc></extensions></trkpt>
      <trkpt lon="-82.146748" lat="33.556429"><ele>87.799649</ele><time>2023-12-26T17:20:52Z</time><extensions><speed>1.111629</speed><course>73.838060</course><hAcc>2.712078</hAcc><vAcc>0.929021</vAcc></extensions></trkpt>
      <trkpt lon="-82.146737" lat="33.556434"><ele>87.717420</ele><time>2023-12-26T17:20:53Z</time><extensions><speed>0.588649</speed><course>66.193788</course><hAcc>2.714533</hAcc><vAcc>0.920750</vAcc></extensions></trkpt>
      <trkpt lon="-82.146730" lat="33.556439"><ele>87.637754</ele><time>2023-12-26T17:20:54Z</time><extensions><speed>0.401370</speed><course>55.341110</course><hAcc>2.688384</hAcc><vAcc>0.910791</vAcc></extensions></trkpt>
      <trkpt lon="-82.146725" lat="33.556442"><ele>87.561524</ele><time>2023-12-26T17:20:55Z</time><extensions><speed>0.333033</speed><course>46.417743</course><hAcc>2.651660</hAcc><vAcc>0.899773</vAcc></extensions></trkpt>
      <trkpt lon="-82.146721" lat="33.556446"><ele>87.487944</ele><time>2023-12-26T17:20:56Z</time><extensions><speed>0.295875</speed><course>41.082960</course><hAcc>2.615021</hAcc><vAcc>0.888314</vAcc></extensions></trkpt>
      <trkpt lon="-82.146719" lat="33.556449"><ele>87.420968</ele><time>2023-12-26T17:20:57Z</time><extensions><speed>0.282995</speed><course>38.622625</course><hAcc>2.597539</hAcc><vAcc>0.877014</vAcc></extensions></trkpt>
      <trkpt lon="-82.146717" lat="33.556451"><ele>87.360408</ele><time>2023-12-26T17:20:58Z</time><extensions><speed>0.278827</speed><course>38.038710</course><hAcc>2.576642</hAcc><vAcc>0.866463</vAcc></extensions></trkpt>
      <trkpt lon="-82.146714" lat="33.556453"><ele>87.303662</ele><time>2023-12-26T17:20:59Z</time><extensions><speed>0.294183</speed><course>39.465430</course><hAcc>2.551574</hAcc><vAcc>0.857183</vAcc></extensions></trkpt>
      <trkpt lon="-82.146712" lat="33.556456"><ele>87.253061</ele><time>2023-12-26T17:21:00Z</time><extensions><speed>0.298618</speed><course>44.078795</course><hAcc>2.530799</hAcc><vAcc>0.849648</vAcc></extensions></trkpt>
      <trkpt lon="-82.146709" lat="33.556458"><ele>87.208579</ele><time>2023-12-26T17:21:01Z</time><extensions><speed>0.341790</speed><course>55.439148</course><hAcc>2.508546</hAcc><vAcc>0.844229</vAcc></extensions></trkpt>
      <trkpt lon="-82.146705" lat="33.556460"><ele>87.168342</ele><time>2023-12-26T17:21:02Z</time><extensions><speed>0.444934</speed><course>59.733927</course><hAcc>2.468421</hAcc><vAcc>0.841197</vAcc></extensions></trkpt>
      <trkpt lon="-82.146700" lat="33.556462"><ele>87.129714</ele><time>2023-12-26T17:21:03Z</time><extensions><speed>0.484844</speed><course>63.529217</course><hAcc>2.439802</hAcc><vAcc>0.840693</vAcc></extensions></trkpt>
      <trkpt lon="-82.146695" lat="33.556465"><ele>87.094523</ele><time>2023-12-26T17:21:04Z</time><extensions><speed>0.573353</speed><course>66.565550</course><hAcc>2.429075</hAcc><vAcc>0.842719</vAcc></extensions></trkpt>
      <trkpt lon="-82.146689" lat="33.556467"><ele>87.058847</ele><time>2023-12-26T17:21:05Z</time><extensions><speed>0.656405</speed><course>67.440669</course><hAcc>2.433691</hAcc><vAcc>0.847160</vAcc></extensions></trkpt>
      <trkpt lon="-82.146683" lat="33.556469"><ele>87.029194</ele><time>2023-12-26T17:21:06Z</time><extensions><speed>0.670148</speed><course>64.915830</course><hAcc>2.463420</hAcc><vAcc>0.853840</vAcc></extensions></trkpt>
      <trkpt lon="-82.146677" lat="33.556472"><ele>87.003775</ele><time>2023-12-26T17:21:07Z</time><extensions><speed>0.661286</speed><course>63.261705</course><hAcc>2.500111</hAcc><vAcc>0.862535</vAcc></extensions></trkpt>
      <trkpt lon="-82.146671" lat="33.556474"><ele>86.979794</ele><time>2023-12-26T17:21:08Z</time><extensions><speed>0.670098</speed><course>64.244456</course><hAcc>2.533961</hAcc><vAcc>0.872925</vAcc></extensions></trkpt>
      <trkpt lon="-82.146666" lat="33.556477"><ele>86.957229</ele><time>2023-12-26T17:21:09Z</time><extensions><speed>0.676772</speed><course>65.901119</course><hAcc>2.573107</hAcc><vAcc>0.884636</vAcc></extensions></trkpt>
      <trkpt lon="-82.146660" lat="33.556479"><ele>86.936252</ele><time>2023-12-26T17:21:10Z</time><extensions><speed>0.714346</speed><course>65.642684</course><hAcc>2.602016</hAcc><vAcc>0.897318</vAcc></extensions></trkpt>
      <trkpt lon="-82.146653" lat="33.556482"><ele>86.916677</ele><time>2023-12-26T17:21:11Z</time><extensions><speed>0.726562</speed><course>62.092289</course><hAcc>2.632218</hAcc><vAcc>0.910589</vAcc></extensions></trkpt>
      <trkpt lon="-82.146648" lat="33.556485"><ele>86.898732</ele><time>2023-12-26T17:21:12Z</time><extensions><speed>0.716115</speed><course>54.575697</course><hAcc>2.665673</hAcc><vAcc>0.919765</vAcc></extensions></trkpt>
      <trkpt lon="-82.146642" lat="33.556489"><ele>86.882154</ele><time>2023-12-26T17:21:13Z</time><extensions><speed>0.696810</speed><course>45.597769</course><hAcc>2.695954</hAcc><vAcc>0.927191</vAcc></extensions></trkpt>
      <trkpt lon="-82.146638" lat="33.556493"><ele>86.866960</ele><time>2023-12-26T17:21:14Z</time><extensions><speed>0.661656</speed><course>39.487918</course><hAcc>2.726254</hAcc><vAcc>0.932819</vAcc></extensions></trkpt>
      <trkpt lon="-82.146634" lat="33.556498"><ele>86.853184</ele><time>2023-12-26T17:21:15Z</time><extensions><speed>0.591254</speed><course>31.034237</course><hAcc>2.754206</hAcc><vAcc>0.936498</vAcc></extensions></trkpt>
      <trkpt lon="-82.146632" lat="33.556502"><ele>86.840826</ele><time>2023-12-26T17:21:16Z</time><extensions><speed>0.515016</speed><course>25.155804</course><hAcc>2.784835</hAcc><vAcc>0.938077</vAcc></extensions></trkpt>
      <trkpt lon="-82.146630" lat="33.556506"><ele>86.829827</ele><time>2023-12-26T17:21:17Z</time><extensions><speed>0.398647</speed><course>17.933443</course><hAcc>2.824049</hAcc><vAcc>0.937427</vAcc></extensions></trkpt>
      <trkpt lon="-82.146630" lat="33.556508"><ele>86.820098</ele><time>2023-12-26T17:21:18Z</time><extensions><speed>0.218281</speed><course>358.204784</course><hAcc>2.857073</hAcc><vAcc>0.934451</vAcc></extensions></trkpt>
      <trkpt lon="-82.146631" lat="33.556510"><ele>86.811558</ele><time>2023-12-26T17:21:19Z</time><extensions><speed>0.154541</speed><course>316.734802</course><hAcc>2.868443</hAcc><vAcc>0.929105</vAcc></extensions></trkpt>
      <trkpt lon="-82.146633" lat="33.556510"><ele>86.804133</ele><time>2023-12-26T17:21:20Z</time><extensions><speed>0.204333</speed><course>273.114394</course><hAcc>2.877622</hAcc><vAcc>0.921437</vAcc></extensions></trkpt>
      <trkpt lon="-82.146635" lat="33.556510"><ele>86.797747</ele><time>2023-12-26T17:21:21Z</time><extensions><speed>0.222730</speed><course>260.806427</course><hAcc>2.925964</hAcc><vAcc>0.911610</vAcc></extensions></trkpt>
      <trkpt lon="-82.146638" lat="33.556509"><ele>86.792323</ele><time>2023-12-26T17:21:22Z</time><extensions><speed>0.180107</speed><course>255.386238</course><hAcc>2.994160</hAcc><vAcc>0.899946</vAcc></extensions></trkpt>
      <trkpt lon="-82.146639" lat="33.556509"><ele>86.787768</ele><time>2023-12-26T17:21:23Z</time><extensions><speed>0.143157</speed><course>252.209381</course><hAcc>3.027542</hAcc><vAcc>0.887048</vAcc></extensions></trkpt>
      <trkpt lon="-82.146641" lat="33.556509"><ele>86.784009</ele><time>2023-12-26T17:21:24Z</time><extensions><speed>0.119839</speed><course>250.394135</course><hAcc>3.024568</hAcc><vAcc>0.873392</vAcc></extensions></trkpt>
      <trkpt lon="-82.146642" lat="33.556508"><ele>86.780969</ele><time>2023-12-26T17:21:25Z</time><extensions><speed>0.106781</speed><course>249.416632</course><hAcc>2.960524</hAcc><vAcc>0.859441</vAcc></extensions></trkpt>
      <trkpt lon="-82.146644" lat="33.556508"><ele>86.778569</ele><time>2023-12-26T17:21:26Z</time><extensions><speed>0.092539</speed><course>248.931934</course><hAcc>2.893474</hAcc><vAcc>0.845620</vAcc></extensions></trkpt>
      <trkpt lon="-82.146645" lat="33.556507"><ele>86.776728</ele><time>2023-12-26T17:21:27Z</time><extensions><speed>0.080483</speed><course>248.691190</course><hAcc>2.824699</hAcc><vAcc>0.832297</vAcc></extensions></trkpt>
      <trkpt lon="-82.146646" lat="33.556507"><ele>86.775371</ele><time>2023-12-26T17:21:28Z</time><extensions><speed>0.065692</speed><course>248.573964</course><hAcc>2.765915</hAcc><vAcc>0.819777</vAcc></extensions></trkpt>
      <trkpt lon="-82.146646" lat="33.556507"><ele>86.774422</ele><time>2023-12-26T17:21:29Z</time><extensions><speed>0.043782</speed><course>248.512050</course><hAcc>2.724080</hAcc><vAcc>0.808302</vAcc></extensions></trkpt>
      <trkpt lon="-82.146647" lat="33.556507"><ele>86.773813</ele><time>2023-12-26T17:21:30Z</time><extensions><speed>0.034289</speed><course>248.478555</course><hAcc>2.670914</hAcc><vAcc>0.798047</vAcc></extensions></trkpt>
      <trkpt lon="-82.146647" lat="33.556507"><ele>86.773481</ele><time>2023-12-26T17:21:31Z</time><extensions><speed>0.029576</speed><course>248.464528</course><hAcc>2.609764</hAcc><vAcc>0.789120</vAcc></extensions></trkpt>
      <trkpt lon="-82.146648" lat="33.556506"><ele>86.773369</ele><time>2023-12-26T17:21:32Z</time><extensions><speed>0.028034</speed><course>248.459467</course><hAcc>2.540725</hAcc><vAcc>0.781564</vAcc></extensions></trkpt>
      <trkpt lon="-82.146648" lat="33.556506"><ele>86.773429</ele><time>2023-12-26T17:21:33Z</time><extensions><speed>0.029368</speed><course>248.457848</course><hAcc>2.460932</hAcc><vAcc>0.775350</vAcc></extensions></trkpt>
      <trkpt lon="-82.146648" lat="33.556506"><ele>86.773617</ele><time>2023-12-26T17:21:34Z</time><extensions><speed>0.026303</speed><course>248.457334</course><hAcc>2.390224</hAcc><vAcc>0.770381</vAcc></extensions></trkpt>
      <trkpt lon="-82.146648" lat="33.556506"><ele>86.773896</ele><time>2023-12-26T17:21:35Z</time><extensions><speed>0.021384</speed><course>248.457145</course><hAcc>2.332115</hAcc><vAcc>0.766516</vAcc></extensions></trkpt>
      <trkpt lon="-82.146649" lat="33.556506"><ele>86.774238</ele><time>2023-12-26T17:21:36Z</time><extensions><speed>0.017810</speed><course>248.457073</course><hAcc>2.282298</hAcc><vAcc>0.763589</vAcc></extensions></trkpt>
      <trkpt lon="-82.146649" lat="33.556506"><ele>86.774616</ele><time>2023-12-26T17:21:37Z</time><extensions><speed>0.014771</speed><course>248.457046</course><hAcc>2.243545</hAcc><vAcc>0.761431</vAcc></extensions></trkpt>
      <trkpt lon="-82.146649" lat="33.556506"><ele>86.775012</ele><time>2023-12-26T17:21:38Z</time><extensions><speed>0.013420</speed><course>248.457037</course><hAcc>2.205014</hAcc><vAcc>0.759884</vAcc></extensions></trkpt>
      <trkpt lon="-82.146649" lat="33.556506"><ele>86.775409</ele><time>2023-12-26T17:21:39Z</time><extensions><speed>0.015104</speed><course>248.457034</course><hAcc>2.154714</hAcc><vAcc>0.758804</vAcc></extensions></trkpt>
      <trkpt lon="-82.146649" lat="33.556506"><ele>86.775795</ele><time>2023-12-26T17:21:40Z</time><extensions><speed>0.013930</speed><course>248.457033</course><hAcc>2.127552</hAcc><vAcc>0.758074</vAcc></extensions></trkpt>
      <trkpt lon="-82.146649" lat="33.556506"><ele>86.776163</ele><time>2023-12-26T17:21:41Z</time><extensions><speed>0.010208</speed><course>248.457032</course><hAcc>2.128684</hAcc><vAcc>0.757595</vAcc></extensions></trkpt>
      <trkpt lon="-82.146650" lat="33.556506"><ele>86.776505</ele><time>2023-12-26T17:21:42Z</time><extensions><speed>0.007781</speed><course>248.457032</course><hAcc>2.127221</hAcc><vAcc>0.757291</vAcc></extensions></trkpt>
      <trkpt lon="-82.146650" lat="33.556506"><ele>86.776818</ele><time>2023-12-26T17:21:43Z</time><extensions><speed>0.006193</speed><course>248.457032</course><hAcc>2.120817</hAcc><vAcc>0.757105</vAcc></extensions></trkpt>
      <trkpt lon="-82.146650" lat="33.556506"><ele>86.777099</ele><time>2023-12-26T17:21:44Z</time><extensions><speed>0.005535</speed><course>248.457032</course><hAcc>2.108819</hAcc><vAcc>0.756996</vAcc></extensions></trkpt>
      <trkpt lon="-82.146650" lat="33.556506"><ele>86.777349</ele><time>2023-12-26T17:21:45Z</time><extensions><speed>0.004968</speed><course>248.457032</course><hAcc>2.100189</hAcc><vAcc>0.756933</vAcc></extensions></trkpt>
      <trkpt lon="-82.146650" lat="33.556506"><ele>86.777567</ele><time>2023-12-26T17:21:46Z</time><extensions><speed>0.004382</speed><course>248.457032</course><hAcc>2.095078</hAcc><vAcc>0.756898</vAcc></extensions></trkpt>
      <trkpt lon="-82.146650" lat="33.556506"><ele>86.777755</ele><time>2023-12-26T17:21:47Z</time><extensions><speed>0.004181</speed><course>248.457032</course><hAcc>2.088164</hAcc><vAcc>0.756877</vAcc></extensions></trkpt>
      <trkpt lon="-82.146650" lat="33.556506"><ele>86.777914</ele><time>2023-12-26T17:21:48Z</time><extensions><speed>0.003455</speed><course>248.457032</course><hAcc>2.093974</hAcc><vAcc>0.756862</vAcc></extensions></trkpt>
      <trkpt lon="-82.146650" lat="33.556506"><ele>86.778046</ele><time>2023-12-26T17:21:49Z</time><extensions><speed>0.002887</speed><course>248.457032</course><hAcc>2.097640</hAcc><vAcc>0.756851</vAcc></extensions></trkpt>
      <trkpt lon="-82.146650" lat="33.556506"><ele>86.778155</ele><time>2023-12-26T17:21:50Z</time><extensions><speed>0.002654</speed><course>248.457032</course><hAcc>2.092590</hAcc><vAcc>0.756840</vAcc></extensions></trkpt>
      <trkpt lon="-82.146650" lat="33.556506"><ele>86.778243</ele><time>2023-12-26T17:21:51Z</time><extensions><speed>0.002293</speed><course>248.457032</course><hAcc>2.090356</hAcc><vAcc>0.756984</vAcc></extensions></trkpt>
      <trkpt lon="-82.146650" lat="33.556506"><ele>86.778312</ele><time>2023-12-26T17:21:52Z</time><extensions><speed>0.002038</speed><course>248.457032</course><hAcc>2.084431</hAcc><vAcc>0.757611</vAcc></extensions></trkpt>
      <trkpt lon="-82.146650" lat="33.556506"><ele>86.778366</ele><time>2023-12-26T17:21:53Z</time><extensions><speed>0.001818</speed><course>248.457032</course><hAcc>2.080867</hAcc><vAcc>0.758942</vAcc></extensions></trkpt>
      <trkpt lon="-82.146650" lat="33.556506"><ele>86.778406</ele><time>2023-12-26T17:21:54Z</time><extensions><speed>0.001268</speed><course>248.457033</course><hAcc>2.092726</hAcc><vAcc>0.761233</vAcc></extensions></trkpt>
      <trkpt lon="-82.146650" lat="33.556506"><ele>86.778434</ele><time>2023-12-26T17:21:55Z</time><extensions><speed>0.001089</speed><course>248.457033</course><hAcc>2.085861</hAcc><vAcc>0.764765</vAcc></extensions></trkpt>
      <trkpt lon="-82.146650" lat="33.556506"><ele>86.778453</ele><time>2023-12-26T17:21:56Z</time><extensions><speed>0.000993</speed><course>248.457033</course><hAcc>2.074388</hAcc><vAcc>0.769811</vAcc></extensions></trkpt>
      <trkpt lon="-82.146650" lat="33.556506"><ele>86.778462</ele><time>2023-12-26T17:21:57Z</time><extensions><speed>0.000805</speed><course>248.457033</course><hAcc>2.082797</hAcc><vAcc>0.773755</vAcc></extensions></trkpt>
      <trkpt lon="-82.146650" lat="33.556506"><ele>86.778465</ele><time>2023-12-26T17:21:58Z</time><extensions><speed>0.000676</speed><course>248.457034</course><hAcc>2.091242</hAcc><vAcc>0.777952</vAcc></extensions></trkpt>
      <trkpt lon="-82.146650" lat="33.556506"><ele>86.778464</ele><time>2023-12-26T17:21:59Z</time><extensions><speed>0.000594</speed><course>248.457034</course><hAcc>2.099333</hAcc><vAcc>0.782338</vAcc></extensions></trkpt>
      <trkpt lon="-82.146650" lat="33.556506"><ele>86.778458</ele><time>2023-12-26T17:22:00Z</time><extensions><speed>0.000506</speed><course>248.457034</course><hAcc>2.113737</hAcc><vAcc>0.786841</vAcc></extensions></trkpt>
      <trkpt lon="-82.146650" lat="33.556506"><ele>86.778451</ele><time>2023-12-26T17:22:01Z</time><extensions><speed>0.000422</speed><course>248.457034</course><hAcc>2.132969</hAcc><vAcc>0.791212</vAcc></extensions></trkpt>
      <trkpt lon="-82.146650" lat="33.556506"><ele>86.778441</ele><time>2023-12-26T17:22:02Z</time><extensions><speed>0.000376</speed><course>248.457034</course><hAcc>2.153635</hAcc><vAcc>0.795049</vAcc></extensions></trkpt>
      <trkpt lon="-82.146650" lat="33.556506"><ele>86.778430</ele><time>2023-12-26T17:22:03Z</time><extensions><speed>0.000310</speed><course>248.457034</course><hAcc>2.186554</hAcc><vAcc>0.797943</vAcc></extensions></trkpt>
      <trkpt lon="-82.146650" lat="33.556506"><ele>86.778419</ele><time>2023-12-26T17:22:04Z</time><extensions><speed>0.000248</speed><course>248.457034</course><hAcc>2.225896</hAcc><vAcc>0.799730</vAcc></extensions></trkpt>
      <trkpt lon="-82.146650" lat="33.556506"><ele>86.778407</ele><time>2023-12-26T17:22:05Z</time><extensions><speed>0.000215</speed><course>248.457033</course><hAcc>2.266715</hAcc><vAcc>0.800321</vAcc></extensions></trkpt>
      <trkpt lon="-82.146650" lat="33.556506"><ele>86.778396</ele><time>2023-12-26T17:22:06Z</time><extensions><speed>0.000194</speed><course>248.457033</course><hAcc>2.317120</hAcc><vAcc>0.799856</vAcc></extensions></trkpt>
      <trkpt lon="-82.146650" lat="33.556506"><ele>86.778384</ele><time>2023-12-26T17:22:07Z</time><extensions><speed>0.000172</speed><course>248.457033</course><hAcc>2.378754</hAcc><vAcc>0.798814</vAcc></extensions></trkpt>
      <trkpt lon="-82.146650" lat="33.556506"><ele>86.778374</ele><time>2023-12-26T17:22:08Z</time><extensions><speed>0.000161</speed><course>248.457032</course><hAcc>2.438629</hAcc><vAcc>0.797941</vAcc></extensions></trkpt>
      <trkpt lon="-82.146650" lat="33.556506"><ele>86.778364</ele><time>2023-12-26T17:22:09Z</time><extensions><speed>0.000144</speed><course>248.457031</course><hAcc>2.494999</hAcc><vAcc>0.798044</vAcc></extensions></trkpt>
      <trkpt lon="-82.146646" lat="33.556507"><ele>86.775305</ele><time>2023-12-26T17:22:10Z</time><extensions><speed>0.049921</speed><course>66.350760</course><hAcc>2.545102</hAcc><vAcc>0.799812</vAcc></extensions></trkpt>
      <trkpt lon="-82.146642" lat="33.556509"><ele>86.770817</ele><time>2023-12-26T17:22:11Z</time><extensions><speed>0.084952</speed><course>65.383493</course><hAcc>2.579379</hAcc><vAcc>0.803764</vAcc></extensions></trkpt>
      <trkpt lon="-82.146637" lat="33.556511"><ele>86.763156</ele><time>2023-12-26T17:22:12Z</time><extensions><speed>0.140958</speed><course>64.808539</course><hAcc>2.590472</hAcc><vAcc>0.810206</vAcc></extensions></trkpt>
      <trkpt lon="-82.146633" lat="33.556512"><ele>86.752053</ele><time>2023-12-26T17:22:13Z</time><extensions><speed>0.167010</speed><course>65.526336</course><hAcc>2.610006</hAcc><vAcc>0.819239</vAcc></extensions></trkpt>
      <trkpt lon="-82.146628" lat="33.556513"><ele>86.737929</ele><time>2023-12-26T17:22:14Z</time><extensions><speed>0.201205</speed><course>66.662031</course><hAcc>2.623248</hAcc><vAcc>0.830708</vAcc></extensions></trkpt>
      <trkpt lon="-82.146623" lat="33.556515"><ele>86.721377</ele><time>2023-12-26T17:22:15Z</time><extensions><speed>0.235343</speed><course>67.867109</course><hAcc>2.632544</hAcc><vAcc>0.844266</vAcc></extensions></trkpt>
      <trkpt lon="-82.146618" lat="33.556516"><ele>86.699525</ele><time>2023-12-26T17:22:16Z</time><extensions><speed>0.294795</speed><course>68.660482</course><hAcc>2.635299</hAcc><vAcc>0.859418</vAcc></extensions></trkpt>
      <trkpt lon="-82.146612" lat="33.556517"><ele>86.674316</ele><time>2023-12-26T17:22:17Z</time><extensions><speed>0.404813</speed><course>68.818362</course><hAcc>2.632752</hAcc><vAcc>0.875673</vAcc></extensions></trkpt>
      <trkpt lon="-82.146605" lat="33.556519"><ele>86.650728</ele><time>2023-12-26T17:22:18Z</time><extensions><speed>0.596929</speed><course>68.675988</course><hAcc>2.629894</hAcc><vAcc>0.892480</vAcc></extensions></trkpt>
      <trkpt lon="-82.146595" lat="33.556522"><ele>86.630573</ele><time>2023-12-26T17:22:19Z</time><extensions><speed>0.863618</speed><course>67.677174</course><hAcc>2.639519</hAcc><vAcc>0.909286</vAcc></extensions></trkpt>
      <trkpt lon="-82.146582" lat="33.556525"><ele>86.616216</ele><time>2023-12-26T17:22:20Z</time><extensions><speed>1.342635</speed><course>65.274858</course><hAcc>2.658727</hAcc><vAcc>0.925677</vAcc></extensions></trkpt>
      <trkpt lon="-82.146566" lat="33.556530"><ele>86.601283</ele><time>2023-12-26T17:22:21Z</time><extensions><speed>1.447578</speed><course>65.022350</course><hAcc>2.664824</hAcc><vAcc>0.941299</vAcc></extensions></trkpt>
      <trkpt lon="-82.146549" lat="33.556535"><ele>86.583615</ele><time>2023-12-26T17:22:22Z</time><extensions><speed>1.424078</speed><course>65.882181</course><hAcc>2.664733</hAcc><vAcc>0.955910</vAcc></extensions></trkpt>
      <trkpt lon="-82.146533" lat="33.556540"><ele>86.562516</ele><time>2023-12-26T17:22:23Z</time><extensions><speed>1.316901</speed><course>66.277234</course><hAcc>2.667523</hAcc><vAcc>0.969316</vAcc></extensions></trkpt>
      <trkpt lon="-82.146517" lat="33.556544"><ele>86.538095</ele><time>2023-12-26T17:22:24Z</time><extensions><speed>1.261946</speed><course>65.998079</course><hAcc>2.669106</hAcc><vAcc>0.981366</vAcc></extensions></trkpt>
      <trkpt lon="-82.146502" lat="33.556549"><ele>86.509272</ele><time>2023-12-26T17:22:25Z</time><extensions><speed>1.295298</speed><course>65.453265</course><hAcc>2.663967</hAcc><vAcc>0.991974</vAcc></extensions></trkpt>
      <trkpt lon="-82.146488" lat="33.556554"><ele>86.476150</ele><time>2023-12-26T17:22:26Z</time><extensions><speed>1.294541</speed><course>63.406174</course><hAcc>2.656860</hAcc><vAcc>1.001082</vAcc></extensions></trkpt>
      <trkpt lon="-82.146473" lat="33.556559"><ele>86.436301</ele><time>2023-12-26T17:22:27Z</time><extensions><speed>1.382196</speed><course>65.250316</course><hAcc>2.642565</hAcc><vAcc>1.008698</vAcc></extensions></trkpt>
      <trkpt lon="-82.146457" lat="33.556564"><ele>86.390745</ele><time>2023-12-26T17:22:28Z</time><extensions><speed>1.373140</speed><course>64.709654</course><hAcc>2.652100</hAcc><vAcc>1.014927</vAcc></extensions></trkpt>
      <trkpt lon="-82.146442" lat="33.556569"><ele>86.343174</ele><time>2023-12-26T17:22:29Z</time><extensions><speed>1.351899</speed><course>64.289843</course><hAcc>2.662439</hAcc><vAcc>1.019845</vAcc></extensions></trkpt>
      <trkpt lon="-82.146428" lat="33.556574"><ele>86.293245</ele><time>2023-12-26T17:22:30Z</time><extensions><speed>1.359989</speed><course>63.791222</course><hAcc>2.665561</hAcc><vAcc>1.023530</vAcc></extensions></trkpt>
      <trkpt lon="-82.146412" lat="33.556580"><ele>86.241491</ele><time>2023-12-26T17:22:31Z</time><extensions><speed>1.413288</speed><course>64.362891</course><hAcc>2.658108</hAcc><vAcc>1.026066</vAcc></extensions></trkpt>
      <trkpt lon="-82.146397" lat="33.556586"><ele>86.180446</ele><time>2023-12-26T17:22:32Z</time><extensions><speed>1.459714</speed><course>64.970776</course><hAcc>2.645722</hAcc><vAcc>1.027545</vAcc></extensions></trkpt>
      <trkpt lon="-82.146381" lat="33.556591"><ele>86.115283</ele><time>2023-12-26T17:22:33Z</time><extensions><speed>1.476252</speed><course>64.723746</course><hAcc>2.641354</hAcc><vAcc>1.028069</vAcc></extensions></trkpt>
      <trkpt lon="-82.146365" lat="33.556597"><ele>86.046683</ele><time>2023-12-26T17:22:34Z</time><extensions><speed>1.483355</speed><course>63.780441</course><hAcc>2.635961</hAcc><vAcc>1.027734</vAcc></extensions></trkpt>
      <trkpt lon="-82.146349" lat="33.556603"><ele>85.968611</ele><time>2023-12-26T17:22:35Z</time><extensions><speed>1.510015</speed><course>61.647637</course><hAcc>2.623262</hAcc><vAcc>1.026663</vAcc></extensions></trkpt>
      <trkpt lon="-82.146334" lat="33.556610"><ele>85.889109</ele><time>2023-12-26T17:22:36Z</time><extensions><speed>1.498951</speed><course>58.714813</course><hAcc>2.612750</hAcc><vAcc>1.025048</vAcc></extensions></trkpt>
      <trkpt lon="-82.146320" lat="33.556618"><ele>85.811955</ele><time>2023-12-26T17:22:37Z</time><extensions><speed>1.441759</speed><course>55.361785</course><hAcc>2.615740</hAcc><vAcc>1.022987</vAcc></extensions></trkpt>
      <trkpt lon="-82.146306" lat="33.556625"><ele>85.739136</ele><time>2023-12-26T17:22:38Z</time><extensions><speed>1.307553</speed><course>51.116463</course><hAcc>2.619375</hAcc><vAcc>1.020624</vAcc></extensions></trkpt>
      <trkpt lon="-82.146293" lat="33.556633"><ele>85.665830</ele><time>2023-12-26T17:22:39Z</time><extensions><speed>1.410854</speed><course>50.099568</course><hAcc>2.572166</hAcc><vAcc>1.018115</vAcc></extensions></trkpt>
      <trkpt lon="-82.146280" lat="33.556641"><ele>85.590220</ele><time>2023-12-26T17:22:40Z</time><extensions><speed>1.429963</speed><course>50.176283</course><hAcc>2.560976</hAcc><vAcc>1.012713</vAcc></extensions></trkpt>
      <trkpt lon="-82.146268" lat="33.556648"><ele>85.515788</ele><time>2023-12-26T17:22:41Z</time><extensions><speed>1.329953</speed><course>46.696652</course><hAcc>2.574170</hAcc><vAcc>1.006440</vAcc></extensions></trkpt>
      <trkpt lon="-82.146258" lat="33.556656"><ele>85.441960</ele><time>2023-12-26T17:22:42Z</time><extensions><speed>1.387591</speed><course>42.491019</course><hAcc>2.525315</hAcc><vAcc>0.999356</vAcc></extensions></trkpt>
      <trkpt lon="-82.146247" lat="33.556665"><ele>85.366935</ele><time>2023-12-26T17:22:43Z</time><extensions><speed>1.361192</speed><course>37.875943</course><hAcc>2.524701</hAcc><vAcc>0.991515</vAcc></extensions></trkpt>
      <trkpt lon="-82.146237" lat="33.556674"><ele>85.292581</ele><time>2023-12-26T17:22:44Z</time><extensions><speed>1.413104</speed><course>42.122204</course><hAcc>2.481510</hAcc><vAcc>0.983005</vAcc></extensions></trkpt>
      <trkpt lon="-82.146226" lat="33.556683"><ele>85.216137</ele><time>2023-12-26T17:22:45Z</time><extensions><speed>1.399378</speed><course>44.335379</course><hAcc>2.483312</hAcc><vAcc>0.973922</vAcc></extensions></trkpt>
      <trkpt lon="-82.146214" lat="33.556692"><ele>85.142188</ele><time>2023-12-26T17:22:46Z</time><extensions><speed>1.354721</speed><course>48.875683</course><hAcc>2.504605</hAcc><vAcc>0.964317</vAcc></extensions></trkpt>
      <trkpt lon="-82.146201" lat="33.556700"><ele>85.069748</ele><time>2023-12-26T17:22:47Z</time><extensions><speed>1.401669</speed><course>51.295854</course><hAcc>2.484449</hAcc><vAcc>0.954323</vAcc></extensions></trkpt>
      <trkpt lon="-82.146188" lat="33.556707"><ele>84.999784</ele><time>2023-12-26T17:22:48Z</time><extensions><speed>1.401461</speed><course>54.882523</course><hAcc>2.489927</hAcc><vAcc>0.944185</vAcc></extensions></trkpt>
      <trkpt lon="-82.146174" lat="33.556714"><ele>84.930056</ele><time>2023-12-26T17:22:49Z</time><extensions><speed>1.400202</speed><course>51.960002</course><hAcc>2.499190</hAcc><vAcc>0.934193</vAcc></extensions></trkpt>
      <trkpt lon="-82.146161" lat="33.556722"><ele>84.860607</ele><time>2023-12-26T17:22:50Z</time><extensions><speed>1.309639</speed><course>51.902452</course><hAcc>2.512321</hAcc><vAcc>0.924689</vAcc></extensions></trkpt>
      <trkpt lon="-82.146149" lat="33.556729"><ele>84.789163</ele><time>2023-12-26T17:22:51Z</time><extensions><speed>1.259816</speed><course>52.230244</course><hAcc>2.532275</hAcc><vAcc>0.916105</vAcc></extensions></trkpt>
      <trkpt lon="-82.146138" lat="33.556735"><ele>84.714827</ele><time>2023-12-26T17:22:52Z</time><extensions><speed>1.167370</speed><course>53.095365</course><hAcc>2.550002</hAcc><vAcc>0.908866</vAcc></extensions></trkpt>
      <trkpt lon="-82.146128" lat="33.556740"><ele>84.641787</ele><time>2023-12-26T17:22:53Z</time><extensions><speed>1.015629</speed><course>55.611044</course><hAcc>2.569624</hAcc><vAcc>0.903361</vAcc></extensions></trkpt>
      <trkpt lon="-82.146120" lat="33.556743"><ele>84.570074</ele><time>2023-12-26T17:22:54Z</time><extensions><speed>0.710862</speed><course>61.392313</course><hAcc>2.590655</hAcc><vAcc>0.899920</vAcc></extensions></trkpt>
      <trkpt lon="-82.146112" lat="33.556746"><ele>84.497649</ele><time>2023-12-26T17:22:55Z</time><extensions><speed>0.732821</speed><course>66.499843</course><hAcc>2.598958</hAcc><vAcc>0.898752</vAcc></extensions></trkpt>
      <trkpt lon="-82.146104" lat="33.556748"><ele>84.423256</ele><time>2023-12-26T17:22:56Z</time><extensions><speed>0.856468</speed><course>68.438463</course><hAcc>2.624227</hAcc><vAcc>0.899971</vAcc></extensions></trkpt>
      <trkpt lon="-82.146094" lat="33.556749"><ele>84.346320</ele><time>2023-12-26T17:22:57Z</time><extensions><speed>0.987047</speed><course>74.423888</course><hAcc>2.653135</hAcc><vAcc>0.903665</vAcc></extensions></trkpt>
      <trkpt lon="-82.146082" lat="33.556751"><ele>84.269412</ele><time>2023-12-26T17:22:58Z</time><extensions><speed>1.316008</speed><course>76.743323</course><hAcc>2.678992</hAcc><vAcc>0.909816</vAcc></extensions></trkpt>
      <trkpt lon="-82.146067" lat="33.556753"><ele>84.191437</ele><time>2023-12-26T17:22:59Z</time><extensions><speed>1.389076</speed><course>79.993763</course><hAcc>2.705047</hAcc><vAcc>0.918407</vAcc></extensions></trkpt>
      <trkpt lon="-82.146053" lat="33.556755"><ele>84.111587</ele><time>2023-12-26T17:23:00Z</time><extensions><speed>1.322112</speed><course>80.239779</course><hAcc>2.736047</hAcc><vAcc>0.929302</vAcc></extensions></trkpt>
      <trkpt lon="-82.146039" lat="33.556757"><ele>84.030901</ele><time>2023-12-26T17:23:01Z</time><extensions><speed>1.213973</speed><course>72.910030</course><hAcc>2.770789</hAcc><vAcc>0.942283</vAcc></extensions></trkpt>
      <trkpt lon="-82.146028" lat="33.556761"><ele>83.949305</ele><time>2023-12-26T17:23:02Z</time><extensions><speed>1.013217</speed><course>60.824827</course><hAcc>2.811731</hAcc><vAcc>0.957087</vAcc></extensions></trkpt>
      <trkpt lon="-82.146020" lat="33.556766"><ele>83.866713</ele><time>2023-12-26T17:23:03Z</time><extensions><speed>0.813873</speed><course>43.564876</course><hAcc>2.860641</hAcc><vAcc>0.973439</vAcc></extensions></trkpt>
      <trkpt lon="-82.146015" lat="33.556771"><ele>83.783001</ele><time>2023-12-26T17:23:04Z</time><extensions><speed>0.690420</speed><course>27.942482</course><hAcc>2.912696</hAcc><vAcc>0.991054</vAcc></extensions></trkpt>
      <trkpt lon="-82.146012" lat="33.556776"><ele>83.698854</ele><time>2023-12-26T17:23:05Z</time><extensions><speed>0.605637</speed><course>25.367725</course><hAcc>2.961871</hAcc><vAcc>1.009574</vAcc></extensions></trkpt>
      <trkpt lon="-82.146010" lat="33.556781"><ele>83.625295</ele><time>2023-12-26T17:23:06Z</time><extensions><speed>0.521647</speed><course>25.112157</course><hAcc>3.019656</hAcc><vAcc>1.044663</vAcc></extensions></trkpt>
      <trkpt lon="-82.146007" lat="33.556785"><ele>83.552867</ele><time>2023-12-26T17:23:07Z</time><extensions><speed>0.477104</speed><course>23.713029</course><hAcc>3.123471</hAcc><vAcc>1.087652</vAcc></extensions></trkpt>
      <trkpt lon="-82.146005" lat="33.556789"><ele>83.481701</ele><time>2023-12-26T17:23:08Z</time><extensions><speed>0.471188</speed><course>23.862201</course><hAcc>3.272060</hAcc><vAcc>1.140268</vAcc></extensions></trkpt>
      <trkpt lon="-82.146003" lat="33.556793"><ele>83.411883</ele><time>2023-12-26T17:23:09Z</time><extensions><speed>0.502851</speed><course>23.567589</course><hAcc>3.467970</hAcc><vAcc>1.204361</vAcc></extensions></trkpt>
      <trkpt lon="-82.146001" lat="33.556797"><ele>83.343453</ele><time>2023-12-26T17:23:10Z</time><extensions><speed>0.555677</speed><course>21.191654</course><hAcc>3.693050</hAcc><vAcc>1.281806</vAcc></extensions></trkpt>
      <trkpt lon="-82.145999" lat="33.556802"><ele>83.276399</ele><time>2023-12-26T17:23:11Z</time><extensions><speed>0.590928</speed><course>19.652801</course><hAcc>3.930602</hAcc><vAcc>1.374418</vAcc></extensions></trkpt>
      <trkpt lon="-82.145997" lat="33.556807"><ele>83.210647</ele><time>2023-12-26T17:23:12Z</time><extensions><speed>0.617583</speed><course>18.545437</course><hAcc>4.246439</hAcc><vAcc>1.483863</vAcc></extensions></trkpt>
      <trkpt lon="-82.145995" lat="33.556813"><ele>83.146052</ele><time>2023-12-26T17:23:13Z</time><extensions><speed>0.638849</speed><course>17.551903</course><hAcc>4.699277</hAcc><vAcc>1.611601</vAcc></extensions></trkpt>
      <trkpt lon="-82.145993" lat="33.556818"><ele>83.082391</ele><time>2023-12-26T17:23:14Z</time><extensions><speed>0.652901</speed><course>16.728203</course><hAcc>5.335975</hAcc><vAcc>1.758843</vAcc></extensions></trkpt>
      <trkpt lon="-82.145991" lat="33.556824"><ele>83.019357</ele><time>2023-12-26T17:23:15Z</time><extensions><speed>0.659498</speed><course>16.142520</course><hAcc>6.210515</hAcc><vAcc>1.926542</vAcc></extensions></trkpt>
      <trkpt lon="-82.145980" lat="33.556666"><ele>83.210731</ele><time>2023-12-26T17:24:54Z</time><extensions><speed>0.234390</speed><course>229.971342</course><hAcc>4.446441</hAcc><vAcc>2.118269</vAcc></extensions></trkpt>
      <trkpt lon="-82.145980" lat="33.556665"><ele>83.226501</ele><time>2023-12-26T17:24:55Z</time><extensions><speed>0.288095</speed><course>234.560085</course><hAcc>4.191637</hAcc><vAcc>1.903688</vAcc></extensions></trkpt>
      <trkpt lon="-82.145982" lat="33.556664"><ele>83.241983</ele><time>2023-12-26T17:24:56Z</time><extensions><speed>0.333646</speed><course>242.378581</course><hAcc>4.016484</hAcc><vAcc>1.725804</vAcc></extensions></trkpt>
      <trkpt lon="-82.145984" lat="33.556663"><ele>83.258523</ele><time>2023-12-26T17:24:57Z</time><extensions><speed>0.360980</speed><course>246.858285</course><hAcc>3.843637</hAcc><vAcc>1.579595</vAcc></extensions></trkpt>
      <trkpt lon="-82.145987" lat="33.556662"><ele>83.274346</ele><time>2023-12-26T17:24:58Z</time><extensions><speed>0.370158</speed><course>237.171209</course><hAcc>3.699620</hAcc><vAcc>1.460667</vAcc></extensions></trkpt>
      <trkpt lon="-82.145988" lat="33.556661"><ele>83.292067</ele><time>2023-12-26T17:24:59Z</time><extensions><speed>0.383953</speed><course>228.742030</course><hAcc>3.539285</hAcc><vAcc>1.365091</vAcc></extensions></trkpt>
      <trkpt lon="-82.145989" lat="33.556661"><ele>83.314955</ele><time>2023-12-26T17:25:00Z</time><extensions><speed>0.349728</speed><course>223.891163</course><hAcc>3.412728</hAcc><vAcc>1.289267</vAcc></extensions></trkpt>
      <trkpt lon="-82.145989" lat="33.556661"><ele>83.342432</ele><time>2023-12-26T17:25:01Z</time><extensions><speed>0.240449</speed><course>218.705104</course><hAcc>3.309650</hAcc><vAcc>1.229888</vAcc></extensions></trkpt>
      <trkpt lon="-82.145989" lat="33.556661"><ele>83.371120</ele><time>2023-12-26T17:25:02Z</time><extensions><speed>0.178554</speed><course>197.933382</course><hAcc>3.229458</hAcc><vAcc>1.183974</vAcc></extensions></trkpt>
      <trkpt lon="-82.145988" lat="33.556661"><ele>83.401978</ele><time>2023-12-26T17:25:03Z</time><extensions><speed>0.171651</speed><course>166.425919</course><hAcc>3.165194</hAcc><vAcc>1.148936</vAcc></extensions></trkpt>
      <trkpt lon="-82.145987" lat="33.556662"><ele>83.435761</ele><time>2023-12-26T17:25:04Z</time><extensions><speed>0.170513</speed><course>115.775303</course><hAcc>3.101996</hAcc><vAcc>1.122569</vAcc></extensions></trkpt>
      <trkpt lon="-82.145985" lat="33.556663"><ele>83.495647</ele><time>2023-12-26T17:25:05Z</time><extensions><speed>0.260536</speed><course>88.204332</course><hAcc>3.054533</hAcc><vAcc>1.099069</vAcc></extensions></trkpt>
      <trkpt lon="-82.145982" lat="33.556666"><ele>83.555903</ele><time>2023-12-26T17:25:06Z</time><extensions><speed>0.434916</speed><course>76.910312</course><hAcc>3.024778</hAcc><vAcc>1.079226</vAcc></extensions></trkpt>
      <trkpt lon="-82.145976" lat="33.556669"><ele>83.608851</ele><time>2023-12-26T17:25:07Z</time><extensions><speed>0.620039</speed><course>71.843004</course><hAcc>3.008400</hAcc><vAcc>1.062041</vAcc></extensions></trkpt>
      <trkpt lon="-82.145970" lat="33.556672"><ele>83.653581</ele><time>2023-12-26T17:25:08Z</time><extensions><speed>0.700659</speed><course>80.986929</course><hAcc>3.000012</hAcc><vAcc>1.047057</vAcc></extensions></trkpt>
      <trkpt lon="-82.145963" lat="33.556673"><ele>83.689411</ele><time>2023-12-26T17:25:09Z</time><extensions><speed>0.958776</speed><course>101.782033</course><hAcc>2.979814</hAcc><vAcc>1.033831</vAcc></extensions></trkpt>
      <trkpt lon="-82.145953" lat="33.556672"><ele>83.718455</ele><time>2023-12-26T17:25:10Z</time><extensions><speed>1.042859</speed><course>106.391483</course><hAcc>2.933949</hAcc><vAcc>1.022005</vAcc></extensions></trkpt>
      <trkpt lon="-82.145944" lat="33.556671"><ele>83.741234</ele><time>2023-12-26T17:25:11Z</time><extensions><speed>1.055244</speed><course>104.886768</course><hAcc>2.894927</hAcc><vAcc>1.011363</vAcc></extensions></trkpt>
      <trkpt lon="-82.145934" lat="33.556670"><ele>83.759279</ele><time>2023-12-26T17:25:12Z</time><extensions><speed>1.054575</speed><course>109.538486</course><hAcc>2.906321</hAcc><vAcc>1.001858</vAcc></extensions></trkpt>
      <trkpt lon="-82.145924" lat="33.556668"><ele>83.826326</ele><time>2023-12-26T17:25:13Z</time><extensions><speed>0.964581</speed><course>109.293578</course><hAcc>2.920611</hAcc><vAcc>0.989638</vAcc></extensions></trkpt>
      <trkpt lon="-82.145916" lat="33.556666"><ele>83.888036</ele><time>2023-12-26T17:25:14Z</time><extensions><speed>0.808722</speed><course>105.822541</course><hAcc>2.924930</hAcc><vAcc>0.977222</vAcc></extensions></trkpt>
      <trkpt lon="-82.145909" lat="33.556666"><ele>83.944524</ele><time>2023-12-26T17:25:15Z</time><extensions><speed>0.598973</speed><course>99.088296</course><hAcc>2.921713</hAcc><vAcc>0.964715</vAcc></extensions></trkpt>
      <trkpt lon="-82.145904" lat="33.556666"><ele>83.999057</ele><time>2023-12-26T17:25:16Z</time><extensions><speed>0.395140</speed><course>85.523145</course><hAcc>2.930690</hAcc><vAcc>0.952282</vAcc></extensions></trkpt>
      <trkpt lon="-82.145901" lat="33.556667"><ele>84.051770</ele><time>2023-12-26T17:25:17Z</time><extensions><speed>0.252798</speed><course>75.961719</course><hAcc>2.965378</hAcc><vAcc>0.940061</vAcc></extensions></trkpt>
      <trkpt lon="-82.145900" lat="33.556668"><ele>84.103024</ele><time>2023-12-26T17:25:18Z</time><extensions><speed>0.178775</speed><course>8.604373</course><hAcc>3.004266</hAcc><vAcc>0.928101</vAcc></extensions></trkpt>
      <trkpt lon="-82.145900" lat="33.556670"><ele>84.153281</ele><time>2023-12-26T17:25:19Z</time><extensions><speed>0.229107</speed><course>342.574240</course><hAcc>3.045362</hAcc><vAcc>0.916356</vAcc></extensions></trkpt>
      <trkpt lon="-82.145901" lat="33.556673"><ele>84.202946</ele><time>2023-12-26T17:25:20Z</time><extensions><speed>0.265260</speed><course>336.069082</course><hAcc>3.076180</hAcc><vAcc>0.904711</vAcc></extensions></trkpt>
      <trkpt lon="-82.145902" lat="33.556675"><ele>84.252203</ele><time>2023-12-26T17:25:21Z</time><extensions><speed>0.285426</speed><course>334.368207</course><hAcc>3.101221</hAcc><vAcc>0.893032</vAcc></extensions></trkpt>
      <trkpt lon="-82.145904" lat="33.556678"><ele>84.300880</ele><time>2023-12-26T17:25:22Z</time><extensions><speed>0.337136</speed><course>333.913776</course><hAcc>3.121381</hAcc><vAcc>0.881235</vAcc></extensions></trkpt>
      <trkpt lon="-82.145906" lat="33.556681"><ele>84.332967</ele><time>2023-12-26T17:25:23Z</time><extensions><speed>0.398299</speed><course>333.297549</course><hAcc>3.170659</hAcc><vAcc>0.869354</vAcc></extensions></trkpt>
      <trkpt lon="-82.145907" lat="33.556683"><ele>84.374261</ele><time>2023-12-26T17:25:24Z</time><extensions><speed>0.328873</speed><course>333.546328</course><hAcc>3.296174</hAcc><vAcc>0.864217</vAcc></extensions></trkpt>
      <trkpt lon="-82.145909" lat="33.556686"><ele>84.413229</ele><time>2023-12-26T17:25:25Z</time><extensions><speed>0.289450</speed><course>333.086654</course><hAcc>3.439040</hAcc><vAcc>0.863171</vAcc></extensions></trkpt>
      <trkpt lon="-82.145910" lat="33.556688"><ele>84.449488</ele><time>2023-12-26T17:25:26Z</time><extensions><speed>0.239377</speed><course>332.466476</course><hAcc>3.603840</hAcc><vAcc>0.868592</vAcc></extensions></trkpt>
      <trkpt lon="-82.145911" lat="33.556690"><ele>84.482881</ele><time>2023-12-26T17:25:27Z</time><extensions><speed>0.188241</speed><course>332.168321</course><hAcc>3.792346</hAcc><vAcc>0.883524</vAcc></extensions></trkpt>
      <trkpt lon="-82.145912" lat="33.556691"><ele>84.513434</ele><time>2023-12-26T17:25:28Z</time><extensions><speed>0.146090</speed><course>332.168639</course><hAcc>4.013008</hAcc><vAcc>0.911595</vAcc></extensions></trkpt>
      <trkpt lon="-82.145913" lat="33.556692"><ele>84.541334</ele><time>2023-12-26T17:25:29Z</time><extensions><speed>0.115940</speed><course>332.549710</course><hAcc>4.289847</hAcc><vAcc>0.956752</vAcc></extensions></trkpt>
      <trkpt lon="-82.145913" lat="33.556693"><ele>84.566899</ele><time>2023-12-26T17:25:30Z</time><extensions><speed>0.090099</speed><course>333.531424</course><hAcc>4.661079</hAcc><vAcc>1.022803</vAcc></extensions></trkpt>
      <trkpt lon="-82.145914" lat="33.556694"><ele>84.590568</ele><time>2023-12-26T17:25:31Z</time><extensions><speed>0.065974</speed><course>335.716707</course><hAcc>5.166118</hAcc><vAcc>1.112926</vAcc></extensions></trkpt>
      <trkpt lon="-82.145914" lat="33.556694"><ele>84.612873</ele><time>2023-12-26T17:25:32Z</time><extensions><speed>0.044782</speed><course>340.585424</course><hAcc>5.853406</hAcc><vAcc>1.229288</vAcc></extensions></trkpt>
      <trkpt lon="-82.145914" lat="33.556694"><ele>84.634428</ele><time>2023-12-26T17:25:33Z</time><extensions><speed>0.028081</speed><course>352.135049</course><hAcc>6.796487</hAcc><vAcc>1.372885</vAcc></extensions></trkpt>
    </trkseg>
  </trk>
</gpx>