<?xml version="1.0" encoding="UTF-8"?>
<gpx version="1.1" creator="Apple Health Export" xmlns="http://www.topografix.com/GPX/1/1" xmlns:xsi="http://www.w3.org/2001/XMLSchema-instance" xsi:schemaLocation="http://www.topografix.com/GPX/1/1 http://www.topografix.com/GPX/1/1/gpx.xsd">
  <metadata>
    <time>2026-03-14T12:16:37Z</time>
  </metadata>
  <trk>
    <name>Route 2024-07-04 11:56am</name>
    <trkseg>
      <trkpt lon="-82.308733" lat="35.643921"><ele>807.481487</ele><time>2024-07-04T15:50:57Z</time><extensions><speed>1.298170</speed><course>230.268195</course><hAcc>2.902705</hAcc><vAcc>1.834128</vAcc></extensions></trkpt>
      <trkpt lon="-82.308743" lat="35.643915"><ele>807.456257</ele><time>2024-07-04T15:50:58Z</time><extensions><speed>1.250479</speed><course>226.924305</course><hAcc>2.722582</hAcc><vAcc>1.637646</vAcc></extensions></trkpt>
      <trkpt lon="-82.308752" lat="35.643908"><ele>807.420553</ele><time>2024-07-04T15:50:59Z</time><extensions><speed>1.157593</speed><course>219.717221</course><hAcc>2.588586</hAcc><vAcc>1.481112</vAcc></extensions></trkpt>
      <trkpt lon="-82.308759" lat="35.643900"><ele>807.382226</ele><time>2024-07-04T15:51:00Z</time><extensions><speed>1.056253</speed><course>214.365613</course><hAcc>2.476535</hAcc><vAcc>1.359008</vAcc></extensions></trkpt>
      <trkpt lon="-82.308765" lat="35.643893"><ele>807.342449</ele><time>2024-07-04T15:51:01Z</time><extensions><speed>0.943118</speed><course>213.988266</course><hAcc>2.390689</hAcc><vAcc>1.266110</vAcc></extensions></trkpt>
      <trkpt lon="-82.308771" lat="35.643887"><ele>807.299917</ele><time>2024-07-04T15:51:02Z</time><extensions><speed>0.756310</speed><course>213.903746</course><hAcc>2.327026</hAcc><vAcc>1.197360</vAcc></extensions></trkpt>
      <trkpt lon="-82.308776" lat="35.643883"><ele>807.249005</ele><time>2024-07-04T15:51:03Z</time><extensions><speed>0.638155</speed><course>213.299629</course><hAcc>2.269191</hAcc><vAcc>1.147954</vAcc></extensions></trkpt>
      <trkpt lon="-82.308780" lat="35.643879"><ele>807.198173</ele><time>2024-07-04T15:51:04Z</time><extensions><speed>0.506986</speed><course>201.118954</course><hAcc>2.222433</hAcc><vAcc>1.113522</vAcc></extensions></trkpt>
      <trkpt lon="-82.308782" lat="35.643876"><ele>807.159329</ele><time>2024-07-04T15:51:05Z</time><extensions><speed>0.269213</speed><course>176.185912</course><hAcc>2.180350</hAcc><vAcc>1.090254</vAcc></extensions></trkpt>
      <trkpt lon="-82.308782" lat="35.643874"><ele>807.118620</ele><time>2024-07-04T15:51:06Z</time><extensions><speed>0.284796</speed><course>167.008166</course><hAcc>2.164818</hAcc><vAcc>1.075021</vAcc></extensions></trkpt>
      <trkpt lon="-82.308782" lat="35.643872"><ele>807.083632</ele><time>2024-07-04T15:51:07Z</time><extensions><speed>0.448218</speed><course>156.954713</course><hAcc>2.150054</hAcc><vAcc>1.065352</vAcc></extensions></trkpt>
      <trkpt lon="-82.308782" lat="35.643869"><ele>807.051070</ele><time>2024-07-04T15:51:08Z</time><extensions><speed>0.537219</speed><course>154.887288</course><hAcc>2.140813</hAcc><vAcc>1.059387</vAcc></extensions></trkpt>
      <trkpt lon="-82.308781" lat="35.643865"><ele>807.025339</ele><time>2024-07-04T15:51:09Z</time><extensions><speed>0.543873</speed><course>160.618107</course><hAcc>2.125454</hAcc><vAcc>1.055791</vAcc></extensions></trkpt>
      <trkpt lon="-82.308780" lat="35.643861"><ele>807.010325</ele><time>2024-07-04T15:51:10Z</time><extensions><speed>0.577836</speed><course>162.383781</course><hAcc>2.115106</hAcc><vAcc>1.053607</vAcc></extensions></trkpt>
      <trkpt lon="-82.308780" lat="35.643858"><ele>807.005287</ele><time>2024-07-04T15:51:11Z</time><extensions><speed>0.545338</speed><course>163.788146</course><hAcc>2.106589</hAcc><vAcc>1.052185</vAcc></extensions></trkpt>
      <trkpt lon="-82.308781" lat="35.643854"><ele>807.009916</ele><time>2024-07-04T15:51:12Z</time><extensions><speed>0.498334</speed><course>184.779364</course><hAcc>2.092644</hAcc><vAcc>1.051117</vAcc></extensions></trkpt>
      <trkpt lon="-82.308785" lat="35.643851"><ele>807.022143</ele><time>2024-07-04T15:51:13Z</time><extensions><speed>0.512031</speed><course>208.404150</course><hAcc>2.069063</hAcc><vAcc>1.050167</vAcc></extensions></trkpt>
      <trkpt lon="-82.308791" lat="35.643848"><ele>807.042720</ele><time>2024-07-04T15:51:14Z</time><extensions><speed>0.657646</speed><course>233.101472</course><hAcc>2.047777</hAcc><vAcc>1.049200</vAcc></extensions></trkpt>
      <trkpt lon="-82.308800" lat="35.643845"><ele>807.067137</ele><time>2024-07-04T15:51:15Z</time><extensions><speed>0.887712</speed><course>249.917441</course><hAcc>2.030777</hAcc><vAcc>1.048139</vAcc></extensions></trkpt>
      <trkpt lon="-82.308811" lat="35.643843"><ele>807.095727</ele><time>2024-07-04T15:51:16Z</time><extensions><speed>1.050546</speed><course>254.005799</course><hAcc>2.024541</hAcc><vAcc>1.047000</vAcc></extensions></trkpt>
      <trkpt lon="-82.308825" lat="35.643842"><ele>807.125558</ele><time>2024-07-04T15:51:17Z</time><extensions><speed>1.166371</speed><course>260.189512</course><hAcc>2.014176</hAcc><vAcc>1.045833</vAcc></extensions></trkpt>
      <trkpt lon="-82.308839" lat="35.643841"><ele>807.154160</ele><time>2024-07-04T15:51:18Z</time><extensions><speed>1.167095</speed><course>262.993147</course><hAcc>2.006979</hAcc><vAcc>1.044627</vAcc></extensions></trkpt>
      <trkpt lon="-82.308853" lat="35.643841"><ele>807.186569</ele><time>2024-07-04T15:51:19Z</time><extensions><speed>1.224947</speed><course>261.780842</course><hAcc>1.987454</hAcc><vAcc>1.043391</vAcc></extensions></trkpt>
      <trkpt lon="-82.308868" lat="35.643840"><ele>807.219546</ele><time>2024-07-04T15:51:20Z</time><extensions><speed>1.273218</speed><course>262.382452</course><hAcc>1.964675</hAcc><vAcc>1.042119</vAcc></extensions></trkpt>
      <trkpt lon="-82.308883" lat="35.643840"><ele>807.253004</ele><time>2024-07-04T15:51:21Z</time><extensions><speed>1.339876</speed><course>264.254178</course><hAcc>1.942593</hAcc><vAcc>1.040780</vAcc></extensions></trkpt>
      <trkpt lon="-82.308899" lat="35.643839"><ele>807.285874</ele><time>2024-07-04T15:51:22Z</time><extensions><speed>1.304980</speed><course>261.145115</course><hAcc>1.941759</hAcc><vAcc>1.039445</vAcc></extensions></trkpt>
      <trkpt lon="-82.308913" lat="35.643837"><ele>807.322653</ele><time>2024-07-04T15:51:23Z</time><extensions><speed>1.321722</speed><course>256.589859</course><hAcc>1.937200</hAcc><vAcc>1.038095</vAcc></extensions></trkpt>
      <trkpt lon="-82.308928" lat="35.643835"><ele>807.361181</ele><time>2024-07-04T15:51:24Z</time><extensions><speed>1.330687</speed><course>254.282386</course><hAcc>1.929356</hAcc><vAcc>1.036763</vAcc></extensions></trkpt>
      <trkpt lon="-82.308943" lat="35.643833"><ele>807.400517</ele><time>2024-07-04T15:51:25Z</time><extensions><speed>1.329680</speed><course>255.593454</course><hAcc>1.917274</hAcc><vAcc>1.035407</vAcc></extensions></trkpt>
      <trkpt lon="-82.308957" lat="35.643831"><ele>807.440964</ele><time>2024-07-04T15:51:26Z</time><extensions><speed>1.309566</speed><course>259.197117</course><hAcc>1.909822</hAcc><vAcc>1.034031</vAcc></extensions></trkpt>
      <trkpt lon="-82.308972" lat="35.643830"><ele>807.480185</ele><time>2024-07-04T15:51:27Z</time><extensions><speed>1.299019</speed><course>261.983739</course><hAcc>1.895856</hAcc><vAcc>1.032610</vAcc></extensions></trkpt>
      <trkpt lon="-82.308986" lat="35.643830"><ele>807.519880</ele><time>2024-07-04T15:51:28Z</time><extensions><speed>1.277126</speed><course>267.227444</course><hAcc>1.895355</hAcc><vAcc>1.031138</vAcc></extensions></trkpt>
      <trkpt lon="-82.309001" lat="35.643830"><ele>807.561028</ele><time>2024-07-04T15:51:29Z</time><extensions><speed>1.281891</speed><course>269.494256</course><hAcc>1.895126</hAcc><vAcc>1.029568</vAcc></extensions></trkpt>
      <trkpt lon="-82.309015" lat="35.643831"><ele>807.603921</ele><time>2024-07-04T15:51:30Z</time><extensions><speed>1.262020</speed><course>273.116221</course><hAcc>1.876847</hAcc><vAcc>1.027896</vAcc></extensions></trkpt>
      <trkpt lon="-82.309030" lat="35.643832"><ele>807.645340</ele><time>2024-07-04T15:51:31Z</time><extensions><speed>1.230260</speed><course>266.396820</course><hAcc>1.877206</hAcc><vAcc>1.026099</vAcc></extensions></trkpt>
      <trkpt lon="-82.309044" lat="35.643833"><ele>807.687618</ele><time>2024-07-04T15:51:32Z</time><extensions><speed>1.225603</speed><course>274.602259</course><hAcc>1.847151</hAcc><vAcc>1.024136</vAcc></extensions></trkpt>
      <trkpt lon="-82.309058" lat="35.643834"><ele>807.725654</ele><time>2024-07-04T15:51:33Z</time><extensions><speed>1.209471</speed><course>279.036928</course><hAcc>1.844048</hAcc><vAcc>1.022024</vAcc></extensions></trkpt>
      <trkpt lon="-82.309071" lat="35.643837"><ele>807.763149</ele><time>2024-07-04T15:51:34Z</time><extensions><speed>1.204241</speed><course>286.622274</course><hAcc>1.840000</hAcc><vAcc>1.019733</vAcc></extensions></trkpt>
      <trkpt lon="-82.309084" lat="35.643841"><ele>807.797765</ele><time>2024-07-04T15:51:35Z</time><extensions><speed>1.203414</speed><course>294.930008</course><hAcc>1.838097</hAcc><vAcc>1.017222</vAcc></extensions></trkpt>
      <trkpt lon="-82.309097" lat="35.643847"><ele>807.833338</ele><time>2024-07-04T15:51:36Z</time><extensions><speed>1.184880</speed><course>298.457294</course><hAcc>1.836308</hAcc><vAcc>1.014502</vAcc></extensions></trkpt>
      <trkpt lon="-82.309108" lat="35.643852"><ele>807.868582</ele><time>2024-07-04T15:51:37Z</time><extensions><speed>1.087161</speed><course>302.693652</course><hAcc>1.846155</hAcc><vAcc>1.011635</vAcc></extensions></trkpt>
      <trkpt lon="-82.309120" lat="35.643858"><ele>807.907197</ele><time>2024-07-04T15:51:38Z</time><extensions><speed>1.219441</speed><course>304.127393</course><hAcc>1.805591</hAcc><vAcc>1.008681</vAcc></extensions></trkpt>
      <trkpt lon="-82.309131" lat="35.643864"><ele>807.948055</ele><time>2024-07-04T15:51:39Z</time><extensions><speed>1.225758</speed><course>303.564451</course><hAcc>1.806888</hAcc><vAcc>1.005679</vAcc></extensions></trkpt>
      <trkpt lon="-82.309143" lat="35.643869"><ele>807.988553</ele><time>2024-07-04T15:51:40Z</time><extensions><speed>1.131006</speed><course>301.398389</course><hAcc>1.829294</hAcc><vAcc>1.002642</vAcc></extensions></trkpt>
      <trkpt lon="-82.309155" lat="35.643875"><ele>808.029486</ele><time>2024-07-04T15:51:41Z</time><extensions><speed>1.241988</speed><course>302.767129</course><hAcc>1.800072</hAcc><vAcc>0.999656</vAcc></extensions></trkpt>
      <trkpt lon="-82.309167" lat="35.643881"><ele>808.071085</ele><time>2024-07-04T15:51:42Z</time><extensions><speed>1.168806</speed><course>300.906829</course><hAcc>1.814782</hAcc><vAcc>0.996796</vAcc></extensions></trkpt>
      <trkpt lon="-82.309180" lat="35.643885"><ele>808.112913</ele><time>2024-07-04T15:51:43Z</time><extensions><speed>1.279306</speed><course>295.101987</course><hAcc>1.772828</hAcc><vAcc>0.994169</vAcc></extensions></trkpt>
      <trkpt lon="-82.309193" lat="35.643890"><ele>808.156832</ele><time>2024-07-04T15:51:44Z</time><extensions><speed>1.289971</speed><course>291.306451</course><hAcc>1.782602</hAcc><vAcc>0.991906</vAcc></extensions></trkpt>
      <trkpt lon="-82.309206" lat="35.643893"><ele>808.199601</ele><time>2024-07-04T15:51:45Z</time><extensions><speed>1.190627</speed><course>290.401279</course><hAcc>1.823900</hAcc><vAcc>0.989924</vAcc></extensions></trkpt>
      <trkpt lon="-82.309219" lat="35.643897"><ele>808.244740</ele><time>2024-07-04T15:51:46Z</time><extensions><speed>1.255252</speed><course>285.148631</course><hAcc>1.791448</hAcc><vAcc>0.988424</vAcc></extensions></trkpt>
      <trkpt lon="-82.309233" lat="35.643899"><ele>808.297376</ele><time>2024-07-04T15:51:47Z</time><extensions><speed>1.197673</speed><course>282.763349</course><hAcc>1.803414</hAcc><vAcc>0.987357</vAcc></extensions></trkpt>
      <trkpt lon="-82.309247" lat="35.643901"><ele>808.350830</ele><time>2024-07-04T15:51:48Z</time><extensions><speed>1.302769</speed><course>281.624249</course><hAcc>1.775779</hAcc><vAcc>0.986688</vAcc></extensions></trkpt>
      <trkpt lon="-82.309261" lat="35.643903"><ele>808.403424</ele><time>2024-07-04T15:51:49Z</time><extensions><speed>1.306361</speed><course>281.897535</course><hAcc>1.792479</hAcc><vAcc>0.986480</vAcc></extensions></trkpt>
      <trkpt lon="-82.309275" lat="35.643905"><ele>808.452267</ele><time>2024-07-04T15:51:50Z</time><extensions><speed>1.215902</speed><course>281.999452</course><hAcc>1.827170</hAcc><vAcc>0.986644</vAcc></extensions></trkpt>
      <trkpt lon="-82.309289" lat="35.643906"><ele>808.498761</ele><time>2024-07-04T15:51:51Z</time><extensions><speed>1.299523</speed><course>283.201280</course><hAcc>1.815512</hAcc><vAcc>0.987163</vAcc></extensions></trkpt>
      <trkpt lon="-82.309303" lat="35.643908"><ele>808.543463</ele><time>2024-07-04T15:51:52Z</time><extensions><speed>1.285115</speed><course>287.026222</course><hAcc>1.834152</hAcc><vAcc>0.988016</vAcc></extensions></trkpt>
      <trkpt lon="-82.309318" lat="35.643910"><ele>808.584869</ele><time>2024-07-04T15:51:53Z</time><extensions><speed>1.304918</speed><course>283.997248</course><hAcc>1.788006</hAcc><vAcc>0.989088</vAcc></extensions></trkpt>
      <trkpt lon="-82.309332" lat="35.643912"><ele>808.622588</ele><time>2024-07-04T15:51:54Z</time><extensions><speed>1.260727</speed><course>285.191080</course><hAcc>1.796740</hAcc><vAcc>0.990389</vAcc></extensions></trkpt>
      <trkpt lon="-82.309345" lat="35.643914"><ele>808.653127</ele><time>2024-07-04T15:51:55Z</time><extensions><speed>1.197501</speed><course>288.596710</course><hAcc>1.828793</hAcc><vAcc>0.991839</vAcc></extensions></trkpt>
      <trkpt lon="-82.309358" lat="35.643916"><ele>808.677606</ele><time>2024-07-04T15:51:56Z</time><extensions><speed>1.203884</speed><course>281.050611</course><hAcc>1.782793</hAcc><vAcc>0.993309</vAcc></extensions></trkpt>
      <trkpt lon="-82.309370" lat="35.643917"><ele>808.708538</ele><time>2024-07-04T15:51:57Z</time><extensions><speed>1.194706</speed><course>283.543676</course><hAcc>1.798375</hAcc><vAcc>0.994640</vAcc></extensions></trkpt>
      <trkpt lon="-82.309383" lat="35.643917"><ele>808.733840</ele><time>2024-07-04T15:51:58Z</time><extensions><speed>1.233657</speed><course>274.916068</course><hAcc>1.803660</hAcc><vAcc>0.995760</vAcc></extensions></trkpt>
      <trkpt lon="-82.309396" lat="35.643916"><ele>808.748337</ele><time>2024-07-04T15:51:59Z</time><extensions><speed>1.271454</speed><course>262.909812</course><hAcc>1.755913</hAcc><vAcc>0.996679</vAcc></extensions></trkpt>
      <trkpt lon="-82.309409" lat="35.643912"><ele>808.761564</ele><time>2024-07-04T15:52:00Z</time><extensions><speed>1.321808</speed><course>258.402973</course><hAcc>1.765914</hAcc><vAcc>0.997381</vAcc></extensions></trkpt>
      <trkpt lon="-82.309422" lat="35.643908"><ele>808.772754</ele><time>2024-07-04T15:52:01Z</time><extensions><speed>1.258947</speed><course>257.945019</course><hAcc>1.754438</hAcc><vAcc>0.997786</vAcc></extensions></trkpt>
      <trkpt lon="-82.309435" lat="35.643903"><ele>808.781976</ele><time>2024-07-04T15:52:02Z</time><extensions><speed>1.236192</speed><course>258.273625</course><hAcc>1.768546</hAcc><vAcc>0.997914</vAcc></extensions></trkpt>
      <trkpt lon="-82.309447" lat="35.643900"><ele>808.786986</ele><time>2024-07-04T15:52:03Z</time><extensions><speed>1.248965</speed><course>271.619306</course><hAcc>1.805616</hAcc><vAcc>0.997709</vAcc></extensions></trkpt>
      <trkpt lon="-82.309459" lat="35.643898"><ele>808.794869</ele><time>2024-07-04T15:52:04Z</time><extensions><speed>1.197332</speed><course>260.780112</course><hAcc>1.758830</hAcc><vAcc>0.997203</vAcc></extensions></trkpt>
      <trkpt lon="-82.309472" lat="35.643895"><ele>808.802537</ele><time>2024-07-04T15:52:05Z</time><extensions><speed>1.262974</speed><course>265.373454</course><hAcc>1.766715</hAcc><vAcc>0.996412</vAcc></extensions></trkpt>
      <trkpt lon="-82.309483" lat="35.643894"><ele>808.804046</ele><time>2024-07-04T15:52:06Z</time><extensions><speed>1.030581</speed><course>280.180246</course><hAcc>1.757015</hAcc><vAcc>0.995359</vAcc></extensions></trkpt>
      <trkpt lon="-82.309493" lat="35.643894"><ele>808.806303</ele><time>2024-07-04T15:52:07Z</time><extensions><speed>1.022726</speed><course>273.673746</course><hAcc>1.742745</hAcc><vAcc>0.994128</vAcc></extensions></trkpt>
      <trkpt lon="-82.309503" lat="35.643894"><ele>808.811253</ele><time>2024-07-04T15:52:08Z</time><extensions><speed>1.130135</speed><course>279.913401</course><hAcc>1.757795</hAcc><vAcc>0.992757</vAcc></extensions></trkpt>
      <trkpt lon="-82.309514" lat="35.643893"><ele>808.815674</ele><time>2024-07-04T15:52:09Z</time><extensions><speed>1.072355</speed><course>256.681020</course><hAcc>1.715656</hAcc><vAcc>0.991262</vAcc></extensions></trkpt>
      <trkpt lon="-82.309524" lat="35.643888"><ele>808.814711</ele><time>2024-07-04T15:52:10Z</time><extensions><speed>1.199262</speed><course>241.376298</course><hAcc>1.708766</hAcc><vAcc>0.989684</vAcc></extensions></trkpt>
      <trkpt lon="-82.309535" lat="35.643883"><ele>808.798898</ele><time>2024-07-04T15:52:11Z</time><extensions><speed>1.169152</speed><course>253.955781</course><hAcc>1.746788</hAcc><vAcc>0.988030</vAcc></extensions></trkpt>
      <trkpt lon="-82.309545" lat="35.643877"><ele>808.781707</ele><time>2024-07-04T15:52:12Z</time><extensions><speed>1.195629</speed><course>237.929952</course><hAcc>1.721047</hAcc><vAcc>0.986327</vAcc></extensions></trkpt>
      <trkpt lon="-82.309556" lat="35.643871"><ele>808.760382</ele><time>2024-07-04T15:52:13Z</time><extensions><speed>1.197371</speed><course>246.693897</course><hAcc>1.736532</hAcc><vAcc>0.984564</vAcc></extensions></trkpt>
      <trkpt lon="-82.309566" lat="35.643866"><ele>808.734931</ele><time>2024-07-04T15:52:14Z</time><extensions><speed>0.993258</speed><course>253.951202</course><hAcc>1.732202</hAcc><vAcc>0.982790</vAcc></extensions></trkpt>
      <trkpt lon="-82.309575" lat="35.643863"><ele>808.701695</ele><time>2024-07-04T15:52:15Z</time><extensions><speed>0.929285</speed><course>262.585929</course><hAcc>1.732033</hAcc><vAcc>0.980980</vAcc></extensions></trkpt>
      <trkpt lon="-82.309585" lat="35.643861"><ele>808.657758</ele><time>2024-07-04T15:52:16Z</time><extensions><speed>1.018771</speed><course>255.585303</course><hAcc>1.713730</hAcc><vAcc>0.979167</vAcc></extensions></trkpt>
      <trkpt lon="-82.309594" lat="35.643858"><ele>808.611556</ele><time>2024-07-04T15:52:17Z</time><extensions><speed>0.894736</speed><course>260.101259</course><hAcc>1.696453</hAcc><vAcc>0.977382</vAcc></extensions></trkpt>
      <trkpt lon="-82.309603" lat="35.643856"><ele>808.566906</ele><time>2024-07-04T15:52:18Z</time><extensions><speed>0.864209</speed><course>262.714672</course><hAcc>1.689542</hAcc><vAcc>0.975607</vAcc></extensions></trkpt>
      <trkpt lon="-82.309611" lat="35.643854"><ele>808.516663</ele><time>2024-07-04T15:52:19Z</time><extensions><speed>0.834573</speed><course>266.315997</course><hAcc>1.688119</hAcc><vAcc>0.973881</vAcc></extensions></trkpt>
      <trkpt lon="-82.309619" lat="35.643853"><ele>808.464280</ele><time>2024-07-04T15:52:20Z</time><extensions><speed>0.824953</speed><course>260.861860</course><hAcc>1.676732</hAcc><vAcc>0.972200</vAcc></extensions></trkpt>
      <trkpt lon="-82.309627" lat="35.643852"><ele>808.411984</ele><time>2024-07-04T15:52:21Z</time><extensions><speed>0.933081</speed><course>267.266236</course><hAcc>1.692878</hAcc><vAcc>0.970544</vAcc></extensions></trkpt>
      <trkpt lon="-82.309636" lat="35.643850"><ele>808.358752</ele><time>2024-07-04T15:52:22Z</time><extensions><speed>0.852277</speed><course>255.052005</course><hAcc>1.665170</hAcc><vAcc>0.968905</vAcc></extensions></trkpt>
      <trkpt lon="-82.309645" lat="35.643847"><ele>808.305342</ele><time>2024-07-04T15:52:23Z</time><extensions><speed>0.951128</speed><course>250.387200</course><hAcc>1.672512</hAcc><vAcc>0.967252</vAcc></extensions></trkpt>
      <trkpt lon="-82.309653" lat="35.643844"><ele>808.258053</ele><time>2024-07-04T15:52:24Z</time><extensions><speed>0.832074</speed><course>248.463404</course><hAcc>1.668092</hAcc><vAcc>0.965571</vAcc></extensions></trkpt>
      <trkpt lon="-82.309660" lat="35.643841"><ele>808.217522</ele><time>2024-07-04T15:52:25Z</time><extensions><speed>0.821790</speed><course>249.420192</course><hAcc>1.679535</hAcc><vAcc>0.963868</vAcc></extensions></trkpt>
      <trkpt lon="-82.309668" lat="35.643838"><ele>808.178099</ele><time>2024-07-04T15:52:26Z</time><extensions><speed>0.882297</speed><course>247.313028</course><hAcc>1.686849</hAcc><vAcc>0.962199</vAcc></extensions></trkpt>
      <trkpt lon="-82.309676" lat="35.643835"><ele>808.144909</ele><time>2024-07-04T15:52:27Z</time><extensions><speed>0.740842</speed><course>256.483086</course><hAcc>1.694166</hAcc><vAcc>0.960504</vAcc></extensions></trkpt>
      <trkpt lon="-82.309683" lat="35.643833"><ele>808.114627</ele><time>2024-07-04T15:52:28Z</time><extensions><speed>0.725493</speed><course>254.767016</course><hAcc>1.706541</hAcc><vAcc>0.958780</vAcc></extensions></trkpt>
      <trkpt lon="-82.309690" lat="35.643831"><ele>808.079634</ele><time>2024-07-04T15:52:29Z</time><extensions><speed>0.697505</speed><course>252.692977</course><hAcc>1.712698</hAcc><vAcc>0.956984</vAcc></extensions></trkpt>
      <trkpt lon="-82.309697" lat="35.643828"><ele>808.046621</ele><time>2024-07-04T15:52:30Z</time><extensions><speed>0.663402</speed><course>249.607621</course><hAcc>1.715892</hAcc><vAcc>0.955133</vAcc></extensions></trkpt>
      <trkpt lon="-82.309703" lat="35.643826"><ele>808.013258</ele><time>2024-07-04T15:52:31Z</time><extensions><speed>0.654284</speed><course>250.423130</course><hAcc>1.724267</hAcc><vAcc>0.953232</vAcc></extensions></trkpt>
      <trkpt lon="-82.309710" lat="35.643823"><ele>807.983482</ele><time>2024-07-04T15:52:32Z</time><extensions><speed>0.670823</speed><course>254.554737</course><hAcc>1.731337</hAcc><vAcc>0.951293</vAcc></extensions></trkpt>
      <trkpt lon="-82.309717" lat="35.643821"><ele>807.960130</ele><time>2024-07-04T15:52:33Z</time><extensions><speed>0.671554</speed><course>257.561610</course><hAcc>1.730192</hAcc><vAcc>0.949277</vAcc></extensions></trkpt>
      <trkpt lon="-82.309724" lat="35.643819"><ele>807.939008</ele><time>2024-07-04T15:52:34Z</time><extensions><speed>0.673057</speed><course>254.877508</course><hAcc>1.725527</hAcc><vAcc>0.947208</vAcc></extensions></trkpt>
      <trkpt lon="-82.309731" lat="35.643816"><ele>807.922518</ele><time>2024-07-04T15:52:35Z</time><extensions><speed>0.666692</speed><course>251.836370</course><hAcc>1.717276</hAcc><vAcc>0.945111</vAcc></extensions></trkpt>
      <trkpt lon="-82.309737" lat="35.643813"><ele>807.909008</ele><time>2024-07-04T15:52:36Z</time><extensions><speed>0.651332</speed><course>244.423122</course><hAcc>1.698148</hAcc><vAcc>0.942990</vAcc></extensions></trkpt>
      <trkpt lon="-82.309743" lat="35.643809"><ele>807.891424</ele><time>2024-07-04T15:52:37Z</time><extensions><speed>0.688199</speed><course>244.970978</course><hAcc>1.710675</hAcc><vAcc>0.940898</vAcc></extensions></trkpt>
      <trkpt lon="-82.309750" lat="35.643805"><ele>807.875016</ele><time>2024-07-04T15:52:38Z</time><extensions><speed>0.706731</speed><course>243.095547</course><hAcc>1.707712</hAcc><vAcc>0.938894</vAcc></extensions></trkpt>
      <trkpt lon="-82.309756" lat="35.643801"><ele>807.856061</ele><time>2024-07-04T15:52:39Z</time><extensions><speed>0.725700</speed><course>247.253829</course><hAcc>1.707556</hAcc><vAcc>0.937022</vAcc></extensions></trkpt>
      <trkpt lon="-82.309763" lat="35.643798"><ele>807.833855</ele><time>2024-07-04T15:52:40Z</time><extensions><speed>0.759820</speed><course>245.790324</course><hAcc>1.673196</hAcc><vAcc>0.935352</vAcc></extensions></trkpt>
      <trkpt lon="-82.309770" lat="35.643794"><ele>807.821799</ele><time>2024-07-04T15:52:41Z</time><extensions><speed>0.811332</speed><course>247.544848</course><hAcc>1.668930</hAcc><vAcc>0.933938</vAcc></extensions></trkpt>
      <trkpt lon="-82.309778" lat="35.643790"><ele>807.815949</ele><time>2024-07-04T15:52:42Z</time><extensions><speed>0.814896</speed><course>252.256427</course><hAcc>1.651634</hAcc><vAcc>0.932771</vAcc></extensions></trkpt>
      <trkpt lon="-82.309786" lat="35.643787"><ele>807.814687</ele><time>2024-07-04T15:52:43Z</time><extensions><speed>0.819397</speed><course>250.270825</course><hAcc>1.637822</hAcc><vAcc>0.931882</vAcc></extensions></trkpt>
      <trkpt lon="-82.309794" lat="35.643783"><ele>807.811441</ele><time>2024-07-04T15:52:44Z</time><extensions><speed>0.851157</speed><course>246.708814</course><hAcc>1.630735</hAcc><vAcc>0.931293</vAcc></extensions></trkpt>
      <trkpt lon="-82.309801" lat="35.643779"><ele>807.808275</ele><time>2024-07-04T15:52:45Z</time><extensions><speed>0.883954</speed><course>240.615075</course><hAcc>1.605565</hAcc><vAcc>0.931005</vAcc></extensions></trkpt>
      <trkpt lon="-82.309809" lat="35.643774"><ele>807.802892</ele><time>2024-07-04T15:52:46Z</time><extensions><speed>0.909133</speed><course>240.369765</course><hAcc>1.608881</hAcc><vAcc>0.931007</vAcc></extensions></trkpt>
      <trkpt lon="-82.309817" lat="35.643768"><ele>807.793254</ele><time>2024-07-04T15:52:47Z</time><extensions><speed>0.927029</speed><course>243.907287</course><hAcc>1.622560</hAcc><vAcc>0.931274</vAcc></extensions></trkpt>
      <trkpt lon="-82.309826" lat="35.643764"><ele>807.781032</ele><time>2024-07-04T15:52:48Z</time><extensions><speed>0.878863</speed><course>247.650791</course><hAcc>1.613132</hAcc><vAcc>0.931757</vAcc></extensions></trkpt>
      <trkpt lon="-82.309834" lat="35.643759"><ele>807.765699</ele><time>2024-07-04T15:52:49Z</time><extensions><speed>0.899792</speed><course>244.620980</course><hAcc>1.605940</hAcc><vAcc>0.932420</vAcc></extensions></trkpt>
      <trkpt lon="-82.309841" lat="35.643754"><ele>807.749518</ele><time>2024-07-04T15:52:50Z</time><extensions><speed>0.893083</speed><course>235.949530</course><hAcc>1.583253</hAcc><vAcc>0.933210</vAcc></extensions></trkpt>
      <trkpt lon="-82.309848" lat="35.643748"><ele>807.734775</ele><time>2024-07-04T15:52:51Z</time><extensions><speed>0.847675</speed><course>234.411140</course><hAcc>1.589938</hAcc><vAcc>0.934064</vAcc></extensions></trkpt>
      <trkpt lon="-82.309855" lat="35.643743"><ele>807.723728</ele><time>2024-07-04T15:52:52Z</time><extensions><speed>0.818747</speed><course>242.074358</course><hAcc>1.605862</hAcc><vAcc>0.934917</vAcc></extensions></trkpt>
      <trkpt lon="-82.309862" lat="35.643740"><ele>807.724813</ele><time>2024-07-04T15:52:53Z</time><extensions><speed>0.808257</speed><course>248.393156</course><hAcc>1.608081</hAcc><vAcc>0.935678</vAcc></extensions></trkpt>
      <trkpt lon="-82.309869" lat="35.643736"><ele>807.742780</ele><time>2024-07-04T15:52:54Z</time><extensions><speed>0.834853</speed><course>242.764852</course><hAcc>1.597637</hAcc><vAcc>0.934665</vAcc></extensions></trkpt>
      <trkpt lon="-82.309876" lat="35.643732"><ele>807.762691</ele><time>2024-07-04T15:52:55Z</time><extensions><speed>0.864707</speed><course>241.071092</course><hAcc>1.593157</hAcc><vAcc>0.932683</vAcc></extensions></trkpt>
      <trkpt lon="-82.309883" lat="35.643727"><ele>807.783401</ele><time>2024-07-04T15:52:56Z</time><extensions><speed>0.938864</speed><course>231.377346</course><hAcc>1.585206</hAcc><vAcc>0.929765</vAcc></extensions></trkpt>
      <trkpt lon="-82.309891" lat="35.643722"><ele>807.805073</ele><time>2024-07-04T15:52:57Z</time><extensions><speed>0.908455</speed><course>240.516803</course><hAcc>1.602588</hAcc><vAcc>0.925868</vAcc></extensions></trkpt>
      <trkpt lon="-82.309898" lat="35.643717"><ele>807.828617</ele><time>2024-07-04T15:52:58Z</time><extensions><speed>0.902305</speed><course>230.479672</course><hAcc>1.602748</hAcc><vAcc>0.920978</vAcc></extensions></trkpt>
      <trkpt lon="-82.309903" lat="35.643710"><ele>807.855921</ele><time>2024-07-04T15:52:59Z</time><extensions><speed>0.946754</speed><course>197.153186</course><hAcc>1.608960</hAcc><vAcc>0.915147</vAcc></extensions></trkpt>
      <trkpt lon="-82.309904" lat="35.643701"><ele>807.886604</ele><time>2024-07-04T15:53:00Z</time><extensions><speed>1.018865</speed><course>177.517722</course><hAcc>1.611959</hAcc><vAcc>0.908446</vAcc></extensions></trkpt>
      <trkpt lon="-82.309902" lat="35.643692"><ele>807.923217</ele><time>2024-07-04T15:53:01Z</time><extensions><speed>1.004111</speed><course>172.221415</course><hAcc>1.635115</hAcc><vAcc>0.900928</vAcc></extensions></trkpt>
      <trkpt lon="-82.309901" lat="35.643683"><ele>807.961821</ele><time>2024-07-04T15:53:02Z</time><extensions><speed>0.947750</speed><course>172.445289</course><hAcc>1.661339</hAcc><vAcc>0.892708</vAcc></extensions></trkpt>
      <trkpt lon="-82.309899" lat="35.643675"><ele>808.002072</ele><time>2024-07-04T15:53:03Z</time><extensions><speed>0.779050</speed><course>170.686331</course><hAcc>1.676974</hAcc><vAcc>0.883978</vAcc></extensions></trkpt>
      <trkpt lon="-82.309897" lat="35.643670"><ele>808.045858</ele><time>2024-07-04T15:53:04Z</time><extensions><speed>0.358898</speed><course>168.646832</course><hAcc>1.719979</hAcc><vAcc>0.875031</vAcc></extensions></trkpt>
      <trkpt lon="-82.309896" lat="35.643667"><ele>808.095371</ele><time>2024-07-04T15:53:05Z</time><extensions><speed>0.206833</speed><course>180.782271</course><hAcc>1.740949</hAcc><vAcc>0.866230</vAcc></extensions></trkpt>
      <trkpt lon="-82.309896" lat="35.643664"><ele>808.147993</ele><time>2024-07-04T15:53:06Z</time><extensions><speed>0.323828</speed><course>213.336222</course><hAcc>1.743331</hAcc><vAcc>0.857992</vAcc></extensions></trkpt>
      <trkpt lon="-82.309898" lat="35.643661"><ele>808.200650</ele><time>2024-07-04T15:53:07Z</time><extensions><speed>0.471529</speed><course>226.242774</course><hAcc>1.732606</hAcc><vAcc>0.850698</vAcc></extensions></trkpt>
      <trkpt lon="-82.309902" lat="35.643658"><ele>808.254314</ele><time>2024-07-04T15:53:08Z</time><extensions><speed>0.508813</speed><course>235.089514</course><hAcc>1.722181</hAcc><vAcc>0.844667</vAcc></extensions></trkpt>
      <trkpt lon="-82.309908" lat="35.643655"><ele>808.304994</ele><time>2024-07-04T15:53:09Z</time><extensions><speed>0.674147</speed><course>247.131986</course><hAcc>1.713873</hAcc><vAcc>0.840110</vAcc></extensions></trkpt>
      <trkpt lon="-82.309916" lat="35.643652"><ele>808.357682</ele><time>2024-07-04T15:53:10Z</time><extensions><speed>0.818334</speed><course>253.162811</course><hAcc>1.707399</hAcc><vAcc>0.837159</vAcc></extensions></trkpt>
      <trkpt lon="-82.309924" lat="35.643650"><ele>808.418671</ele><time>2024-07-04T15:53:11Z</time><extensions><speed>0.832028</speed><course>253.348931</course><hAcc>1.696028</hAcc><vAcc>0.835820</vAcc></extensions></trkpt>
      <trkpt lon="-82.309933" lat="35.643648"><ele>808.486101</ele><time>2024-07-04T15:53:12Z</time><extensions><speed>0.834118</speed><course>253.867634</course><hAcc>1.692849</hAcc><vAcc>0.836012</vAcc></extensions></trkpt>
      <trkpt lon="-82.309942" lat="35.643645"><ele>808.559724</ele><time>2024-07-04T15:53:13Z</time><extensions><speed>0.822468</speed><course>250.044302</course><hAcc>1.692879</hAcc><vAcc>0.837585</vAcc></extensions></trkpt>
      <trkpt lon="-82.309951" lat="35.643642"><ele>808.636076</ele><time>2024-07-04T15:53:14Z</time><extensions><speed>0.787218</speed><course>252.464568</course><hAcc>1.693251</hAcc><vAcc>0.840333</vAcc></extensions></trkpt>
      <trkpt lon="-82.309959" lat="35.643640"><ele>808.714912</ele><time>2024-07-04T15:53:15Z</time><extensions><speed>0.793589</speed><course>251.032217</course><hAcc>1.684484</hAcc><vAcc>0.844034</vAcc></extensions></trkpt>
      <trkpt lon="-82.309967" lat="35.643637"><ele>808.799312</ele><time>2024-07-04T15:53:16Z</time><extensions><speed>0.832594</speed><course>245.790870</course><hAcc>1.680437</hAcc><vAcc>0.848455</vAcc></extensions></trkpt>
      <trkpt lon="-82.309976" lat="35.643634"><ele>808.887469</ele><time>2024-07-04T15:53:17Z</time><extensions><speed>0.872354</speed><course>243.911385</course><hAcc>1.680371</hAcc><vAcc>0.853393</vAcc></extensions></trkpt>
      <trkpt lon="-82.309984" lat="35.643630"><ele>808.979179</ele><time>2024-07-04T15:53:18Z</time><extensions><speed>0.882670</speed><course>240.482938</course><hAcc>1.685332</hAcc><vAcc>0.858626</vAcc></extensions></trkpt>
      <trkpt lon="-82.309993" lat="35.643626"><ele>809.073563</ele><time>2024-07-04T15:53:19Z</time><extensions><speed>0.894308</speed><course>239.983063</course><hAcc>1.690198</hAcc><vAcc>0.863990</vAcc></extensions></trkpt>
      <trkpt lon="-82.310002" lat="35.643622"><ele>809.168632</ele><time>2024-07-04T15:53:20Z</time><extensions><speed>0.905193</speed><course>239.644513</course><hAcc>1.688184</hAcc><vAcc>0.869365</vAcc></extensions></trkpt>
      <trkpt lon="-82.310010" lat="35.643617"><ele>809.263199</ele><time>2024-07-04T15:53:21Z</time><extensions><speed>0.940121</speed><course>238.319460</course><hAcc>1.690311</hAcc><vAcc>0.874651</vAcc></extensions></trkpt>
      <trkpt lon="-82.310019" lat="35.643613"><ele>809.356591</ele><time>2024-07-04T15:53:22Z</time><extensions><speed>0.951410</speed><course>237.572999</course><hAcc>1.679858</hAcc><vAcc>0.879764</vAcc></extensions></trkpt>
      <trkpt lon="-82.310027" lat="35.643608"><ele>809.434153</ele><time>2024-07-04T15:53:23Z</time><extensions><speed>0.948934</speed><course>238.250718</course><hAcc>1.690719</hAcc><vAcc>0.882825</vAcc></extensions></trkpt>
      <trkpt lon="-82.310036" lat="35.643603"><ele>809.503094</ele><time>2024-07-04T15:53:24Z</time><extensions><speed>0.946149</speed><course>237.231677</course><hAcc>1.698877</hAcc><vAcc>0.884689</vAcc></extensions></trkpt>
      <trkpt lon="-82.310044" lat="35.643599"><ele>809.566254</ele><time>2024-07-04T15:53:25Z</time><extensions><speed>0.930066</speed><course>235.770670</course><hAcc>1.713668</hAcc><vAcc>0.885358</vAcc></extensions></trkpt>
      <trkpt lon="-82.310052" lat="35.643594"><ele>809.621991</ele><time>2024-07-04T15:53:26Z</time><extensions><speed>0.860967</speed><course>236.267940</course><hAcc>1.720992</hAcc><vAcc>0.884780</vAcc></extensions></trkpt>
      <trkpt lon="-82.310059" lat="35.643590"><ele>809.672394</ele><time>2024-07-04T15:53:27Z</time><extensions><speed>0.844940</speed><course>232.175538</course><hAcc>1.726299</hAcc><vAcc>0.882871</vAcc></extensions></trkpt>
      <trkpt lon="-82.310067" lat="35.643585"><ele>809.713713</ele><time>2024-07-04T15:53:28Z</time><extensions><speed>0.825402</speed><course>233.600654</course><hAcc>1.742293</hAcc><vAcc>0.879566</vAcc></extensions></trkpt>
      <trkpt lon="-82.310073" lat="35.643580"><ele>809.745985</ele><time>2024-07-04T15:53:29Z</time><extensions><speed>0.805411</speed><course>225.216802</course><hAcc>1.745330</hAcc><vAcc>0.874804</vAcc></extensions></trkpt>
      <trkpt lon="-82.310079" lat="35.643575"><ele>809.769722</ele><time>2024-07-04T15:53:30Z</time><extensions><speed>0.740174</speed><course>219.590178</course><hAcc>1.747688</hAcc><vAcc>0.868647</vAcc></extensions></trkpt>
      <trkpt lon="-82.310083" lat="35.643570"><ele>809.783511</ele><time>2024-07-04T15:53:31Z</time><extensions><speed>0.604272</speed><course>217.516245</course><hAcc>1.749790</hAcc><vAcc>0.861216</vAcc></extensions></trkpt>
      <trkpt lon="-82.310087" lat="35.643566"><ele>809.789057</ele><time>2024-07-04T15:53:32Z</time><extensions><speed>0.557024</speed><course>216.382041</course><hAcc>1.749981</hAcc><vAcc>0.852622</vAcc></extensions></trkpt>
      <trkpt lon="-82.310090" lat="35.643562"><ele>809.786625</ele><time>2024-07-04T15:53:33Z</time><extensions><speed>0.388189</speed><course>214.225047</course><hAcc>1.747942</hAcc><vAcc>0.843103</vAcc></extensions></trkpt>
      <trkpt lon="-82.310093" lat="35.643560"><ele>809.777537</ele><time>2024-07-04T15:53:34Z</time><extensions><speed>0.192929</speed><course>210.677341</course><hAcc>1.748622</hAcc><vAcc>0.833006</vAcc></extensions></trkpt>
      <trkpt lon="-82.310094" lat="35.643558"><ele>809.761576</ele><time>2024-07-04T15:53:35Z</time><extensions><speed>0.129530</speed><course>209.268702</course><hAcc>1.752100</hAcc><vAcc>0.822714</vAcc></extensions></trkpt>
      <trkpt lon="-82.310096" lat="35.643557"><ele>809.739818</ele><time>2024-07-04T15:53:36Z</time><extensions><speed>0.102202</speed><course>211.860338</course><hAcc>1.753214</hAcc><vAcc>0.812599</vAcc></extensions></trkpt>
      <trkpt lon="-82.310098" lat="35.643556"><ele>809.713539</ele><time>2024-07-04T15:53:37Z</time><extensions><speed>0.090851</speed><course>218.964242</course><hAcc>1.754433</hAcc><vAcc>0.802990</vAcc></extensions></trkpt>
      <trkpt lon="-82.310100" lat="35.643555"><ele>809.685032</ele><time>2024-07-04T15:53:38Z</time><extensions><speed>0.097219</speed><course>227.064277</course><hAcc>1.754293</hAcc><vAcc>0.794158</vAcc></extensions></trkpt>
      <trkpt lon="-82.310103" lat="35.643554"><ele>809.655727</ele><time>2024-07-04T15:53:39Z</time><extensions><speed>0.116216</speed><course>231.578201</course><hAcc>1.757161</hAcc><vAcc>0.786304</vAcc></extensions></trkpt>
      <trkpt lon="-82.310106" lat="35.643552"><ele>809.628947</ele><time>2024-07-04T15:53:40Z</time><extensions><speed>0.146080</speed><course>232.842647</course><hAcc>1.757911</hAcc><vAcc>0.779546</vAcc></extensions></trkpt>
      <trkpt lon="-82.310109" lat="35.643551"><ele>809.602967</ele><time>2024-07-04T15:53:41Z</time><extensions><speed>0.179016</speed><course>235.942457</course><hAcc>1.754913</hAcc><vAcc>0.773917</vAcc></extensions></trkpt>
      <trkpt lon="-82.310113" lat="35.643549"><ele>809.578244</ele><time>2024-07-04T15:53:42Z</time><extensions><speed>0.213735</speed><course>238.029720</course><hAcc>1.754446</hAcc><vAcc>0.769370</vAcc></extensions></trkpt>
      <trkpt lon="-82.310117" lat="35.643547"><ele>809.554697</ele><time>2024-07-04T15:53:43Z</time><extensions><speed>0.261686</speed><course>238.209158</course><hAcc>1.755241</hAcc><vAcc>0.765802</vAcc></extensions></trkpt>
      <trkpt lon="-82.310122" lat="35.643545"><ele>809.533930</ele><time>2024-07-04T15:53:44Z</time><extensions><speed>0.325049</speed><course>237.797208</course><hAcc>1.754682</hAcc><vAcc>0.763083</vAcc></extensions></trkpt>
      <trkpt lon="-82.310127" lat="35.643542"><ele>809.516035</ele><time>2024-07-04T15:53:45Z</time><extensions><speed>0.505515</speed><course>232.661997</course><hAcc>1.754349</hAcc><vAcc>0.761068</vAcc></extensions></trkpt>
      <trkpt lon="-82.310134" lat="35.643538"><ele>809.501057</ele><time>2024-07-04T15:53:46Z</time><extensions><speed>0.677586</speed><course>229.332975</course><hAcc>1.756581</hAcc><vAcc>0.759618</vAcc></extensions></trkpt>
      <trkpt lon="-82.310141" lat="35.643533"><ele>809.488813</ele><time>2024-07-04T15:53:47Z</time><extensions><speed>0.704704</speed><course>230.774848</course><hAcc>1.760870</hAcc><vAcc>0.758606</vAcc></extensions></trkpt>
      <trkpt lon="-82.310148" lat="35.643529"><ele>809.479488</ele><time>2024-07-04T15:53:48Z</time><extensions><speed>0.690895</speed><course>230.415803</course><hAcc>1.765600</hAcc><vAcc>0.757921</vAcc></extensions></trkpt>
      <trkpt lon="-82.310155" lat="35.643524"><ele>809.472186</ele><time>2024-07-04T15:53:49Z</time><extensions><speed>0.696615</speed><course>229.852141</course><hAcc>1.768267</hAcc><vAcc>0.757474</vAcc></extensions></trkpt>
      <trkpt lon="-82.310162" lat="35.643520"><ele>809.467014</ele><time>2024-07-04T15:53:50Z</time><extensions><speed>0.679542</speed><course>228.575040</course><hAcc>1.771907</hAcc><vAcc>0.757194</vAcc></extensions></trkpt>
      <trkpt lon="-82.310168" lat="35.643516"><ele>809.463260</ele><time>2024-07-04T15:53:51Z</time><extensions><speed>0.556552</speed><course>230.395964</course><hAcc>1.776281</hAcc><vAcc>0.757027</vAcc></extensions></trkpt>
      <trkpt lon="-82.310173" lat="35.643513"><ele>809.460664</ele><time>2024-07-04T15:53:52Z</time><extensions><speed>0.505486</speed><course>228.665064</course><hAcc>1.790158</hAcc><vAcc>0.756931</vAcc></extensions></trkpt>
      <trkpt lon="-82.310179" lat="35.643509"><ele>809.459735</ele><time>2024-07-04T15:53:53Z</time><extensions><speed>0.474276</speed><course>229.188686</course><hAcc>1.802201</hAcc><vAcc>0.756880</vAcc></extensions></trkpt>
      <trkpt lon="-82.310184" lat="35.643506"><ele>809.458569</ele><time>2024-07-04T15:53:54Z</time><extensions><speed>0.470189</speed><course>234.427749</course><hAcc>1.806661</hAcc><vAcc>0.756855</vAcc></extensions></trkpt>
      <trkpt lon="-82.310190" lat="35.643503"><ele>809.456635</ele><time>2024-07-04T15:53:55Z</time><extensions><speed>0.469236</speed><course>238.212389</course><hAcc>1.825771</hAcc><vAcc>0.756842</vAcc></extensions></trkpt>
      <trkpt lon="-82.310196" lat="35.643500"><ele>809.453463</ele><time>2024-07-04T15:53:56Z</time><extensions><speed>0.462498</speed><course>240.398631</course><hAcc>1.854995</hAcc><vAcc>0.756835</vAcc></extensions></trkpt>
      <trkpt lon="-82.310202" lat="35.643498"><ele>809.448903</ele><time>2024-07-04T15:53:57Z</time><extensions><speed>0.492164</speed><course>241.741037</course><hAcc>1.882315</hAcc><vAcc>0.756829</vAcc></extensions></trkpt>
      <trkpt lon="-82.310208" lat="35.643495"><ele>809.443076</ele><time>2024-07-04T15:53:58Z</time><extensions><speed>0.467932</speed><course>242.332832</course><hAcc>1.916040</hAcc><vAcc>0.756823</vAcc></extensions></trkpt>
      <trkpt lon="-82.310214" lat="35.643492"><ele>809.435621</ele><time>2024-07-04T15:53:59Z</time><extensions><speed>0.439037</speed><course>242.708913</course><hAcc>1.943851</hAcc><vAcc>0.756816</vAcc></extensions></trkpt>
      <trkpt lon="-82.310220" lat="35.643490"><ele>809.426207</ele><time>2024-07-04T15:54:00Z</time><extensions><speed>0.438309</speed><course>243.120029</course><hAcc>1.959339</hAcc><vAcc>0.756807</vAcc></extensions></trkpt>
      <trkpt lon="-82.310226" lat="35.643488"><ele>809.415059</ele><time>2024-07-04T15:54:01Z</time><extensions><speed>0.498379</speed><course>243.448412</course><hAcc>1.965837</hAcc><vAcc>0.756799</vAcc></extensions></trkpt>
      <trkpt lon="-82.310233" lat="35.643485"><ele>809.403120</ele><time>2024-07-04T15:54:02Z</time><extensions><speed>0.536490</speed><course>242.364549</course><hAcc>1.978736</hAcc><vAcc>0.756790</vAcc></extensions></trkpt>
      <trkpt lon="-82.310240" lat="35.643483"><ele>809.391292</ele><time>2024-07-04T15:54:03Z</time><extensions><speed>0.605939</speed><course>242.023366</course><hAcc>1.981715</hAcc><vAcc>0.756781</vAcc></extensions></trkpt>
      <trkpt lon="-82.310248" lat="35.643480"><ele>809.378197</ele><time>2024-07-04T15:54:04Z</time><extensions><speed>0.678203</speed><course>241.891946</course><hAcc>1.981667</hAcc><vAcc>0.756774</vAcc></extensions></trkpt>
      <trkpt lon="-82.310256" lat="35.643477"><ele>809.363456</ele><time>2024-07-04T15:54:05Z</time><extensions><speed>0.744671</speed><course>240.042556</course><hAcc>1.989334</hAcc><vAcc>0.756767</vAcc></extensions></trkpt>
      <trkpt lon="-82.310265" lat="35.643473"><ele>809.347654</ele><time>2024-07-04T15:54:06Z</time><extensions><speed>0.819834</speed><course>238.188920</course><hAcc>1.993811</hAcc><vAcc>0.756761</vAcc></extensions></trkpt>
      <trkpt lon="-82.310274" lat="35.643468"><ele>809.330328</ele><time>2024-07-04T15:54:07Z</time><extensions><speed>0.889706</speed><course>238.636118</course><hAcc>1.987727</hAcc><vAcc>0.756756</vAcc></extensions></trkpt>
      <trkpt lon="-82.310284" lat="35.643464"><ele>809.311599</ele><time>2024-07-04T15:54:08Z</time><extensions><speed>0.957217</speed><course>240.340139</course><hAcc>1.977192</hAcc><vAcc>0.756753</vAcc></extensions></trkpt>
      <trkpt lon="-82.310295" lat="35.643459"><ele>809.291051</ele><time>2024-07-04T15:54:09Z</time><extensions><speed>0.946738</speed><course>241.344275</course><hAcc>1.980190</hAcc><vAcc>0.756750</vAcc></extensions></trkpt>
      <trkpt lon="-82.310305" lat="35.643455"><ele>809.268485</ele><time>2024-07-04T15:54:10Z</time><extensions><speed>0.851190</speed><course>241.586092</course><hAcc>1.994610</hAcc><vAcc>0.756747</vAcc></extensions></trkpt>
      <trkpt lon="-82.310315" lat="35.643451"><ele>809.244057</ele><time>2024-07-04T15:54:11Z</time><extensions><speed>0.776509</speed><course>244.104958</course><hAcc>1.998881</hAcc><vAcc>0.756746</vAcc></extensions></trkpt>
      <trkpt lon="-82.310323" lat="35.643448"><ele>809.218237</ele><time>2024-07-04T15:54:12Z</time><extensions><speed>0.746835</speed><course>244.936017</course><hAcc>1.996617</hAcc><vAcc>0.756744</vAcc></extensions></trkpt>
      <trkpt lon="-82.310332" lat="35.643444"><ele>809.189327</ele><time>2024-07-04T15:54:13Z</time><extensions><speed>0.679064</speed><course>244.726979</course><hAcc>1.997448</hAcc><vAcc>0.756744</vAcc></extensions></trkpt>
      <trkpt lon="-82.310339" lat="35.643441"><ele>809.157833</ele><time>2024-07-04T15:54:14Z</time><extensions><speed>0.587796</speed><course>245.607237</course><hAcc>1.994600</hAcc><vAcc>0.756743</vAcc></extensions></trkpt>
      <trkpt lon="-82.310346" lat="35.643439"><ele>809.122734</ele><time>2024-07-04T15:54:15Z</time><extensions><speed>0.580033</speed><course>245.206296</course><hAcc>1.994876</hAcc><vAcc>0.756743</vAcc></extensions></trkpt>
      <trkpt lon="-82.310352" lat="35.643436"><ele>809.083772</ele><time>2024-07-04T15:54:16Z</time><extensions><speed>0.713862</speed><course>244.817847</course><hAcc>1.985041</hAcc><vAcc>0.756742</vAcc></extensions></trkpt>
      <trkpt lon="-82.310360" lat="35.643433"><ele>809.040226</ele><time>2024-07-04T15:54:17Z</time><extensions><speed>0.673211</speed><course>244.422239</course><hAcc>1.994944</hAcc><vAcc>0.756742</vAcc></extensions></trkpt>
      <trkpt lon="-82.310366" lat="35.643430"><ele>808.992437</ele><time>2024-07-04T15:54:18Z</time><extensions><speed>0.701815</speed><course>243.015034</course><hAcc>2.007346</hAcc><vAcc>0.756896</vAcc></extensions></trkpt>
      <trkpt lon="-82.310374" lat="35.643426"><ele>808.940078</ele><time>2024-07-04T15:54:19Z</time><extensions><speed>0.859123</speed><course>242.169046</course><hAcc>1.993904</hAcc><vAcc>0.757318</vAcc></extensions></trkpt>
      <trkpt lon="-82.310383" lat="35.643422"><ele>808.882889</ele><time>2024-07-04T15:54:20Z</time><extensions><speed>0.936177</speed><course>241.475753</course><hAcc>2.004633</hAcc><vAcc>0.758114</vAcc></extensions></trkpt>
      <trkpt lon="-82.310393" lat="35.643418"><ele>808.820084</ele><time>2024-07-04T15:54:21Z</time><extensions><speed>1.106736</speed><course>240.026511</course><hAcc>2.019805</hAcc><vAcc>0.759408</vAcc></extensions></trkpt>
      <trkpt lon="-82.310403" lat="35.643413"><ele>808.753022</ele><time>2024-07-04T15:54:22Z</time><extensions><speed>1.151213</speed><course>236.902595</course><hAcc>2.035144</hAcc><vAcc>0.761339</vAcc></extensions></trkpt>
      <trkpt lon="-82.310414" lat="35.643407"><ele>808.681235</ele><time>2024-07-04T15:54:23Z</time><extensions><speed>1.136088</speed><course>234.587467</course><hAcc>2.050089</hAcc><vAcc>0.764053</vAcc></extensions></trkpt>
      <trkpt lon="-82.310424" lat="35.643401"><ele>808.604733</ele><time>2024-07-04T15:54:24Z</time><extensions><speed>1.162980</speed><course>231.986411</course><hAcc>2.054048</hAcc><vAcc>0.767684</vAcc></extensions></trkpt>
      <trkpt lon="-82.310434" lat="35.643395"><ele>808.524447</ele><time>2024-07-04T15:54:25Z</time><extensions><speed>1.130031</speed><course>230.493409</course><hAcc>2.063590</hAcc><vAcc>0.772351</vAcc></extensions></trkpt>
      <trkpt lon="-82.310443" lat="35.643388"><ele>808.439706</ele><time>2024-07-04T15:54:26Z</time><extensions><speed>1.026685</speed><course>228.602677</course><hAcc>2.088864</hAcc><vAcc>0.778143</vAcc></extensions></trkpt>
      <trkpt lon="-82.310451" lat="35.643382"><ele>808.352067</ele><time>2024-07-04T15:54:27Z</time><extensions><speed>0.972743</speed><course>226.394640</course><hAcc>2.110731</hAcc><vAcc>0.785081</vAcc></extensions></trkpt>
      <trkpt lon="-82.310459" lat="35.643377"><ele>808.261155</ele><time>2024-07-04T15:54:28Z</time><extensions><speed>0.899865</speed><course>225.602168</course><hAcc>2.155790</hAcc><vAcc>0.793155</vAcc></extensions></trkpt>
      <trkpt lon="-82.310466" lat="35.643371"><ele>808.169372</ele><time>2024-07-04T15:54:29Z</time><extensions><speed>0.837614</speed><course>226.611123</course><hAcc>2.195224</hAcc><vAcc>0.802336</vAcc></extensions></trkpt>
      <trkpt lon="-82.310473" lat="35.643366"><ele>808.075724</ele><time>2024-07-04T15:54:30Z</time><extensions><speed>0.788538</speed><course>227.640650</course><hAcc>2.236190</hAcc><vAcc>0.812527</vAcc></extensions></trkpt>
      <trkpt lon="-82.310480" lat="35.643362"><ele>807.980400</ele><time>2024-07-04T15:54:31Z</time><extensions><speed>0.762233</speed><course>230.319005</course><hAcc>2.295317</hAcc><vAcc>0.823580</vAcc></extensions></trkpt>
      <trkpt lon="-82.310486" lat="35.643358"><ele>807.882882</ele><time>2024-07-04T15:54:32Z</time><extensions><speed>0.760799</speed><course>231.506775</course><hAcc>2.350613</hAcc><vAcc>0.835307</vAcc></extensions></trkpt>
      <trkpt lon="-82.310493" lat="35.643354"><ele>807.785833</ele><time>2024-07-04T15:54:33Z</time><extensions><speed>0.763131</speed><course>231.479171</course><hAcc>2.396805</hAcc><vAcc>0.847511</vAcc></extensions></trkpt>
      <trkpt lon="-82.310501" lat="35.643349"><ele>807.687398</ele><time>2024-07-04T15:54:34Z</time><extensions><speed>0.776522</speed><course>231.845852</course><hAcc>2.407551</hAcc><vAcc>0.860012</vAcc></extensions></trkpt>
      <trkpt lon="-82.310509" lat="35.643345"><ele>807.588430</ele><time>2024-07-04T15:54:35Z</time><extensions><speed>0.797852</speed><course>235.143728</course><hAcc>2.410688</hAcc><vAcc>0.872684</vAcc></extensions></trkpt>
      <trkpt lon="-82.310517" lat="35.643341"><ele>807.489035</ele><time>2024-07-04T15:54:36Z</time><extensions><speed>0.815724</speed><course>234.368229</course><hAcc>2.414986</hAcc><vAcc>0.885403</vAcc></extensions></trkpt>
      <trkpt lon="-82.310525" lat="35.643337"><ele>807.388339</ele><time>2024-07-04T15:54:37Z</time><extensions><speed>0.822953</speed><course>232.294347</course><hAcc>2.420840</hAcc><vAcc>0.898043</vAcc></extensions></trkpt>
      <trkpt lon="-82.310532" lat="35.643332"><ele>807.287122</ele><time>2024-07-04T15:54:38Z</time><extensions><speed>0.827008</speed><course>228.462297</course><hAcc>2.440919</hAcc><vAcc>0.910474</vAcc></extensions></trkpt>
      <trkpt lon="-82.310539" lat="35.643327"><ele>807.185664</ele><time>2024-07-04T15:54:39Z</time><extensions><speed>0.825507</speed><course>222.557526</course><hAcc>2.447386</hAcc><vAcc>0.922544</vAcc></extensions></trkpt>
      <trkpt lon="-82.310545" lat="35.643322"><ele>807.082349</ele><time>2024-07-04T15:54:40Z</time><extensions><speed>0.825777</speed><course>221.062124</course><hAcc>2.445981</hAcc><vAcc>0.934136</vAcc></extensions></trkpt>
      <trkpt lon="-82.310551" lat="35.643317"><ele>806.978232</ele><time>2024-07-04T15:54:41Z</time><extensions><speed>0.821419</speed><course>218.882192</course><hAcc>2.444973</hAcc><vAcc>0.945166</vAcc></extensions></trkpt>
      <trkpt lon="-82.310557" lat="35.643311"><ele>806.872547</ele><time>2024-07-04T15:54:42Z</time><extensions><speed>0.812416</speed><course>214.370600</course><hAcc>2.439697</hAcc><vAcc>0.955530</vAcc></extensions></trkpt>
      <trkpt lon="-82.310562" lat="35.643305"><ele>806.766132</ele><time>2024-07-04T15:54:43Z</time><extensions><speed>0.804888</speed><course>209.662396</course><hAcc>2.425947</hAcc><vAcc>0.965137</vAcc></extensions></trkpt>
      <trkpt lon="-82.310566" lat="35.643300"><ele>806.679543</ele><time>2024-07-04T15:54:44Z</time><extensions><speed>0.810802</speed><course>208.752672</course><hAcc>2.406356</hAcc><vAcc>0.971153</vAcc></extensions></trkpt>
      <trkpt lon="-82.310570" lat="35.643294"><ele>806.593817</ele><time>2024-07-04T15:54:45Z</time><extensions><speed>0.801984</speed><course>208.236651</course><hAcc>2.399469</hAcc><vAcc>0.975234</vAcc></extensions></trkpt>
      <trkpt lon="-82.310575" lat="35.643288"><ele>806.510738</ele><time>2024-07-04T15:54:46Z</time><extensions><speed>0.788706</speed><course>208.740635</course><hAcc>2.417814</hAcc><vAcc>0.977421</vAcc></extensions></trkpt>
      <trkpt lon="-82.310579" lat="35.643282"><ele>806.429861</ele><time>2024-07-04T15:54:47Z</time><extensions><speed>0.787138</speed><course>209.503366</course><hAcc>2.472806</hAcc><vAcc>0.977777</vAcc></extensions></trkpt>
      <trkpt lon="-82.310584" lat="35.643276"><ele>806.351969</ele><time>2024-07-04T15:54:48Z</time><extensions><speed>0.829223</speed><course>208.762736</course><hAcc>2.541697</hAcc><vAcc>0.976174</vAcc></extensions></trkpt>
      <trkpt lon="-82.310588" lat="35.643269"><ele>806.277586</ele><time>2024-07-04T15:54:49Z</time><extensions><speed>0.755104</speed><course>208.488320</course><hAcc>2.557982</hAcc><vAcc>0.972638</vAcc></extensions></trkpt>
      <trkpt lon="-82.310592" lat="35.643264"><ele>806.205977</ele><time>2024-07-04T15:54:50Z</time><extensions><speed>0.672252</speed><course>212.032660</course><hAcc>2.577358</hAcc><vAcc>0.967269</vAcc></extensions></trkpt>
      <trkpt lon="-82.310596" lat="35.643259"><ele>806.137657</ele><time>2024-07-04T15:54:51Z</time><extensions><speed>0.550211</speed><course>213.942923</course><hAcc>2.603454</hAcc><vAcc>0.960288</vAcc></extensions></trkpt>
      <trkpt lon="-82.310599" lat="35.643255"><ele>806.070697</ele><time>2024-07-04T15:54:52Z</time><extensions><speed>0.355573</speed><course>216.412246</course><hAcc>2.653480</hAcc><vAcc>0.951939</vAcc></extensions></trkpt>
      <trkpt lon="-82.310601" lat="35.643253"><ele>806.006973</ele><time>2024-07-04T15:54:53Z</time><extensions><speed>0.217695</speed><course>219.736708</course><hAcc>2.701875</hAcc><vAcc>0.942516</vAcc></extensions></trkpt>
      <trkpt lon="-82.310603" lat="35.643251"><ele>805.946677</ele><time>2024-07-04T15:54:54Z</time><extensions><speed>0.162502</speed><course>222.750842</course><hAcc>2.699669</hAcc><vAcc>0.932362</vAcc></extensions></trkpt>
      <trkpt lon="-82.310605" lat="35.643248"><ele>805.888004</ele><time>2024-07-04T15:54:55Z</time><extensions><speed>0.161236</speed><course>220.310981</course><hAcc>2.690730</hAcc><vAcc>0.921907</vAcc></extensions></trkpt>
      <trkpt lon="-82.310607" lat="35.643246"><ele>805.831580</ele><time>2024-07-04T15:54:56Z</time><extensions><speed>0.185319</speed><course>216.196631</course><hAcc>2.672213</hAcc><vAcc>0.911602</vAcc></extensions></trkpt>
      <trkpt lon="-82.310608" lat="35.643244"><ele>805.777770</ele><time>2024-07-04T15:54:57Z</time><extensions><speed>0.217178</speed><course>213.468812</course><hAcc>2.651494</hAcc><vAcc>0.900624</vAcc></extensions></trkpt>
      <trkpt lon="-82.310610" lat="35.643241"><ele>805.726017</ele><time>2024-07-04T15:54:58Z</time><extensions><speed>0.221802</speed><course>214.635780</course><hAcc>2.634019</hAcc><vAcc>0.889797</vAcc></extensions></trkpt>
      <trkpt lon="-82.310612" lat="35.643239"><ele>805.675914</ele><time>2024-07-04T15:54:59Z</time><extensions><speed>0.273549</speed><course>214.073406</course><hAcc>2.603262</hAcc><vAcc>0.879360</vAcc></extensions></trkpt>
      <trkpt lon="-82.310614" lat="35.643236"><ele>805.627937</ele><time>2024-07-04T15:55:00Z</time><extensions><speed>0.360754</speed><course>211.639126</course><hAcc>2.552695</hAcc><vAcc>0.869453</vAcc></extensions></trkpt>
      <trkpt lon="-82.310616" lat="35.643232"><ele>805.581807</ele><time>2024-07-04T15:55:01Z</time><extensions><speed>0.456730</speed><course>209.869228</course><hAcc>2.487299</hAcc><vAcc>0.860109</vAcc></extensions></trkpt>
      <trkpt lon="-82.310619" lat="35.643228"><ele>805.537905</ele><time>2024-07-04T15:55:02Z</time><extensions><speed>0.467881</speed><course>209.661144</course><hAcc>2.444176</hAcc><vAcc>0.851317</vAcc></extensions></trkpt>
      <trkpt lon="-82.310621" lat="35.643224"><ele>805.496574</ele><time>2024-07-04T15:55:03Z</time><extensions><speed>0.476141</speed><course>209.971240</course><hAcc>2.401496</hAcc><vAcc>0.843031</vAcc></extensions></trkpt>
      <trkpt lon="-82.310624" lat="35.643220"><ele>805.458166</ele><time>2024-07-04T15:55:04Z</time><extensions><speed>0.489458</speed><course>208.050011</course><hAcc>2.338234</hAcc><vAcc>0.835062</vAcc></extensions></trkpt>
      <trkpt lon="-82.310626" lat="35.643216"><ele>805.421979</ele><time>2024-07-04T15:55:05Z</time><extensions><speed>0.475970</speed><course>205.823376</course><hAcc>2.278414</hAcc><vAcc>0.827218</vAcc></extensions></trkpt>
      <trkpt lon="-82.310629" lat="35.643212"><ele>805.388210</ele><time>2024-07-04T15:55:06Z</time><extensions><speed>0.433851</speed><course>204.317256</course><hAcc>2.237945</hAcc><vAcc>0.819370</vAcc></extensions></trkpt>
      <trkpt lon="-82.310630" lat="35.643209"><ele>805.357420</ele><time>2024-07-04T15:55:07Z</time><extensions><speed>0.347328</speed><course>201.348529</course><hAcc>2.194245</hAcc><vAcc>0.811507</vAcc></extensions></trkpt>
      <trkpt lon="-82.310632" lat="35.643206"><ele>805.328740</ele><time>2024-07-04T15:55:08Z</time><extensions><speed>0.263356</speed><course>198.495511</course><hAcc>2.162148</hAcc><vAcc>0.803743</vAcc></extensions></trkpt>
      <trkpt lon="-82.310633" lat="35.643203"><ele>805.302819</ele><time>2024-07-04T15:55:09Z</time><extensions><speed>0.207587</speed><course>196.398392</course><hAcc>2.139420</hAcc><vAcc>0.796258</vAcc></extensions></trkpt>
      <trkpt lon="-82.310634" lat="35.643201"><ele>805.279736</ele><time>2024-07-04T15:55:10Z</time><extensions><speed>0.176393</speed><course>196.446960</course><hAcc>2.126721</hAcc><vAcc>0.789244</vAcc></extensions></trkpt>
      <trkpt lon="-82.310635" lat="35.643198"><ele>805.259394</ele><time>2024-07-04T15:55:11Z</time><extensions><speed>0.159416</speed><course>199.153316</course><hAcc>2.123897</hAcc><vAcc>0.782871</vAcc></extensions></trkpt>
      <trkpt lon="-82.310637" lat="35.643196"><ele>805.241531</ele><time>2024-07-04T15:55:12Z</time><extensions><speed>0.172268</speed><course>202.497670</course><hAcc>2.115347</hAcc><vAcc>0.777267</vAcc></extensions></trkpt>
      <trkpt lon="-82.310639" lat="35.643193"><ele>805.225548</ele><time>2024-07-04T15:55:13Z</time><extensions><speed>0.193471</speed><course>205.300412</course><hAcc>2.107606</hAcc><vAcc>0.772495</vAcc></extensions></trkpt>
      <trkpt lon="-82.310641" lat="35.643190"><ele>805.211132</ele><time>2024-07-04T15:55:14Z</time><extensions><speed>0.238561</speed><course>207.775570</course><hAcc>2.096434</hAcc><vAcc>0.768557</vAcc></extensions></trkpt>
      <trkpt lon="-82.310644" lat="35.643186"><ele>805.198230</ele><time>2024-07-04T15:55:15Z</time><extensions><speed>0.292287</speed><course>209.804794</course><hAcc>2.089032</hAcc><vAcc>0.765400</vAcc></extensions></trkpt>
      <trkpt lon="-82.310647" lat="35.643183"><ele>805.186576</ele><time>2024-07-04T15:55:16Z</time><extensions><speed>0.367236</speed><course>211.559140</course><hAcc>2.082879</hAcc><vAcc>0.762940</vAcc></extensions></trkpt>
      <trkpt lon="-82.310650" lat="35.643178"><ele>805.175755</ele><time>2024-07-04T15:55:17Z</time><extensions><speed>0.506127</speed><course>212.550247</course><hAcc>2.072541</hAcc><vAcc>0.761074</vAcc></extensions></trkpt>
      <trkpt lon="-82.310655" lat="35.643173"><ele>805.164811</ele><time>2024-07-04T15:55:18Z</time><extensions><speed>0.645977</speed><course>213.061431</course><hAcc>2.072967</hAcc><vAcc>0.759697</vAcc></extensions></trkpt>
      <trkpt lon="-82.310660" lat="35.643166"><ele>805.153731</ele><time>2024-07-04T15:55:19Z</time><extensions><speed>0.718376</speed><course>212.943926</course><hAcc>2.078206</hAcc><vAcc>0.758710</vAcc></extensions></trkpt>
      <trkpt lon="-82.310666" lat="35.643159"><ele>805.142871</ele><time>2024-07-04T15:55:20Z</time><extensions><speed>0.818476</speed><course>212.918081</course><hAcc>2.071942</hAcc><vAcc>0.758023</vAcc></extensions></trkpt>
      <trkpt lon="-82.310672" lat="35.643152"><ele>805.131826</ele><time>2024-07-04T15:55:21Z</time><extensions><speed>0.815637</speed><course>213.655842</course><hAcc>2.070085</hAcc><vAcc>0.757574</vAcc></extensions></trkpt>
      <trkpt lon="-82.310677" lat="35.643146"><ele>805.119418</ele><time>2024-07-04T15:55:22Z</time><extensions><speed>0.744606</speed><course>216.420085</course><hAcc>2.064666</hAcc><vAcc>0.757505</vAcc></extensions></trkpt>
      <trkpt lon="-82.310683" lat="35.643140"><ele>805.105358</ele><time>2024-07-04T15:55:23Z</time><extensions><speed>0.785466</speed><course>216.298572</course><hAcc>2.055808</hAcc><vAcc>0.757864</vAcc></extensions></trkpt>
      <trkpt lon="-82.310688" lat="35.643134"><ele>805.088395</ele><time>2024-07-04T15:55:24Z</time><extensions><speed>0.833168</speed><course>215.597352</course><hAcc>2.047410</hAcc><vAcc>0.758731</vAcc></extensions></trkpt>
      <trkpt lon="-82.310694" lat="35.643127"><ele>805.068259</ele><time>2024-07-04T15:55:25Z</time><extensions><speed>1.000244</speed><course>215.427035</course><hAcc>2.042377</hAcc><vAcc>0.760214</vAcc></extensions></trkpt>
      <trkpt lon="-82.310701" lat="35.643119"><ele>805.045289</ele><time>2024-07-04T15:55:26Z</time><extensions><speed>1.219798</speed><course>215.801597</course><hAcc>2.042235</hAcc><vAcc>0.762439</vAcc></extensions></trkpt>
      <trkpt lon="-82.310709" lat="35.643110"><ele>805.021550</ele><time>2024-07-04T15:55:27Z</time><extensions><speed>1.287337</speed><course>215.169627</course><hAcc>2.037370</hAcc><vAcc>0.765540</vAcc></extensions></trkpt>
      <trkpt lon="-82.310718" lat="35.643100"><ele>804.996715</ele><time>2024-07-04T15:55:28Z</time><extensions><speed>1.392470</speed><course>219.113851</course><hAcc>2.031235</hAcc><vAcc>0.769646</vAcc></extensions></trkpt>
      <trkpt lon="-82.310728" lat="35.643091"><ele>804.972360</ele><time>2024-07-04T15:55:29Z</time><extensions><speed>1.396671</speed><course>223.353087</course><hAcc>2.031490</hAcc><vAcc>0.773600</vAcc></extensions></trkpt>
      <trkpt lon="-82.310739" lat="35.643082"><ele>804.947520</ele><time>2024-07-04T15:55:30Z</time><extensions><speed>1.418095</speed><course>224.353206</course><hAcc>2.032681</hAcc><vAcc>0.777735</vAcc></extensions></trkpt>
      <trkpt lon="-82.310749" lat="35.643073"><ele>804.921486</ele><time>2024-07-04T15:55:31Z</time><extensions><speed>1.349008</speed><course>225.298477</course><hAcc>2.041705</hAcc><vAcc>0.781924</vAcc></extensions></trkpt>
      <trkpt lon="-82.310759" lat="35.643065"><ele>804.895598</ele><time>2024-07-04T15:55:32Z</time><extensions><speed>1.215047</speed><course>223.655503</course><hAcc>2.044616</hAcc><vAcc>0.785940</vAcc></extensions></trkpt>
      <trkpt lon="-82.310768" lat="35.643058"><ele>804.870025</ele><time>2024-07-04T15:55:33Z</time><extensions><speed>1.062997</speed><course>225.723335</course><hAcc>2.041674</hAcc><vAcc>0.789623</vAcc></extensions></trkpt>
      <trkpt lon="-82.310776" lat="35.643052"><ele>804.847155</ele><time>2024-07-04T15:55:34Z</time><extensions><speed>0.955440</speed><course>228.924454</course><hAcc>2.035550</hAcc><vAcc>0.792682</vAcc></extensions></trkpt>
      <trkpt lon="-82.310784" lat="35.643047"><ele>804.827143</ele><time>2024-07-04T15:55:35Z</time><extensions><speed>0.856612</speed><course>232.396999</course><hAcc>2.028404</hAcc><vAcc>0.794800</vAcc></extensions></trkpt>
      <trkpt lon="-82.310791" lat="35.643043"><ele>804.809989</ele><time>2024-07-04T15:55:36Z</time><extensions><speed>0.784064</speed><course>235.228698</course><hAcc>2.025043</hAcc><vAcc>0.795721</vAcc></extensions></trkpt>
      <trkpt lon="-82.310798" lat="35.643039"><ele>804.797044</ele><time>2024-07-04T15:55:37Z</time><extensions><speed>0.640695</speed><course>236.381237</course><hAcc>2.015614</hAcc><vAcc>0.795295</vAcc></extensions></trkpt>
      <trkpt lon="-82.310802" lat="35.643037"><ele>804.787821</ele><time>2024-07-04T15:55:38Z</time><extensions><speed>0.387939</speed><course>237.894400</course><hAcc>2.007558</hAcc><vAcc>0.793522</vAcc></extensions></trkpt>
      <trkpt lon="-82.310806" lat="35.643035"><ele>804.781759</ele><time>2024-07-04T15:55:39Z</time><extensions><speed>0.212808</speed><course>240.892635</course><hAcc>2.009284</hAcc><vAcc>0.790580</vAcc></extensions></trkpt>
      <trkpt lon="-82.310808" lat="35.643034"><ele>804.777485</ele><time>2024-07-04T15:55:40Z</time><extensions><speed>0.154038</speed><course>242.129611</course><hAcc>2.032437</hAcc><vAcc>0.786799</vAcc></extensions></trkpt>
      <trkpt lon="-82.310809" lat="35.643034"><ele>804.775133</ele><time>2024-07-04T15:55:41Z</time><extensions><speed>0.143789</speed><course>243.804950</course><hAcc>2.028423</hAcc><vAcc>0.782566</vAcc></extensions></trkpt>
      <trkpt lon="-82.310811" lat="35.643033"><ele>804.774738</ele><time>2024-07-04T15:55:42Z</time><extensions><speed>0.099666</speed><course>252.831606</course><hAcc>1.998705</hAcc><vAcc>0.778240</vAcc></extensions></trkpt>
      <trkpt lon="-82.310812" lat="35.643033"><ele>804.775413</ele><time>2024-07-04T15:55:43Z</time><extensions><speed>0.075069</speed><course>262.092724</course><hAcc>1.990559</hAcc><vAcc>0.774111</vAcc></extensions></trkpt>
      <trkpt lon="-82.310813" lat="35.643033"><ele>804.777175</ele><time>2024-07-04T15:55:44Z</time><extensions><speed>0.066239</speed><course>271.029913</course><hAcc>1.990170</hAcc><vAcc>0.770377</vAcc></extensions></trkpt>
      <trkpt lon="-82.310813" lat="35.643033"><ele>804.779286</ele><time>2024-07-04T15:55:45Z</time><extensions><speed>0.061198</speed><course>271.701767</course><hAcc>2.009298</hAcc><vAcc>0.767150</vAcc></extensions></trkpt>
      <trkpt lon="-82.310814" lat="35.643033"><ele>804.781494</ele><time>2024-07-04T15:55:46Z</time><extensions><speed>0.077995</speed><course>265.555132</course><hAcc>2.029669</hAcc><vAcc>0.764466</vAcc></extensions></trkpt>
      <trkpt lon="-82.310816" lat="35.643033"><ele>804.783161</ele><time>2024-07-04T15:55:47Z</time><extensions><speed>0.140768</speed><course>256.083387</course><hAcc>2.045062</hAcc><vAcc>0.762312</vAcc></extensions></trkpt>
      <trkpt lon="-82.310817" lat="35.643032"><ele>804.784113</ele><time>2024-07-04T15:55:48Z</time><extensions><speed>0.177429</speed><course>253.706481</course><hAcc>2.062546</hAcc><vAcc>0.760640</vAcc></extensions></trkpt>
      <trkpt lon="-82.310819" lat="35.643032"><ele>804.783861</ele><time>2024-07-04T15:55:49Z</time><extensions><speed>0.174606</speed><course>251.842289</course><hAcc>2.095431</hAcc><vAcc>0.759382</vAcc></extensions></trkpt>
      <trkpt lon="-82.310821" lat="35.643031"><ele>804.782144</ele><time>2024-07-04T15:55:50Z</time><extensions><speed>0.135528</speed><course>250.739489</course><hAcc>2.129528</hAcc><vAcc>0.758468</vAcc></extensions></trkpt>
      <trkpt lon="-82.310823" lat="35.643031"><ele>804.779329</ele><time>2024-07-04T15:55:51Z</time><extensions><speed>0.105683</speed><course>249.016641</course><hAcc>2.156989</hAcc><vAcc>0.757826</vAcc></extensions></trkpt>
      <trkpt lon="-82.310824" lat="35.643030"><ele>804.774966</ele><time>2024-07-04T15:55:52Z</time><extensions><speed>0.089712</speed><course>245.425422</course><hAcc>2.188004</hAcc><vAcc>0.757392</vAcc></extensions></trkpt>
      <trkpt lon="-82.310825" lat="35.643030"><ele>804.769115</ele><time>2024-07-04T15:55:53Z</time><extensions><speed>0.083862</speed><course>240.144914</course><hAcc>2.234504</hAcc><vAcc>0.757110</vAcc></extensions></trkpt>
      <trkpt lon="-82.310826" lat="35.643029"><ele>804.761548</ele><time>2024-07-04T15:55:54Z</time><extensions><speed>0.075743</speed><course>234.852424</course><hAcc>2.296532</hAcc><vAcc>0.756938</vAcc></extensions></trkpt>
      <trkpt lon="-82.310827" lat="35.643028"><ele>804.752749</ele><time>2024-07-04T15:55:55Z</time><extensions><speed>0.097745</speed><course>230.515099</course><hAcc>2.341080</hAcc><vAcc>0.756839</vAcc></extensions></trkpt>
      <trkpt lon="-82.310828" lat="35.643027"><ele>804.742454</ele><time>2024-07-04T15:55:56Z</time><extensions><speed>0.132101</speed><course>230.082866</course><hAcc>2.398382</hAcc><vAcc>0.756788</vAcc></extensions></trkpt>
      <trkpt lon="-82.310830" lat="35.643026"><ele>804.731071</ele><time>2024-07-04T15:55:57Z</time><extensions><speed>0.146269</speed><course>230.199362</course><hAcc>2.469949</hAcc><vAcc>0.756766</vAcc></extensions></trkpt>
      <trkpt lon="-82.310831" lat="35.643025"><ele>804.718695</ele><time>2024-07-04T15:55:58Z</time><extensions><speed>0.138738</speed><course>231.094136</course><hAcc>2.537459</hAcc><vAcc>0.756760</vAcc></extensions></trkpt>
      <trkpt lon="-82.310832" lat="35.643024"><ele>804.705313</ele><time>2024-07-04T15:55:59Z</time><extensions><speed>0.112081</speed><course>229.960223</course><hAcc>2.582156</hAcc><vAcc>0.756761</vAcc></extensions></trkpt>
      <trkpt lon="-82.310833" lat="35.643024"><ele>804.690903</ele><time>2024-07-04T15:56:00Z</time><extensions><speed>0.092563</speed><course>229.001103</course><hAcc>2.607188</hAcc><vAcc>0.756766</vAcc></extensions></trkpt>
      <trkpt lon="-82.310834" lat="35.643023"><ele>804.675625</ele><time>2024-07-04T15:56:01Z</time><extensions><speed>0.078695</speed><course>228.180327</course><hAcc>2.622523</hAcc><vAcc>0.756770</vAcc></extensions></trkpt>
      <trkpt lon="-82.310835" lat="35.643022"><ele>804.659515</ele><time>2024-07-04T15:56:02Z</time><extensions><speed>0.072221</speed><course>228.051155</course><hAcc>2.630829</hAcc><vAcc>0.756772</vAcc></extensions></trkpt>
      <trkpt lon="-82.310836" lat="35.643022"><ele>804.642823</ele><time>2024-07-04T15:56:03Z</time><extensions><speed>0.072719</speed><course>228.231598</course><hAcc>2.635801</hAcc><vAcc>0.756773</vAcc></extensions></trkpt>
      <trkpt lon="-82.310837" lat="35.643021"><ele>804.625861</ele><time>2024-07-04T15:56:04Z</time><extensions><speed>0.071313</speed><course>229.213528</course><hAcc>2.642827</hAcc><vAcc>0.756772</vAcc></extensions></trkpt>
      <trkpt lon="-82.310838" lat="35.643021"><ele>804.608578</ele><time>2024-07-04T15:56:05Z</time><extensions><speed>0.081541</speed><course>230.404702</course><hAcc>2.646244</hAcc><vAcc>0.756770</vAcc></extensions></trkpt>
      <trkpt lon="-82.310839" lat="35.643020"><ele>804.590902</ele><time>2024-07-04T15:56:06Z</time><extensions><speed>0.076223</speed><course>233.078280</course><hAcc>2.665788</hAcc><vAcc>0.756766</vAcc></extensions></trkpt>
      <trkpt lon="-82.310841" lat="35.643019"><ele>804.572777</ele><time>2024-07-04T15:56:07Z</time><extensions><speed>0.080522</speed><course>235.901291</course><hAcc>2.677490</hAcc><vAcc>0.756763</vAcc></extensions></trkpt>
      <trkpt lon="-82.310842" lat="35.643019"><ele>804.554211</ele><time>2024-07-04T15:56:08Z</time><extensions><speed>0.082504</speed><course>239.682653</course><hAcc>2.690904</hAcc><vAcc>0.756759</vAcc></extensions></trkpt>
      <trkpt lon="-82.310844" lat="35.643018"><ele>804.534959</ele><time>2024-07-04T15:56:09Z</time><extensions><speed>0.082826</speed><course>243.362326</course><hAcc>2.704791</hAcc><vAcc>0.756756</vAcc></extensions></trkpt>
      <trkpt lon="-82.310846" lat="35.643018"><ele>804.514938</ele><time>2024-07-04T15:56:10Z</time><extensions><speed>0.085101</speed><course>246.684985</course><hAcc>2.716961</hAcc><vAcc>0.756753</vAcc></extensions></trkpt>
      <trkpt lon="-82.310847" lat="35.643018"><ele>804.494664</ele><time>2024-07-04T15:56:11Z</time><extensions><speed>0.084450</speed><course>249.551363</course><hAcc>2.729261</hAcc><vAcc>0.756750</vAcc></extensions></trkpt>
      <trkpt lon="-82.310849" lat="35.643017"><ele>804.474285</ele><time>2024-07-04T15:56:12Z</time><extensions><speed>0.092452</speed><course>252.026552</course><hAcc>2.736412</hAcc><vAcc>0.757138</vAcc></extensions></trkpt>
      <trkpt lon="-82.310850" lat="35.643017"><ele>804.454159</ele><time>2024-07-04T15:56:13Z</time><extensions><speed>0.106786</speed><course>254.145929</course><hAcc>2.744850</hAcc><vAcc>0.758115</vAcc></extensions></trkpt>
      <trkpt lon="-82.310852" lat="35.643017"><ele>804.434330</ele><time>2024-07-04T15:56:14Z</time><extensions><speed>0.117494</speed><course>256.112216</course><hAcc>2.758389</hAcc><vAcc>0.759863</vAcc></extensions></trkpt>
      <trkpt lon="-82.310854" lat="35.643016"><ele>804.414881</ele><time>2024-07-04T15:56:15Z</time><extensions><speed>0.146305</speed><course>257.866427</course><hAcc>2.775641</hAcc><vAcc>0.762598</vAcc></extensions></trkpt>
      <trkpt lon="-82.310855" lat="35.643016"><ele>804.396088</ele><time>2024-07-04T15:56:16Z</time><extensions><speed>0.148871</speed><course>259.486862</course><hAcc>2.835801</hAcc><vAcc>0.771558</vAcc></extensions></trkpt>
      <trkpt lon="-82.310857" lat="35.643016"><ele>804.377476</ele><time>2024-07-04T15:56:17Z</time><extensions><speed>0.158802</speed><course>260.978925</course><hAcc>2.890516</hAcc><vAcc>0.785871</vAcc></extensions></trkpt>
      <trkpt lon="-82.310858" lat="35.643016"><ele>804.359108</ele><time>2024-07-04T15:56:18Z</time><extensions><speed>0.151622</speed><course>262.004360</course><hAcc>2.939657</hAcc><vAcc>0.808017</vAcc></extensions></trkpt>
      <trkpt lon="-82.310860" lat="35.643015"><ele>804.341058</ele><time>2024-07-04T15:56:19Z</time><extensions><speed>0.182925</speed><course>261.795077</course><hAcc>2.980481</hAcc><vAcc>0.841008</vAcc></extensions></trkpt>
      <trkpt lon="-82.310862" lat="35.643015"><ele>804.323394</ele><time>2024-07-04T15:56:20Z</time><extensions><speed>0.192265</speed><course>262.541890</course><hAcc>3.096037</hAcc><vAcc>0.888185</vAcc></extensions></trkpt>
      <trkpt lon="-82.310864" lat="35.643015"><ele>804.306162</ele><time>2024-07-04T15:56:21Z</time><extensions><speed>0.169524</speed><course>263.573552</course><hAcc>3.283002</hAcc><vAcc>0.952872</vAcc></extensions></trkpt>
      <trkpt lon="-82.310866" lat="35.643015"><ele>804.289362</ele><time>2024-07-04T15:56:22Z</time><extensions><speed>0.158364</speed><course>265.351041</course><hAcc>3.493543</hAcc><vAcc>1.037969</vAcc></extensions></trkpt>
      <trkpt lon="-82.310868" lat="35.643015"><ele>804.272949</ele><time>2024-07-04T15:56:23Z</time><extensions><speed>0.096895</speed><course>264.433914</course><hAcc>3.721042</hAcc><vAcc>1.145643</vAcc></extensions></trkpt>
      <trkpt lon="-82.310868" lat="35.643015"><ele>804.256836</ele><time>2024-07-04T15:56:24Z</time><extensions><speed>0.055837</speed><course>263.798497</course><hAcc>3.972389</hAcc><vAcc>1.277232</vAcc></extensions></trkpt>
      <trkpt lon="-82.310869" lat="35.643015"><ele>804.240911</ele><time>2024-07-04T15:56:25Z</time><extensions><speed>0.035197</speed><course>263.523733</course><hAcc>4.277594</hAcc><vAcc>1.433309</vAcc></extensions></trkpt>
    </trkseg>
  </trk>
</gpx>