<?xml version="1.0" encoding="UTF-8"?>
<gpx version="1.1" creator="Apple Health Export" xmlns="http://www.topografix.com/GPX/1/1" xmlns:xsi="http://www.w3.org/2001/XMLSchema-instance" xsi:schemaLocation="http://www.topografix.com/GPX/1/1 http://www.topografix.com/GPX/1/1/gpx.xsd">
  <metadata>
    <time>2026-03-14T12:16:13Z</time>
  </metadata>
  <trk>
    <name>Route 2023-03-24 9:31am</name>
    <trkseg>
      <trkpt lon="-82.146102" lat="33.556541"><ele>91.078679</ele><time>2023-03-24T13:26:15Z</time><extensions><speed>0.683872</speed><course>100.719577</course><hAcc>3.646921</hAcc><vAcc>5.094172</vAcc></extensions></trkpt>
      <trkpt lon="-82.146104" lat="33.556537"><ele>91.295534</ele><time>2023-03-24T13:26:16Z</time><extensions><speed>0.391513</speed><course>103.054354</course><hAcc>3.381403</hAcc><vAcc>4.714508</vAcc></extensions></trkpt>
      <trkpt lon="-82.146107" lat="33.556534"><ele>91.366959</ele><time>2023-03-24T13:26:17Z</time><extensions><speed>0.138681</speed><course>134.851527</course><hAcc>3.182207</hAcc><vAcc>4.401429</vAcc></extensions></trkpt>
      <trkpt lon="-82.146114" lat="33.556531"><ele>91.347507</ele><time>2023-03-24T13:26:18Z</time><extensions><speed>0.573891</speed><course>250.852022</course><hAcc>3.038213</hAcc><vAcc>4.138919</vAcc></extensions></trkpt>
      <trkpt lon="-82.146125" lat="33.556528"><ele>91.397001</ele><time>2023-03-24T13:26:19Z</time><extensions><speed>0.959166</speed><course>249.623254</course><hAcc>2.947095</hAcc><vAcc>3.914543</vAcc></extensions></trkpt>
      <trkpt lon="-82.146137" lat="33.556523"><ele>91.529495</ele><time>2023-03-24T13:26:20Z</time><extensions><speed>1.052053</speed><course>236.185228</course><hAcc>2.871308</hAcc><vAcc>3.720782</vAcc></extensions></trkpt>
      <trkpt lon="-82.146151" lat="33.556516"><ele>91.679673</ele><time>2023-03-24T13:26:21Z</time><extensions><speed>1.395176</speed><course>235.963471</course><hAcc>2.782916</hAcc><vAcc>3.551772</vAcc></extensions></trkpt>
      <trkpt lon="-82.146166" lat="33.556508"><ele>91.794606</ele><time>2023-03-24T13:26:22Z</time><extensions><speed>1.437278</speed><course>239.029326</course><hAcc>2.721628</hAcc><vAcc>3.403274</vAcc></extensions></trkpt>
      <trkpt lon="-82.146184" lat="33.556500"><ele>91.941259</ele><time>2023-03-24T13:26:23Z</time><extensions><speed>1.469188</speed><course>241.177117</course><hAcc>2.639948</hAcc><vAcc>3.165840</vAcc></extensions></trkpt>
      <trkpt lon="-82.146201" lat="33.556494"><ele>91.979035</ele><time>2023-03-24T13:26:24Z</time><extensions><speed>1.571206</speed><course>243.068012</course><hAcc>2.551965</hAcc><vAcc>2.971341</vAcc></extensions></trkpt>
      <trkpt lon="-82.146217" lat="33.556488"><ele>91.924418</ele><time>2023-03-24T13:26:25Z</time><extensions><speed>1.489121</speed><course>244.367076</course><hAcc>2.477382</hAcc><vAcc>2.806524</vAcc></extensions></trkpt>
      <trkpt lon="-82.146226" lat="33.556486"><ele>91.968992</ele><time>2023-03-24T13:26:25Z</time><extensions><speed>1.438325</speed><course>245.306593</course><hAcc>2.432495</hAcc><vAcc>2.683573</vAcc></extensions></trkpt>
      <trkpt lon="-82.146239" lat="33.556481"><ele>92.073444</ele><time>2023-03-24T13:26:26Z</time><extensions><speed>1.322493</speed><course>243.537474</course><hAcc>2.375163</hAcc><vAcc>2.559049</vAcc></extensions></trkpt>
      <trkpt lon="-82.146252" lat="33.556476"><ele>92.168929</ele><time>2023-03-24T13:26:27Z</time><extensions><speed>1.359663</speed><course>244.837273</course><hAcc>2.310189</hAcc><vAcc>2.447969</vAcc></extensions></trkpt>
      <trkpt lon="-82.146265" lat="33.556471"><ele>92.311931</ele><time>2023-03-24T13:26:28Z</time><extensions><speed>1.370372</speed><course>243.515353</course><hAcc>2.268933</hAcc><vAcc>2.348729</vAcc></extensions></trkpt>
      <trkpt lon="-82.146279" lat="33.556465"><ele>92.696776</ele><time>2023-03-24T13:26:29Z</time><extensions><speed>1.554363</speed><course>240.444809</course><hAcc>2.203397</hAcc><vAcc>2.222595</vAcc></extensions></trkpt>
      <trkpt lon="-82.146293" lat="33.556458"><ele>93.065777</ele><time>2023-03-24T13:26:30Z</time><extensions><speed>1.604649</speed><course>239.527551</course><hAcc>2.094414</hAcc><vAcc>2.113710</vAcc></extensions></trkpt>
      <trkpt lon="-82.146308" lat="33.556451"><ele>93.311668</ele><time>2023-03-24T13:26:31Z</time><extensions><speed>1.480333</speed><course>241.059023</course><hAcc>1.995460</hAcc><vAcc>2.016540</vAcc></extensions></trkpt>
      <trkpt lon="-82.146321" lat="33.556446"><ele>93.489991</ele><time>2023-03-24T13:26:32Z</time><extensions><speed>1.257438</speed><course>254.087980</course><hAcc>1.891646</hAcc><vAcc>1.929353</vAcc></extensions></trkpt>
      <trkpt lon="-82.146334" lat="33.556445"><ele>93.635899</ele><time>2023-03-24T13:26:33Z</time><extensions><speed>1.205220</speed><course>274.782990</course><hAcc>1.825337</hAcc><vAcc>1.851191</vAcc></extensions></trkpt>
      <trkpt lon="-82.146346" lat="33.556447"><ele>93.700611</ele><time>2023-03-24T13:26:34Z</time><extensions><speed>1.019823</speed><course>280.701138</course><hAcc>1.778404</hAcc><vAcc>1.780310</vAcc></extensions></trkpt>
      <trkpt lon="-82.146356" lat="33.556448"><ele>93.746526</ele><time>2023-03-24T13:26:35Z</time><extensions><speed>0.780683</speed><course>276.244611</course><hAcc>1.726535</hAcc><vAcc>1.716090</vAcc></extensions></trkpt>
      <trkpt lon="-82.146364" lat="33.556448"><ele>93.842445</ele><time>2023-03-24T13:26:36Z</time><extensions><speed>0.639761</speed><course>256.628852</course><hAcc>1.689630</hAcc><vAcc>1.657816</vAcc></extensions></trkpt>
      <trkpt lon="-82.146370" lat="33.556446"><ele>93.914245</ele><time>2023-03-24T13:26:37Z</time><extensions><speed>0.669528</speed><course>249.001320</course><hAcc>1.667591</hAcc><vAcc>1.605401</vAcc></extensions></trkpt>
      <trkpt lon="-82.146377" lat="33.556444"><ele>93.966505</ele><time>2023-03-24T13:26:38Z</time><extensions><speed>0.751045</speed><course>254.322718</course><hAcc>1.658590</hAcc><vAcc>1.558425</vAcc></extensions></trkpt>
      <trkpt lon="-82.146386" lat="33.556443"><ele>93.978675</ele><time>2023-03-24T13:26:39Z</time><extensions><speed>0.798718</speed><course>258.840675</course><hAcc>1.681316</hAcc><vAcc>1.516661</vAcc></extensions></trkpt>
      <trkpt lon="-82.146395" lat="33.556442"><ele>93.993590</ele><time>2023-03-24T13:26:40Z</time><extensions><speed>0.859477</speed><course>266.019355</course><hAcc>1.662845</hAcc><vAcc>1.479757</vAcc></extensions></trkpt>
      <trkpt lon="-82.146404" lat="33.556442"><ele>93.993978</ele><time>2023-03-24T13:26:41Z</time><extensions><speed>0.878578</speed><course>266.990194</course><hAcc>1.667919</hAcc><vAcc>1.447804</vAcc></extensions></trkpt>
      <trkpt lon="-82.146415" lat="33.556442"><ele>93.990649</ele><time>2023-03-24T13:26:42Z</time><extensions><speed>1.031662</speed><course>269.382964</course><hAcc>1.652214</hAcc><vAcc>1.420359</vAcc></extensions></trkpt>
      <trkpt lon="-82.146426" lat="33.556442"><ele>93.964446</ele><time>2023-03-24T13:26:43Z</time><extensions><speed>1.080235</speed><course>275.084378</course><hAcc>1.616727</hAcc><vAcc>1.397152</vAcc></extensions></trkpt>
      <trkpt lon="-82.146438" lat="33.556443"><ele>93.950541</ele><time>2023-03-24T13:26:44Z</time><extensions><speed>1.032241</speed><course>276.309350</course><hAcc>1.611489</hAcc><vAcc>1.377823</vAcc></extensions></trkpt>
      <trkpt lon="-82.146448" lat="33.556444"><ele>93.921141</ele><time>2023-03-24T13:26:45Z</time><extensions><speed>0.902334</speed><course>271.962260</course><hAcc>1.644630</hAcc><vAcc>1.361867</vAcc></extensions></trkpt>
      <trkpt lon="-82.146457" lat="33.556444"><ele>93.880633</ele><time>2023-03-24T13:26:46Z</time><extensions><speed>0.792590</speed><course>266.886408</course><hAcc>1.657902</hAcc><vAcc>1.348725</vAcc></extensions></trkpt>
      <trkpt lon="-82.146466" lat="33.556443"><ele>93.844752</ele><time>2023-03-24T13:26:47Z</time><extensions><speed>0.910339</speed><course>267.435993</course><hAcc>1.645151</hAcc><vAcc>1.338147</vAcc></extensions></trkpt>
      <trkpt lon="-82.146478" lat="33.556442"><ele>93.789359</ele><time>2023-03-24T13:26:48Z</time><extensions><speed>1.267186</speed><course>261.544829</course><hAcc>1.659375</hAcc><vAcc>1.329953</vAcc></extensions></trkpt>
      <trkpt lon="-82.146492" lat="33.556440"><ele>93.730096</ele><time>2023-03-24T13:26:49Z</time><extensions><speed>1.423177</speed><course>259.668331</course><hAcc>1.642723</hAcc><vAcc>1.323617</vAcc></extensions></trkpt>
      <trkpt lon="-82.146507" lat="33.556437"><ele>93.657775</ele><time>2023-03-24T13:26:50Z</time><extensions><speed>1.451599</speed><course>253.817701</course><hAcc>1.644274</hAcc><vAcc>1.318400</vAcc></extensions></trkpt>
      <trkpt lon="-82.146521" lat="33.556432"><ele>93.563467</ele><time>2023-03-24T13:26:51Z</time><extensions><speed>1.295378</speed><course>246.274376</course><hAcc>1.649187</hAcc><vAcc>1.314359</vAcc></extensions></trkpt>
      <trkpt lon="-82.146533" lat="33.556427"><ele>93.476468</ele><time>2023-03-24T13:26:52Z</time><extensions><speed>1.383943</speed><course>237.968765</course><hAcc>1.638101</hAcc><vAcc>1.311606</vAcc></extensions></trkpt>
      <trkpt lon="-82.146545" lat="33.556419"><ele>93.385489</ele><time>2023-03-24T13:26:53Z</time><extensions><speed>1.394593</speed><course>232.375350</course><hAcc>1.636077</hAcc><vAcc>1.309511</vAcc></extensions></trkpt>
      <trkpt lon="-82.146557" lat="33.556411"><ele>93.302243</ele><time>2023-03-24T13:26:54Z</time><extensions><speed>1.357378</speed><course>232.112864</course><hAcc>1.648079</hAcc><vAcc>1.308399</vAcc></extensions></trkpt>
      <trkpt lon="-82.146568" lat="33.556404"><ele>93.220817</ele><time>2023-03-24T13:26:55Z</time><extensions><speed>1.271571</speed><course>228.983435</course><hAcc>1.637216</hAcc><vAcc>1.306853</vAcc></extensions></trkpt>
      <trkpt lon="-82.146578" lat="33.556395"><ele>93.150582</ele><time>2023-03-24T13:26:56Z</time><extensions><speed>1.238225</speed><course>222.848495</course><hAcc>1.599403</hAcc><vAcc>1.305700</vAcc></extensions></trkpt>
      <trkpt lon="-82.146587" lat="33.556387"><ele>93.086221</ele><time>2023-03-24T13:26:57Z</time><extensions><speed>1.187882</speed><course>220.983824</course><hAcc>1.608796</hAcc><vAcc>1.304476</vAcc></extensions></trkpt>
      <trkpt lon="-82.146594" lat="33.556380"><ele>93.056216</ele><time>2023-03-24T13:26:58Z</time><extensions><speed>1.036548</speed><course>218.857679</course><hAcc>1.618515</hAcc><vAcc>1.303362</vAcc></extensions></trkpt>
      <trkpt lon="-82.146600" lat="33.556373"><ele>93.010816</ele><time>2023-03-24T13:26:59Z</time><extensions><speed>0.866578</speed><course>222.843650</course><hAcc>1.616364</hAcc><vAcc>1.303186</vAcc></extensions></trkpt>
      <trkpt lon="-82.146606" lat="33.556367"><ele>92.961814</ele><time>2023-03-24T13:27:00Z</time><extensions><speed>0.804533</speed><course>220.544238</course><hAcc>1.590530</hAcc><vAcc>1.303135</vAcc></extensions></trkpt>
      <trkpt lon="-82.146613" lat="33.556362"><ele>92.924494</ele><time>2023-03-24T13:27:01Z</time><extensions><speed>0.854164</speed><course>224.647800</course><hAcc>1.593092</hAcc><vAcc>1.303626</vAcc></extensions></trkpt>
      <trkpt lon="-82.146619" lat="33.556356"><ele>92.895072</ele><time>2023-03-24T13:27:02Z</time><extensions><speed>0.912492</speed><course>226.156835</course><hAcc>1.623364</hAcc><vAcc>1.277695</vAcc></extensions></trkpt>
      <trkpt lon="-82.146626" lat="33.556350"><ele>92.850718</ele><time>2023-03-24T13:27:03Z</time><extensions><speed>1.001801</speed><course>222.008093</course><hAcc>1.615490</hAcc><vAcc>1.255846</vAcc></extensions></trkpt>
      <trkpt lon="-82.146633" lat="33.556344"><ele>92.840782</ele><time>2023-03-24T13:27:04Z</time><extensions><speed>0.860194</speed><course>223.157350</course><hAcc>1.629265</hAcc><vAcc>1.236090</vAcc></extensions></trkpt>
      <trkpt lon="-82.146640" lat="33.556338"><ele>92.839613</ele><time>2023-03-24T13:27:05Z</time><extensions><speed>0.812313</speed><course>230.991597</course><hAcc>1.639014</hAcc><vAcc>1.216314</vAcc></extensions></trkpt>
      <trkpt lon="-82.146647" lat="33.556334"><ele>92.854819</ele><time>2023-03-24T13:27:06Z</time><extensions><speed>0.893036</speed><course>228.562112</course><hAcc>1.629437</hAcc><vAcc>1.196272</vAcc></extensions></trkpt>
      <trkpt lon="-82.146655" lat="33.556327"><ele>92.876840</ele><time>2023-03-24T13:27:07Z</time><extensions><speed>1.114536</speed><course>226.612039</course><hAcc>1.615084</hAcc><vAcc>1.175900</vAcc></extensions></trkpt>
      <trkpt lon="-82.146665" lat="33.556321"><ele>92.884660</ele><time>2023-03-24T13:27:08Z</time><extensions><speed>1.201803</speed><course>231.429809</course><hAcc>1.632506</hAcc><vAcc>1.154814</vAcc></extensions></trkpt>
      <trkpt lon="-82.146676" lat="33.556315"><ele>92.899251</ele><time>2023-03-24T13:27:09Z</time><extensions><speed>1.193419</speed><course>241.768166</course><hAcc>1.677929</hAcc><vAcc>1.132780</vAcc></extensions></trkpt>
      <trkpt lon="-82.146686" lat="33.556311"><ele>92.919773</ele><time>2023-03-24T13:27:10Z</time><extensions><speed>1.051380</speed><course>247.775145</course><hAcc>1.693497</hAcc><vAcc>1.110889</vAcc></extensions></trkpt>
      <trkpt lon="-82.146697" lat="33.556307"><ele>92.947690</ele><time>2023-03-24T13:27:11Z</time><extensions><speed>1.126038</speed><course>244.122613</course><hAcc>1.681039</hAcc><vAcc>1.088923</vAcc></extensions></trkpt>
      <trkpt lon="-82.146709" lat="33.556302"><ele>92.966697</ele><time>2023-03-24T13:27:12Z</time><extensions><speed>1.306958</speed><course>245.743221</course><hAcc>1.667860</hAcc><vAcc>1.067346</vAcc></extensions></trkpt>
      <trkpt lon="-82.146723" lat="33.556298"><ele>92.989740</ele><time>2023-03-24T13:27:13Z</time><extensions><speed>1.380892</speed><course>251.183343</course><hAcc>1.654048</hAcc><vAcc>1.046821</vAcc></extensions></trkpt>
      <trkpt lon="-82.146738" lat="33.556294"><ele>93.028604</ele><time>2023-03-24T13:27:14Z</time><extensions><speed>1.397338</speed><course>257.853749</course><hAcc>1.660345</hAcc><vAcc>1.027934</vAcc></extensions></trkpt>
      <trkpt lon="-82.146752" lat="33.556292"><ele>93.076621</ele><time>2023-03-24T13:27:15Z</time><extensions><speed>1.344559</speed><course>262.197800</course><hAcc>1.681758</hAcc><vAcc>1.011299</vAcc></extensions></trkpt>
      <trkpt lon="-82.146767" lat="33.556291"><ele>93.105923</ele><time>2023-03-24T13:27:16Z</time><extensions><speed>1.358365</speed><course>263.317826</course><hAcc>1.692428</hAcc><vAcc>0.996959</vAcc></extensions></trkpt>
      <trkpt lon="-82.146783" lat="33.556289"><ele>93.105218</ele><time>2023-03-24T13:27:17Z</time><extensions><speed>1.537069</speed><course>261.996402</course><hAcc>1.690502</hAcc><vAcc>0.984754</vAcc></extensions></trkpt>
      <trkpt lon="-82.146799" lat="33.556287"><ele>93.102249</ele><time>2023-03-24T13:27:18Z</time><extensions><speed>1.608263</speed><course>262.134746</course><hAcc>1.673827</hAcc><vAcc>0.974683</vAcc></extensions></trkpt>
      <trkpt lon="-82.146817" lat="33.556286"><ele>93.097859</ele><time>2023-03-24T13:27:19Z</time><extensions><speed>1.614275</speed><course>263.453544</course><hAcc>1.651014</hAcc><vAcc>0.966559</vAcc></extensions></trkpt>
      <trkpt lon="-82.146834" lat="33.556284"><ele>93.096291</ele><time>2023-03-24T13:27:20Z</time><extensions><speed>1.578754</speed><course>262.524569</course><hAcc>1.663430</hAcc><vAcc>0.960160</vAcc></extensions></trkpt>
      <trkpt lon="-82.146850" lat="33.556282"><ele>93.089139</ele><time>2023-03-24T13:27:21Z</time><extensions><speed>1.453157</speed><course>259.610111</course><hAcc>1.708702</hAcc><vAcc>0.955234</vAcc></extensions></trkpt>
      <trkpt lon="-82.146866" lat="33.556279"><ele>93.083317</ele><time>2023-03-24T13:27:22Z</time><extensions><speed>1.592662</speed><course>256.519000</course><hAcc>1.730259</hAcc><vAcc>0.951483</vAcc></extensions></trkpt>
      <trkpt lon="-82.146883" lat="33.556276"><ele>93.080438</ele><time>2023-03-24T13:27:23Z</time><extensions><speed>1.535036</speed><course>255.538256</course><hAcc>1.780968</hAcc><vAcc>0.948762</vAcc></extensions></trkpt>
      <trkpt lon="-82.146900" lat="33.556272"><ele>93.083718</ele><time>2023-03-24T13:27:24Z</time><extensions><speed>1.724863</speed><course>254.303100</course><hAcc>1.853288</hAcc><vAcc>0.946987</vAcc></extensions></trkpt>
      <trkpt lon="-82.146919" lat="33.556268"><ele>93.085053</ele><time>2023-03-24T13:27:25Z</time><extensions><speed>1.943468</speed><course>256.110537</course><hAcc>1.953451</hAcc><vAcc>0.945593</vAcc></extensions></trkpt>
      <trkpt lon="-82.146940" lat="33.556263"><ele>93.092385</ele><time>2023-03-24T13:27:26Z</time><extensions><speed>1.944590</speed><course>252.398302</course><hAcc>2.104190</hAcc><vAcc>0.944569</vAcc></extensions></trkpt>
      <trkpt lon="-82.146958" lat="33.556258"><ele>93.102500</ele><time>2023-03-24T13:27:27Z</time><extensions><speed>1.736596</speed><course>246.655251</course><hAcc>2.237460</hAcc><vAcc>0.943896</vAcc></extensions></trkpt>
      <trkpt lon="-82.146974" lat="33.556251"><ele>93.105560</ele><time>2023-03-24T13:27:28Z</time><extensions><speed>1.569129</speed><course>238.382813</course><hAcc>2.354238</hAcc><vAcc>0.943753</vAcc></extensions></trkpt>
      <trkpt lon="-82.146987" lat="33.556243"><ele>93.115604</ele><time>2023-03-24T13:27:29Z</time><extensions><speed>1.417821</speed><course>231.902259</course><hAcc>2.450455</hAcc><vAcc>0.943442</vAcc></extensions></trkpt>
      <trkpt lon="-82.146998" lat="33.556236"><ele>93.130287</ele><time>2023-03-24T13:27:30Z</time><extensions><speed>1.290514</speed><course>229.842717</course><hAcc>2.506418</hAcc><vAcc>0.943248</vAcc></extensions></trkpt>
      <trkpt lon="-82.147008" lat="33.556229"><ele>93.142105</ele><time>2023-03-24T13:27:31Z</time><extensions><speed>1.202412</speed><course>229.584078</course><hAcc>2.540240</hAcc><vAcc>0.943080</vAcc></extensions></trkpt>
      <trkpt lon="-82.147018" lat="33.556223"><ele>93.134828</ele><time>2023-03-24T13:27:32Z</time><extensions><speed>1.089157</speed><course>233.570095</course><hAcc>2.544661</hAcc><vAcc>0.943089</vAcc></extensions></trkpt>
      <trkpt lon="-82.147027" lat="33.556217"><ele>93.121352</ele><time>2023-03-24T13:27:33Z</time><extensions><speed>1.021029</speed><course>235.036733</course><hAcc>2.549657</hAcc><vAcc>0.943052</vAcc></extensions></trkpt>
      <trkpt lon="-82.147034" lat="33.556212"><ele>93.078941</ele><time>2023-03-24T13:27:34Z</time><extensions><speed>0.962124</speed><course>228.505753</course><hAcc>2.578348</hAcc><vAcc>0.943243</vAcc></extensions></trkpt>
      <trkpt lon="-82.147040" lat="33.556206"><ele>93.013311</ele><time>2023-03-24T13:27:35Z</time><extensions><speed>0.947778</speed><course>212.393480</course><hAcc>2.603673</hAcc><vAcc>0.943174</vAcc></extensions></trkpt>
      <trkpt lon="-82.147043" lat="33.556198"><ele>92.929713</ele><time>2023-03-24T13:27:36Z</time><extensions><speed>1.080526</speed><course>189.860619</course><hAcc>2.605861</hAcc><vAcc>0.943101</vAcc></extensions></trkpt>
      <trkpt lon="-82.147042" lat="33.556189"><ele>92.841516</ele><time>2023-03-24T13:27:37Z</time><extensions><speed>1.152073</speed><course>171.332304</course><hAcc>2.576142</hAcc><vAcc>0.943211</vAcc></extensions></trkpt>
      <trkpt lon="-82.147037" lat="33.556179"><ele>92.742834</ele><time>2023-03-24T13:27:38Z</time><extensions><speed>1.255595</speed><course>160.427824</course><hAcc>2.553721</hAcc><vAcc>0.943142</vAcc></extensions></trkpt>
      <trkpt lon="-82.147031" lat="33.556170"><ele>92.627564</ele><time>2023-03-24T13:27:39Z</time><extensions><speed>1.246729</speed><course>157.297251</course><hAcc>2.532936</hAcc><vAcc>0.936433</vAcc></extensions></trkpt>
      <trkpt lon="-82.147025" lat="33.556161"><ele>92.511466</ele><time>2023-03-24T13:27:40Z</time><extensions><speed>1.114525</speed><course>159.919202</course><hAcc>2.503299</hAcc><vAcc>0.934931</vAcc></extensions></trkpt>
      <trkpt lon="-82.147020" lat="33.556154"><ele>92.382118</ele><time>2023-03-24T13:27:41Z</time><extensions><speed>0.743831</speed><course>157.803752</course><hAcc>2.472888</hAcc><vAcc>0.928136</vAcc></extensions></trkpt>
      <trkpt lon="-82.147017" lat="33.556148"><ele>92.252877</ele><time>2023-03-24T13:27:42Z</time><extensions><speed>0.605785</speed><course>164.944820</course><hAcc>2.482729</hAcc><vAcc>0.921019</vAcc></extensions></trkpt>
      <trkpt lon="-82.147013" lat="33.556143"><ele>92.136027</ele><time>2023-03-24T13:27:43Z</time><extensions><speed>0.794255</speed><course>162.520203</course><hAcc>2.478787</hAcc><vAcc>0.916601</vAcc></extensions></trkpt>
      <trkpt lon="-82.147012" lat="33.556135"><ele>92.001573</ele><time>2023-03-24T13:27:44Z</time><extensions><speed>1.207654</speed><course>189.373139</course><hAcc>2.455224</hAcc><vAcc>0.911740</vAcc></extensions></trkpt>
      <trkpt lon="-82.147013" lat="33.556124"><ele>91.869623</ele><time>2023-03-24T13:27:45Z</time><extensions><speed>1.299542</speed><course>183.666081</course><hAcc>2.419690</hAcc><vAcc>0.906526</vAcc></extensions></trkpt>
      <trkpt lon="-82.147013" lat="33.556113"><ele>91.729651</ele><time>2023-03-24T13:27:46Z</time><extensions><speed>1.281956</speed><course>186.687452</course><hAcc>2.414000</hAcc><vAcc>0.901446</vAcc></extensions></trkpt>
      <trkpt lon="-82.147013" lat="33.556103"><ele>91.591386</ele><time>2023-03-24T13:27:47Z</time><extensions><speed>1.148912</speed><course>174.973029</course><hAcc>2.418956</hAcc><vAcc>0.896747</vAcc></extensions></trkpt>
      <trkpt lon="-82.147012" lat="33.556094"><ele>91.454956</ele><time>2023-03-24T13:27:48Z</time><extensions><speed>0.922560</speed><course>183.841958</course><hAcc>2.409622</hAcc><vAcc>0.892646</vAcc></extensions></trkpt>
      <trkpt lon="-82.147011" lat="33.556086"><ele>91.321067</ele><time>2023-03-24T13:27:49Z</time><extensions><speed>0.989000</speed><course>180.132154</course><hAcc>2.396336</hAcc><vAcc>0.889789</vAcc></extensions></trkpt>
      <trkpt lon="-82.147010" lat="33.556077"><ele>91.196726</ele><time>2023-03-24T13:27:50Z</time><extensions><speed>1.016397</speed><course>170.684871</course><hAcc>2.393414</hAcc><vAcc>0.888717</vAcc></extensions></trkpt>
      <trkpt lon="-82.147008" lat="33.556068"><ele>91.080553</ele><time>2023-03-24T13:27:51Z</time><extensions><speed>1.048769</speed><course>167.779848</course><hAcc>2.390119</hAcc><vAcc>0.889287</vAcc></extensions></trkpt>
      <trkpt lon="-82.147004" lat="33.556059"><ele>90.971362</ele><time>2023-03-24T13:27:52Z</time><extensions><speed>1.094933</speed><course>156.966109</course><hAcc>2.373000</hAcc><vAcc>0.891773</vAcc></extensions></trkpt>
      <trkpt lon="-82.146996" lat="33.556050"><ele>90.873371</ele><time>2023-03-24T13:27:53Z</time><extensions><speed>1.280698</speed><course>141.669195</course><hAcc>2.368729</hAcc><vAcc>0.895763</vAcc></extensions></trkpt>
      <trkpt lon="-82.146989" lat="33.556041"><ele>90.781729</ele><time>2023-03-24T13:27:54Z</time><extensions><speed>1.277981</speed><course>155.549192</course><hAcc>2.381397</hAcc><vAcc>0.900815</vAcc></extensions></trkpt>
      <trkpt lon="-82.146983" lat="33.556031"><ele>90.692303</ele><time>2023-03-24T13:27:55Z</time><extensions><speed>1.136156</speed><course>159.976329</course><hAcc>2.400939</hAcc><vAcc>0.906319</vAcc></extensions></trkpt>
      <trkpt lon="-82.146980" lat="33.556022"><ele>90.616684</ele><time>2023-03-24T13:27:56Z</time><extensions><speed>0.991431</speed><course>171.980377</course><hAcc>2.411224</hAcc><vAcc>0.905282</vAcc></extensions></trkpt>
      <trkpt lon="-82.146979" lat="33.556013"><ele>90.536216</ele><time>2023-03-24T13:27:57Z</time><extensions><speed>0.956133</speed><course>176.330525</course><hAcc>2.421260</hAcc><vAcc>0.909338</vAcc></extensions></trkpt>
      <trkpt lon="-82.146980" lat="33.556004"><ele>90.463638</ele><time>2023-03-24T13:27:58Z</time><extensions><speed>1.025320</speed><course>198.115767</course><hAcc>2.430979</hAcc><vAcc>0.912679</vAcc></extensions></trkpt>
      <trkpt lon="-82.146982" lat="33.555995"><ele>90.408575</ele><time>2023-03-24T13:27:59Z</time><extensions><speed>1.060518</speed><course>189.171283</course><hAcc>2.436302</hAcc><vAcc>0.915299</vAcc></extensions></trkpt>
      <trkpt lon="-82.146982" lat="33.555985"><ele>90.366118</ele><time>2023-03-24T13:28:00Z</time><extensions><speed>1.023059</speed><course>170.907930</course><hAcc>2.429611</hAcc><vAcc>0.917435</vAcc></extensions></trkpt>
      <trkpt lon="-82.146979" lat="33.555976"><ele>90.333665</ele><time>2023-03-24T13:28:01Z</time><extensions><speed>0.883400</speed><course>161.890756</course><hAcc>2.422966</hAcc><vAcc>0.918722</vAcc></extensions></trkpt>
      <trkpt lon="-82.146976" lat="33.555969"><ele>90.308851</ele><time>2023-03-24T13:28:02Z</time><extensions><speed>0.671293</speed><course>153.004388</course><hAcc>2.434095</hAcc><vAcc>0.919461</vAcc></extensions></trkpt>
      <trkpt lon="-82.146972" lat="33.555964"><ele>90.282751</ele><time>2023-03-24T13:28:03Z</time><extensions><speed>0.650626</speed><course>151.121791</course><hAcc>2.474844</hAcc><vAcc>0.919863</vAcc></extensions></trkpt>
      <trkpt lon="-82.146968" lat="33.555958"><ele>90.265179</ele><time>2023-03-24T13:28:04Z</time><extensions><speed>0.678789</speed><course>156.537225</course><hAcc>2.534556</hAcc><vAcc>0.920294</vAcc></extensions></trkpt>
      <trkpt lon="-82.146965" lat="33.555951"><ele>90.240670</ele><time>2023-03-24T13:28:05Z</time><extensions><speed>0.746238</speed><course>162.015406</course><hAcc>2.576914</hAcc><vAcc>0.920665</vAcc></extensions></trkpt>
      <trkpt lon="-82.146962" lat="33.555943"><ele>90.224333</ele><time>2023-03-24T13:28:06Z</time><extensions><speed>1.087691</speed><course>167.681410</course><hAcc>2.572331</hAcc><vAcc>0.921490</vAcc></extensions></trkpt>
      <trkpt lon="-82.146959" lat="33.555932"><ele>90.202991</ele><time>2023-03-24T13:28:07Z</time><extensions><speed>1.260645</speed><course>170.773855</course><hAcc>2.549334</hAcc><vAcc>0.923093</vAcc></extensions></trkpt>
      <trkpt lon="-82.146957" lat="33.555919"><ele>90.189096</ele><time>2023-03-24T13:28:08Z</time><extensions><speed>1.406212</speed><course>172.784695</course><hAcc>2.524268</hAcc><vAcc>0.925071</vAcc></extensions></trkpt>
      <trkpt lon="-82.146955" lat="33.555906"><ele>90.164282</ele><time>2023-03-24T13:28:09Z</time><extensions><speed>1.433331</speed><course>175.753308</course><hAcc>2.530029</hAcc><vAcc>0.927108</vAcc></extensions></trkpt>
      <trkpt lon="-82.146953" lat="33.555893"><ele>90.132621</ele><time>2023-03-24T13:28:10Z</time><extensions><speed>1.407703</speed><course>176.861138</course><hAcc>2.547566</hAcc><vAcc>0.929288</vAcc></extensions></trkpt>
      <trkpt lon="-82.146952" lat="33.555880"><ele>90.106977</ele><time>2023-03-24T13:28:11Z</time><extensions><speed>1.338869</speed><course>180.239569</course><hAcc>2.572620</hAcc><vAcc>0.931409</vAcc></extensions></trkpt>
      <trkpt lon="-82.146952" lat="33.555867"><ele>90.072886</ele><time>2023-03-24T13:28:12Z</time><extensions><speed>1.321385</speed><course>181.858715</course><hAcc>2.554039</hAcc><vAcc>0.933412</vAcc></extensions></trkpt>
      <trkpt lon="-82.146953" lat="33.555855"><ele>90.049038</ele><time>2023-03-24T13:28:13Z</time><extensions><speed>1.289375</speed><course>186.057157</course><hAcc>2.526740</hAcc><vAcc>0.928632</vAcc></extensions></trkpt>
      <trkpt lon="-82.146955" lat="33.555843"><ele>90.031867</ele><time>2023-03-24T13:28:14Z</time><extensions><speed>1.396173</speed><course>191.238697</course><hAcc>2.523480</hAcc><vAcc>0.923580</vAcc></extensions></trkpt>
      <trkpt lon="-82.146958" lat="33.555831"><ele>90.014880</ele><time>2023-03-24T13:28:15Z</time><extensions><speed>1.290920</speed><course>196.725628</course><hAcc>2.538459</hAcc><vAcc>0.917753</vAcc></extensions></trkpt>
      <trkpt lon="-82.146961" lat="33.555820"><ele>90.004723</ele><time>2023-03-24T13:28:16Z</time><extensions><speed>1.241819</speed><course>200.741462</course><hAcc>2.556602</hAcc><vAcc>0.910853</vAcc></extensions></trkpt>
      <trkpt lon="-82.146965" lat="33.555809"><ele>89.991157</ele><time>2023-03-24T13:28:17Z</time><extensions><speed>1.214694</speed><course>203.241567</course><hAcc>2.573218</hAcc><vAcc>0.902800</vAcc></extensions></trkpt>
      <trkpt lon="-82.146970" lat="33.555798"><ele>89.985336</ele><time>2023-03-24T13:28:18Z</time><extensions><speed>1.270585</speed><course>200.885285</course><hAcc>2.546766</hAcc><vAcc>0.893320</vAcc></extensions></trkpt>
      <trkpt lon="-82.146974" lat="33.555787"><ele>89.981877</ele><time>2023-03-24T13:28:19Z</time><extensions><speed>1.294082</speed><course>200.069827</course><hAcc>2.525718</hAcc><vAcc>0.882347</vAcc></extensions></trkpt>
      <trkpt lon="-82.146977" lat="33.555775"><ele>89.978410</ele><time>2023-03-24T13:28:20Z</time><extensions><speed>1.321961</speed><course>196.752205</course><hAcc>2.521264</hAcc><vAcc>0.870055</vAcc></extensions></trkpt>
      <trkpt lon="-82.146980" lat="33.555763"><ele>89.977266</ele><time>2023-03-24T13:28:21Z</time><extensions><speed>1.378227</speed><course>191.804976</course><hAcc>2.516688</hAcc><vAcc>0.856707</vAcc></extensions></trkpt>
      <trkpt lon="-82.146981" lat="33.555752"><ele>89.980769</ele><time>2023-03-24T13:28:22Z</time><extensions><speed>1.059992</speed><course>182.372780</course><hAcc>2.520731</hAcc><vAcc>0.842674</vAcc></extensions></trkpt>
      <trkpt lon="-82.146980" lat="33.555743"><ele>89.973692</ele><time>2023-03-24T13:28:23Z</time><extensions><speed>0.989916</speed><course>171.669970</course><hAcc>2.508330</hAcc><vAcc>0.828813</vAcc></extensions></trkpt>
      <trkpt lon="-82.146977" lat="33.555734"><ele>89.969141</ele><time>2023-03-24T13:28:24Z</time><extensions><speed>0.960231</speed><course>162.237401</course><hAcc>2.511513</hAcc><vAcc>0.815419</vAcc></extensions></trkpt>
      <trkpt lon="-82.146973" lat="33.555725"><ele>89.968992</ele><time>2023-03-24T13:28:25Z</time><extensions><speed>1.028659</speed><course>155.608919</course><hAcc>2.499553</hAcc><vAcc>0.803224</vAcc></extensions></trkpt>
      <trkpt lon="-82.146968" lat="33.555716"><ele>89.967840</ele><time>2023-03-24T13:28:26Z</time><extensions><speed>1.151974</speed><course>160.696381</course><hAcc>2.484028</hAcc><vAcc>0.792600</vAcc></extensions></trkpt>
      <trkpt lon="-82.146965" lat="33.555706"><ele>89.966721</ele><time>2023-03-24T13:28:27Z</time><extensions><speed>1.086925</speed><course>166.334290</course><hAcc>2.457130</hAcc><vAcc>0.783737</vAcc></extensions></trkpt>
      <trkpt lon="-82.146962" lat="33.555696"><ele>89.961651</ele><time>2023-03-24T13:28:28Z</time><extensions><speed>1.109014</speed><course>171.657699</course><hAcc>2.434235</hAcc><vAcc>0.776527</vAcc></extensions></trkpt>
      <trkpt lon="-82.146960" lat="33.555685"><ele>89.958715</ele><time>2023-03-24T13:28:29Z</time><extensions><speed>1.108687</speed><course>175.573630</course><hAcc>2.449267</hAcc><vAcc>0.770836</vAcc></extensions></trkpt>
      <trkpt lon="-82.146959" lat="33.555675"><ele>89.954818</ele><time>2023-03-24T13:28:30Z</time><extensions><speed>1.188519</speed><course>179.103385</course><hAcc>2.454118</hAcc><vAcc>0.766495</vAcc></extensions></trkpt>
      <trkpt lon="-82.146959" lat="33.555664"><ele>89.942038</ele><time>2023-03-24T13:28:31Z</time><extensions><speed>1.215777</speed><course>181.876149</course><hAcc>2.433403</hAcc><vAcc>0.763288</vAcc></extensions></trkpt>
      <trkpt lon="-82.146960" lat="33.555652"><ele>89.928637</ele><time>2023-03-24T13:28:32Z</time><extensions><speed>1.198440</speed><course>189.098676</course><hAcc>2.426847</hAcc><vAcc>0.760987</vAcc></extensions></trkpt>
      <trkpt lon="-82.146962" lat="33.555642"><ele>89.913769</ele><time>2023-03-24T13:28:33Z</time><extensions><speed>1.169313</speed><course>196.294242</course><hAcc>2.420988</hAcc><vAcc>0.759387</vAcc></extensions></trkpt>
      <trkpt lon="-82.146966" lat="33.555632"><ele>89.894967</ele><time>2023-03-24T13:28:34Z</time><extensions><speed>1.151411</speed><course>204.253908</course><hAcc>2.433913</hAcc><vAcc>0.758305</vAcc></extensions></trkpt>
      <trkpt lon="-82.146970" lat="33.555622"><ele>89.871645</ele><time>2023-03-24T13:28:35Z</time><extensions><speed>1.177177</speed><course>203.739772</course><hAcc>2.435490</hAcc><vAcc>0.757683</vAcc></extensions></trkpt>
      <trkpt lon="-82.146973" lat="33.555612"><ele>89.852314</ele><time>2023-03-24T13:28:36Z</time><extensions><speed>1.207186</speed><course>195.365134</course><hAcc>2.428060</hAcc><vAcc>0.757393</vAcc></extensions></trkpt>
      <trkpt lon="-82.146975" lat="33.555601"><ele>89.840717</ele><time>2023-03-24T13:28:37Z</time><extensions><speed>1.346127</speed><course>186.309956</course><hAcc>2.406576</hAcc><vAcc>0.757138</vAcc></extensions></trkpt>
      <trkpt lon="-82.146975" lat="33.555589"><ele>89.837597</ele><time>2023-03-24T13:28:38Z</time><extensions><speed>1.272807</speed><course>178.924334</course><hAcc>2.414239</hAcc><vAcc>0.757024</vAcc></extensions></trkpt>
      <trkpt lon="-82.146974" lat="33.555578"><ele>89.836990</ele><time>2023-03-24T13:28:39Z</time><extensions><speed>1.216903</speed><course>177.395876</course><hAcc>2.440018</hAcc><vAcc>0.756956</vAcc></extensions></trkpt>
      <trkpt lon="-82.146972" lat="33.555567"><ele>89.839945</ele><time>2023-03-24T13:28:40Z</time><extensions><speed>1.123683</speed><course>178.340255</course><hAcc>2.445718</hAcc><vAcc>0.756924</vAcc></extensions></trkpt>
      <trkpt lon="-82.146971" lat="33.555558"><ele>89.854303</ele><time>2023-03-24T13:28:41Z</time><extensions><speed>0.916979</speed><course>172.974317</course><hAcc>2.441018</hAcc><vAcc>0.756913</vAcc></extensions></trkpt>
      <trkpt lon="-82.146968" lat="33.555549"><ele>89.871485</ele><time>2023-03-24T13:28:42Z</time><extensions><speed>1.269849</speed><course>171.961466</course><hAcc>2.434823</hAcc><vAcc>0.756908</vAcc></extensions></trkpt>
      <trkpt lon="-82.146964" lat="33.555538"><ele>89.903169</ele><time>2023-03-24T13:28:43Z</time><extensions><speed>1.217918</speed><course>163.988262</course><hAcc>2.429102</hAcc><vAcc>0.756869</vAcc></extensions></trkpt>
      <trkpt lon="-82.146960" lat="33.555528"><ele>89.943383</ele><time>2023-03-24T13:28:44Z</time><extensions><speed>1.116573</speed><course>160.556234</course><hAcc>2.435728</hAcc><vAcc>0.756829</vAcc></extensions></trkpt>
      <trkpt lon="-82.146955" lat="33.555519"><ele>90.000023</ele><time>2023-03-24T13:28:45Z</time><extensions><speed>0.844352</speed><course>162.891677</course><hAcc>2.453641</hAcc><vAcc>0.756809</vAcc></extensions></trkpt>
      <trkpt lon="-82.146952" lat="33.555512"><ele>90.062346</ele><time>2023-03-24T13:28:46Z</time><extensions><speed>0.718417</speed><course>172.251052</course><hAcc>2.445456</hAcc><vAcc>0.756804</vAcc></extensions></trkpt>
      <trkpt lon="-82.146951" lat="33.555504"><ele>90.136243</ele><time>2023-03-24T13:28:47Z</time><extensions><speed>0.931701</speed><course>186.722422</course><hAcc>2.439250</hAcc><vAcc>0.756780</vAcc></extensions></trkpt>
      <trkpt lon="-82.146951" lat="33.555496"><ele>90.220937</ele><time>2023-03-24T13:28:48Z</time><extensions><speed>0.939352</speed><course>185.649735</course><hAcc>2.446930</hAcc><vAcc>0.756748</vAcc></extensions></trkpt>
      <trkpt lon="-82.146951" lat="33.555487"><ele>90.316842</ele><time>2023-03-24T13:28:49Z</time><extensions><speed>0.951102</speed><course>184.741641</course><hAcc>2.479202</hAcc><vAcc>0.756736</vAcc></extensions></trkpt>
      <trkpt lon="-82.146949" lat="33.555479"><ele>90.411633</ele><time>2023-03-24T13:28:50Z</time><extensions><speed>0.804210</speed><course>172.532063</course><hAcc>2.475376</hAcc><vAcc>0.756705</vAcc></extensions></trkpt>
      <trkpt lon="-82.146947" lat="33.555471"><ele>90.512814</ele><time>2023-03-24T13:28:51Z</time><extensions><speed>0.811967</speed><course>164.702695</course><hAcc>2.471717</hAcc><vAcc>0.756676</vAcc></extensions></trkpt>
      <trkpt lon="-82.146943" lat="33.555464"><ele>90.614308</ele><time>2023-03-24T13:28:52Z</time><extensions><speed>0.832950</speed><course>169.058130</course><hAcc>2.492589</hAcc><vAcc>0.756670</vAcc></extensions></trkpt>
      <trkpt lon="-82.146941" lat="33.555455"><ele>90.715337</ele><time>2023-03-24T13:28:53Z</time><extensions><speed>1.030407</speed><course>175.511595</course><hAcc>2.498156</hAcc><vAcc>0.756716</vAcc></extensions></trkpt>
      <trkpt lon="-82.146938" lat="33.555445"><ele>90.815594</ele><time>2023-03-24T13:28:54Z</time><extensions><speed>1.224388</speed><course>168.072217</course><hAcc>2.463152</hAcc><vAcc>0.756830</vAcc></extensions></trkpt>
      <trkpt lon="-82.146934" lat="33.555433"><ele>90.917092</ele><time>2023-03-24T13:28:55Z</time><extensions><speed>1.345360</speed><course>165.002827</course><hAcc>2.454224</hAcc><vAcc>0.756798</vAcc></extensions></trkpt>
      <trkpt lon="-82.146929" lat="33.555422"><ele>91.018579</ele><time>2023-03-24T13:28:56Z</time><extensions><speed>1.324948</speed><course>165.872989</course><hAcc>2.476652</hAcc><vAcc>0.756792</vAcc></extensions></trkpt>
      <trkpt lon="-82.146925" lat="33.555411"><ele>91.104672</ele><time>2023-03-24T13:28:57Z</time><extensions><speed>1.174403</speed><course>162.574624</course><hAcc>2.470817</hAcc><vAcc>0.756763</vAcc></extensions></trkpt>
      <trkpt lon="-82.146920" lat="33.555400"><ele>91.184502</ele><time>2023-03-24T13:28:58Z</time><extensions><speed>1.181376</speed><course>163.522892</course><hAcc>2.472360</hAcc><vAcc>0.756743</vAcc></extensions></trkpt>
      <trkpt lon="-82.146916" lat="33.555389"><ele>91.257603</ele><time>2023-03-24T13:28:59Z</time><extensions><speed>1.379652</speed><course>168.312081</course><hAcc>2.484868</hAcc><vAcc>0.756714</vAcc></extensions></trkpt>
      <trkpt lon="-82.146913" lat="33.555377"><ele>91.311972</ele><time>2023-03-24T13:29:00Z</time><extensions><speed>1.393640</speed><course>173.859175</course><hAcc>2.501110</hAcc><vAcc>0.756692</vAcc></extensions></trkpt>
      <trkpt lon="-82.146910" lat="33.555366"><ele>91.351582</ele><time>2023-03-24T13:29:01Z</time><extensions><speed>1.249858</speed><course>175.754296</course><hAcc>2.492231</hAcc><vAcc>0.756663</vAcc></extensions></trkpt>
      <trkpt lon="-82.146909" lat="33.555355"><ele>91.381265</ele><time>2023-03-24T13:29:02Z</time><extensions><speed>1.155508</speed><course>178.724726</course><hAcc>2.482662</hAcc><vAcc>0.756631</vAcc></extensions></trkpt>
      <trkpt lon="-82.146907" lat="33.555345"><ele>91.402276</ele><time>2023-03-24T13:29:03Z</time><extensions><speed>1.144808</speed><course>174.226281</course><hAcc>2.465121</hAcc><vAcc>0.756685</vAcc></extensions></trkpt>
      <trkpt lon="-82.146905" lat="33.555335"><ele>91.420371</ele><time>2023-03-24T13:29:04Z</time><extensions><speed>1.098526</speed><course>174.123839</course><hAcc>2.476716</hAcc><vAcc>0.756832</vAcc></extensions></trkpt>
      <trkpt lon="-82.146904" lat="33.555325"><ele>91.429746</ele><time>2023-03-24T13:29:05Z</time><extensions><speed>1.109079</speed><course>180.164131</course><hAcc>2.488285</hAcc><vAcc>0.756799</vAcc></extensions></trkpt>
      <trkpt lon="-82.146904" lat="33.555315"><ele>91.431404</ele><time>2023-03-24T13:29:06Z</time><extensions><speed>1.107156</speed><course>188.274300</course><hAcc>2.498805</hAcc><vAcc>0.756771</vAcc></extensions></trkpt>
      <trkpt lon="-82.146905" lat="33.555305"><ele>91.422272</ele><time>2023-03-24T13:29:07Z</time><extensions><speed>1.111425</speed><course>187.879893</course><hAcc>2.487406</hAcc><vAcc>0.756743</vAcc></extensions></trkpt>
      <trkpt lon="-82.146907" lat="33.555294"><ele>91.411167</ele><time>2023-03-24T13:29:08Z</time><extensions><speed>1.180588</speed><course>187.428606</course><hAcc>2.509279</hAcc><vAcc>0.756720</vAcc></extensions></trkpt>
      <trkpt lon="-82.146907" lat="33.555284"><ele>91.393212</ele><time>2023-03-24T13:29:09Z</time><extensions><speed>1.175982</speed><course>180.930936</course><hAcc>2.517147</hAcc><vAcc>0.756707</vAcc></extensions></trkpt>
      <trkpt lon="-82.146907" lat="33.555274"><ele>91.376051</ele><time>2023-03-24T13:29:10Z</time><extensions><speed>0.985399</speed><course>179.312808</course><hAcc>2.488816</hAcc><vAcc>0.756703</vAcc></extensions></trkpt>
      <trkpt lon="-82.146907" lat="33.555266"><ele>91.353698</ele><time>2023-03-24T13:29:11Z</time><extensions><speed>0.852115</speed><course>177.322903</course><hAcc>2.474146</hAcc><vAcc>0.756746</vAcc></extensions></trkpt>
      <trkpt lon="-82.146906" lat="33.555257"><ele>91.330578</ele><time>2023-03-24T13:29:12Z</time><extensions><speed>0.943693</speed><course>171.751281</course><hAcc>2.480458</hAcc><vAcc>0.756870</vAcc></extensions></trkpt>
      <trkpt lon="-82.146904" lat="33.555248"><ele>91.311888</ele><time>2023-03-24T13:29:13Z</time><extensions><speed>1.125529</speed><course>170.194441</course><hAcc>2.501263</hAcc><vAcc>0.756823</vAcc></extensions></trkpt>
      <trkpt lon="-82.146902" lat="33.555238"><ele>91.299508</ele><time>2023-03-24T13:29:14Z</time><extensions><speed>1.218504</speed><course>177.497185</course><hAcc>2.533664</hAcc><vAcc>0.756802</vAcc></extensions></trkpt>
      <trkpt lon="-82.146903" lat="33.555226"><ele>91.295183</ele><time>2023-03-24T13:29:15Z</time><extensions><speed>1.313865</speed><course>185.389063</course><hAcc>2.566968</hAcc><vAcc>0.756781</vAcc></extensions></trkpt>
      <trkpt lon="-82.146905" lat="33.555215"><ele>91.299258</ele><time>2023-03-24T13:29:16Z</time><extensions><speed>1.316181</speed><course>190.199587</course><hAcc>2.565698</hAcc><vAcc>0.756762</vAcc></extensions></trkpt>
      <trkpt lon="-82.146907" lat="33.555203"><ele>91.310495</ele><time>2023-03-24T13:29:17Z</time><extensions><speed>1.231337</speed><course>190.739302</course><hAcc>2.542638</hAcc><vAcc>0.756752</vAcc></extensions></trkpt>
      <trkpt lon="-82.146910" lat="33.555193"><ele>91.331909</ele><time>2023-03-24T13:29:18Z</time><extensions><speed>1.203569</speed><course>188.549114</course><hAcc>2.524017</hAcc><vAcc>0.756737</vAcc></extensions></trkpt>
      <trkpt lon="-82.146912" lat="33.555182"><ele>91.364507</ele><time>2023-03-24T13:29:19Z</time><extensions><speed>1.177465</speed><course>185.674085</course><hAcc>2.524606</hAcc><vAcc>0.756702</vAcc></extensions></trkpt>
      <trkpt lon="-82.146913" lat="33.555172"><ele>91.399637</ele><time>2023-03-24T13:29:20Z</time><extensions><speed>1.125885</speed><course>184.366929</course><hAcc>2.508760</hAcc><vAcc>0.756684</vAcc></extensions></trkpt>
      <trkpt lon="-82.146914" lat="33.555162"><ele>91.439947</ele><time>2023-03-24T13:29:21Z</time><extensions><speed>1.022580</speed><course>184.496890</course><hAcc>2.502493</hAcc><vAcc>0.756665</vAcc></extensions></trkpt>
      <trkpt lon="-82.146916" lat="33.555153"><ele>91.483392</ele><time>2023-03-24T13:29:22Z</time><extensions><speed>0.997541</speed><course>188.999948</course><hAcc>2.519201</hAcc><vAcc>0.756603</vAcc></extensions></trkpt>
      <trkpt lon="-82.146918" lat="33.555144"><ele>91.540373</ele><time>2023-03-24T13:29:23Z</time><extensions><speed>0.979862</speed><course>192.412891</course><hAcc>2.545355</hAcc><vAcc>0.756609</vAcc></extensions></trkpt>
      <trkpt lon="-82.146921" lat="33.555135"><ele>91.600334</ele><time>2023-03-24T13:29:24Z</time><extensions><speed>0.938757</speed><course>197.295845</course><hAcc>2.535068</hAcc><vAcc>0.756708</vAcc></extensions></trkpt>
      <trkpt lon="-82.146924" lat="33.555127"><ele>91.668605</ele><time>2023-03-24T13:29:25Z</time><extensions><speed>0.933660</speed><course>201.717596</course><hAcc>2.535757</hAcc><vAcc>0.756662</vAcc></extensions></trkpt>
      <trkpt lon="-82.146929" lat="33.555119"><ele>91.742036</ele><time>2023-03-24T13:29:26Z</time><extensions><speed>1.014012</speed><course>214.170997</course><hAcc>2.523404</hAcc><vAcc>0.756606</vAcc></extensions></trkpt>
      <trkpt lon="-82.146937" lat="33.555111"><ele>91.814203</ele><time>2023-03-24T13:29:27Z</time><extensions><speed>1.024762</speed><course>233.823543</course><hAcc>2.530661</hAcc><vAcc>0.756531</vAcc></extensions></trkpt>
      <trkpt lon="-82.146946" lat="33.555107"><ele>91.893411</ele><time>2023-03-24T13:29:28Z</time><extensions><speed>0.868702</speed><course>251.618161</course><hAcc>2.523692</hAcc><vAcc>0.756415</vAcc></extensions></trkpt>
      <trkpt lon="-82.146953" lat="33.555105"><ele>91.977258</ele><time>2023-03-24T13:29:29Z</time><extensions><speed>0.485228</speed><course>254.704292</course><hAcc>2.524016</hAcc><vAcc>0.756392</vAcc></extensions></trkpt>
      <trkpt lon="-82.146958" lat="33.555102"><ele>92.059557</ele><time>2023-03-24T13:29:30Z</time><extensions><speed>0.522086</speed><course>237.779778</course><hAcc>2.496485</hAcc><vAcc>0.758071</vAcc></extensions></trkpt>
      <trkpt lon="-82.146963" lat="33.555098"><ele>92.141787</ele><time>2023-03-24T13:29:31Z</time><extensions><speed>0.731657</speed><course>223.649367</course><hAcc>2.496053</hAcc><vAcc>0.758641</vAcc></extensions></trkpt>
      <trkpt lon="-82.146969" lat="33.555091"><ele>92.218227</ele><time>2023-03-24T13:29:32Z</time><extensions><speed>1.111496</speed><course>218.184633</course><hAcc>2.526328</hAcc><vAcc>0.761434</vAcc></extensions></trkpt>
      <trkpt lon="-82.146977" lat="33.555081"><ele>92.295228</ele><time>2023-03-24T13:29:33Z</time><extensions><speed>1.244028</speed><course>212.713958</course><hAcc>2.558452</hAcc><vAcc>0.765832</vAcc></extensions></trkpt>
      <trkpt lon="-82.146985" lat="33.555071"><ele>92.372274</ele><time>2023-03-24T13:29:34Z</time><extensions><speed>1.196148</speed><course>209.585704</course><hAcc>2.553867</hAcc><vAcc>0.768697</vAcc></extensions></trkpt>
      <trkpt lon="-82.146991" lat="33.555060"><ele>92.444752</ele><time>2023-03-24T13:29:35Z</time><extensions><speed>1.308471</speed><course>202.232111</course><hAcc>2.526688</hAcc><vAcc>0.771627</vAcc></extensions></trkpt>
      <trkpt lon="-82.146997" lat="33.555047"><ele>92.519814</ele><time>2023-03-24T13:29:36Z</time><extensions><speed>1.519769</speed><course>200.311035</course><hAcc>2.507185</hAcc><vAcc>0.774992</vAcc></extensions></trkpt>
      <trkpt lon="-82.147003" lat="33.555033"><ele>92.588173</ele><time>2023-03-24T13:29:37Z</time><extensions><speed>1.560137</speed><course>197.573718</course><hAcc>2.502414</hAcc><vAcc>0.778520</vAcc></extensions></trkpt>
      <trkpt lon="-82.147008" lat="33.555019"><ele>92.653033</ele><time>2023-03-24T13:29:38Z</time><extensions><speed>1.397133</speed><course>194.307770</course><hAcc>2.525467</hAcc><vAcc>0.781883</vAcc></extensions></trkpt>
      <trkpt lon="-82.147012" lat="33.555007"><ele>92.711488</ele><time>2023-03-24T13:29:39Z</time><extensions><speed>1.195925</speed><course>188.974056</course><hAcc>2.521184</hAcc><vAcc>0.784900</vAcc></extensions></trkpt>
      <trkpt lon="-82.147014" lat="33.554997"><ele>92.769694</ele><time>2023-03-24T13:29:40Z</time><extensions><speed>1.058632</speed><course>184.898897</course><hAcc>2.534054</hAcc><vAcc>0.789513</vAcc></extensions></trkpt>
      <trkpt lon="-82.147016" lat="33.554986"><ele>92.823499</ele><time>2023-03-24T13:29:41Z</time><extensions><speed>1.092889</speed><course>192.132147</course><hAcc>2.540272</hAcc><vAcc>0.793949</vAcc></extensions></trkpt>
      <trkpt lon="-82.147021" lat="33.554974"><ele>92.873512</ele><time>2023-03-24T13:29:42Z</time><extensions><speed>1.594514</speed><course>200.658200</course><hAcc>2.529937</hAcc><vAcc>0.798022</vAcc></extensions></trkpt>
      <trkpt lon="-82.147029" lat="33.554960"><ele>92.916943</ele><time>2023-03-24T13:29:43Z</time><extensions><speed>1.811338</speed><course>206.772074</course><hAcc>2.502255</hAcc><vAcc>0.802246</vAcc></extensions></trkpt>
      <trkpt lon="-82.147039" lat="33.554945"><ele>92.948863</ele><time>2023-03-24T13:29:44Z</time><extensions><speed>1.894315</speed><course>208.861054</course><hAcc>2.499575</hAcc><vAcc>0.807029</vAcc></extensions></trkpt>
      <trkpt lon="-82.147049" lat="33.554930"><ele>92.969608</ele><time>2023-03-24T13:29:45Z</time><extensions><speed>1.813529</speed><course>207.704762</course><hAcc>2.525542</hAcc><vAcc>0.812430</vAcc></extensions></trkpt>
      <trkpt lon="-82.147058" lat="33.554915"><ele>92.983238</ele><time>2023-03-24T13:29:46Z</time><extensions><speed>1.725837</speed><course>206.448758</course><hAcc>2.521961</hAcc><vAcc>0.818994</vAcc></extensions></trkpt>
      <trkpt lon="-82.147066" lat="33.554901"><ele>92.992751</ele><time>2023-03-24T13:29:47Z</time><extensions><speed>1.604467</speed><course>204.305896</course><hAcc>2.526128</hAcc><vAcc>0.822234</vAcc></extensions></trkpt>
      <trkpt lon="-82.147074" lat="33.554888"><ele>93.008866</ele><time>2023-03-24T13:29:48Z</time><extensions><speed>1.497392</speed><course>208.902579</course><hAcc>2.521027</hAcc><vAcc>0.831019</vAcc></extensions></trkpt>
      <trkpt lon="-82.147082" lat="33.554877"><ele>93.033297</ele><time>2023-03-24T13:29:49Z</time><extensions><speed>1.372040</speed><course>213.831581</course><hAcc>2.524070</hAcc><vAcc>0.835709</vAcc></extensions></trkpt>
      <trkpt lon="-82.147091" lat="33.554867"><ele>93.062223</ele><time>2023-03-24T13:29:50Z</time><extensions><speed>1.358040</speed><course>219.050842</course><hAcc>2.492922</hAcc><vAcc>0.840760</vAcc></extensions></trkpt>
      <trkpt lon="-82.147101" lat="33.554857"><ele>93.080698</ele><time>2023-03-24T13:29:51Z</time><extensions><speed>1.511715</speed><course>220.172717</course><hAcc>2.486311</hAcc><vAcc>0.844662</vAcc></extensions></trkpt>
      <trkpt lon="-82.147110" lat="33.554847"><ele>93.094370</ele><time>2023-03-24T13:29:52Z</time><extensions><speed>1.327954</speed><course>217.004646</course><hAcc>2.498093</hAcc><vAcc>0.850286</vAcc></extensions></trkpt>
      <trkpt lon="-82.147118" lat="33.554836"><ele>93.104138</ele><time>2023-03-24T13:29:53Z</time><extensions><speed>1.293439</speed><course>211.995929</course><hAcc>2.479402</hAcc><vAcc>0.854607</vAcc></extensions></trkpt>
      <trkpt lon="-82.147126" lat="33.554826"><ele>93.104593</ele><time>2023-03-24T13:29:54Z</time><extensions><speed>1.229433</speed><course>210.946745</course><hAcc>2.477080</hAcc><vAcc>0.856807</vAcc></extensions></trkpt>
      <trkpt lon="-82.147133" lat="33.554817"><ele>93.102824</ele><time>2023-03-24T13:29:55Z</time><extensions><speed>1.239877</speed><course>212.253936</course><hAcc>2.470446</hAcc><vAcc>0.858083</vAcc></extensions></trkpt>
      <trkpt lon="-82.147140" lat="33.554807"><ele>93.104450</ele><time>2023-03-24T13:29:56Z</time><extensions><speed>1.163703</speed><course>213.744108</course><hAcc>2.452591</hAcc><vAcc>0.859335</vAcc></extensions></trkpt>
      <trkpt lon="-82.147146" lat="33.554797"><ele>93.109967</ele><time>2023-03-24T13:29:57Z</time><extensions><speed>1.106519</speed><course>205.807802</course><hAcc>2.441420</hAcc><vAcc>0.855996</vAcc></extensions></trkpt>
      <trkpt lon="-82.147150" lat="33.554788"><ele>93.112749</ele><time>2023-03-24T13:29:58Z</time><extensions><speed>1.099005</speed><course>199.016918</course><hAcc>2.436026</hAcc><vAcc>0.856262</vAcc></extensions></trkpt>
      <trkpt lon="-82.147154" lat="33.554778"><ele>93.119034</ele><time>2023-03-24T13:29:59Z</time><extensions><speed>1.208805</speed><course>200.890487</course><hAcc>2.429349</hAcc><vAcc>0.857428</vAcc></extensions></trkpt>
      <trkpt lon="-82.147160" lat="33.554767"><ele>93.121476</ele><time>2023-03-24T13:30:00Z</time><extensions><speed>1.161114</speed><course>205.730433</course><hAcc>2.417957</hAcc><vAcc>0.860026</vAcc></extensions></trkpt>
      <trkpt lon="-82.147165" lat="33.554758"><ele>93.125377</ele><time>2023-03-24T13:30:01Z</time><extensions><speed>0.882955</speed><course>213.312452</course><hAcc>2.404702</hAcc><vAcc>0.859026</vAcc></extensions></trkpt>
      <trkpt lon="-82.147171" lat="33.554752"><ele>93.132564</ele><time>2023-03-24T13:30:02Z</time><extensions><speed>0.761859</speed><course>221.651477</course><hAcc>2.421845</hAcc><vAcc>0.862428</vAcc></extensions></trkpt>
      <trkpt lon="-82.147176" lat="33.554746"><ele>93.138949</ele><time>2023-03-24T13:30:03Z</time><extensions><speed>0.877416</speed><course>221.668468</course><hAcc>2.431683</hAcc><vAcc>0.866639</vAcc></extensions></trkpt>
      <trkpt lon="-82.147184" lat="33.554737"><ele>93.149629</ele><time>2023-03-24T13:30:04Z</time><extensions><speed>1.311975</speed><course>218.766557</course><hAcc>2.437557</hAcc><vAcc>0.871483</vAcc></extensions></trkpt>
      <trkpt lon="-82.147194" lat="33.554727"><ele>93.160898</ele><time>2023-03-24T13:30:05Z</time><extensions><speed>1.404014</speed><course>221.088024</course><hAcc>2.436749</hAcc><vAcc>0.876067</vAcc></extensions></trkpt>
      <trkpt lon="-82.147205" lat="33.554717"><ele>93.169365</ele><time>2023-03-24T13:30:06Z</time><extensions><speed>1.318976</speed><course>225.900263</course><hAcc>2.421618</hAcc><vAcc>0.880702</vAcc></extensions></trkpt>
      <trkpt lon="-82.147215" lat="33.554709"><ele>93.189903</ele><time>2023-03-24T13:30:07Z</time><extensions><speed>1.158942</speed><course>234.394249</course><hAcc>2.428779</hAcc><vAcc>0.884813</vAcc></extensions></trkpt>
      <trkpt lon="-82.147224" lat="33.554703"><ele>93.208826</ele><time>2023-03-24T13:30:08Z</time><extensions><speed>0.843992</speed><course>224.928195</course><hAcc>2.425421</hAcc><vAcc>0.889410</vAcc></extensions></trkpt>
      <trkpt lon="-82.147230" lat="33.554696"><ele>93.228013</ele><time>2023-03-24T13:30:09Z</time><extensions><speed>0.866398</speed><course>218.671009</course><hAcc>2.449938</hAcc><vAcc>0.893900</vAcc></extensions></trkpt>
      <trkpt lon="-82.147236" lat="33.554689"><ele>93.249345</ele><time>2023-03-24T13:30:10Z</time><extensions><speed>0.926320</speed><course>215.522456</course><hAcc>2.471288</hAcc><vAcc>0.898555</vAcc></extensions></trkpt>
      <trkpt lon="-82.147242" lat="33.554682"><ele>93.268806</ele><time>2023-03-24T13:30:11Z</time><extensions><speed>1.211064</speed><course>217.836496</course><hAcc>2.472678</hAcc><vAcc>0.903185</vAcc></extensions></trkpt>
      <trkpt lon="-82.147251" lat="33.554673"><ele>93.292987</ele><time>2023-03-24T13:30:12Z</time><extensions><speed>1.233432</speed><course>222.990989</course><hAcc>2.496026</hAcc><vAcc>0.908337</vAcc></extensions></trkpt>
      <trkpt lon="-82.147261" lat="33.554664"><ele>93.314063</ele><time>2023-03-24T13:30:13Z</time><extensions><speed>1.414934</speed><course>227.536104</course><hAcc>2.491283</hAcc><vAcc>0.913266</vAcc></extensions></trkpt>
      <trkpt lon="-82.147273" lat="33.554655"><ele>93.341043</ele><time>2023-03-24T13:30:14Z</time><extensions><speed>1.604784</speed><course>225.662644</course><hAcc>2.479254</hAcc><vAcc>0.917989</vAcc></extensions></trkpt>
      <trkpt lon="-82.147287" lat="33.554643"><ele>93.380146</ele><time>2023-03-24T13:30:15Z</time><extensions><speed>1.936396</speed><course>223.228830</course><hAcc>2.469831</hAcc><vAcc>0.922719</vAcc></extensions></trkpt>
      <trkpt lon="-82.147301" lat="33.554630"><ele>93.428469</ele><time>2023-03-24T13:30:16Z</time><extensions><speed>1.950337</speed><course>219.253910</course><hAcc>2.475290</hAcc><vAcc>0.926670</vAcc></extensions></trkpt>
      <trkpt lon="-82.147313" lat="33.554616"><ele>93.470789</ele><time>2023-03-24T13:30:17Z</time><extensions><speed>1.833680</speed><course>215.695782</course><hAcc>2.494220</hAcc><vAcc>0.930176</vAcc></extensions></trkpt>
      <trkpt lon="-82.147324" lat="33.554603"><ele>93.506388</ele><time>2023-03-24T13:30:18Z</time><extensions><speed>1.447082</speed><course>213.171116</course><hAcc>2.500378</hAcc><vAcc>0.933391</vAcc></extensions></trkpt>
      <trkpt lon="-82.147332" lat="33.554593"><ele>93.547489</ele><time>2023-03-24T13:30:19Z</time><extensions><speed>1.114136</speed><course>214.701008</course><hAcc>2.507599</hAcc><vAcc>0.935031</vAcc></extensions></trkpt>
      <trkpt lon="-82.147339" lat="33.554586"><ele>93.597717</ele><time>2023-03-24T13:30:20Z</time><extensions><speed>0.915435</speed><course>225.489542</course><hAcc>2.496248</hAcc><vAcc>0.937155</vAcc></extensions></trkpt>
      <trkpt lon="-82.147348" lat="33.554580"><ele>93.655339</ele><time>2023-03-24T13:30:21Z</time><extensions><speed>0.991148</speed><course>237.080663</course><hAcc>2.486139</hAcc><vAcc>0.938911</vAcc></extensions></trkpt>
      <trkpt lon="-82.147357" lat="33.554575"><ele>93.724210</ele><time>2023-03-24T13:30:22Z</time><extensions><speed>1.042770</speed><course>238.031138</course><hAcc>2.474475</hAcc><vAcc>0.933011</vAcc></extensions></trkpt>
      <trkpt lon="-82.147368" lat="33.554570"><ele>93.795225</ele><time>2023-03-24T13:30:23Z</time><extensions><speed>1.163631</speed><course>245.004762</course><hAcc>2.454898</hAcc><vAcc>0.927498</vAcc></extensions></trkpt>
      <trkpt lon="-82.147380" lat="33.554567"><ele>93.852425</ele><time>2023-03-24T13:30:24Z</time><extensions><speed>1.171925</speed><course>264.297084</course><hAcc>2.452683</hAcc><vAcc>0.925283</vAcc></extensions></trkpt>
      <trkpt lon="-82.147393" lat="33.554565"><ele>93.901972</ele><time>2023-03-24T13:30:25Z</time><extensions><speed>1.174880</speed><course>258.232040</course><hAcc>2.448662</hAcc><vAcc>0.922814</vAcc></extensions></trkpt>
      <trkpt lon="-82.147406" lat="33.554562"><ele>93.955528</ele><time>2023-03-24T13:30:26Z</time><extensions><speed>1.221022</speed><course>256.189429</course><hAcc>2.437238</hAcc><vAcc>0.919869</vAcc></extensions></trkpt>
      <trkpt lon="-82.147418" lat="33.554558"><ele>94.005737</ele><time>2023-03-24T13:30:27Z</time><extensions><speed>1.273302</speed><course>252.677673</course><hAcc>2.451481</hAcc><vAcc>0.916559</vAcc></extensions></trkpt>
      <trkpt lon="-82.147432" lat="33.554554"><ele>94.053221</ele><time>2023-03-24T13:30:28Z</time><extensions><speed>1.422448</speed><course>251.315882</course><hAcc>2.471672</hAcc><vAcc>0.913304</vAcc></extensions></trkpt>
      <trkpt lon="-82.147445" lat="33.554550"><ele>94.100745</ele><time>2023-03-24T13:30:29Z</time><extensions><speed>1.118316</speed><course>253.120910</course><hAcc>2.473767</hAcc><vAcc>0.910077</vAcc></extensions></trkpt>
      <trkpt lon="-82.147457" lat="33.554547"><ele>94.158796</ele><time>2023-03-24T13:30:30Z</time><extensions><speed>1.060661</speed><course>256.978662</course><hAcc>2.452818</hAcc><vAcc>0.907502</vAcc></extensions></trkpt>
      <trkpt lon="-82.147468" lat="33.554543"><ele>94.224490</ele><time>2023-03-24T13:30:31Z</time><extensions><speed>1.111412</speed><course>252.548985</course><hAcc>2.453591</hAcc><vAcc>0.905753</vAcc></extensions></trkpt>
      <trkpt lon="-82.147481" lat="33.554539"><ele>94.289620</ele><time>2023-03-24T13:30:32Z</time><extensions><speed>1.227730</speed><course>249.809645</course><hAcc>2.481897</hAcc><vAcc>0.905145</vAcc></extensions></trkpt>
      <trkpt lon="-82.147496" lat="33.554532"><ele>94.346473</ele><time>2023-03-24T13:30:33Z</time><extensions><speed>1.567501</speed><course>243.660850</course><hAcc>2.479120</hAcc><vAcc>0.905505</vAcc></extensions></trkpt>
      <trkpt lon="-82.147512" lat="33.554525"><ele>94.401922</ele><time>2023-03-24T13:30:34Z</time><extensions><speed>1.581541</speed><course>239.808382</course><hAcc>2.459355</hAcc><vAcc>0.907073</vAcc></extensions></trkpt>
      <trkpt lon="-82.147525" lat="33.554518"><ele>94.448394</ele><time>2023-03-24T13:30:35Z</time><extensions><speed>1.241429</speed><course>240.355320</course><hAcc>2.452591</hAcc><vAcc>0.910076</vAcc></extensions></trkpt>
      <trkpt lon="-82.147536" lat="33.554512"><ele>94.493617</ele><time>2023-03-24T13:30:36Z</time><extensions><speed>0.997088</speed><course>239.653334</course><hAcc>2.474178</hAcc><vAcc>0.907583</vAcc></extensions></trkpt>
      <trkpt lon="-82.147545" lat="33.554505"><ele>94.532703</ele><time>2023-03-24T13:30:37Z</time><extensions><speed>0.819883</speed><course>227.862943</course><hAcc>2.408229</hAcc><vAcc>0.904895</vAcc></extensions></trkpt>
      <trkpt lon="-82.147550" lat="33.554499"><ele>94.555464</ele><time>2023-03-24T13:30:38Z</time><extensions><speed>0.640591</speed><course>208.382903</course><hAcc>2.355294</hAcc><vAcc>0.901560</vAcc></extensions></trkpt>
      <trkpt lon="-82.147554" lat="33.554493"><ele>94.569696</ele><time>2023-03-24T13:30:39Z</time><extensions><speed>0.804016</speed><course>218.404230</course><hAcc>2.304074</hAcc><vAcc>0.897243</vAcc></extensions></trkpt>
      <trkpt lon="-82.147561" lat="33.554487"><ele>94.589883</ele><time>2023-03-24T13:30:40Z</time><extensions><speed>0.991903</speed><course>234.776845</course><hAcc>2.275146</hAcc><vAcc>0.894506</vAcc></extensions></trkpt>
      <trkpt lon="-82.147573" lat="33.554482"><ele>94.607716</ele><time>2023-03-24T13:30:41Z</time><extensions><speed>1.725599</speed><course>246.991166</course><hAcc>2.236398</hAcc><vAcc>0.890847</vAcc></extensions></trkpt>
      <trkpt lon="-82.147591" lat="33.554475"><ele>94.627338</ele><time>2023-03-24T13:30:42Z</time><extensions><speed>1.967789</speed><course>244.110536</course><hAcc>2.162194</hAcc><vAcc>0.886463</vAcc></extensions></trkpt>
      <trkpt lon="-82.147608" lat="33.554468"><ele>94.635589</ele><time>2023-03-24T13:30:43Z</time><extensions><speed>1.615261</speed><course>240.785127</course><hAcc>2.123417</hAcc><vAcc>0.881730</vAcc></extensions></trkpt>
      <trkpt lon="-82.147621" lat="33.554461"><ele>94.626777</ele><time>2023-03-24T13:30:44Z</time><extensions><speed>1.489498</speed><course>234.097155</course><hAcc>2.074268</hAcc><vAcc>0.877226</vAcc></extensions></trkpt>
      <trkpt lon="-82.147634" lat="33.554454"><ele>94.610449</ele><time>2023-03-24T13:30:45Z</time><extensions><speed>1.383797</speed><course>233.508807</course><hAcc>1.983513</hAcc><vAcc>0.873629</vAcc></extensions></trkpt>
      <trkpt lon="-82.147644" lat="33.554447"><ele>94.586718</ele><time>2023-03-24T13:30:46Z</time><extensions><speed>1.140771</speed><course>233.171668</course><hAcc>1.869929</hAcc><vAcc>0.871228</vAcc></extensions></trkpt>
      <trkpt lon="-82.147654" lat="33.554441"><ele>94.562157</ele><time>2023-03-24T13:30:47Z</time><extensions><speed>1.066866</speed><course>231.618712</course><hAcc>1.785872</hAcc><vAcc>0.870636</vAcc></extensions></trkpt>
      <trkpt lon="-82.147662" lat="33.554436"><ele>94.532284</ele><time>2023-03-24T13:30:48Z</time><extensions><speed>0.893617</speed><course>229.380089</course><hAcc>1.713982</hAcc><vAcc>0.872508</vAcc></extensions></trkpt>
      <trkpt lon="-82.147669" lat="33.554430"><ele>94.499269</ele><time>2023-03-24T13:30:49Z</time><extensions><speed>0.987916</speed><course>227.410468</course><hAcc>1.669471</hAcc><vAcc>0.876553</vAcc></extensions></trkpt>
      <trkpt lon="-82.147677" lat="33.554425"><ele>94.461436</ele><time>2023-03-24T13:30:50Z</time><extensions><speed>0.897594</speed><course>231.851601</course><hAcc>1.641113</hAcc><vAcc>0.882664</vAcc></extensions></trkpt>
      <trkpt lon="-82.147685" lat="33.554420"><ele>94.413699</ele><time>2023-03-24T13:30:51Z</time><extensions><speed>0.931733</speed><course>233.354287</course><hAcc>1.598682</hAcc><vAcc>0.890151</vAcc></extensions></trkpt>
      <trkpt lon="-82.147694" lat="33.554415"><ele>94.365829</ele><time>2023-03-24T13:30:52Z</time><extensions><speed>1.189719</speed><course>238.827720</course><hAcc>1.590197</hAcc><vAcc>0.897116</vAcc></extensions></trkpt>
      <trkpt lon="-82.147707" lat="33.554407"><ele>94.317509</ele><time>2023-03-24T13:30:53Z</time><extensions><speed>1.813178</speed><course>227.759812</course><hAcc>1.607762</hAcc><vAcc>0.904535</vAcc></extensions></trkpt>
      <trkpt lon="-82.147720" lat="33.554397"><ele>94.275364</ele><time>2023-03-24T13:30:54Z</time><extensions><speed>1.362605</speed><course>231.262728</course><hAcc>1.605439</hAcc><vAcc>0.904912</vAcc></extensions></trkpt>
      <trkpt lon="-82.147732" lat="33.554390"><ele>94.224827</ele><time>2023-03-24T13:30:55Z</time><extensions><speed>1.395442</speed><course>236.315038</course><hAcc>1.624186</hAcc><vAcc>0.909924</vAcc></extensions></trkpt>
      <trkpt lon="-82.147743" lat="33.554385"><ele>94.188766</ele><time>2023-03-24T13:30:56Z</time><extensions><speed>0.901291</speed><course>253.068021</course><hAcc>1.639325</hAcc><vAcc>0.913758</vAcc></extensions></trkpt>
      <trkpt lon="-82.147754" lat="33.554383"><ele>94.159690</ele><time>2023-03-24T13:30:57Z</time><extensions><speed>1.115111</speed><course>255.805346</course><hAcc>1.634797</hAcc><vAcc>0.916073</vAcc></extensions></trkpt>
      <trkpt lon="-82.147766" lat="33.554381"><ele>94.135753</ele><time>2023-03-24T13:30:58Z</time><extensions><speed>1.215398</speed><course>261.572006</course><hAcc>1.622730</hAcc><vAcc>0.918061</vAcc></extensions></trkpt>
      <trkpt lon="-82.147779" lat="33.554380"><ele>94.122000</ele><time>2023-03-24T13:30:59Z</time><extensions><speed>1.316374</speed><course>265.582557</course><hAcc>1.635051</hAcc><vAcc>0.919503</vAcc></extensions></trkpt>
      <trkpt lon="-82.147795" lat="33.554380"><ele>94.110613</ele><time>2023-03-24T13:31:00Z</time><extensions><speed>1.498482</speed><course>272.750995</course><hAcc>1.650516</hAcc><vAcc>0.920499</vAcc></extensions></trkpt>
      <trkpt lon="-82.147813" lat="33.554382"><ele>94.095924</ele><time>2023-03-24T13:31:01Z</time><extensions><speed>1.919171</speed><course>279.606819</course><hAcc>1.669571</hAcc><vAcc>0.920963</vAcc></extensions></trkpt>
      <trkpt lon="-82.147833" lat="33.554386"><ele>94.084037</ele><time>2023-03-24T13:31:02Z</time><extensions><speed>1.912694</speed><course>285.111512</course><hAcc>1.661803</hAcc><vAcc>0.921208</vAcc></extensions></trkpt>
      <trkpt lon="-82.147850" lat="33.554389"><ele>94.079662</ele><time>2023-03-24T13:31:03Z</time><extensions><speed>1.369283</speed><course>286.000193</course><hAcc>1.662856</hAcc><vAcc>0.921627</vAcc></extensions></trkpt>
      <trkpt lon="-82.147864" lat="33.554392"><ele>94.076879</ele><time>2023-03-24T13:31:04Z</time><extensions><speed>1.251166</speed><course>279.862944</course><hAcc>1.638639</hAcc><vAcc>0.916725</vAcc></extensions></trkpt>
      <trkpt lon="-82.147877" lat="33.554393"><ele>94.079061</ele><time>2023-03-24T13:31:05Z</time><extensions><speed>1.296946</speed><course>272.076491</course><hAcc>1.648848</hAcc><vAcc>0.910887</vAcc></extensions></trkpt>
      <trkpt lon="-82.147891" lat="33.554393"><ele>94.074861</ele><time>2023-03-24T13:31:06Z</time><extensions><speed>1.299818</speed><course>272.189456</course><hAcc>1.628254</hAcc><vAcc>0.905025</vAcc></extensions></trkpt>
      <trkpt lon="-82.147904" lat="33.554394"><ele>94.077978</ele><time>2023-03-24T13:31:07Z</time><extensions><speed>1.257601</speed><course>272.700919</course><hAcc>1.632071</hAcc><vAcc>0.909140</vAcc></extensions></trkpt>
      <trkpt lon="-82.147918" lat="33.554394"><ele>94.082396</ele><time>2023-03-24T13:31:08Z</time><extensions><speed>1.217826</speed><course>272.272687</course><hAcc>1.652472</hAcc><vAcc>0.916857</vAcc></extensions></trkpt>
      <trkpt lon="-82.147931" lat="33.554395"><ele>94.087328</ele><time>2023-03-24T13:31:09Z</time><extensions><speed>1.171564</speed><course>270.100952</course><hAcc>1.639317</hAcc><vAcc>0.929224</vAcc></extensions></trkpt>
      <trkpt lon="-82.147943" lat="33.554394"><ele>94.092287</ele><time>2023-03-24T13:31:10Z</time><extensions><speed>1.114900</speed><course>263.885208</course><hAcc>1.648208</hAcc><vAcc>0.948796</vAcc></extensions></trkpt>
      <trkpt lon="-82.147955" lat="33.554392"><ele>94.097156</ele><time>2023-03-24T13:31:11Z</time><extensions><speed>1.052439</speed><course>251.124578</course><hAcc>1.676956</hAcc><vAcc>0.979727</vAcc></extensions></trkpt>
      <trkpt lon="-82.147964" lat="33.554388"><ele>94.101345</ele><time>2023-03-24T13:31:12Z</time><extensions><speed>1.058814</speed><course>233.692988</course><hAcc>1.736631</hAcc><vAcc>1.021897</vAcc></extensions></trkpt>
      <trkpt lon="-82.147972" lat="33.554382"><ele>94.105474</ele><time>2023-03-24T13:31:13Z</time><extensions><speed>0.897146</speed><course>222.485546</course><hAcc>1.782937</hAcc><vAcc>1.085667</vAcc></extensions></trkpt>
      <trkpt lon="-82.147978" lat="33.554376"><ele>94.109275</ele><time>2023-03-24T13:31:14Z</time><extensions><speed>0.762545</speed><course>220.172314</course><hAcc>1.867310</hAcc><vAcc>1.173708</vAcc></extensions></trkpt>
      <trkpt lon="-82.147984" lat="33.554372"><ele>94.112480</ele><time>2023-03-24T13:31:15Z</time><extensions><speed>0.772817</speed><course>234.539440</course><hAcc>2.044461</hAcc><vAcc>1.278479</vAcc></extensions></trkpt>
      <trkpt lon="-82.147991" lat="33.554368"><ele>94.115684</ele><time>2023-03-24T13:31:16Z</time><extensions><speed>0.824196</speed><course>237.509325</course><hAcc>2.327534</hAcc><vAcc>1.415137</vAcc></extensions></trkpt>
    </trkseg>
  </trk>
</gpx>