<?xml version="1.0" encoding="UTF-8"?>
<gpx version="1.1" creator="Apple Health Export" xmlns="http://www.topografix.com/GPX/1/1" xmlns:xsi="http://www.w3.org/2001/XMLSchema-instance" xsi:schemaLocation="http://www.topografix.com/GPX/1/1 http://www.topografix.com/GPX/1/1/gpx.xsd">
  <metadata>
    <time>2026-03-14T12:15:44Z</time>
  </metadata>
  <trk>
    <name>Route 2021-10-10 8:24am</name>
    <trkseg>
      <trkpt lon="-82.145982" lat="33.556657"><ele>82.290649</ele><time>2021-10-10T12:22:15Z</time><extensions><speed>0.960273</speed><course>162.421875</course><hAcc>5.284763</hAcc><vAcc>5.146771</vAcc></extensions></trkpt>
      <trkpt lon="-82.145994" lat="33.556653"><ele>82.593452</ele><time>2021-10-10T12:22:16Z</time><extensions><speed>0.959412</speed><course>324.140625</course><hAcc>4.789785</hAcc><vAcc>4.712552</vAcc></extensions></trkpt>
      <trkpt lon="-82.146013" lat="33.556648"><ele>83.097404</ele><time>2021-10-10T12:22:18Z</time><extensions><speed>0.957976</speed><course>324.140625</course><hAcc>4.095012</hAcc><vAcc>4.074483</vAcc></extensions></trkpt>
      <trkpt lon="-82.146033" lat="33.556642"><ele>83.588913</ele><time>2021-10-10T12:22:20Z</time><extensions><speed>0.976239</speed><course>211.640625</course><hAcc>3.567327</hAcc><vAcc>3.558034</vAcc></extensions></trkpt>
      <trkpt lon="-82.146054" lat="33.556636"><ele>84.063148</ele><time>2021-10-10T12:22:22Z</time><extensions><speed>1.013693</speed><course>303.046875</course><hAcc>3.192724</hAcc><vAcc>3.166159</vAcc></extensions></trkpt>
      <trkpt lon="-82.146075" lat="33.556632"><ele>84.516273</ele><time>2021-10-10T12:22:24Z</time><extensions><speed>1.063956</speed><course>214.453125</course><hAcc>2.949409</hAcc><vAcc>2.894531</vAcc></extensions></trkpt>
      <trkpt lon="-82.146098" lat="33.556627"><ele>84.948082</ele><time>2021-10-10T12:22:26Z</time><extensions><speed>1.113607</speed><course>203.203125</course><hAcc>2.807811</hAcc><vAcc>2.726012</vAcc></extensions></trkpt>
      <trkpt lon="-82.146122" lat="33.556624"><ele>85.372116</ele><time>2021-10-10T12:22:28Z</time><extensions><speed>1.113616</speed><course>269.296875</course><hAcc>2.737151</hAcc><vAcc>2.633368</vAcc></extensions></trkpt>
      <trkpt lon="-82.146145" lat="33.556620"><ele>85.794617</ele><time>2021-10-10T12:22:30Z</time><extensions><speed>1.070137</speed><course>176.132812</course><hAcc>2.711663</hAcc><vAcc>2.590500</vAcc></extensions></trkpt>
      <trkpt lon="-82.146167" lat="33.556617"><ele>86.215904</ele><time>2021-10-10T12:22:32Z</time><extensions><speed>1.026237</speed><course>232.031250</course><hAcc>2.706047</hAcc><vAcc>2.573680</vAcc></extensions></trkpt>
      <trkpt lon="-82.146188" lat="33.556614"><ele>86.627151</ele><time>2021-10-10T12:22:34Z</time><extensions><speed>0.989155</speed><course>241.875000</course><hAcc>2.700520</hAcc><vAcc>2.565378</vAcc></extensions></trkpt>
      <trkpt lon="-82.146209" lat="33.556611"><ele>87.014755</ele><time>2021-10-10T12:22:36Z</time><extensions><speed>0.957651</speed><course>312.890625</course><hAcc>2.684686</hAcc><vAcc>2.554801</vAcc></extensions></trkpt>
      <trkpt lon="-82.146229" lat="33.556607"><ele>87.369820</ele><time>2021-10-10T12:22:38Z</time><extensions><speed>0.930324</speed><course>321.679688</course><hAcc>2.656289</hAcc><vAcc>2.536863</vAcc></extensions></trkpt>
      <trkpt lon="-82.146248" lat="33.556603"><ele>87.676521</ele><time>2021-10-10T12:22:40Z</time><extensions><speed>0.907519</speed><course>307.265625</course><hAcc>2.620843</hAcc><vAcc>2.511582</vAcc></extensions></trkpt>
      <trkpt lon="-82.146266" lat="33.556598"><ele>87.926575</ele><time>2021-10-10T12:22:42Z</time><extensions><speed>0.886525</speed><course>229.570312</course><hAcc>2.585545</hAcc><vAcc>2.481781</vAcc></extensions></trkpt>
      <trkpt lon="-82.146284" lat="33.556592"><ele>88.118790</ele><time>2021-10-10T12:22:44Z</time><extensions><speed>0.864291</speed><course>290.039062</course><hAcc>2.553061</hAcc><vAcc>2.450591</vAcc></extensions></trkpt>
      <trkpt lon="-82.146301" lat="33.556586"><ele>88.257393</ele><time>2021-10-10T12:22:46Z</time><extensions><speed>0.846938</speed><course>294.257812</course><hAcc>2.524354</hAcc><vAcc>2.420101</vAcc></extensions></trkpt>
      <trkpt lon="-82.146316" lat="33.556578"><ele>88.346657</ele><time>2021-10-10T12:22:48Z</time><extensions><speed>0.847840</speed><course>294.257812</course><hAcc>2.496847</hAcc><vAcc>2.389051</vAcc></extensions></trkpt>
      <trkpt lon="-82.146331" lat="33.556569"><ele>88.384613</ele><time>2021-10-10T12:22:50Z</time><extensions><speed>0.874436</speed><course>294.257812</course><hAcc>2.464126</hAcc><vAcc>2.355400</vAcc></extensions></trkpt>
      <trkpt lon="-82.146347" lat="33.556559"><ele>88.369087</ele><time>2021-10-10T12:22:52Z</time><extensions><speed>0.926519</speed><course>294.257812</course><hAcc>2.421548</hAcc><vAcc>2.317475</vAcc></extensions></trkpt>
      <trkpt lon="-82.146363" lat="33.556548"><ele>88.301888</ele><time>2021-10-10T12:22:54Z</time><extensions><speed>1.000619</speed><course>294.257812</course><hAcc>2.372300</hAcc><vAcc>2.275749</vAcc></extensions></trkpt>
      <trkpt lon="-82.146380" lat="33.556536"><ele>88.195946</ele><time>2021-10-10T12:22:56Z</time><extensions><speed>1.081766</speed><course>294.257812</course><hAcc>2.326248</hAcc><vAcc>2.233750</vAcc></extensions></trkpt>
      <trkpt lon="-82.146399" lat="33.556523"><ele>88.075859</ele><time>2021-10-10T12:22:58Z</time><extensions><speed>1.152568</speed><course>240.468750</course><hAcc>2.292856</hAcc><vAcc>2.195012</vAcc></extensions></trkpt>
      <trkpt lon="-82.146419" lat="33.556510"><ele>87.972328</ele><time>2021-10-10T12:23:00Z</time><extensions><speed>1.203008</speed><course>258.046875</course><hAcc>2.277256</hAcc><vAcc>2.160862</vAcc></extensions></trkpt>
      <trkpt lon="-82.146440" lat="33.556497"><ele>87.897400</ele><time>2021-10-10T12:23:02Z</time><extensions><speed>1.233233</speed><course>262.968750</course><hAcc>2.269623</hAcc><vAcc>2.125390</vAcc></extensions></trkpt>
      <trkpt lon="-82.146462" lat="33.556484"><ele>87.852272</ele><time>2021-10-10T12:23:04Z</time><extensions><speed>1.241664</speed><course>254.179688</course><hAcc>2.249937</hAcc><vAcc>2.079342</vAcc></extensions></trkpt>
      <trkpt lon="-82.146483" lat="33.556471"><ele>87.841789</ele><time>2021-10-10T12:23:06Z</time><extensions><speed>1.228294</speed><course>259.804688</course><hAcc>2.200819</hAcc><vAcc>2.014923</vAcc></extensions></trkpt>
      <trkpt lon="-82.146505" lat="33.556459"><ele>87.872574</ele><time>2021-10-10T12:23:08Z</time><extensions><speed>1.195030</speed><course>274.218750</course><hAcc>2.111747</hAcc><vAcc>1.926458</vAcc></extensions></trkpt>
      <trkpt lon="-82.146525" lat="33.556446"><ele>87.952415</ele><time>2021-10-10T12:23:10Z</time><extensions><speed>1.141839</speed><course>277.031250</course><hAcc>1.978944</hAcc><vAcc>1.811058</vAcc></extensions></trkpt>
      <trkpt lon="-82.146544" lat="33.556435"><ele>88.094833</ele><time>2021-10-10T12:23:12Z</time><extensions><speed>1.068186</speed><course>242.929688</course><hAcc>1.798660</hAcc><vAcc>1.664804</vAcc></extensions></trkpt>
      <trkpt lon="-82.146553" lat="33.556429"><ele>88.189430</ele><time>2021-10-10T12:23:13Z</time><extensions><speed>1.045560</speed><course>264.023438</course><hAcc>1.697760</hAcc><vAcc>1.584725</vAcc></extensions></trkpt>
      <trkpt lon="-82.146562" lat="33.556423"><ele>88.297401</ele><time>2021-10-10T12:23:14Z</time><extensions><speed>1.019586</speed><course>242.578125</course><hAcc>1.605044</hAcc><vAcc>1.509850</vAcc></extensions></trkpt>
      <trkpt lon="-82.146571" lat="33.556418"><ele>88.423065</ele><time>2021-10-10T12:23:16Z</time><extensions><speed>0.990051</speed><course>244.687500</course><hAcc>1.520132</hAcc><vAcc>1.439518</vAcc></extensions></trkpt>
      <trkpt lon="-82.146579" lat="33.556412"><ele>88.555763</ele><time>2021-10-10T12:23:16Z</time><extensions><speed>0.964058</speed><course>229.218750</course><hAcc>1.449935</hAcc><vAcc>1.379380</vAcc></extensions></trkpt>
      <trkpt lon="-82.146587" lat="33.556407"><ele>88.702660</ele><time>2021-10-10T12:23:17Z</time><extensions><speed>0.940564</speed><course>225.000000</course><hAcc>1.388495</hAcc><vAcc>1.324523</vAcc></extensions></trkpt>
      <trkpt lon="-82.146595" lat="33.556402"><ele>88.854668</ele><time>2021-10-10T12:23:18Z</time><extensions><speed>0.922831</speed><course>223.593750</course><hAcc>1.337301</hAcc><vAcc>1.276676</vAcc></extensions></trkpt>
      <trkpt lon="-82.146603" lat="33.556397"><ele>89.008636</ele><time>2021-10-10T12:23:19Z</time><extensions><speed>0.911058</speed><course>227.460938</course><hAcc>1.294829</hAcc><vAcc>1.234984</vAcc></extensions></trkpt>
      <trkpt lon="-82.146611" lat="33.556391"><ele>89.159264</ele><time>2021-10-10T12:23:20Z</time><extensions><speed>0.905779</speed><course>243.984375</course><hAcc>1.260184</hAcc><vAcc>1.199221</vAcc></extensions></trkpt>
      <trkpt lon="-82.146618" lat="33.556387"><ele>89.300011</ele><time>2021-10-10T12:23:21Z</time><extensions><speed>0.907296</speed><course>264.375000</course><hAcc>1.232791</hAcc><vAcc>1.169424</vAcc></extensions></trkpt>
      <trkpt lon="-82.146626" lat="33.556382"><ele>89.430000</ele><time>2021-10-10T12:23:22Z</time><extensions><speed>0.915780</speed><course>268.593750</course><hAcc>1.210883</hAcc><vAcc>1.144322</vAcc></extensions></trkpt>
      <trkpt lon="-82.146634" lat="33.556377"><ele>89.543365</ele><time>2021-10-10T12:23:23Z</time><extensions><speed>0.930623</speed><course>251.015625</course><hAcc>1.193760</hAcc><vAcc>1.123737</vAcc></extensions></trkpt>
      <trkpt lon="-82.146643" lat="33.556372"><ele>89.638481</ele><time>2021-10-10T12:23:24Z</time><extensions><speed>0.950956</speed><course>225.351562</course><hAcc>1.180548</hAcc><vAcc>1.107023</vAcc></extensions></trkpt>
      <trkpt lon="-82.146651" lat="33.556367"><ele>89.715805</ele><time>2021-10-10T12:23:25Z</time><extensions><speed>0.977154</speed><course>229.218750</course><hAcc>1.170139</hAcc><vAcc>1.093192</vAcc></extensions></trkpt>
      <trkpt lon="-82.146660" lat="33.556362"><ele>89.774277</ele><time>2021-10-10T12:23:26Z</time><extensions><speed>1.009118</speed><course>226.406250</course><hAcc>1.161724</hAcc><vAcc>1.081581</vAcc></extensions></trkpt>
      <trkpt lon="-82.146670" lat="33.556358"><ele>89.814392</ele><time>2021-10-10T12:23:27Z</time><extensions><speed>1.046989</speed><course>239.414062</course><hAcc>1.154657</hAcc><vAcc>1.071539</vAcc></extensions></trkpt>
      <trkpt lon="-82.146680" lat="33.556354"><ele>89.837334</ele><time>2021-10-10T12:23:28Z</time><extensions><speed>1.091303</speed><course>238.007812</course><hAcc>1.148364</hAcc><vAcc>1.062425</vAcc></extensions></trkpt>
      <trkpt lon="-82.146691" lat="33.556350"><ele>89.844261</ele><time>2021-10-10T12:23:29Z</time><extensions><speed>1.142642</speed><course>247.500000</course><hAcc>1.142275</hAcc><vAcc>1.053604</vAcc></extensions></trkpt>
      <trkpt lon="-82.146703" lat="33.556346"><ele>89.836182</ele><time>2021-10-10T12:23:30Z</time><extensions><speed>1.200764</speed><course>264.023438</course><hAcc>1.135828</hAcc><vAcc>1.044476</vAcc></extensions></trkpt>
      <trkpt lon="-82.146716" lat="33.556342"><ele>89.814720</ele><time>2021-10-10T12:23:31Z</time><extensions><speed>1.262247</speed><course>304.804688</course><hAcc>1.128920</hAcc><vAcc>1.034862</vAcc></extensions></trkpt>
      <trkpt lon="-82.146729" lat="33.556338"><ele>89.780891</ele><time>2021-10-10T12:23:32Z</time><extensions><speed>1.327552</speed><course>303.398438</course><hAcc>1.121222</hAcc><vAcc>1.024291</vAcc></extensions></trkpt>
      <trkpt lon="-82.146743" lat="33.556335"><ele>89.736160</ele><time>2021-10-10T12:23:33Z</time><extensions><speed>1.393176</speed><course>284.765625</course><hAcc>1.112543</hAcc><vAcc>1.012579</vAcc></extensions></trkpt>
      <trkpt lon="-82.146758" lat="33.556332"><ele>89.681252</ele><time>2021-10-10T12:23:34Z</time><extensions><speed>1.458253</speed><course>273.867188</course><hAcc>1.102679</hAcc><vAcc>0.999479</vAcc></extensions></trkpt>
      <trkpt lon="-82.146773" lat="33.556329"><ele>89.617210</ele><time>2021-10-10T12:23:35Z</time><extensions><speed>1.520610</speed><course>274.218750</course><hAcc>1.091473</hAcc><vAcc>0.984874</vAcc></extensions></trkpt>
      <trkpt lon="-82.146790" lat="33.556326"><ele>89.545723</ele><time>2021-10-10T12:23:36Z</time><extensions><speed>1.577165</speed><course>275.625000</course><hAcc>1.079088</hAcc><vAcc>0.968967</vAcc></extensions></trkpt>
      <trkpt lon="-82.146807" lat="33.556323"><ele>89.468079</ele><time>2021-10-10T12:23:37Z</time><extensions><speed>1.625788</speed><course>281.953125</course><hAcc>1.065765</hAcc><vAcc>0.952014</vAcc></extensions></trkpt>
      <trkpt lon="-82.146824" lat="33.556321"><ele>89.386116</ele><time>2021-10-10T12:23:38Z</time><extensions><speed>1.663501</speed><course>272.460938</course><hAcc>1.051936</hAcc><vAcc>0.934510</vAcc></extensions></trkpt>
      <trkpt lon="-82.146842" lat="33.556318"><ele>89.301888</ele><time>2021-10-10T12:23:39Z</time><extensions><speed>1.687982</speed><course>282.304688</course><hAcc>1.038235</hAcc><vAcc>0.917160</vAcc></extensions></trkpt>
      <trkpt lon="-82.146860" lat="33.556316"><ele>89.217537</ele><time>2021-10-10T12:23:40Z</time><extensions><speed>1.697639</speed><course>280.898438</course><hAcc>1.025285</hAcc><vAcc>0.900677</vAcc></extensions></trkpt>
      <trkpt lon="-82.146878" lat="33.556313"><ele>89.136658</ele><time>2021-10-10T12:23:41Z</time><extensions><speed>1.691406</speed><course>283.007812</course><hAcc>1.013933</hAcc><vAcc>0.885994</vAcc></extensions></trkpt>
      <trkpt lon="-82.146896" lat="33.556311"><ele>89.060112</ele><time>2021-10-10T12:23:42Z</time><extensions><speed>1.669141</speed><course>275.976562</course><hAcc>1.004349</hAcc><vAcc>0.873263</vAcc></extensions></trkpt>
      <trkpt lon="-82.146913" lat="33.556308"><ele>88.990013</ele><time>2021-10-10T12:23:43Z</time><extensions><speed>1.631559</speed><course>265.781250</course><hAcc>0.996472</hAcc><vAcc>0.862548</vAcc></extensions></trkpt>
      <trkpt lon="-82.146930" lat="33.556306"><ele>88.927864</ele><time>2021-10-10T12:23:44Z</time><extensions><speed>1.580479</speed><course>254.882812</course><hAcc>0.990142</hAcc><vAcc>0.853744</vAcc></extensions></trkpt>
      <trkpt lon="-82.146947" lat="33.556304"><ele>88.874306</ele><time>2021-10-10T12:23:45Z</time><extensions><speed>1.517924</speed><course>242.929688</course><hAcc>0.985098</hAcc><vAcc>0.846587</vAcc></extensions></trkpt>
      <trkpt lon="-82.146963" lat="33.556302"><ele>88.829597</ele><time>2021-10-10T12:23:46Z</time><extensions><speed>1.445248</speed><course>238.007812</course><hAcc>0.980938</hAcc><vAcc>0.840658</vAcc></extensions></trkpt>
      <trkpt lon="-82.146978" lat="33.556301"><ele>88.794472</ele><time>2021-10-10T12:23:47Z</time><extensions><speed>1.365613</speed><course>237.304688</course><hAcc>0.977495</hAcc><vAcc>0.835747</vAcc></extensions></trkpt>
      <trkpt lon="-82.146992" lat="33.556300"><ele>88.768883</ele><time>2021-10-10T12:23:48Z</time><extensions><speed>1.278489</speed><course>245.742188</course><hAcc>0.974618</hAcc><vAcc>0.831661</vAcc></extensions></trkpt>
      <trkpt lon="-82.147005" lat="33.556300"><ele>88.753738</ele><time>2021-10-10T12:23:49Z</time><extensions><speed>1.187332</speed><course>248.203125</course><hAcc>0.972229</hAcc><vAcc>0.828366</vAcc></extensions></trkpt>
      <trkpt lon="-82.147017" lat="33.556300"><ele>88.749535</ele><time>2021-10-10T12:23:50Z</time><extensions><speed>1.094238</speed><course>260.156250</course><hAcc>0.970368</hAcc><vAcc>0.825898</vAcc></extensions></trkpt>
      <trkpt lon="-82.147029" lat="33.556302"><ele>88.756485</ele><time>2021-10-10T12:23:51Z</time><extensions><speed>1.002371</speed><course>264.726562</course><hAcc>0.969056</hAcc><vAcc>0.824295</vAcc></extensions></trkpt>
      <trkpt lon="-82.147039" lat="33.556304"><ele>88.774124</ele><time>2021-10-10T12:23:52Z</time><extensions><speed>0.918455</speed><course>284.062500</course><hAcc>0.968514</hAcc><vAcc>0.823750</vAcc></extensions></trkpt>
      <trkpt lon="-82.147048" lat="33.556306"><ele>88.802193</ele><time>2021-10-10T12:23:53Z</time><extensions><speed>0.844314</speed><course>322.734375</course><hAcc>0.968845</hAcc><vAcc>0.824382</vAcc></extensions></trkpt>
      <trkpt lon="-82.147055" lat="33.556310"><ele>88.839798</ele><time>2021-10-10T12:23:54Z</time><extensions><speed>0.784841</speed><course>0.703125</course><hAcc>0.970069</hAcc><vAcc>0.826271</vAcc></extensions></trkpt>
      <trkpt lon="-82.147062" lat="33.556314"><ele>88.886002</ele><time>2021-10-10T12:23:55Z</time><extensions><speed>0.739873</speed><course>351.914062</course><hAcc>0.972376</hAcc><vAcc>0.829614</vAcc></extensions></trkpt>
      <trkpt lon="-82.147067" lat="33.556318"><ele>88.939392</ele><time>2021-10-10T12:23:56Z</time><extensions><speed>0.706564</speed><course>327.304688</course><hAcc>0.975944</hAcc><vAcc>0.834591</vAcc></extensions></trkpt>
      <trkpt lon="-82.147072" lat="33.556324"><ele>88.998741</ele><time>2021-10-10T12:23:57Z</time><extensions><speed>0.679988</speed><course>338.203125</course><hAcc>0.980886</hAcc><vAcc>0.841343</vAcc></extensions></trkpt>
      <trkpt lon="-82.147075" lat="33.556329"><ele>89.060989</ele><time>2021-10-10T12:23:58Z</time><extensions><speed>0.655904</speed><course>346.289062</course><hAcc>0.987348</hAcc><vAcc>0.849907</vAcc></extensions></trkpt>
      <trkpt lon="-82.147078" lat="33.556334"><ele>89.124786</ele><time>2021-10-10T12:23:59Z</time><extensions><speed>0.628793</speed><course>9.492188</course><hAcc>0.995622</hAcc><vAcc>0.860492</vAcc></extensions></trkpt>
      <trkpt lon="-82.147080" lat="33.556339"><ele>89.187546</ele><time>2021-10-10T12:24:00Z</time><extensions><speed>0.595370</speed><course>359.296875</course><hAcc>1.005521</hAcc><vAcc>0.872880</vAcc></extensions></trkpt>
      <trkpt lon="-82.147081" lat="33.556345"><ele>89.246399</ele><time>2021-10-10T12:24:01Z</time><extensions><speed>0.554376</speed><course>5.273438</course><hAcc>1.016695</hAcc><vAcc>0.886635</vAcc></extensions></trkpt>
      <trkpt lon="-82.147081" lat="33.556349"><ele>89.298767</ele><time>2021-10-10T12:24:02Z</time><extensions><speed>0.506365</speed><course>5.625000</course><hAcc>1.028643</hAcc><vAcc>0.901132</vAcc></extensions></trkpt>
      <trkpt lon="-82.147081" lat="33.556354"><ele>89.341827</ele><time>2021-10-10T12:24:03Z</time><extensions><speed>0.455263</speed><course>7.031250</course><hAcc>1.040734</hAcc><vAcc>0.915453</vAcc></extensions></trkpt>
      <trkpt lon="-82.147080" lat="33.556357"><ele>89.374954</ele><time>2021-10-10T12:24:04Z</time><extensions><speed>0.401775</speed><course>23.203125</course><hAcc>1.052638</hAcc><vAcc>0.929065</vAcc></extensions></trkpt>
      <trkpt lon="-82.147079" lat="33.556361"><ele>89.396721</ele><time>2021-10-10T12:24:05Z</time><extensions><speed>0.350174</speed><course>55.898438</course><hAcc>1.063614</hAcc><vAcc>0.940997</vAcc></extensions></trkpt>
      <trkpt lon="-82.147077" lat="33.556363"><ele>89.406670</ele><time>2021-10-10T12:24:06Z</time><extensions><speed>0.305697</speed><course>112.148438</course><hAcc>1.073414</hAcc><vAcc>0.950706</vAcc></extensions></trkpt>
      <trkpt lon="-82.147075" lat="33.556365"><ele>89.405022</ele><time>2021-10-10T12:24:07Z</time><extensions><speed>0.275567</speed><course>175.429688</course><hAcc>1.082110</hAcc><vAcc>0.957893</vAcc></extensions></trkpt>
      <trkpt lon="-82.147073" lat="33.556367"><ele>89.392624</ele><time>2021-10-10T12:24:08Z</time><extensions><speed>0.265692</speed><course>180.000000</course><hAcc>1.090150</hAcc><vAcc>0.962566</vAcc></extensions></trkpt>
      <trkpt lon="-82.147070" lat="33.556368"><ele>89.370789</ele><time>2021-10-10T12:24:09Z</time><extensions><speed>0.277842</speed><course>187.031250</course><hAcc>1.098124</hAcc><vAcc>0.964851</vAcc></extensions></trkpt>
      <trkpt lon="-82.147067" lat="33.556368"><ele>89.340958</ele><time>2021-10-10T12:24:10Z</time><extensions><speed>0.308339</speed><course>185.625000</course><hAcc>1.106844</hAcc><vAcc>0.965045</vAcc></extensions></trkpt>
      <trkpt lon="-82.147064" lat="33.556368"><ele>89.304764</ele><time>2021-10-10T12:24:11Z</time><extensions><speed>0.351065</speed><course>197.226562</course><hAcc>1.117161</hAcc><vAcc>0.963570</vAcc></extensions></trkpt>
      <trkpt lon="-82.147060" lat="33.556368"><ele>89.263939</ele><time>2021-10-10T12:24:12Z</time><extensions><speed>0.400382</speed><course>203.906250</course><hAcc>1.129999</hAcc><vAcc>0.961093</vAcc></extensions></trkpt>
      <trkpt lon="-82.147055" lat="33.556367"><ele>89.219696</ele><time>2021-10-10T12:24:13Z</time><extensions><speed>0.452839</speed><course>197.929688</course><hAcc>1.146187</hAcc><vAcc>0.958353</vAcc></extensions></trkpt>
      <trkpt lon="-82.147050" lat="33.556366"><ele>89.173843</ele><time>2021-10-10T12:24:14Z</time><extensions><speed>0.503444</speed><course>218.671875</course><hAcc>1.165851</hAcc><vAcc>0.956173</vAcc></extensions></trkpt>
      <trkpt lon="-82.147045" lat="33.556365"><ele>89.127144</ele><time>2021-10-10T12:24:15Z</time><extensions><speed>0.548744</speed><course>111.093750</course><hAcc>1.188607</hAcc><vAcc>0.955089</vAcc></extensions></trkpt>
      <trkpt lon="-82.147039" lat="33.556363"><ele>89.079903</ele><time>2021-10-10T12:24:16Z</time><extensions><speed>0.586834</speed><course>121.640625</course><hAcc>1.213282</hAcc><vAcc>0.955129</vAcc></extensions></trkpt>
      <trkpt lon="-82.147033" lat="33.556362"><ele>89.033081</ele><time>2021-10-10T12:24:17Z</time><extensions><speed>0.616495</speed><course>124.804688</course><hAcc>1.238290</hAcc><vAcc>0.956096</vAcc></extensions></trkpt>
      <trkpt lon="-82.147026" lat="33.556360"><ele>88.987762</ele><time>2021-10-10T12:24:18Z</time><extensions><speed>0.637154</speed><course>126.562500</course><hAcc>1.262429</hAcc><vAcc>0.957752</vAcc></extensions></trkpt>
      <trkpt lon="-82.147020" lat="33.556358"><ele>88.945023</ele><time>2021-10-10T12:24:19Z</time><extensions><speed>0.648727</speed><course>121.289062</course><hAcc>1.284801</hAcc><vAcc>0.959781</vAcc></extensions></trkpt>
      <trkpt lon="-82.147013" lat="33.556357"><ele>88.906525</ele><time>2021-10-10T12:24:20Z</time><extensions><speed>0.651390</speed><course>119.882812</course><hAcc>1.304590</hAcc><vAcc>0.961896</vAcc></extensions></trkpt>
      <trkpt lon="-82.147006" lat="33.556355"><ele>88.873383</ele><time>2021-10-10T12:24:21Z</time><extensions><speed>0.646240</speed><course>116.718750</course><hAcc>1.321648</hAcc><vAcc>0.963990</vAcc></extensions></trkpt>
      <trkpt lon="-82.147000" lat="33.556353"><ele>88.845871</ele><time>2021-10-10T12:24:22Z</time><extensions><speed>0.634265</speed><course>109.335938</course><hAcc>1.336100</hAcc><vAcc>0.965904</vAcc></extensions></trkpt>
      <trkpt lon="-82.146994" lat="33.556351"><ele>88.824631</ele><time>2021-10-10T12:24:23Z</time><extensions><speed>0.616720</speed><course>106.171875</course><hAcc>1.347714</hAcc><vAcc>0.967352</vAcc></extensions></trkpt>
      <trkpt lon="-82.146988" lat="33.556348"><ele>88.810059</ele><time>2021-10-10T12:24:24Z</time><extensions><speed>0.595678</speed><course>87.187500</course><hAcc>1.356632</hAcc><vAcc>0.968313</vAcc></extensions></trkpt>
      <trkpt lon="-82.146982" lat="33.556346"><ele>88.802017</ele><time>2021-10-10T12:24:25Z</time><extensions><speed>0.572855</speed><course>78.750000</course><hAcc>1.363593</hAcc><vAcc>0.969061</vAcc></extensions></trkpt>
      <trkpt lon="-82.146977" lat="33.556343"><ele>88.800247</ele><time>2021-10-10T12:24:26Z</time><extensions><speed>0.550445</speed><course>89.648438</course><hAcc>1.369645</hAcc><vAcc>0.970144</vAcc></extensions></trkpt>
      <trkpt lon="-82.146972" lat="33.556341"><ele>88.804298</ele><time>2021-10-10T12:24:27Z</time><extensions><speed>0.529871</speed><course>106.523438</course><hAcc>1.376281</hAcc><vAcc>0.972382</vAcc></extensions></trkpt>
      <trkpt lon="-82.146968" lat="33.556338"><ele>88.813576</ele><time>2021-10-10T12:24:28Z</time><extensions><speed>0.514154</speed><course>123.046875</course><hAcc>1.385509</hAcc><vAcc>0.977084</vAcc></extensions></trkpt>
      <trkpt lon="-82.146964" lat="33.556334"><ele>88.827690</ele><time>2021-10-10T12:24:29Z</time><extensions><speed>0.504394</speed><course>124.804688</course><hAcc>1.400558</hAcc><vAcc>0.986355</vAcc></extensions></trkpt>
      <trkpt lon="-82.146961" lat="33.556331"><ele>88.846214</ele><time>2021-10-10T12:24:30Z</time><extensions><speed>0.501472</speed><course>130.781250</course><hAcc>1.425254</hAcc><vAcc>1.002799</vAcc></extensions></trkpt>
      <trkpt lon="-82.146958" lat="33.556327"><ele>88.868896</ele><time>2021-10-10T12:24:31Z</time><extensions><speed>0.504731</speed><course>153.281250</course><hAcc>1.464671</hAcc><vAcc>1.029911</vAcc></extensions></trkpt>
      <trkpt lon="-82.146956" lat="33.556322"><ele>88.895294</ele><time>2021-10-10T12:24:32Z</time><extensions><speed>0.512435</speed><course>179.648438</course><hAcc>1.524474</hAcc><vAcc>1.071634</vAcc></extensions></trkpt>
      <trkpt lon="-82.146954" lat="33.556318"><ele>88.924431</ele><time>2021-10-10T12:24:33Z</time><extensions><speed>0.522046</speed><course>217.968750</course><hAcc>1.609378</hAcc><vAcc>1.131263</vAcc></extensions></trkpt>
      <trkpt lon="-82.146952" lat="33.556314"><ele>88.956421</ele><time>2021-10-10T12:24:34Z</time><extensions><speed>0.531971</speed><course>223.593750</course><hAcc>1.726670</hAcc><vAcc>1.213909</vAcc></extensions></trkpt>
      <trkpt lon="-82.146951" lat="33.556309"><ele>88.990181</ele><time>2021-10-10T12:24:35Z</time><extensions><speed>0.540293</speed><course>244.335938</course><hAcc>1.878676</hAcc><vAcc>1.321199</vAcc></extensions></trkpt>
      <trkpt lon="-82.146950" lat="33.556304"><ele>89.025230</ele><time>2021-10-10T12:24:36Z</time><extensions><speed>0.546084</speed><course>213.750000</course><hAcc>2.067697</hAcc><vAcc>1.454740</vAcc></extensions></trkpt>
      <trkpt lon="-82.146948" lat="33.556299"><ele>89.061119</ele><time>2021-10-10T12:24:37Z</time><extensions><speed>0.549132</speed><course>209.531250</course><hAcc>2.294745</hAcc><vAcc>1.615230</vAcc></extensions></trkpt>
      <trkpt lon="-82.146947" lat="33.556294"><ele>89.097443</ele><time>2021-10-10T12:24:38Z</time><extensions><speed>0.549988</speed><course>203.906250</course><hAcc>2.559383</hAcc><vAcc>1.802346</vAcc></extensions></trkpt>
    </trkseg>
  </trk>
</gpx>