<?xml version="1.0" encoding="UTF-8"?>
<gpx version="1.1" creator="Apple Health Export" xmlns="http://www.topografix.com/GPX/1/1" xmlns:xsi="http://www.w3.org/2001/XMLSchema-instance" xsi:schemaLocation="http://www.topografix.com/GPX/1/1 http://www.topografix.com/GPX/1/1/gpx.xsd">
  <metadata>
    <time>2026-03-14T12:15:44Z</time>
  </metadata>
  <trk>
    <name>Route 2021-10-15 10:14am</name>
    <trkseg>
      <trkpt lon="-82.145913" lat="33.556784"><ele>104.978951</ele><time>2021-10-15T14:12:09Z</time><extensions><speed>1.767198</speed><course>279.492188</course><hAcc>2.298897</hAcc><vAcc>2.257963</vAcc></extensions></trkpt>
      <trkpt lon="-82.145930" lat="33.556777"><ele>104.928581</ele><time>2021-10-15T14:12:10Z</time><extensions><speed>1.765545</speed><course>291.093750</course><hAcc>2.066943</hAcc><vAcc>2.056506</vAcc></extensions></trkpt>
      <trkpt lon="-82.145948" lat="33.556771"><ele>104.877991</ele><time>2021-10-15T14:12:11Z</time><extensions><speed>1.760102</speed><course>268.593750</course><hAcc>1.870792</hAcc><vAcc>1.877841</vAcc></extensions></trkpt>
      <trkpt lon="-82.145965" lat="33.556765"><ele>104.826797</ele><time>2021-10-15T14:12:12Z</time><extensions><speed>1.750054</speed><course>251.367188</course><hAcc>1.708957</hAcc><vAcc>1.722074</vAcc></extensions></trkpt>
      <trkpt lon="-82.145982" lat="33.556758"><ele>104.774300</ele><time>2021-10-15T14:12:13Z</time><extensions><speed>1.735362</speed><course>242.578125</course><hAcc>1.578669</hAcc><vAcc>1.588762</vAcc></extensions></trkpt>
      <trkpt lon="-82.145999" lat="33.556752"><ele>104.719276</ele><time>2021-10-15T14:12:14Z</time><extensions><speed>1.717155</speed><course>238.007812</course><hAcc>1.476201</hAcc><vAcc>1.476930</vAcc></extensions></trkpt>
      <trkpt lon="-82.146016" lat="33.556746"><ele>104.660057</ele><time>2021-10-15T14:12:15Z</time><extensions><speed>1.696691</speed><course>243.632812</course><hAcc>1.397304</hAcc><vAcc>1.385136</vAcc></extensions></trkpt>
      <trkpt lon="-82.146032" lat="33.556740"><ele>104.594742</ele><time>2021-10-15T14:12:16Z</time><extensions><speed>1.674210</speed><course>250.312500</course><hAcc>1.337692</hAcc><vAcc>1.311574</vAcc></extensions></trkpt>
      <trkpt lon="-82.146049" lat="33.556734"><ele>104.521614</ele><time>2021-10-15T14:12:17Z</time><extensions><speed>1.648962</speed><course>251.367188</course><hAcc>1.293468</hAcc><vAcc>1.254238</vAcc></extensions></trkpt>
      <trkpt lon="-82.146065" lat="33.556728"><ele>104.439629</ele><time>2021-10-15T14:12:18Z</time><extensions><speed>1.619745</speed><course>233.789062</course><hAcc>1.261355</hAcc><vAcc>1.211032</vAcc></extensions></trkpt>
      <trkpt lon="-82.146081" lat="33.556722"><ele>104.348923</ele><time>2021-10-15T14:12:19Z</time><extensions><speed>1.585474</speed><course>223.945312</course><hAcc>1.238693</hAcc><vAcc>1.179830</vAcc></extensions></trkpt>
      <trkpt lon="-82.146097" lat="33.556717"><ele>104.250664</ele><time>2021-10-15T14:12:20Z</time><extensions><speed>1.545655</speed><course>217.265625</course><hAcc>1.223403</hAcc><vAcc>1.158578</vAcc></extensions></trkpt>
      <trkpt lon="-82.146112" lat="33.556712"><ele>104.146416</ele><time>2021-10-15T14:12:21Z</time><extensions><speed>1.500287</speed><course>264.375000</course><hAcc>1.213951</hAcc><vAcc>1.145419</vAcc></extensions></trkpt>
      <trkpt lon="-82.146126" lat="33.556707"><ele>104.037407</ele><time>2021-10-15T14:12:22Z</time><extensions><speed>1.449974</speed><course>317.109375</course><hAcc>1.209283</hAcc><vAcc>1.138768</vAcc></extensions></trkpt>
      <trkpt lon="-82.146141" lat="33.556702"><ele>103.924393</ele><time>2021-10-15T14:12:23Z</time><extensions><speed>1.396117</speed><course>319.921875</course><hAcc>1.208737</hAcc><vAcc>1.137337</vAcc></extensions></trkpt>
      <trkpt lon="-82.146154" lat="33.556697"><ele>103.808044</ele><time>2021-10-15T14:12:24Z</time><extensions><speed>1.339895</speed><course>278.437500</course><hAcc>1.211959</hAcc><vAcc>1.140111</vAcc></extensions></trkpt>
      <trkpt lon="-82.146167" lat="33.556693"><ele>103.689301</ele><time>2021-10-15T14:12:25Z</time><extensions><speed>1.281800</speed><course>229.570312</course><hAcc>1.218819</hAcc><vAcc>1.146299</vAcc></extensions></trkpt>
      <trkpt lon="-82.146180" lat="33.556688"><ele>103.569275</ele><time>2021-10-15T14:12:26Z</time><extensions><speed>1.222426</speed><course>240.468750</course><hAcc>1.229325</hAcc><vAcc>1.155269</vAcc></extensions></trkpt>
      <trkpt lon="-82.146191" lat="33.556684"><ele>103.449120</ele><time>2021-10-15T14:12:27Z</time><extensions><speed>1.162519</speed><course>245.039062</course><hAcc>1.243533</hAcc><vAcc>1.166475</vAcc></extensions></trkpt>
      <trkpt lon="-82.146202" lat="33.556679"><ele>103.330139</ele><time>2021-10-15T14:12:28Z</time><extensions><speed>1.102691</speed><course>252.070312</course><hAcc>1.261446</hAcc><vAcc>1.179393</vAcc></extensions></trkpt>
      <trkpt lon="-82.146212" lat="33.556675"><ele>103.213852</ele><time>2021-10-15T14:12:29Z</time><extensions><speed>1.043693</speed><course>256.289062</course><hAcc>1.282910</hAcc><vAcc>1.193461</vAcc></extensions></trkpt>
      <trkpt lon="-82.146222" lat="33.556670"><ele>103.101883</ele><time>2021-10-15T14:12:30Z</time><extensions><speed>0.986519</speed><course>258.398438</course><hAcc>1.307510</hAcc><vAcc>1.208034</vAcc></extensions></trkpt>
      <trkpt lon="-82.146231" lat="33.556666"><ele>102.995918</ele><time>2021-10-15T14:12:31Z</time><extensions><speed>0.932404</speed><course>257.695312</course><hAcc>1.334533</hAcc><vAcc>1.222419</vAcc></extensions></trkpt>
      <trkpt lon="-82.146239" lat="33.556661"><ele>102.897606</ele><time>2021-10-15T14:12:32Z</time><extensions><speed>0.882745</speed><course>240.117188</course><hAcc>1.363024</hAcc><vAcc>1.235971</vAcc></extensions></trkpt>
      <trkpt lon="-82.146246" lat="33.556656"><ele>102.808441</ele><time>2021-10-15T14:12:33Z</time><extensions><speed>0.838825</speed><course>231.679688</course><hAcc>1.391772</hAcc><vAcc>1.248145</vAcc></extensions></trkpt>
      <trkpt lon="-82.146253" lat="33.556652"><ele>102.729858</ele><time>2021-10-15T14:12:34Z</time><extensions><speed>0.801264</speed><course>224.648438</course><hAcc>1.419421</hAcc><vAcc>1.258490</vAcc></extensions></trkpt>
      <trkpt lon="-82.146260" lat="33.556647"><ele>102.663200</ele><time>2021-10-15T14:12:35Z</time><extensions><speed>0.770181</speed><course>220.078125</course><hAcc>1.444804</hAcc><vAcc>1.266675</vAcc></extensions></trkpt>
      <trkpt lon="-82.146266" lat="33.556643"><ele>102.609695</ele><time>2021-10-15T14:12:36Z</time><extensions><speed>0.745506</speed><course>184.218750</course><hAcc>1.467104</hAcc><vAcc>1.272481</vAcc></extensions></trkpt>
      <trkpt lon="-82.146271" lat="33.556638"><ele>102.570305</ele><time>2021-10-15T14:12:37Z</time><extensions><speed>0.726964</speed><course>200.039062</course><hAcc>1.485826</hAcc><vAcc>1.275798</vAcc></extensions></trkpt>
      <trkpt lon="-82.146277" lat="33.556633"><ele>102.545715</ele><time>2021-10-15T14:12:38Z</time><extensions><speed>0.714259</speed><course>200.039062</course><hAcc>1.500749</hAcc><vAcc>1.276608</vAcc></extensions></trkpt>
      <trkpt lon="-82.146282" lat="33.556629"><ele>102.536270</ele><time>2021-10-15T14:12:39Z</time><extensions><speed>0.707044</speed><course>200.039062</course><hAcc>1.511870</hAcc><vAcc>1.274981</vAcc></extensions></trkpt>
      <trkpt lon="-82.146287" lat="33.556624"><ele>102.542000</ele><time>2021-10-15T14:12:40Z</time><extensions><speed>0.704860</speed><course>303.750000</course><hAcc>1.519365</hAcc><vAcc>1.271068</vAcc></extensions></trkpt>
      <trkpt lon="-82.146293" lat="33.556619"><ele>102.562698</ele><time>2021-10-15T14:12:41Z</time><extensions><speed>0.707134</speed><course>170.156250</course><hAcc>1.523546</hAcc><vAcc>1.265103</vAcc></extensions></trkpt>
      <trkpt lon="-82.146298" lat="33.556615"><ele>102.598007</ele><time>2021-10-15T14:12:42Z</time><extensions><speed>0.713156</speed><course>207.070312</course><hAcc>1.524835</hAcc><vAcc>1.257400</vAcc></extensions></trkpt>
      <trkpt lon="-82.146303" lat="33.556610"><ele>102.647438</ele><time>2021-10-15T14:12:43Z</time><extensions><speed>0.722479</speed><course>234.140625</course><hAcc>1.523739</hAcc><vAcc>1.248359</vAcc></extensions></trkpt>
      <trkpt lon="-82.146309" lat="33.556606"><ele>102.710304</ele><time>2021-10-15T14:12:44Z</time><extensions><speed>0.734957</speed><course>238.710938</course><hAcc>1.520831</hAcc><vAcc>1.238459</vAcc></extensions></trkpt>
      <trkpt lon="-82.146315" lat="33.556602"><ele>102.785622</ele><time>2021-10-15T14:12:45Z</time><extensions><speed>0.750298</speed><course>253.125000</course><hAcc>1.516701</hAcc><vAcc>1.228214</vAcc></extensions></trkpt>
      <trkpt lon="-82.146322" lat="33.556597"><ele>102.872078</ele><time>2021-10-15T14:12:46Z</time><extensions><speed>0.768105</speed><course>252.070312</course><hAcc>1.511877</hAcc><vAcc>1.218082</vAcc></extensions></trkpt>
      <trkpt lon="-82.146328" lat="33.556593"><ele>102.968178</ele><time>2021-10-15T14:12:47Z</time><extensions><speed>0.787877</speed><course>257.695312</course><hAcc>1.506785</hAcc><vAcc>1.208420</vAcc></extensions></trkpt>
      <trkpt lon="-82.146335" lat="33.556589"><ele>103.072411</ele><time>2021-10-15T14:12:48Z</time><extensions><speed>0.808863</speed><course>272.812500</course><hAcc>1.501751</hAcc><vAcc>1.199484</vAcc></extensions></trkpt>
      <trkpt lon="-82.146343" lat="33.556585"><ele>103.183266</ele><time>2021-10-15T14:12:49Z</time><extensions><speed>0.830068</speed><course>272.812500</course><hAcc>1.497010</hAcc><vAcc>1.191440</vAcc></extensions></trkpt>
      <trkpt lon="-82.146350" lat="33.556581"><ele>103.299057</ele><time>2021-10-15T14:12:50Z</time><extensions><speed>0.850384</speed><course>261.210938</course><hAcc>1.492714</hAcc><vAcc>1.184375</vAcc></extensions></trkpt>
      <trkpt lon="-82.146358" lat="33.556577"><ele>103.417984</ele><time>2021-10-15T14:12:51Z</time><extensions><speed>0.868674</speed><course>248.554688</course><hAcc>1.488948</hAcc><vAcc>1.178312</vAcc></extensions></trkpt>
      <trkpt lon="-82.146366" lat="33.556573"><ele>103.538223</ele><time>2021-10-15T14:12:52Z</time><extensions><speed>0.883824</speed><course>233.437500</course><hAcc>1.485744</hAcc><vAcc>1.173221</vAcc></extensions></trkpt>
      <trkpt lon="-82.146375" lat="33.556569"><ele>103.658066</ele><time>2021-10-15T14:12:53Z</time><extensions><speed>0.894851</speed><course>247.851562</course><hAcc>1.483094</hAcc><vAcc>1.169040</vAcc></extensions></trkpt>
      <trkpt lon="-82.146383" lat="33.556565"><ele>103.775932</ele><time>2021-10-15T14:12:54Z</time><extensions><speed>0.901066</speed><course>252.773438</course><hAcc>1.480962</hAcc><vAcc>1.165680</vAcc></extensions></trkpt>
      <trkpt lon="-82.146392" lat="33.556561"><ele>103.890511</ele><time>2021-10-15T14:12:55Z</time><extensions><speed>0.902246</speed><course>253.476562</course><hAcc>1.479295</hAcc><vAcc>1.163040</vAcc></extensions></trkpt>
      <trkpt lon="-82.146400" lat="33.556557"><ele>104.000793</ele><time>2021-10-15T14:12:56Z</time><extensions><speed>0.898679</speed><course>249.257812</course><hAcc>1.478031</hAcc><vAcc>1.161015</vAcc></extensions></trkpt>
      <trkpt lon="-82.146409" lat="33.556553"><ele>104.106094</ele><time>2021-10-15T14:12:57Z</time><extensions><speed>0.890957</speed><course>254.531250</course><hAcc>1.477104</hAcc><vAcc>1.159501</vAcc></extensions></trkpt>
      <trkpt lon="-82.146417" lat="33.556549"><ele>104.206184</ele><time>2021-10-15T14:12:58Z</time><extensions><speed>0.879717</speed><course>251.367188</course><hAcc>1.476450</hAcc><vAcc>1.158401</vAcc></extensions></trkpt>
      <trkpt lon="-82.146425" lat="33.556545"><ele>104.301315</ele><time>2021-10-15T14:12:59Z</time><extensions><speed>0.865432</speed><course>234.140625</course><hAcc>1.476011</hAcc><vAcc>1.157626</vAcc></extensions></trkpt>
      <trkpt lon="-82.146433" lat="33.556542"><ele>104.392288</ele><time>2021-10-15T14:13:00Z</time><extensions><speed>0.848336</speed><course>220.078125</course><hAcc>1.475733</hAcc><vAcc>1.157097</vAcc></extensions></trkpt>
      <trkpt lon="-82.146441" lat="33.556538"><ele>104.480347</ele><time>2021-10-15T14:13:01Z</time><extensions><speed>0.828633</speed><course>225.703125</course><hAcc>1.475569</hAcc><vAcc>1.156745</vAcc></extensions></trkpt>
      <trkpt lon="-82.146449" lat="33.556534"><ele>104.566902</ele><time>2021-10-15T14:13:02Z</time><extensions><speed>0.806564</speed><course>226.054688</course><hAcc>1.475480</hAcc><vAcc>1.156508</vAcc></extensions></trkpt>
      <trkpt lon="-82.146456" lat="33.556530"><ele>104.653343</ele><time>2021-10-15T14:13:03Z</time><extensions><speed>0.782427</speed><course>244.335938</course><hAcc>1.475431</hAcc><vAcc>1.156334</vAcc></extensions></trkpt>
      <trkpt lon="-82.146463" lat="33.556527"><ele>104.741043</ele><time>2021-10-15T14:13:04Z</time><extensions><speed>0.756766</speed><course>248.906250</course><hAcc>1.475392</hAcc><vAcc>1.156173</vAcc></extensions></trkpt>
      <trkpt lon="-82.146470" lat="33.556523"><ele>104.831352</ele><time>2021-10-15T14:13:05Z</time><extensions><speed>0.730546</speed><course>248.203125</course><hAcc>1.475334</hAcc><vAcc>1.155980</vAcc></extensions></trkpt>
      <trkpt lon="-82.146476" lat="33.556520"><ele>104.925377</ele><time>2021-10-15T14:13:06Z</time><extensions><speed>0.705218</speed><course>233.437500</course><hAcc>1.475231</hAcc><vAcc>1.155711</vAcc></extensions></trkpt>
      <trkpt lon="-82.146483" lat="33.556516"><ele>105.023865</ele><time>2021-10-15T14:13:07Z</time><extensions><speed>0.682392</speed><course>216.562500</course><hAcc>1.475056</hAcc><vAcc>1.155319</vAcc></extensions></trkpt>
      <trkpt lon="-82.146489" lat="33.556513"><ele>105.127197</ele><time>2021-10-15T14:13:08Z</time><extensions><speed>0.663494</speed><course>195.117188</course><hAcc>1.474780</hAcc><vAcc>1.154756</vAcc></extensions></trkpt>
      <trkpt lon="-82.146495" lat="33.556510"><ele>105.235382</ele><time>2021-10-15T14:13:09Z</time><extensions><speed>0.649703</speed><course>196.171875</course><hAcc>1.474373</hAcc><vAcc>1.153969</vAcc></extensions></trkpt>
      <trkpt lon="-82.146501" lat="33.556507"><ele>105.347946</ele><time>2021-10-15T14:13:10Z</time><extensions><speed>0.641879</speed><course>209.179688</course><hAcc>1.473799</hAcc><vAcc>1.152897</vAcc></extensions></trkpt>
      <trkpt lon="-82.146507" lat="33.556504"><ele>105.463989</ele><time>2021-10-15T14:13:11Z</time><extensions><speed>0.640513</speed><course>270.703125</course><hAcc>1.473019</hAcc><vAcc>1.151479</vAcc></extensions></trkpt>
      <trkpt lon="-82.146513" lat="33.556501"><ele>105.582458</ele><time>2021-10-15T14:13:12Z</time><extensions><speed>0.645741</speed><course>262.265625</course><hAcc>1.471993</hAcc><vAcc>1.149644</vAcc></extensions></trkpt>
      <trkpt lon="-82.146519" lat="33.556498"><ele>105.702171</ele><time>2021-10-15T14:13:13Z</time><extensions><speed>0.657526</speed><course>253.125000</course><hAcc>1.470674</hAcc><vAcc>1.147319</vAcc></extensions></trkpt>
      <trkpt lon="-82.146525" lat="33.556495"><ele>105.821838</ele><time>2021-10-15T14:13:14Z</time><extensions><speed>0.675859</speed><course>229.218750</course><hAcc>1.469016</hAcc><vAcc>1.144431</vAcc></extensions></trkpt>
      <trkpt lon="-82.146531" lat="33.556492"><ele>105.940063</ele><time>2021-10-15T14:13:15Z</time><extensions><speed>0.700716</speed><course>351.210938</course><hAcc>1.466976</hAcc><vAcc>1.140911</vAcc></extensions></trkpt>
      <trkpt lon="-82.146538" lat="33.556489"><ele>106.055466</ele><time>2021-10-15T14:13:16Z</time><extensions><speed>0.731912</speed><course>352.968750</course><hAcc>1.464512</hAcc><vAcc>1.136695</vAcc></extensions></trkpt>
      <trkpt lon="-82.146545" lat="33.556485"><ele>106.166733</ele><time>2021-10-15T14:13:17Z</time><extensions><speed>0.768907</speed><course>334.687500</course><hAcc>1.461596</hAcc><vAcc>1.131737</vAcc></extensions></trkpt>
      <trkpt lon="-82.146552" lat="33.556481"><ele>106.272606</ele><time>2021-10-15T14:13:18Z</time><extensions><speed>0.810768</speed><course>296.367188</course><hAcc>1.458210</hAcc><vAcc>1.126014</vAcc></extensions></trkpt>
      <trkpt lon="-82.146560" lat="33.556477"><ele>106.371986</ele><time>2021-10-15T14:13:19Z</time><extensions><speed>0.856329</speed><course>234.140625</course><hAcc>1.454359</hAcc><vAcc>1.119537</vAcc></extensions></trkpt>
      <trkpt lon="-82.146568" lat="33.556473"><ele>106.464058</ele><time>2021-10-15T14:13:20Z</time><extensions><speed>0.904387</speed><course>233.437500</course><hAcc>1.450076</hAcc><vAcc>1.112356</vAcc></extensions></trkpt>
      <trkpt lon="-82.146576" lat="33.556469"><ele>106.548172</ele><time>2021-10-15T14:13:21Z</time><extensions><speed>0.953864</speed><course>238.007812</course><hAcc>1.445427</hAcc><vAcc>1.104578</vAcc></extensions></trkpt>
      <trkpt lon="-82.146585" lat="33.556464"><ele>106.623711</ele><time>2021-10-15T14:13:22Z</time><extensions><speed>1.003821</speed><course>251.718750</course><hAcc>1.440516</hAcc><vAcc>1.096372</vAcc></extensions></trkpt>
      <trkpt lon="-82.146594" lat="33.556459"><ele>106.690071</ele><time>2021-10-15T14:13:23Z</time><extensions><speed>1.053282</speed><course>252.070312</course><hAcc>1.435489</hAcc><vAcc>1.087970</vAcc></extensions></trkpt>
      <trkpt lon="-82.146604" lat="33.556454"><ele>106.746826</ele><time>2021-10-15T14:13:24Z</time><extensions><speed>1.101054</speed><course>246.445312</course><hAcc>1.430532</hAcc><vAcc>1.079672</vAcc></extensions></trkpt>
      <trkpt lon="-82.146615" lat="33.556449"><ele>106.793884</ele><time>2021-10-15T14:13:25Z</time><extensions><speed>1.145792</speed><course>243.632812</course><hAcc>1.425820</hAcc><vAcc>1.071762</vAcc></extensions></trkpt>
      <trkpt lon="-82.146625" lat="33.556443"><ele>106.831474</ele><time>2021-10-15T14:13:26Z</time><extensions><speed>1.186528</speed><course>238.007812</course><hAcc>1.421465</hAcc><vAcc>1.064428</vAcc></extensions></trkpt>
      <trkpt lon="-82.146637" lat="33.556438"><ele>106.860016</ele><time>2021-10-15T14:13:27Z</time><extensions><speed>1.222640</speed><course>228.164062</course><hAcc>1.417518</hAcc><vAcc>1.057755</vAcc></extensions></trkpt>
      <trkpt lon="-82.146648" lat="33.556432"><ele>106.880028</ele><time>2021-10-15T14:13:28Z</time><extensions><speed>1.253510</speed><course>211.640625</course><hAcc>1.413918</hAcc><vAcc>1.051658</vAcc></extensions></trkpt>
      <trkpt lon="-82.146660" lat="33.556427"><ele>106.892090</ele><time>2021-10-15T14:13:29Z</time><extensions><speed>1.278723</speed><course>216.914062</course><hAcc>1.410469</hAcc><vAcc>1.045831</vAcc></extensions></trkpt>
      <trkpt lon="-82.146673" lat="33.556421"><ele>106.896820</ele><time>2021-10-15T14:13:30Z</time><extensions><speed>1.298150</speed><course>220.781250</course><hAcc>1.406904</hAcc><vAcc>1.039850</vAcc></extensions></trkpt>
      <trkpt lon="-82.146685" lat="33.556416"><ele>106.894836</ele><time>2021-10-15T14:13:31Z</time><extensions><speed>1.311889</speed><course>226.406250</course><hAcc>1.402998</hAcc><vAcc>1.033358</vAcc></extensions></trkpt>
      <trkpt lon="-82.146698" lat="33.556412"><ele>106.886650</ele><time>2021-10-15T14:13:32Z</time><extensions><speed>1.320247</speed><course>231.679688</course><hAcc>1.398644</hAcc><vAcc>1.026180</vAcc></extensions></trkpt>
      <trkpt lon="-82.146711" lat="33.556407"><ele>106.872627</ele><time>2021-10-15T14:13:33Z</time><extensions><speed>1.323750</speed><course>242.929688</course><hAcc>1.393869</hAcc><vAcc>1.018346</vAcc></extensions></trkpt>
      <trkpt lon="-82.146725" lat="33.556403"><ele>106.852905</ele><time>2021-10-15T14:13:34Z</time><extensions><speed>1.323100</speed><course>253.125000</course><hAcc>1.388832</hAcc><vAcc>1.010107</vAcc></extensions></trkpt>
      <trkpt lon="-82.146738" lat="33.556400"><ele>106.827438</ele><time>2021-10-15T14:13:35Z</time><extensions><speed>1.319239</speed><course>265.078125</course><hAcc>1.383786</hAcc><vAcc>1.001860</vAcc></extensions></trkpt>
      <trkpt lon="-82.146752" lat="33.556397"><ele>106.796165</ele><time>2021-10-15T14:13:36Z</time><extensions><speed>1.313144</speed><course>283.359375</course><hAcc>1.378980</hAcc><vAcc>0.994001</vAcc></extensions></trkpt>
      <trkpt lon="-82.146766" lat="33.556394"><ele>106.759048</ele><time>2021-10-15T14:13:37Z</time><extensions><speed>1.305657</speed><course>288.984375</course><hAcc>1.374610</hAcc><vAcc>0.986849</vAcc></extensions></trkpt>
      <trkpt lon="-82.146780" lat="33.556392"><ele>106.716095</ele><time>2021-10-15T14:13:38Z</time><extensions><speed>1.297608</speed><course>281.601562</course><hAcc>1.370825</hAcc><vAcc>0.980644</vAcc></extensions></trkpt>
      <trkpt lon="-82.146793" lat="33.556390"><ele>106.667320</ele><time>2021-10-15T14:13:39Z</time><extensions><speed>1.289879</speed><course>271.757812</course><hAcc>1.367725</hAcc><vAcc>0.975558</vAcc></extensions></trkpt>
      <trkpt lon="-82.146807" lat="33.556390"><ele>106.612808</ele><time>2021-10-15T14:13:40Z</time><extensions><speed>1.283417</speed><course>268.242188</course><hAcc>1.365376</hAcc><vAcc>0.971702</vAcc></extensions></trkpt>
      <trkpt lon="-82.146821" lat="33.556389"><ele>106.552742</ele><time>2021-10-15T14:13:41Z</time><extensions><speed>1.279164</speed><course>259.453125</course><hAcc>1.363818</hAcc><vAcc>0.969141</vAcc></extensions></trkpt>
      <trkpt lon="-82.146835" lat="33.556389"><ele>106.487259</ele><time>2021-10-15T14:13:42Z</time><extensions><speed>1.277963</speed><course>268.945312</course><hAcc>1.363069</hAcc><vAcc>0.967909</vAcc></extensions></trkpt>
      <trkpt lon="-82.146849" lat="33.556390"><ele>106.416313</ele><time>2021-10-15T14:13:43Z</time><extensions><speed>1.280389</speed><course>271.054688</course><hAcc>1.363133</hAcc><vAcc>0.968013</vAcc></extensions></trkpt>
      <trkpt lon="-82.146862" lat="33.556391"><ele>106.339706</ele><time>2021-10-15T14:13:44Z</time><extensions><speed>1.286510</speed><course>288.632812</course><hAcc>1.364003</hAcc><vAcc>0.969438</vAcc></extensions></trkpt>
      <trkpt lon="-82.146876" lat="33.556393"><ele>106.257149</ele><time>2021-10-15T14:13:45Z</time><extensions><speed>1.295736</speed><course>347.343750</course><hAcc>1.365657</hAcc><vAcc>0.972146</vAcc></extensions></trkpt>
      <trkpt lon="-82.146890" lat="33.556395"><ele>106.168404</ele><time>2021-10-15T14:13:46Z</time><extensions><speed>1.306704</speed><course>6.679688</course><hAcc>1.368056</hAcc><vAcc>0.976068</vAcc></extensions></trkpt>
      <trkpt lon="-82.146904" lat="33.556397"><ele>106.073364</ele><time>2021-10-15T14:13:47Z</time><extensions><speed>1.317304</speed><course>8.085938</course><hAcc>1.371136</hAcc><vAcc>0.981091</vAcc></extensions></trkpt>
      <trkpt lon="-82.146918" lat="33.556400"><ele>105.972229</ele><time>2021-10-15T14:13:48Z</time><extensions><speed>1.324825</speed><course>342.070312</course><hAcc>1.374795</hAcc><vAcc>0.987044</vAcc></extensions></trkpt>
      <trkpt lon="-82.146931" lat="33.556403"><ele>105.865486</ele><time>2021-10-15T14:13:49Z</time><extensions><speed>1.326162</speed><course>326.250000</course><hAcc>1.378887</hAcc><vAcc>0.993682</vAcc></extensions></trkpt>
      <trkpt lon="-82.146945" lat="33.556406"><ele>105.753868</ele><time>2021-10-15T14:13:50Z</time><extensions><speed>1.318187</speed><course>311.484375</course><hAcc>1.383211</hAcc><vAcc>1.000676</vAcc></extensions></trkpt>
      <trkpt lon="-82.146959" lat="33.556409"><ele>105.638199</ele><time>2021-10-15T14:13:51Z</time><extensions><speed>1.297988</speed><course>299.531250</course><hAcc>1.387503</hAcc><vAcc>1.007600</vAcc></extensions></trkpt>
      <trkpt lon="-82.146972" lat="33.556412"><ele>105.519333</ele><time>2021-10-15T14:13:52Z</time><extensions><speed>1.263023</speed><course>290.039062</course><hAcc>1.391439</hAcc><vAcc>1.013937</vAcc></extensions></trkpt>
      <trkpt lon="-82.146985" lat="33.556415"><ele>105.398125</ele><time>2021-10-15T14:13:53Z</time><extensions><speed>1.211370</speed><course>286.171875</course><hAcc>1.394685</hAcc><vAcc>1.019160</vAcc></extensions></trkpt>
      <trkpt lon="-82.146997" lat="33.556418"><ele>105.275398</ele><time>2021-10-15T14:13:54Z</time><extensions><speed>1.142035</speed><course>283.007812</course><hAcc>1.396992</hAcc><vAcc>1.022878</vAcc></extensions></trkpt>
      <trkpt lon="-82.147008" lat="33.556421"><ele>105.151810</ele><time>2021-10-15T14:13:55Z</time><extensions><speed>1.054990</speed><course>287.226562</course><hAcc>1.398252</hAcc><vAcc>1.024924</vAcc></extensions></trkpt>
      <trkpt lon="-82.147018" lat="33.556424"><ele>105.027771</ele><time>2021-10-15T14:13:56Z</time><extensions><speed>0.951019</speed><course>292.148438</course><hAcc>1.398497</hAcc><vAcc>1.025354</vAcc></extensions></trkpt>
      <trkpt lon="-82.147028" lat="33.556426"><ele>104.903496</ele><time>2021-10-15T14:13:57Z</time><extensions><speed>0.831776</speed><course>310.781250</course><hAcc>1.397900</hAcc><vAcc>1.024440</vAcc></extensions></trkpt>
      <trkpt lon="-82.147035" lat="33.556429"><ele>104.779030</ele><time>2021-10-15T14:13:58Z</time><extensions><speed>0.699772</speed><course>338.554688</course><hAcc>1.396756</hAcc><vAcc>1.022652</vAcc></extensions></trkpt>
      <trkpt lon="-82.147042" lat="33.556430"><ele>104.654335</ele><time>2021-10-15T14:13:59Z</time><extensions><speed>0.558355</speed><course>6.328125</course><hAcc>1.395422</hAcc><vAcc>1.020554</vAcc></extensions></trkpt>
      <trkpt lon="-82.147047" lat="33.556431"><ele>104.529404</ele><time>2021-10-15T14:14:00Z</time><extensions><speed>0.411772</speed><course>33.046875</course><hAcc>1.394205</hAcc><vAcc>1.018636</vAcc></extensions></trkpt>
      <trkpt lon="-82.147051" lat="33.556432"><ele>104.404297</ele><time>2021-10-15T14:14:01Z</time><extensions><speed>0.265925</speed><course>63.984375</course><hAcc>1.393303</hAcc><vAcc>1.017215</vAcc></extensions></trkpt>
      <trkpt lon="-82.147053" lat="33.556432"><ele>104.279137</ele><time>2021-10-15T14:14:02Z</time><extensions><speed>0.136611</speed><course>56.953125</course><hAcc>1.392790</hAcc><vAcc>1.016412</vAcc></extensions></trkpt>
      <trkpt lon="-82.147053" lat="33.556431"><ele>104.154144</ele><time>2021-10-15T14:14:03Z</time><extensions><speed>0.113420</speed><course>36.562500</course><hAcc>1.392618</hAcc><vAcc>1.016148</vAcc></extensions></trkpt>
      <trkpt lon="-82.147053" lat="33.556430"><ele>104.029739</ele><time>2021-10-15T14:14:04Z</time><extensions><speed>0.221773</speed><course>43.242188</course><hAcc>1.392619</hAcc><vAcc>1.016161</vAcc></extensions></trkpt>
      <trkpt lon="-82.147051" lat="33.556428"><ele>103.906647</ele><time>2021-10-15T14:14:05Z</time><extensions><speed>0.346630</speed><course>180.000000</course><hAcc>1.392527</hAcc><vAcc>1.016025</vAcc></extensions></trkpt>
      <trkpt lon="-82.147047" lat="33.556425"><ele>103.785934</ele><time>2021-10-15T14:14:06Z</time><extensions><speed>0.464485</speed><course>170.156250</course><hAcc>1.392041</hAcc><vAcc>1.015260</vAcc></extensions></trkpt>
      <trkpt lon="-82.147043" lat="33.556422"><ele>103.668724</ele><time>2021-10-15T14:14:07Z</time><extensions><speed>0.569663</speed><course>157.148438</course><hAcc>1.390934</hAcc><vAcc>1.013503</vAcc></extensions></trkpt>
      <trkpt lon="-82.147038" lat="33.556419"><ele>103.556053</ele><time>2021-10-15T14:14:08Z</time><extensions><speed>0.659350</speed><course>146.953125</course><hAcc>1.389118</hAcc><vAcc>1.010611</vAcc></extensions></trkpt>
      <trkpt lon="-82.147032" lat="33.556415"><ele>103.448639</ele><time>2021-10-15T14:14:09Z</time><extensions><speed>0.732083</speed><course>131.835938</course><hAcc>1.386653</hAcc><vAcc>1.006671</vAcc></extensions></trkpt>
      <trkpt lon="-82.147025" lat="33.556411"><ele>103.347023</ele><time>2021-10-15T14:14:10Z</time><extensions><speed>0.787335</speed><course>106.171875</course><hAcc>1.383704</hAcc><vAcc>1.001943</vAcc></extensions></trkpt>
      <trkpt lon="-82.147018" lat="33.556407"><ele>103.251595</ele><time>2021-10-15T14:14:11Z</time><extensions><speed>0.825088</speed><course>87.890625</course><hAcc>1.380493</hAcc><vAcc>0.996777</vAcc></extensions></trkpt>
      <trkpt lon="-82.147011" lat="33.556403"><ele>103.162651</ele><time>2021-10-15T14:14:12Z</time><extensions><speed>0.845858</speed><course>92.812500</course><hAcc>1.377291</hAcc><vAcc>0.991607</vAcc></extensions></trkpt>
      <trkpt lon="-82.147003" lat="33.556398"><ele>103.080360</ele><time>2021-10-15T14:14:13Z</time><extensions><speed>0.850711</speed><course>98.789062</course><hAcc>1.374365</hAcc><vAcc>0.986874</vAcc></extensions></trkpt>
      <trkpt lon="-82.146996" lat="33.556394"><ele>103.004890</ele><time>2021-10-15T14:14:14Z</time><extensions><speed>0.840958</speed><course>106.875000</course><hAcc>1.371933</hAcc><vAcc>0.982945</vAcc></extensions></trkpt>
      <trkpt lon="-82.146989" lat="33.556389"><ele>102.936325</ele><time>2021-10-15T14:14:15Z</time><extensions><speed>0.818204</speed><course>111.796875</course><hAcc>1.370154</hAcc><vAcc>0.980113</vAcc></extensions></trkpt>
      <trkpt lon="-82.146982" lat="33.556385"><ele>102.874657</ele><time>2021-10-15T14:14:16Z</time><extensions><speed>0.784461</speed><course>163.476562</course><hAcc>1.369131</hAcc><vAcc>0.978591</vAcc></extensions></trkpt>
      <trkpt lon="-82.146976" lat="33.556380"><ele>102.819801</ele><time>2021-10-15T14:14:17Z</time><extensions><speed>0.742252</speed><course>160.312500</course><hAcc>1.368907</hAcc><vAcc>0.978515</vAcc></extensions></trkpt>
      <trkpt lon="-82.146971" lat="33.556375"><ele>102.771606</ele><time>2021-10-15T14:14:18Z</time><extensions><speed>0.694980</speed><course>159.960938</course><hAcc>1.369461</hAcc><vAcc>0.979942</vAcc></extensions></trkpt>
      <trkpt lon="-82.146967" lat="33.556370"><ele>102.729988</ele><time>2021-10-15T14:14:19Z</time><extensions><speed>0.647311</speed><course>147.304688</course><hAcc>1.370701</hAcc><vAcc>0.982840</vAcc></extensions></trkpt>
      <trkpt lon="-82.146963" lat="33.556365"><ele>102.695107</ele><time>2021-10-15T14:14:20Z</time><extensions><speed>0.605216</speed><course>203.554688</course><hAcc>1.372458</hAcc><vAcc>0.987088</vAcc></extensions></trkpt>
      <trkpt lon="-82.146961" lat="33.556361"><ele>102.667305</ele><time>2021-10-15T14:14:21Z</time><extensions><speed>0.575379</speed><course>245.039062</course><hAcc>1.374471</hAcc><vAcc>0.992457</vAcc></extensions></trkpt>
      <trkpt lon="-82.146959" lat="33.556356"><ele>102.646965</ele><time>2021-10-15T14:14:22Z</time><extensions><speed>0.563789</speed><course>259.804688</course><hAcc>1.376381</hAcc><vAcc>0.998601</vAcc></extensions></trkpt>
      <trkpt lon="-82.146959" lat="33.556351"><ele>102.634407</ele><time>2021-10-15T14:14:23Z</time><extensions><speed>0.573934</speed><course>306.210938</course><hAcc>1.377715</hAcc><vAcc>1.005043</vAcc></extensions></trkpt>
      <trkpt lon="-82.146959" lat="33.556345"><ele>102.629868</ele><time>2021-10-15T14:14:24Z</time><extensions><speed>0.605554</speed><course>13.359375</course><hAcc>1.377884</hAcc><vAcc>1.011172</vAcc></extensions></trkpt>
      <trkpt lon="-82.146961" lat="33.556340"><ele>102.633484</ele><time>2021-10-15T14:14:25Z</time><extensions><speed>0.654816</speed><course>1.054688</course><hAcc>1.376183</hAcc><vAcc>1.016241</vAcc></extensions></trkpt>
      <trkpt lon="-82.146963" lat="33.556334"><ele>102.645203</ele><time>2021-10-15T14:14:26Z</time><extensions><speed>0.716153</speed><course>282.656250</course><hAcc>1.371843</hAcc><vAcc>1.019450</vAcc></extensions></trkpt>
      <trkpt lon="-82.146966" lat="33.556327"><ele>102.664795</ele><time>2021-10-15T14:14:27Z</time><extensions><speed>0.784061</speed><course>284.062500</course><hAcc>1.364144</hAcc><vAcc>1.020097</vAcc></extensions></trkpt>
      <trkpt lon="-82.146969" lat="33.556321"><ele>102.691803</ele><time>2021-10-15T14:14:28Z</time><extensions><speed>0.853849</speed><course>256.640625</course><hAcc>1.352475</hAcc><vAcc>1.017659</vAcc></extensions></trkpt>
      <trkpt lon="-82.146973" lat="33.556313"><ele>102.725471</ele><time>2021-10-15T14:14:29Z</time><extensions><speed>0.921976</speed><course>253.828125</course><hAcc>1.336372</hAcc><vAcc>1.011809</vAcc></extensions></trkpt>
      <trkpt lon="-82.146978" lat="33.556306"><ele>102.764801</ele><time>2021-10-15T14:14:30Z</time><extensions><speed>0.985974</speed><course>199.335938</course><hAcc>1.315554</hAcc><vAcc>1.002420</vAcc></extensions></trkpt>
      <trkpt lon="-82.146982" lat="33.556297"><ele>102.808640</ele><time>2021-10-15T14:14:31Z</time><extensions><speed>1.044252</speed><course>202.500000</course><hAcc>1.289970</hAcc><vAcc>0.989580</vAcc></extensions></trkpt>
      <trkpt lon="-82.146987" lat="33.556288"><ele>102.855751</ele><time>2021-10-15T14:14:32Z</time><extensions><speed>1.096064</speed><course>203.554688</course><hAcc>1.259866</hAcc><vAcc>0.973606</vAcc></extensions></trkpt>
      <trkpt lon="-82.146991" lat="33.556279"><ele>102.904808</ele><time>2021-10-15T14:14:33Z</time><extensions><speed>1.141310</speed><course>192.304688</course><hAcc>1.225861</hAcc><vAcc>0.955060</vAcc></extensions></trkpt>
      <trkpt lon="-82.146996" lat="33.556269"><ele>102.954407</ele><time>2021-10-15T14:14:34Z</time><extensions><speed>1.180224</speed><course>181.406250</course><hAcc>1.188985</hAcc><vAcc>0.934699</vAcc></extensions></trkpt>
      <trkpt lon="-82.147000" lat="33.556259"><ele>103.003067</ele><time>2021-10-15T14:14:35Z</time><extensions><speed>1.213496</speed><course>173.671875</course><hAcc>1.150686</hAcc><vAcc>0.913354</vAcc></extensions></trkpt>
      <trkpt lon="-82.147003" lat="33.556248"><ele>103.049263</ele><time>2021-10-15T14:14:36Z</time><extensions><speed>1.242316</speed><course>165.585938</course><hAcc>1.112832</hAcc><vAcc>0.891884</vAcc></extensions></trkpt>
      <trkpt lon="-82.147006" lat="33.556237"><ele>103.091423</ele><time>2021-10-15T14:14:37Z</time><extensions><speed>1.268143</speed><course>170.156250</course><hAcc>1.077422</hAcc><vAcc>0.871097</vAcc></extensions></trkpt>
      <trkpt lon="-82.147008" lat="33.556226"><ele>103.127998</ele><time>2021-10-15T14:14:38Z</time><extensions><speed>1.292270</speed><course>191.250000</course><hAcc>1.045960</hAcc><vAcc>0.851605</vAcc></extensions></trkpt>
      <trkpt lon="-82.147010" lat="33.556214"><ele>103.157639</ele><time>2021-10-15T14:14:39Z</time><extensions><speed>1.315759</speed><course>198.984375</course><hAcc>1.019201</hAcc><vAcc>0.833781</vAcc></extensions></trkpt>
      <trkpt lon="-82.147011" lat="33.556202"><ele>103.179306</ele><time>2021-10-15T14:14:40Z</time><extensions><speed>1.339607</speed><course>202.148438</course><hAcc>0.997267</hAcc><vAcc>0.817808</vAcc></extensions></trkpt>
      <trkpt lon="-82.147010" lat="33.556190"><ele>103.192184</ele><time>2021-10-15T14:14:41Z</time><extensions><speed>1.364404</speed><course>187.031250</course><hAcc>0.979731</hAcc><vAcc>0.803644</vAcc></extensions></trkpt>
      <trkpt lon="-82.147010" lat="33.556178"><ele>103.195686</ele><time>2021-10-15T14:14:42Z</time><extensions><speed>1.389927</speed><course>179.648438</course><hAcc>0.965670</hAcc><vAcc>0.790905</vAcc></extensions></trkpt>
      <trkpt lon="-82.147008" lat="33.556165"><ele>103.189217</ele><time>2021-10-15T14:14:43Z</time><extensions><speed>1.415082</speed><course>166.640625</course><hAcc>0.953963</hAcc><vAcc>0.779050</vAcc></extensions></trkpt>
      <trkpt lon="-82.147005" lat="33.556152"><ele>103.171982</ele><time>2021-10-15T14:14:44Z</time><extensions><speed>1.438332</speed><course>164.531250</course><hAcc>0.943817</hAcc><vAcc>0.767863</vAcc></extensions></trkpt>
      <trkpt lon="-82.147002" lat="33.556140"><ele>103.142982</ele><time>2021-10-15T14:14:45Z</time><extensions><speed>1.458285</speed><course>162.421875</course><hAcc>0.935265</hAcc><vAcc>0.757871</vAcc></extensions></trkpt>
      <trkpt lon="-82.146999" lat="33.556127"><ele>103.101326</ele><time>2021-10-15T14:14:46Z</time><extensions><speed>1.474102</speed><course>171.562500</course><hAcc>0.929607</hAcc><vAcc>0.750677</vAcc></extensions></trkpt>
      <trkpt lon="-82.146995" lat="33.556114"><ele>103.046608</ele><time>2021-10-15T14:14:47Z</time><extensions><speed>1.485631</speed><course>174.375000</course><hAcc>0.929816</hAcc><vAcc>0.749174</vAcc></extensions></trkpt>
      <trkpt lon="-82.146991" lat="33.556101"><ele>102.979248</ele><time>2021-10-15T14:14:48Z</time><extensions><speed>1.493194</speed><course>162.773438</course><hAcc>0.940810</hAcc><vAcc>0.757537</vAcc></extensions></trkpt>
      <trkpt lon="-82.146986" lat="33.556088"><ele>102.900421</ele><time>2021-10-15T14:14:49Z</time><extensions><speed>1.497504</speed><course>163.125000</course><hAcc>0.969516</hAcc><vAcc>0.781033</vAcc></extensions></trkpt>
      <trkpt lon="-82.146982" lat="33.556075"><ele>102.811935</ele><time>2021-10-15T14:14:50Z</time><extensions><speed>1.499507</speed><course>145.546875</course><hAcc>1.024330</hAcc><vAcc>0.825458</vAcc></extensions></trkpt>
      <trkpt lon="-82.146977" lat="33.556062"><ele>102.716110</ele><time>2021-10-15T14:14:51Z</time><extensions><speed>1.500072</speed><course>169.101562</course><hAcc>1.113680</hAcc><vAcc>0.896100</vAcc></extensions></trkpt>
      <trkpt lon="-82.146973" lat="33.556049"><ele>102.615417</ele><time>2021-10-15T14:14:52Z</time><extensions><speed>1.499910</speed><course>171.914062</course><hAcc>1.244138</hAcc><vAcc>0.996663</vAcc></extensions></trkpt>
      <trkpt lon="-82.146968" lat="33.556036"><ele>102.512123</ele><time>2021-10-15T14:14:53Z</time><extensions><speed>1.499564</speed><course>177.539062</course><hAcc>1.419063</hAcc><vAcc>1.128674</vAcc></extensions></trkpt>
      <trkpt lon="-82.146963" lat="33.556023"><ele>102.407867</ele><time>2021-10-15T14:14:54Z</time><extensions><speed>1.499403</speed><course>166.992188</course><hAcc>1.638316</hAcc><vAcc>1.291523</vAcc></extensions></trkpt>
    </trkseg>
  </trk>
</gpx>