<?xml version="1.0" encoding="UTF-8"?>
<gpx version="1.1" creator="Apple Health Export" xmlns="http://www.topografix.com/GPX/1/1" xmlns:xsi="http://www.w3.org/2001/XMLSchema-instance" xsi:schemaLocation="http://www.topografix.com/GPX/1/1 http://www.topografix.com/GPX/1/1/gpx.xsd">
  <metadata>
    <time>2026-03-14T12:15:52Z</time>
  </metadata>
  <trk>
    <name>Route 2022-02-10 10:25am</name>
    <trkseg>
      <trkpt lon="-82.145751" lat="33.556867"><ele>81.316826</ele><time>2022-02-10T15:20:39Z</time><extensions><speed>1.178004</speed><course>78.832184</course><hAcc>7.239891</hAcc><vAcc>2.228433</vAcc></extensions></trkpt>
      <trkpt lon="-82.145744" lat="33.556868"><ele>81.312836</ele><time>2022-02-10T15:20:40Z</time><extensions><speed>1.176840</speed><course>78.755295</course><hAcc>7.089375</hAcc><vAcc>2.159035</vAcc></extensions></trkpt>
      <trkpt lon="-82.145732" lat="33.556870"><ele>81.304726</ele><time>2022-02-10T15:20:41Z</time><extensions><speed>1.172361</speed><course>78.469116</course><hAcc>7.041773</hAcc><vAcc>2.094993</vAcc></extensions></trkpt>
      <trkpt lon="-82.145720" lat="33.556873"><ele>81.296593</ele><time>2022-02-10T15:20:42Z</time><extensions><speed>1.168091</speed><course>78.280319</course><hAcc>7.331501</hAcc><vAcc>2.138382</vAcc></extensions></trkpt>
      <trkpt lon="-82.145707" lat="33.556875"><ele>81.288483</ele><time>2022-02-10T15:20:43Z</time><extensions><speed>1.165623</speed><course>78.191277</course><hAcc>8.005218</hAcc><vAcc>2.284279</vAcc></extensions></trkpt>
      <trkpt lon="-82.145889" lat="33.556721"><ele>86.224213</ele><time>2022-02-10T15:21:25Z</time><extensions><speed>0.122778</speed><course>143.712967</course><hAcc>20.830854</hAcc><vAcc>16.068308</vAcc></extensions></trkpt>
      <trkpt lon="-82.145875" lat="33.556706"><ele>86.348930</ele><time>2022-02-10T15:21:45Z</time><extensions><speed>0.093745</speed><course>143.404343</course><hAcc>8.850087</hAcc><vAcc>11.104860</vAcc></extensions></trkpt>
      <trkpt lon="-82.145874" lat="33.556705"><ele>86.342453</ele><time>2022-02-10T15:21:47Z</time><extensions><speed>0.016311</speed><course>140.061600</course><hAcc>9.121138</hAcc><vAcc>11.046985</vAcc></extensions></trkpt>
      <trkpt lon="-82.145874" lat="33.556704"><ele>86.236694</ele><time>2022-02-10T15:21:59Z</time><extensions><speed>0.002401</speed><course>346.261963</course><hAcc>13.772548</hAcc><vAcc>12.876583</vAcc></extensions></trkpt>
      <trkpt lon="-82.145893" lat="33.556733"><ele>82.410896</ele><time>2022-02-10T15:22:37Z</time><extensions><speed>0.101066</speed><course>326.579346</course><hAcc>5.249634</hAcc><vAcc>4.809737</vAcc></extensions></trkpt>
      <trkpt lon="-82.145895" lat="33.556735"><ele>82.352470</ele><time>2022-02-10T15:22:41Z</time><extensions><speed>0.043325</speed><course>324.166016</course><hAcc>4.398449</hAcc><vAcc>3.887666</vAcc></extensions></trkpt>
      <trkpt lon="-82.145896" lat="33.556736"><ele>82.295349</ele><time>2022-02-10T15:22:43Z</time><extensions><speed>0.119310</speed><course>313.858612</course><hAcc>3.875659</hAcc><vAcc>3.554423</vAcc></extensions></trkpt>
      <trkpt lon="-82.145898" lat="33.556737"><ele>82.402626</ele><time>2022-02-10T15:22:45Z</time><extensions><speed>0.134329</speed><course>307.649780</course><hAcc>3.221423</hAcc><vAcc>3.289375</vAcc></extensions></trkpt>
      <trkpt lon="-82.145899" lat="33.556738"><ele>82.500816</ele><time>2022-02-10T15:22:47Z</time><extensions><speed>0.019159</speed><course>324.640808</course><hAcc>3.032428</hAcc><vAcc>3.074111</vAcc></extensions></trkpt>
      <trkpt lon="-82.145899" lat="33.556739"><ele>82.565750</ele><time>2022-02-10T15:22:49Z</time><extensions><speed>0.016672</speed><course>71.103569</course><hAcc>3.003535</hAcc><vAcc>2.894211</vAcc></extensions></trkpt>
      <trkpt lon="-82.145898" lat="33.556739"><ele>82.606277</ele><time>2022-02-10T15:22:51Z</time><extensions><speed>0.048013</speed><course>80.320259</course><hAcc>2.978380</hAcc><vAcc>2.739036</vAcc></extensions></trkpt>
      <trkpt lon="-82.145896" lat="33.556739"><ele>82.626595</ele><time>2022-02-10T15:22:53Z</time><extensions><speed>0.081959</speed><course>82.155441</course><hAcc>3.013836</hAcc><vAcc>2.601352</vAcc></extensions></trkpt>
      <trkpt lon="-82.145894" lat="33.556740"><ele>82.638481</ele><time>2022-02-10T15:22:55Z</time><extensions><speed>0.094180</speed><course>82.906471</course><hAcc>3.103444</hAcc><vAcc>2.476416</vAcc></extensions></trkpt>
      <trkpt lon="-82.145891" lat="33.556740"><ele>82.635643</ele><time>2022-02-10T15:22:57Z</time><extensions><speed>0.190981</speed><course>81.554947</course><hAcc>3.055458</hAcc><vAcc>2.359892</vAcc></extensions></trkpt>
      <trkpt lon="-82.145888" lat="33.556741"><ele>82.616974</ele><time>2022-02-10T15:22:59Z</time><extensions><speed>0.101631</speed><course>67.846031</course><hAcc>3.236053</hAcc><vAcc>2.245828</vAcc></extensions></trkpt>
      <trkpt lon="-82.145887" lat="33.556742"><ele>82.574547</ele><time>2022-02-10T15:23:01Z</time><extensions><speed>0.094923</speed><course>27.882318</course><hAcc>3.513184</hAcc><vAcc>2.128999</vAcc></extensions></trkpt>
      <trkpt lon="-82.145885" lat="33.556748"><ele>82.505165</ele><time>2022-02-10T15:23:03Z</time><extensions><speed>0.585378</speed><course>9.130127</course><hAcc>3.959528</hAcc><vAcc>2.007380</vAcc></extensions></trkpt>
      <trkpt lon="-82.145884" lat="33.556768"><ele>82.474060</ele><time>2022-02-10T15:23:05Z</time><extensions><speed>1.593457</speed><course>358.931946</course><hAcc>4.926059</hAcc><vAcc>1.917179</vAcc></extensions></trkpt>
      <trkpt lon="-82.145885" lat="33.556783"><ele>82.453163</ele><time>2022-02-10T15:23:06Z</time><extensions><speed>1.767782</speed><course>357.014191</course><hAcc>5.407643</hAcc><vAcc>1.882744</vAcc></extensions></trkpt>
      <trkpt lon="-82.145886" lat="33.556799"><ele>82.429787</ele><time>2022-02-10T15:23:07Z</time><extensions><speed>1.941318</speed><course>356.596924</course><hAcc>5.867822</hAcc><vAcc>1.865561</vAcc></extensions></trkpt>
      <trkpt lon="-82.145887" lat="33.556818"><ele>82.404121</ele><time>2022-02-10T15:23:08Z</time><extensions><speed>2.097876</speed><course>357.816284</course><hAcc>6.325987</hAcc><vAcc>1.867437</vAcc></extensions></trkpt>
      <trkpt lon="-82.145888" lat="33.556837"><ele>82.376541</ele><time>2022-02-10T15:23:09Z</time><extensions><speed>2.170355</speed><course>0.695215</course><hAcc>6.811778</hAcc><vAcc>1.890254</vAcc></extensions></trkpt>
      <trkpt lon="-82.145886" lat="33.556857"><ele>82.347527</ele><time>2022-02-10T15:23:10Z</time><extensions><speed>2.203747</speed><course>5.780348</course><hAcc>7.355392</hAcc><vAcc>1.935787</vAcc></extensions></trkpt>
      <trkpt lon="-82.145883" lat="33.556876"><ele>82.317543</ele><time>2022-02-10T15:23:11Z</time><extensions><speed>2.213364</speed><course>11.840347</course><hAcc>7.985976</hAcc><vAcc>2.005540</vAcc></extensions></trkpt>
      <trkpt lon="-82.145877" lat="33.556896"><ele>82.287041</ele><time>2022-02-10T15:23:12Z</time><extensions><speed>2.223473</speed><course>16.347691</course><hAcc>8.736969</hAcc><vAcc>2.100644</vAcc></extensions></trkpt>
      <trkpt lon="-82.145870" lat="33.556915"><ele>82.256371</ele><time>2022-02-10T15:23:13Z</time><extensions><speed>2.259902</speed><course>16.877577</course><hAcc>9.649185</hAcc><vAcc>2.221831</vAcc></extensions></trkpt>
      <trkpt lon="-82.145863" lat="33.556934"><ele>82.225746</ele><time>2022-02-10T15:23:14Z</time><extensions><speed>2.272978</speed><course>16.365097</course><hAcc>10.779815</hAcc><vAcc>2.369460</vAcc></extensions></trkpt>
      <trkpt lon="-82.145908" lat="33.556924"><ele>127.022797</ele><time>2022-02-10T15:24:26Z</time><extensions><speed>0.105464</speed><course>7.520650</course><hAcc>13.628831</hAcc><vAcc>2.493444</vAcc></extensions></trkpt>
      <trkpt lon="-82.145910" lat="33.556929"><ele>124.905045</ele><time>2022-02-10T15:24:27Z</time><extensions><speed>0.193735</speed><course>6.708395</course><hAcc>12.787692</hAcc><vAcc>2.273916</vAcc></extensions></trkpt>
      <trkpt lon="-82.145912" lat="33.556934"><ele>122.637505</ele><time>2022-02-10T15:24:28Z</time><extensions><speed>0.290114</speed><course>5.445339</course><hAcc>12.122650</hAcc><vAcc>2.091076</vAcc></extensions></trkpt>
      <trkpt lon="-82.145912" lat="33.556942"><ele>120.277969</ele><time>2022-02-10T15:24:29Z</time><extensions><speed>0.413676</speed><course>4.700220</course><hAcc>11.632333</hAcc><vAcc>1.939958</vAcc></extensions></trkpt>
      <trkpt lon="-82.145912" lat="33.556951"><ele>117.858170</ele><time>2022-02-10T15:24:30Z</time><extensions><speed>0.561675</speed><course>5.303045</course><hAcc>11.276391</hAcc><vAcc>1.816209</vAcc></extensions></trkpt>
      <trkpt lon="-82.145911" lat="33.556962"><ele>115.395958</ele><time>2022-02-10T15:24:31Z</time><extensions><speed>0.738208</speed><course>6.401943</course><hAcc>11.025200</hAcc><vAcc>1.715805</vAcc></extensions></trkpt>
      <trkpt lon="-82.145910" lat="33.556974"><ele>112.908134</ele><time>2022-02-10T15:24:32Z</time><extensions><speed>0.920870</speed><course>7.274940</course><hAcc>10.858658</hAcc><vAcc>1.634997</vAcc></extensions></trkpt>
      <trkpt lon="-82.145908" lat="33.556986"><ele>110.409599</ele><time>2022-02-10T15:24:33Z</time><extensions><speed>1.100952</speed><course>8.446114</course><hAcc>10.763802</hAcc><vAcc>1.570336</vAcc></extensions></trkpt>
      <trkpt lon="-82.145905" lat="33.557001"><ele>107.921074</ele><time>2022-02-10T15:24:34Z</time><extensions><speed>1.261263</speed><course>9.787109</course><hAcc>10.690117</hAcc><vAcc>1.518668</vAcc></extensions></trkpt>
      <trkpt lon="-82.145901" lat="33.557015"><ele>105.461159</ele><time>2022-02-10T15:24:35Z</time><extensions><speed>1.393133</speed><course>11.682319</course><hAcc>10.687043</hAcc><vAcc>1.477203</vAcc></extensions></trkpt>
      <trkpt lon="-82.145897" lat="33.557030"><ele>103.055016</ele><time>2022-02-10T15:24:36Z</time><extensions><speed>1.507336</speed><course>13.961228</course><hAcc>10.496172</hAcc><vAcc>1.443730</vAcc></extensions></trkpt>
      <trkpt lon="-82.145891" lat="33.557045"><ele>100.728996</ele><time>2022-02-10T15:24:37Z</time><extensions><speed>1.580385</speed><course>15.900403</course><hAcc>10.308475</hAcc><vAcc>1.416585</vAcc></extensions></trkpt>
      <trkpt lon="-82.145887" lat="33.557059"><ele>98.503670</ele><time>2022-02-10T15:24:38Z</time><extensions><speed>1.602614</speed><course>15.943720</course><hAcc>10.108061</hAcc><vAcc>1.394581</vAcc></extensions></trkpt>
      <trkpt lon="-82.145885" lat="33.557072"><ele>96.392174</ele><time>2022-02-10T15:24:39Z</time><extensions><speed>1.587191</speed><course>14.407702</course><hAcc>9.862198</hAcc><vAcc>1.376781</vAcc></extensions></trkpt>
      <trkpt lon="-82.145885" lat="33.557082"><ele>94.405090</ele><time>2022-02-10T15:24:40Z</time><extensions><speed>1.490275</speed><course>12.010408</course><hAcc>9.524329</hAcc><vAcc>1.362361</vAcc></extensions></trkpt>
      <trkpt lon="-82.145886" lat="33.557089"><ele>92.544487</ele><time>2022-02-10T15:24:41Z</time><extensions><speed>1.352709</speed><course>9.500597</course><hAcc>9.192573</hAcc><vAcc>1.350385</vAcc></extensions></trkpt>
      <trkpt lon="-82.145886" lat="33.557095"><ele>90.813232</ele><time>2022-02-10T15:24:42Z</time><extensions><speed>1.194820</speed><course>5.802197</course><hAcc>8.935075</hAcc><vAcc>1.340306</vAcc></extensions></trkpt>
      <trkpt lon="-82.145887" lat="33.557100"><ele>89.331406</ele><time>2022-02-10T15:24:43Z</time><extensions><speed>1.055869</speed><course>1.028315</course><hAcc>8.706297</hAcc><vAcc>1.323687</vAcc></extensions></trkpt>
      <trkpt lon="-82.145888" lat="33.557105"><ele>87.978577</ele><time>2022-02-10T15:24:44Z</time><extensions><speed>0.941287</speed><course>355.449524</course><hAcc>8.477592</hAcc><vAcc>1.304956</vAcc></extensions></trkpt>
      <trkpt lon="-82.145890" lat="33.557110"><ele>86.753548</ele><time>2022-02-10T15:24:45Z</time><extensions><speed>0.875108</speed><course>349.380127</course><hAcc>8.193713</hAcc><vAcc>1.284765</vAcc></extensions></trkpt>
      <trkpt lon="-82.145893" lat="33.557115"><ele>85.645752</ele><time>2022-02-10T15:24:46Z</time><extensions><speed>0.832280</speed><course>343.455322</course><hAcc>7.834415</hAcc><vAcc>1.263525</vAcc></extensions></trkpt>
      <trkpt lon="-82.145897" lat="33.557121"><ele>84.653084</ele><time>2022-02-10T15:24:47Z</time><extensions><speed>0.813450</speed><course>339.411530</course><hAcc>7.520092</hAcc><vAcc>1.241425</vAcc></extensions></trkpt>
      <trkpt lon="-82.145900" lat="33.557126"><ele>83.768814</ele><time>2022-02-10T15:24:48Z</time><extensions><speed>0.813546</speed><course>338.055817</course><hAcc>7.257506</hAcc><vAcc>1.218543</vAcc></extensions></trkpt>
      <trkpt lon="-82.145904" lat="33.557131"><ele>82.986191</ele><time>2022-02-10T15:24:49Z</time><extensions><speed>0.828183</speed><course>339.276733</course><hAcc>7.034536</hAcc><vAcc>1.194917</vAcc></extensions></trkpt>
      <trkpt lon="-82.145907" lat="33.557137"><ele>82.298576</ele><time>2022-02-10T15:24:50Z</time><extensions><speed>0.775904</speed><course>338.779297</course><hAcc>6.810292</hAcc><vAcc>1.170551</vAcc></extensions></trkpt>
      <trkpt lon="-82.145910" lat="33.557142"><ele>81.699364</ele><time>2022-02-10T15:24:51Z</time><extensions><speed>0.763831</speed><course>341.372162</course><hAcc>6.590278</hAcc><vAcc>1.145468</vAcc></extensions></trkpt>
      <trkpt lon="-82.145913" lat="33.557146"><ele>81.182190</ele><time>2022-02-10T15:24:52Z</time><extensions><speed>0.598910</speed><course>335.175720</course><hAcc>6.352551</hAcc><vAcc>1.119726</vAcc></extensions></trkpt>
      <trkpt lon="-82.145916" lat="33.557149"><ele>80.740463</ele><time>2022-02-10T15:24:53Z</time><extensions><speed>0.473174</speed><course>328.041412</course><hAcc>6.135999</hAcc><vAcc>1.093472</vAcc></extensions></trkpt>
      <trkpt lon="-82.145919" lat="33.557151"><ele>80.367676</ele><time>2022-02-10T15:24:54Z</time><extensions><speed>0.368041</speed><course>321.289459</course><hAcc>5.984973</hAcc><vAcc>1.066952</vAcc></extensions></trkpt>
      <trkpt lon="-82.145921" lat="33.557153"><ele>80.057655</ele><time>2022-02-10T15:24:55Z</time><extensions><speed>0.281914</speed><course>316.772369</course><hAcc>5.905603</hAcc><vAcc>1.040458</vAcc></extensions></trkpt>
      <trkpt lon="-82.145923" lat="33.557153"><ele>79.804230</ele><time>2022-02-10T15:24:56Z</time><extensions><speed>0.212817</speed><course>318.333618</course><hAcc>5.870756</hAcc><vAcc>1.014289</vAcc></extensions></trkpt>
      <trkpt lon="-82.145925" lat="33.557153"><ele>79.601143</ele><time>2022-02-10T15:24:57Z</time><extensions><speed>0.082395</speed><course>280.890045</course><hAcc>5.826040</hAcc><vAcc>0.988770</vAcc></extensions></trkpt>
      <trkpt lon="-82.145925" lat="33.557153"><ele>79.441589</ele><time>2022-02-10T15:24:58Z</time><extensions><speed>0.065565</speed><course>224.289520</course><hAcc>5.765635</hAcc><vAcc>0.964389</vAcc></extensions></trkpt>
      <trkpt lon="-82.145926" lat="33.557151"><ele>79.319397</ele><time>2022-02-10T15:24:59Z</time><extensions><speed>0.073575</speed><course>201.600616</course><hAcc>5.696192</hAcc><vAcc>0.941677</vAcc></extensions></trkpt>
      <trkpt lon="-82.145926" lat="33.557150"><ele>79.229454</ele><time>2022-02-10T15:25:00Z</time><extensions><speed>0.075789</speed><course>193.654388</course><hAcc>5.624076</hAcc><vAcc>0.921086</vAcc></extensions></trkpt>
      <trkpt lon="-82.145926" lat="33.557150"><ele>79.156052</ele><time>2022-02-10T15:25:01Z</time><extensions><speed>0.072692</speed><course>190.459930</course><hAcc>5.638774</hAcc><vAcc>0.908750</vAcc></extensions></trkpt>
      <trkpt lon="-82.145927" lat="33.557149"><ele>79.104263</ele><time>2022-02-10T15:25:02Z</time><extensions><speed>0.070318</speed><course>188.989258</course><hAcc>5.657947</hAcc><vAcc>0.902407</vAcc></extensions></trkpt>
      <trkpt lon="-82.145927" lat="33.557148"><ele>79.069672</ele><time>2022-02-10T15:25:03Z</time><extensions><speed>0.072167</speed><course>188.309921</course><hAcc>5.684869</hAcc><vAcc>0.904571</vAcc></extensions></trkpt>
      <trkpt lon="-82.145927" lat="33.557148"><ele>79.048332</ele><time>2022-02-10T15:25:04Z</time><extensions><speed>0.080729</speed><course>188.023788</course><hAcc>5.745729</hAcc><vAcc>0.918391</vAcc></extensions></trkpt>
      <trkpt lon="-82.145927" lat="33.557147"><ele>79.036865</ele><time>2022-02-10T15:25:05Z</time><extensions><speed>0.062628</speed><course>187.886215</course><hAcc>5.876061</hAcc><vAcc>0.947461</vAcc></extensions></trkpt>
      <trkpt lon="-82.145927" lat="33.557146"><ele>79.032310</ele><time>2022-02-10T15:25:06Z</time><extensions><speed>0.053086</speed><course>187.797256</course><hAcc>6.028267</hAcc><vAcc>0.995548</vAcc></extensions></trkpt>
      <trkpt lon="-82.145927" lat="33.557146"><ele>79.032280</ele><time>2022-02-10T15:25:07Z</time><extensions><speed>0.044528</speed><course>187.745651</course><hAcc>6.211905</hAcc><vAcc>1.066061</vAcc></extensions></trkpt>
      <trkpt lon="-82.145927" lat="33.557146"><ele>79.034904</ele><time>2022-02-10T15:25:08Z</time><extensions><speed>0.036340</speed><course>187.716629</course><hAcc>6.444180</hAcc><vAcc>1.161604</vAcc></extensions></trkpt>
      <trkpt lon="-82.145927" lat="33.557145"><ele>79.038841</ele><time>2022-02-10T15:25:09Z</time><extensions><speed>0.029678</speed><course>187.702118</course><hAcc>6.753476</hAcc><vAcc>1.283708</vAcc></extensions></trkpt>
      <trkpt lon="-82.145927" lat="33.557145"><ele>79.043243</ele><time>2022-02-10T15:25:10Z</time><extensions><speed>0.025694</speed><course>187.697769</course><hAcc>7.213076</hAcc><vAcc>1.432827</vAcc></extensions></trkpt>
    </trkseg>
  </trk>
</gpx>