<?xml version="1.0" encoding="UTF-8"?>
<gpx version="1.1" creator="Apple Health Export" xmlns="http://www.topografix.com/GPX/1/1" xmlns:xsi="http://www.w3.org/2001/XMLSchema-instance" xsi:schemaLocation="http://www.topografix.com/GPX/1/1 http://www.topografix.com/GPX/1/1/gpx.xsd">
  <metadata>
    <time>2026-03-14T12:16:52Z</time>
  </metadata>
  <trk>
    <name>Route 2025-03-22 11:15am</name>
    <trkseg>
      <trkpt lon="-82.146480" lat="33.556503"><ele>83.953851</ele><time>2025-03-22T15:13:14Z</time><extensions><speed>1.084531</speed><course>56.135692</course><hAcc>1.770443</hAcc><vAcc>1.714637</vAcc></extensions></trkpt>
      <trkpt lon="-82.146471" lat="33.556509"><ele>84.023829</ele><time>2025-03-22T15:13:15Z</time><extensions><speed>1.021786</speed><course>50.584558</course><hAcc>1.508420</hAcc><vAcc>1.524104</vAcc></extensions></trkpt>
      <trkpt lon="-82.146463" lat="33.556514"><ele>84.109910</ele><time>2025-03-22T15:13:16Z</time><extensions><speed>0.868919</speed><course>47.350591</course><hAcc>1.418060</hAcc><vAcc>1.372565</vAcc></extensions></trkpt>
      <trkpt lon="-82.146455" lat="33.556520"><ele>84.207752</ele><time>2025-03-22T15:13:17Z</time><extensions><speed>1.123698</speed><course>57.539466</course><hAcc>1.336699</hAcc><vAcc>1.254848</vAcc></extensions></trkpt>
      <trkpt lon="-82.146443" lat="33.556525"><ele>84.308687</ele><time>2025-03-22T15:13:18Z</time><extensions><speed>1.338782</speed><course>60.644244</course><hAcc>1.286256</hAcc><vAcc>1.165956</vAcc></extensions></trkpt>
      <trkpt lon="-82.146430" lat="33.556531"><ele>84.398953</ele><time>2025-03-22T15:13:19Z</time><extensions><speed>1.416812</speed><course>60.958433</course><hAcc>1.271392</hAcc><vAcc>1.100073</vAcc></extensions></trkpt>
      <trkpt lon="-82.146417" lat="33.556538"><ele>84.473413</ele><time>2025-03-22T15:13:20Z</time><extensions><speed>1.435341</speed><course>56.054567</course><hAcc>1.279917</hAcc><vAcc>1.052473</vAcc></extensions></trkpt>
      <trkpt lon="-82.146405" lat="33.556545"><ele>84.550111</ele><time>2025-03-22T15:13:21Z</time><extensions><speed>1.297480</speed><course>50.722578</course><hAcc>1.311288</hAcc><vAcc>1.019126</vAcc></extensions></trkpt>
      <trkpt lon="-82.146396" lat="33.556552"><ele>84.618179</ele><time>2025-03-22T15:13:22Z</time><extensions><speed>0.977474</speed><course>56.021133</course><hAcc>1.282361</hAcc><vAcc>0.997319</vAcc></extensions></trkpt>
      <trkpt lon="-82.146387" lat="33.556556"><ele>84.663186</ele><time>2025-03-22T15:13:23Z</time><extensions><speed>0.847507</speed><course>65.447384</course><hAcc>1.260441</hAcc><vAcc>0.982302</vAcc></extensions></trkpt>
      <trkpt lon="-82.146378" lat="33.556559"><ele>84.732558</ele><time>2025-03-22T15:13:24Z</time><extensions><speed>0.965778</speed><course>66.513866</course><hAcc>1.261552</hAcc><vAcc>0.972675</vAcc></extensions></trkpt>
      <trkpt lon="-82.146368" lat="33.556563"><ele>84.802175</ele><time>2025-03-22T15:13:25Z</time><extensions><speed>1.158140</speed><course>63.327006</course><hAcc>1.275662</hAcc><vAcc>0.965877</vAcc></extensions></trkpt>
      <trkpt lon="-82.146356" lat="33.556569"><ele>84.848841</ele><time>2025-03-22T15:13:26Z</time><extensions><speed>1.392924</speed><course>59.721261</course><hAcc>1.293686</hAcc><vAcc>0.961278</vAcc></extensions></trkpt>
      <trkpt lon="-82.146343" lat="33.556575"><ele>84.884718</ele><time>2025-03-22T15:13:27Z</time><extensions><speed>1.329553</speed><course>58.931335</course><hAcc>1.317818</hAcc><vAcc>0.957950</vAcc></extensions></trkpt>
      <trkpt lon="-82.146332" lat="33.556580"><ele>84.907117</ele><time>2025-03-22T15:13:28Z</time><extensions><speed>0.961442</speed><course>65.904923</course><hAcc>1.265677</hAcc><vAcc>0.954736</vAcc></extensions></trkpt>
      <trkpt lon="-82.146323" lat="33.556583"><ele>84.890801</ele><time>2025-03-22T15:13:29Z</time><extensions><speed>0.840576</speed><course>64.829458</course><hAcc>1.255358</hAcc><vAcc>0.951391</vAcc></extensions></trkpt>
      <trkpt lon="-82.146315" lat="33.556588"><ele>84.849416</ele><time>2025-03-22T15:13:30Z</time><extensions><speed>1.074833</speed><course>51.811782</course><hAcc>1.272968</hAcc><vAcc>0.947182</vAcc></extensions></trkpt>
      <trkpt lon="-82.146304" lat="33.556595"><ele>84.798210</ele><time>2025-03-22T15:13:31Z</time><extensions><speed>1.510865</speed><course>48.447102</course><hAcc>1.280447</hAcc><vAcc>0.944523</vAcc></extensions></trkpt>
      <trkpt lon="-82.146293" lat="33.556604"><ele>84.740724</ele><time>2025-03-22T15:13:32Z</time><extensions><speed>1.364833</speed><course>44.515799</course><hAcc>1.317930</hAcc><vAcc>0.940159</vAcc></extensions></trkpt>
      <trkpt lon="-82.146283" lat="33.556612"><ele>84.691652</ele><time>2025-03-22T15:13:33Z</time><extensions><speed>1.113513</speed><course>48.582523</course><hAcc>1.280089</hAcc><vAcc>0.936053</vAcc></extensions></trkpt>
      <trkpt lon="-82.146274" lat="33.556618"><ele>84.635896</ele><time>2025-03-22T15:13:34Z</time><extensions><speed>1.025142</speed><course>49.693487</course><hAcc>1.263607</hAcc><vAcc>0.931764</vAcc></extensions></trkpt>
      <trkpt lon="-82.146265" lat="33.556625"><ele>84.579490</ele><time>2025-03-22T15:13:35Z</time><extensions><speed>1.145154</speed><course>49.921754</course><hAcc>1.286626</hAcc><vAcc>0.927203</vAcc></extensions></trkpt>
      <trkpt lon="-82.146255" lat="33.556632"><ele>84.515699</ele><time>2025-03-22T15:13:36Z</time><extensions><speed>1.303024</speed><course>49.010100</course><hAcc>1.316882</hAcc><vAcc>0.922735</vAcc></extensions></trkpt>
      <trkpt lon="-82.146244" lat="33.556640"><ele>84.423897</ele><time>2025-03-22T15:13:37Z</time><extensions><speed>1.457052</speed><course>47.608606</course><hAcc>1.325757</hAcc><vAcc>0.917468</vAcc></extensions></trkpt>
      <trkpt lon="-82.146233" lat="33.556650"><ele>84.345658</ele><time>2025-03-22T15:13:38Z</time><extensions><speed>1.592647</speed><course>42.136969</course><hAcc>1.323347</hAcc><vAcc>0.912516</vAcc></extensions></trkpt>
      <trkpt lon="-82.146221" lat="33.556661"><ele>84.282345</ele><time>2025-03-22T15:13:39Z</time><extensions><speed>1.639207</speed><course>39.170361</course><hAcc>1.314579</hAcc><vAcc>0.908464</vAcc></extensions></trkpt>
      <trkpt lon="-82.146210" lat="33.556672"><ele>84.216829</ele><time>2025-03-22T15:13:40Z</time><extensions><speed>1.593691</speed><course>38.710348</course><hAcc>1.317917</hAcc><vAcc>0.905163</vAcc></extensions></trkpt>
      <trkpt lon="-82.146200" lat="33.556683"><ele>84.149440</ele><time>2025-03-22T15:13:41Z</time><extensions><speed>1.498743</speed><course>40.218099</course><hAcc>1.333066</hAcc><vAcc>0.901473</vAcc></extensions></trkpt>
      <trkpt lon="-82.146189" lat="33.556693"><ele>84.082126</ele><time>2025-03-22T15:13:42Z</time><extensions><speed>1.400451</speed><course>45.076539</course><hAcc>1.336676</hAcc><vAcc>0.898634</vAcc></extensions></trkpt>
      <trkpt lon="-82.146178" lat="33.556701"><ele>84.024061</ele><time>2025-03-22T15:13:43Z</time><extensions><speed>1.403188</speed><course>47.311464</course><hAcc>1.346722</hAcc><vAcc>0.895976</vAcc></extensions></trkpt>
      <trkpt lon="-82.146167" lat="33.556710"><ele>83.950996</ele><time>2025-03-22T15:13:44Z</time><extensions><speed>1.429581</speed><course>47.327429</course><hAcc>1.353350</hAcc><vAcc>0.894202</vAcc></extensions></trkpt>
      <trkpt lon="-82.146155" lat="33.556719"><ele>83.870506</ele><time>2025-03-22T15:13:45Z</time><extensions><speed>1.496886</speed><course>48.248636</course><hAcc>1.360297</hAcc><vAcc>0.894014</vAcc></extensions></trkpt>
      <trkpt lon="-82.146143" lat="33.556728"><ele>83.785658</ele><time>2025-03-22T15:13:46Z</time><extensions><speed>1.508745</speed><course>48.718050</course><hAcc>1.361732</hAcc><vAcc>0.893989</vAcc></extensions></trkpt>
      <trkpt lon="-82.146131" lat="33.556737"><ele>83.699144</ele><time>2025-03-22T15:13:47Z</time><extensions><speed>1.427301</speed><course>49.993611</course><hAcc>1.361986</hAcc><vAcc>0.895127</vAcc></extensions></trkpt>
      <trkpt lon="-82.146120" lat="33.556745"><ele>83.606688</ele><time>2025-03-22T15:13:49Z</time><extensions><speed>1.318870</speed><course>50.552103</course><hAcc>1.377060</hAcc><vAcc>0.897513</vAcc></extensions></trkpt>
      <trkpt lon="-82.146109" lat="33.556752"><ele>83.509591</ele><time>2025-03-22T15:13:50Z</time><extensions><speed>1.182175</speed><course>57.667420</course><hAcc>1.393972</hAcc><vAcc>0.901188</vAcc></extensions></trkpt>
      <trkpt lon="-82.146098" lat="33.556758"><ele>83.406263</ele><time>2025-03-22T15:13:51Z</time><extensions><speed>1.285809</speed><course>64.267621</course><hAcc>1.388738</hAcc><vAcc>0.906234</vAcc></extensions></trkpt>
      <trkpt lon="-82.146085" lat="33.556762"><ele>83.306034</ele><time>2025-03-22T15:13:52Z</time><extensions><speed>1.177906</speed><course>68.533054</course><hAcc>1.396067</hAcc><vAcc>0.912579</vAcc></extensions></trkpt>
      <trkpt lon="-82.146074" lat="33.556767"><ele>83.212748</ele><time>2025-03-22T15:13:53Z</time><extensions><speed>1.026715</speed><course>69.477063</course><hAcc>1.410768</hAcc><vAcc>0.920091</vAcc></extensions></trkpt>
      <trkpt lon="-82.146064" lat="33.556771"><ele>83.129652</ele><time>2025-03-22T15:13:54Z</time><extensions><speed>1.024014</speed><course>58.520060</course><hAcc>1.447295</hAcc><vAcc>0.928528</vAcc></extensions></trkpt>
      <trkpt lon="-82.146055" lat="33.556778"><ele>83.055035</ele><time>2025-03-22T15:13:55Z</time><extensions><speed>1.249620</speed><course>48.990304</course><hAcc>1.560652</hAcc><vAcc>0.937468</vAcc></extensions></trkpt>
      <trkpt lon="-82.146046" lat="33.556773"><ele>83.065490</ele><time>2025-03-22T15:13:55Z</time><extensions><speed>1.430033</speed><course>51.167253</course><hAcc>1.564232</hAcc><vAcc>0.934345</vAcc></extensions></trkpt>
      <trkpt lon="-82.146041" lat="33.556769"><ele>83.076713</ele><time>2025-03-22T15:13:56Z</time><extensions><speed>1.406478</speed><course>52.399822</course><hAcc>1.524431</hAcc><vAcc>0.925753</vAcc></extensions></trkpt>
      <trkpt lon="-82.146029" lat="33.556772"><ele>83.055133</ele><time>2025-03-22T15:13:57Z</time><extensions><speed>1.296362</speed><course>58.089367</course><hAcc>1.483125</hAcc><vAcc>0.935627</vAcc></extensions></trkpt>
      <trkpt lon="-82.146017" lat="33.556776"><ele>83.060275</ele><time>2025-03-22T15:13:58Z</time><extensions><speed>1.329194</speed><course>55.279580</course><hAcc>1.519367</hAcc><vAcc>0.941082</vAcc></extensions></trkpt>
      <trkpt lon="-82.146005" lat="33.556781"><ele>83.083839</ele><time>2025-03-22T15:13:59Z</time><extensions><speed>1.193616</speed><course>70.139221</course><hAcc>1.483518</hAcc><vAcc>0.940859</vAcc></extensions></trkpt>
      <trkpt lon="-82.145993" lat="33.556785"><ele>83.145924</ele><time>2025-03-22T15:14:00Z</time><extensions><speed>1.308986</speed><course>65.004334</course><hAcc>1.522414</hAcc><vAcc>0.939337</vAcc></extensions></trkpt>
      <trkpt lon="-82.145980" lat="33.556788"><ele>83.160998</ele><time>2025-03-22T15:14:01Z</time><extensions><speed>1.174739</speed><course>81.334989</course><hAcc>1.478048</hAcc><vAcc>0.933493</vAcc></extensions></trkpt>
      <trkpt lon="-82.145968" lat="33.556789"><ele>83.231854</ele><time>2025-03-22T15:14:02Z</time><extensions><speed>1.177366</speed><course>85.112971</course><hAcc>1.476303</hAcc><vAcc>0.929683</vAcc></extensions></trkpt>
      <trkpt lon="-82.145955" lat="33.556792"><ele>83.290861</ele><time>2025-03-22T15:14:03Z</time><extensions><speed>1.370973</speed><course>61.408910</course><hAcc>1.527260</hAcc><vAcc>0.926484</vAcc></extensions></trkpt>
      <trkpt lon="-82.145943" lat="33.556794"><ele>83.359943</ele><time>2025-03-22T15:14:04Z</time><extensions><speed>1.009413</speed><course>103.462014</course><hAcc>1.479862</hAcc><vAcc>0.923026</vAcc></extensions></trkpt>
      <trkpt lon="-82.145943" lat="33.556794"><ele>83.365854</ele><time>2025-03-22T15:14:04Z</time><extensions><speed>1.008756</speed><course>103.497616</course><hAcc>1.479381</hAcc><vAcc>0.914515</vAcc></extensions></trkpt>
      <trkpt lon="-82.145934" lat="33.556788"><ele>83.427946</ele><time>2025-03-22T15:14:05Z</time><extensions><speed>1.377177</speed><course>146.304807</course><hAcc>1.427990</hAcc><vAcc>0.908847</vAcc></extensions></trkpt>
      <trkpt lon="-82.145927" lat="33.556777"><ele>83.492644</ele><time>2025-03-22T15:14:06Z</time><extensions><speed>1.339204</speed><course>159.737216</course><hAcc>1.439522</hAcc><vAcc>0.900181</vAcc></extensions></trkpt>
      <trkpt lon="-82.145923" lat="33.556767"><ele>83.546964</ele><time>2025-03-22T15:14:07Z</time><extensions><speed>1.000536</speed><course>165.192729</course><hAcc>1.497353</hAcc><vAcc>0.891228</vAcc></extensions></trkpt>
      <trkpt lon="-82.145921" lat="33.556760"><ele>83.607091</ele><time>2025-03-22T15:14:08Z</time><extensions><speed>0.741310</speed><course>163.871670</course><hAcc>1.542281</hAcc><vAcc>0.882217</vAcc></extensions></trkpt>
      <trkpt lon="-82.145919" lat="33.556754"><ele>83.681265</ele><time>2025-03-22T15:14:09Z</time><extensions><speed>0.546347</speed><course>173.393499</course><hAcc>1.573709</hAcc><vAcc>0.873584</vAcc></extensions></trkpt>
      <trkpt lon="-82.145919" lat="33.556750"><ele>83.760035</ele><time>2025-03-22T15:14:10Z</time><extensions><speed>0.413537</speed><course>180.052076</course><hAcc>1.613631</hAcc><vAcc>0.865415</vAcc></extensions></trkpt>
      <trkpt lon="-82.145920" lat="33.556747"><ele>83.841089</ele><time>2025-03-22T15:14:11Z</time><extensions><speed>0.295137</speed><course>204.093047</course><hAcc>1.644520</hAcc><vAcc>0.857312</vAcc></extensions></trkpt>
      <trkpt lon="-82.145921" lat="33.556744"><ele>83.913219</ele><time>2025-03-22T15:14:12Z</time><extensions><speed>0.217842</speed><course>192.617630</course><hAcc>1.670096</hAcc><vAcc>0.850434</vAcc></extensions></trkpt>
      <trkpt lon="-82.145921" lat="33.556743"><ele>83.979003</ele><time>2025-03-22T15:14:13Z</time><extensions><speed>0.222046</speed><course>198.788781</course><hAcc>1.685146</hAcc><vAcc>0.844004</vAcc></extensions></trkpt>
      <trkpt lon="-82.145922" lat="33.556741"><ele>84.045867</ele><time>2025-03-22T15:14:14Z</time><extensions><speed>0.240702</speed><course>196.471530</course><hAcc>1.701929</hAcc><vAcc>0.837056</vAcc></extensions></trkpt>
      <trkpt lon="-82.145923" lat="33.556738"><ele>84.107025</ele><time>2025-03-22T15:14:15Z</time><extensions><speed>0.333263</speed><course>210.084990</course><hAcc>1.718798</hAcc><vAcc>0.829261</vAcc></extensions></trkpt>
      <trkpt lon="-82.145926" lat="33.556736"><ele>84.178714</ele><time>2025-03-22T15:14:16Z</time><extensions><speed>0.366306</speed><course>218.033602</course><hAcc>1.735275</hAcc><vAcc>0.821741</vAcc></extensions></trkpt>
      <trkpt lon="-82.145927" lat="33.556733"><ele>84.228402</ele><time>2025-03-22T15:14:17Z</time><extensions><speed>0.261215</speed><course>208.118115</course><hAcc>1.741962</hAcc><vAcc>0.814906</vAcc></extensions></trkpt>
      <trkpt lon="-82.145928" lat="33.556732"><ele>84.288117</ele><time>2025-03-22T15:14:18Z</time><extensions><speed>0.164311</speed><course>134.392399</course><hAcc>1.740651</hAcc><vAcc>0.809098</vAcc></extensions></trkpt>
      <trkpt lon="-82.145925" lat="33.556731"><ele>84.345327</ele><time>2025-03-22T15:14:19Z</time><extensions><speed>0.479413</speed><course>87.567010</course><hAcc>1.754936</hAcc><vAcc>0.804236</vAcc></extensions></trkpt>
      <trkpt lon="-82.145918" lat="33.556731"><ele>84.398987</ele><time>2025-03-22T15:14:20Z</time><extensions><speed>0.938564</speed><course>80.730676</course><hAcc>1.798923</hAcc><vAcc>0.800409</vAcc></extensions></trkpt>
      <trkpt lon="-82.145906" lat="33.556733"><ele>84.449977</ele><time>2025-03-22T15:14:21Z</time><extensions><speed>1.280830</speed><course>82.067365</course><hAcc>1.862353</hAcc><vAcc>0.797724</vAcc></extensions></trkpt>
      <trkpt lon="-82.145893" lat="33.556734"><ele>84.496756</ele><time>2025-03-22T15:14:22Z</time><extensions><speed>1.241134</speed><course>81.316554</course><hAcc>1.933289</hAcc><vAcc>0.796077</vAcc></extensions></trkpt>
      <trkpt lon="-82.145880" lat="33.556736"><ele>84.539333</ele><time>2025-03-22T15:14:23Z</time><extensions><speed>1.247752</speed><course>82.699792</course><hAcc>1.940380</hAcc><vAcc>0.794626</vAcc></extensions></trkpt>
      <trkpt lon="-82.145868" lat="33.556737"><ele>84.577808</ele><time>2025-03-22T15:14:24Z</time><extensions><speed>1.120152</speed><course>82.818897</course><hAcc>1.959385</hAcc><vAcc>0.793338</vAcc></extensions></trkpt>
      <trkpt lon="-82.145857" lat="33.556738"><ele>84.612632</ele><time>2025-03-22T15:14:25Z</time><extensions><speed>0.785812</speed><course>86.661608</course><hAcc>2.002345</hAcc><vAcc>0.793200</vAcc></extensions></trkpt>
      <trkpt lon="-82.145851" lat="33.556737"><ele>84.643530</ele><time>2025-03-22T15:14:26Z</time><extensions><speed>0.423959</speed><course>109.846421</course><hAcc>2.058788</hAcc><vAcc>0.794109</vAcc></extensions></trkpt>
      <trkpt lon="-82.145849" lat="33.556735"><ele>84.682103</ele><time>2025-03-22T15:14:27Z</time><extensions><speed>0.387128</speed><course>184.810093</course><hAcc>2.119105</hAcc><vAcc>0.797627</vAcc></extensions></trkpt>
      <trkpt lon="-82.145852" lat="33.556731"><ele>84.720980</ele><time>2025-03-22T15:14:28Z</time><extensions><speed>0.638069</speed><course>215.891747</course><hAcc>2.176173</hAcc><vAcc>0.803105</vAcc></extensions></trkpt>
      <trkpt lon="-82.145857" lat="33.556726"><ele>84.759567</ele><time>2025-03-22T15:14:29Z</time><extensions><speed>0.742127</speed><course>221.933813</course><hAcc>2.207132</hAcc><vAcc>0.810980</vAcc></extensions></trkpt>
      <trkpt lon="-82.145862" lat="33.556721"><ele>84.797777</ele><time>2025-03-22T15:14:30Z</time><extensions><speed>0.681758</speed><course>224.763811</course><hAcc>2.232233</hAcc><vAcc>0.821454</vAcc></extensions></trkpt>
      <trkpt lon="-82.145867" lat="33.556717"><ele>84.836429</ele><time>2025-03-22T15:14:31Z</time><extensions><speed>0.549552</speed><course>227.698373</course><hAcc>2.261811</hAcc><vAcc>0.833376</vAcc></extensions></trkpt>
      <trkpt lon="-82.145871" lat="33.556715"><ele>84.875236</ele><time>2025-03-22T15:14:32Z</time><extensions><speed>0.402359</speed><course>232.718820</course><hAcc>2.296809</hAcc><vAcc>0.846346</vAcc></extensions></trkpt>
      <trkpt lon="-82.145874" lat="33.556713"><ele>84.913985</ele><time>2025-03-22T15:14:33Z</time><extensions><speed>0.304379</speed><course>239.387101</course><hAcc>2.319207</hAcc><vAcc>0.860169</vAcc></extensions></trkpt>
      <trkpt lon="-82.145877" lat="33.556712"><ele>84.952189</ele><time>2025-03-22T15:14:34Z</time><extensions><speed>0.231189</speed><course>248.892819</course><hAcc>2.332359</hAcc><vAcc>0.877091</vAcc></extensions></trkpt>
      <trkpt lon="-82.145879" lat="33.556711"><ele>84.990214</ele><time>2025-03-22T15:14:35Z</time><extensions><speed>0.245732</speed><course>259.368876</course><hAcc>2.314579</hAcc><vAcc>0.895630</vAcc></extensions></trkpt>
      <trkpt lon="-82.145882" lat="33.556711"><ele>85.027817</ele><time>2025-03-22T15:14:36Z</time><extensions><speed>0.244579</speed><course>267.666045</course><hAcc>2.311235</hAcc><vAcc>0.915777</vAcc></extensions></trkpt>
      <trkpt lon="-82.145885" lat="33.556711"><ele>85.134616</ele><time>2025-03-22T15:14:37Z</time><extensions><speed>0.230432</speed><course>273.290531</course><hAcc>2.322203</hAcc><vAcc>0.934367</vAcc></extensions></trkpt>
      <trkpt lon="-82.145887" lat="33.556711"><ele>85.264528</ele><time>2025-03-22T15:14:38Z</time><extensions><speed>0.204345</speed><course>275.182191</course><hAcc>2.332783</hAcc><vAcc>0.948024</vAcc></extensions></trkpt>
      <trkpt lon="-82.145889" lat="33.556711"><ele>85.391228</ele><time>2025-03-22T15:14:39Z</time><extensions><speed>0.175111</speed><course>274.667648</course><hAcc>2.341322</hAcc><vAcc>0.961096</vAcc></extensions></trkpt>
      <trkpt lon="-82.145891" lat="33.556711"><ele>85.516008</ele><time>2025-03-22T15:14:40Z</time><extensions><speed>0.149331</speed><course>272.341496</course><hAcc>2.348915</hAcc><vAcc>0.974475</vAcc></extensions></trkpt>
      <trkpt lon="-82.145893" lat="33.556711"><ele>85.644030</ele><time>2025-03-22T15:14:41Z</time><extensions><speed>0.134566</speed><course>268.413710</course><hAcc>2.355592</hAcc><vAcc>0.986484</vAcc></extensions></trkpt>
      <trkpt lon="-82.145894" lat="33.556711"><ele>85.773468</ele><time>2025-03-22T15:14:42Z</time><extensions><speed>0.127137</speed><course>263.441822</course><hAcc>2.370202</hAcc><vAcc>0.997945</vAcc></extensions></trkpt>
      <trkpt lon="-82.145896" lat="33.556711"><ele>85.904681</ele><time>2025-03-22T15:14:43Z</time><extensions><speed>0.124610</speed><course>258.210114</course><hAcc>2.399498</hAcc><vAcc>1.008570</vAcc></extensions></trkpt>
      <trkpt lon="-82.145897" lat="33.556710"><ele>86.037560</ele><time>2025-03-22T15:14:44Z</time><extensions><speed>0.124531</speed><course>253.224367</course><hAcc>2.442488</hAcc><vAcc>1.017522</vAcc></extensions></trkpt>
      <trkpt lon="-82.145899" lat="33.556710"><ele>86.166256</ele><time>2025-03-22T15:14:45Z</time><extensions><speed>0.132090</speed><course>251.122667</course><hAcc>2.484428</hAcc><vAcc>1.025233</vAcc></extensions></trkpt>
      <trkpt lon="-82.145900" lat="33.556710"><ele>86.282698</ele><time>2025-03-22T15:14:46Z</time><extensions><speed>0.145976</speed><course>249.528019</course><hAcc>2.504286</hAcc><vAcc>1.029317</vAcc></extensions></trkpt>
      <trkpt lon="-82.145902" lat="33.556709"><ele>86.385876</ele><time>2025-03-22T15:14:47Z</time><extensions><speed>0.150346</speed><course>246.062082</course><hAcc>2.503531</hAcc><vAcc>1.030954</vAcc></extensions></trkpt>
      <trkpt lon="-82.145903" lat="33.556709"><ele>86.472405</ele><time>2025-03-22T15:14:48Z</time><extensions><speed>0.126538</speed><course>238.888086</course><hAcc>2.504459</hAcc><vAcc>1.032499</vAcc></extensions></trkpt>
      <trkpt lon="-82.145905" lat="33.556709"><ele>86.559461</ele><time>2025-03-22T15:14:49Z</time><extensions><speed>0.129828</speed><course>250.008537</course><hAcc>2.522171</hAcc><vAcc>1.038308</vAcc></extensions></trkpt>
      <trkpt lon="-82.145906" lat="33.556709"><ele>86.630499</ele><time>2025-03-22T15:14:50Z</time><extensions><speed>0.115617</speed><course>265.418144</course><hAcc>2.539936</hAcc><vAcc>1.043011</vAcc></extensions></trkpt>
      <trkpt lon="-82.145907" lat="33.556710"><ele>86.692048</ele><time>2025-03-22T15:14:51Z</time><extensions><speed>0.112635</speed><course>291.340848</course><hAcc>2.553228</hAcc><vAcc>1.049730</vAcc></extensions></trkpt>
      <trkpt lon="-82.145908" lat="33.556711"><ele>86.744763</ele><time>2025-03-22T15:14:52Z</time><extensions><speed>0.133031</speed><course>314.024641</course><hAcc>2.563022</hAcc><vAcc>1.055973</vAcc></extensions></trkpt>
      <trkpt lon="-82.145909" lat="33.556713"><ele>86.777557</ele><time>2025-03-22T15:14:53Z</time><extensions><speed>0.173373</speed><course>332.034236</course><hAcc>2.572841</hAcc><vAcc>1.062830</vAcc></extensions></trkpt>
      <trkpt lon="-82.145909" lat="33.556715"><ele>86.802603</ele><time>2025-03-22T15:14:54Z</time><extensions><speed>0.228435</speed><course>345.640193</course><hAcc>2.582319</hAcc><vAcc>1.073103</vAcc></extensions></trkpt>
      <trkpt lon="-82.145909" lat="33.556717"><ele>86.794373</ele><time>2025-03-22T15:14:55Z</time><extensions><speed>0.306150</speed><course>357.944450</course><hAcc>2.584480</hAcc><vAcc>1.076401</vAcc></extensions></trkpt>
      <trkpt lon="-82.145908" lat="33.556721"><ele>86.825888</ele><time>2025-03-22T15:14:56Z</time><extensions><speed>0.398253</speed><course>11.582277</course><hAcc>2.590203</hAcc><vAcc>1.076329</vAcc></extensions></trkpt>
      <trkpt lon="-82.145907" lat="33.556725"><ele>86.849409</ele><time>2025-03-22T15:14:57Z</time><extensions><speed>0.519313</speed><course>23.053788</course><hAcc>2.611859</hAcc><vAcc>1.078143</vAcc></extensions></trkpt>
      <trkpt lon="-82.145904" lat="33.556729"><ele>86.867939</ele><time>2025-03-22T15:14:58Z</time><extensions><speed>0.582000</speed><course>29.294907</course><hAcc>2.648287</hAcc><vAcc>1.079066</vAcc></extensions></trkpt>
      <trkpt lon="-82.145899" lat="33.556735"><ele>86.855370</ele><time>2025-03-22T15:14:59Z</time><extensions><speed>0.848653</speed><course>37.130279</course><hAcc>2.651210</hAcc><vAcc>1.080916</vAcc></extensions></trkpt>
      <trkpt lon="-82.145894" lat="33.556741"><ele>86.836362</ele><time>2025-03-22T15:14:59Z</time><extensions><speed>0.914733</speed><course>36.372674</course><hAcc>2.650700</hAcc><vAcc>1.084785</vAcc></extensions></trkpt>
      <trkpt lon="-82.145888" lat="33.556747"><ele>86.790538</ele><time>2025-03-22T15:15:00Z</time><extensions><speed>0.854772</speed><course>36.351255</course><hAcc>2.647494</hAcc><vAcc>1.083099</vAcc></extensions></trkpt>
      <trkpt lon="-82.145883" lat="33.556753"><ele>86.734374</ele><time>2025-03-22T15:15:01Z</time><extensions><speed>0.774471</speed><course>38.193366</course><hAcc>2.643132</hAcc><vAcc>1.079374</vAcc></extensions></trkpt>
      <trkpt lon="-82.145878" lat="33.556758"><ele>86.669623</ele><time>2025-03-22T15:15:02Z</time><extensions><speed>0.680061</speed><course>41.827367</course><hAcc>2.646631</hAcc><vAcc>1.073976</vAcc></extensions></trkpt>
      <trkpt lon="-82.145873" lat="33.556762"><ele>86.600965</ele><time>2025-03-22T15:15:04Z</time><extensions><speed>0.533788</speed><course>49.037993</course><hAcc>2.642855</hAcc><vAcc>1.068848</vAcc></extensions></trkpt>
      <trkpt lon="-82.145870" lat="33.556764"><ele>86.537415</ele><time>2025-03-22T15:15:04Z</time><extensions><speed>0.415434</speed><course>55.974030</course><hAcc>2.640933</hAcc><vAcc>1.061756</vAcc></extensions></trkpt>
      <trkpt lon="-82.145867" lat="33.556766"><ele>86.491592</ele><time>2025-03-22T15:15:05Z</time><extensions><speed>0.247614</speed><course>64.976942</course><hAcc>2.658845</hAcc><vAcc>1.058103</vAcc></extensions></trkpt>
      <trkpt lon="-82.145866" lat="33.556766"><ele>86.441483</ele><time>2025-03-22T15:15:06Z</time><extensions><speed>0.107539</speed><course>80.588839</course><hAcc>2.673603</hAcc><vAcc>1.061627</vAcc></extensions></trkpt>
      <trkpt lon="-82.145866" lat="33.556766"><ele>86.388816</ele><time>2025-03-22T15:15:07Z</time><extensions><speed>0.035018</speed><course>172.485016</course><hAcc>2.688613</hAcc><vAcc>1.067553</vAcc></extensions></trkpt>
      <trkpt lon="-82.145866" lat="33.556766"><ele>86.325907</ele><time>2025-03-22T15:15:08Z</time><extensions><speed>0.081788</speed><course>232.893307</course><hAcc>2.698625</hAcc><vAcc>1.074300</vAcc></extensions></trkpt>
      <trkpt lon="-82.145867" lat="33.556766"><ele>86.285822</ele><time>2025-03-22T15:15:09Z</time><extensions><speed>0.130260</speed><course>250.166358</course><hAcc>2.703531</hAcc><vAcc>1.078569</vAcc></extensions></trkpt>
      <trkpt lon="-82.145869" lat="33.556765"><ele>86.275288</ele><time>2025-03-22T15:15:10Z</time><extensions><speed>0.210416</speed><course>255.366839</course><hAcc>2.700932</hAcc><vAcc>1.077356</vAcc></extensions></trkpt>
      <trkpt lon="-82.145872" lat="33.556765"><ele>86.264261</ele><time>2025-03-22T15:15:11Z</time><extensions><speed>0.263299</speed><course>261.922340</course><hAcc>2.692439</hAcc><vAcc>1.062707</vAcc></extensions></trkpt>
      <trkpt lon="-82.145874" lat="33.556764"><ele>86.258524</ele><time>2025-03-22T15:15:12Z</time><extensions><speed>0.304638</speed><course>270.743923</course><hAcc>2.674109</hAcc><vAcc>1.050580</vAcc></extensions></trkpt>
      <trkpt lon="-82.145878" lat="33.556765"><ele>86.229972</ele><time>2025-03-22T15:15:13Z</time><extensions><speed>0.348917</speed><course>283.070448</course><hAcc>2.643850</hAcc><vAcc>1.038235</vAcc></extensions></trkpt>
      <trkpt lon="-82.145882" lat="33.556766"><ele>86.228847</ele><time>2025-03-22T15:15:14Z</time><extensions><speed>0.423740</speed><course>296.443266</course><hAcc>2.603067</hAcc><vAcc>1.026789</vAcc></extensions></trkpt>
      <trkpt lon="-82.145886" lat="33.556768"><ele>86.224626</ele><time>2025-03-22T15:15:15Z</time><extensions><speed>0.507788</speed><course>309.703207</course><hAcc>2.562858</hAcc><vAcc>1.014692</vAcc></extensions></trkpt>
      <trkpt lon="-82.145889" lat="33.556770"><ele>86.213057</ele><time>2025-03-22T15:15:16Z</time><extensions><speed>0.412499</speed><course>311.087504</course><hAcc>2.532953</hAcc><vAcc>1.000801</vAcc></extensions></trkpt>
      <trkpt lon="-82.145892" lat="33.556773"><ele>86.204247</ele><time>2025-03-22T15:15:17Z</time><extensions><speed>0.311854</speed><course>315.976159</course><hAcc>2.501838</hAcc><vAcc>0.984345</vAcc></extensions></trkpt>
      <trkpt lon="-82.145894" lat="33.556774"><ele>86.194278</ele><time>2025-03-22T15:15:18Z</time><extensions><speed>0.140002</speed><course>319.139480</course><hAcc>2.481709</hAcc><vAcc>0.965054</vAcc></extensions></trkpt>
      <trkpt lon="-82.145894" lat="33.556774"><ele>86.182660</ele><time>2025-03-22T15:15:19Z</time><extensions><speed>0.027113</speed><course>149.148579</course><hAcc>2.471986</hAcc><vAcc>0.943192</vAcc></extensions></trkpt>
      <trkpt lon="-82.145894" lat="33.556773"><ele>86.162981</ele><time>2025-03-22T15:15:20Z</time><extensions><speed>0.183050</speed><course>147.805826</course><hAcc>2.472909</hAcc><vAcc>0.919502</vAcc></extensions></trkpt>
      <trkpt lon="-82.145893" lat="33.556771"><ele>86.143929</ele><time>2025-03-22T15:15:21Z</time><extensions><speed>0.335254</speed><course>151.678074</course><hAcc>2.485179</hAcc><vAcc>0.895080</vAcc></extensions></trkpt>
      <trkpt lon="-82.145891" lat="33.556768"><ele>86.126202</ele><time>2025-03-22T15:15:22Z</time><extensions><speed>0.456718</speed><course>154.149252</course><hAcc>2.509647</hAcc><vAcc>0.872309</vAcc></extensions></trkpt>
      <trkpt lon="-82.145888" lat="33.556764"><ele>86.108461</ele><time>2025-03-22T15:15:23Z</time><extensions><speed>0.552614</speed><course>156.044449</course><hAcc>2.551886</hAcc><vAcc>0.855889</vAcc></extensions></trkpt>
      <trkpt lon="-82.145886" lat="33.556759"><ele>86.087766</ele><time>2025-03-22T15:15:24Z</time><extensions><speed>0.636032</speed><course>156.096262</course><hAcc>2.611895</hAcc><vAcc>0.845705</vAcc></extensions></trkpt>
      <trkpt lon="-82.145883" lat="33.556753"><ele>86.064036</ele><time>2025-03-22T15:15:25Z</time><extensions><speed>0.703515</speed><course>154.813435</course><hAcc>2.691597</hAcc><vAcc>0.844825</vAcc></extensions></trkpt>
      <trkpt lon="-82.145879" lat="33.556747"><ele>86.037476</ele><time>2025-03-22T15:15:26Z</time><extensions><speed>0.768482</speed><course>153.011815</course><hAcc>2.797298</hAcc><vAcc>0.856767</vAcc></extensions></trkpt>
      <trkpt lon="-82.145875" lat="33.556741"><ele>86.008581</ele><time>2025-03-22T15:15:27Z</time><extensions><speed>0.808321</speed><course>148.382690</course><hAcc>2.938915</hAcc><vAcc>0.885356</vAcc></extensions></trkpt>
      <trkpt lon="-82.145870" lat="33.556735"><ele>85.977984</ele><time>2025-03-22T15:15:28Z</time><extensions><speed>0.835879</speed><course>140.631501</course><hAcc>3.131094</hAcc><vAcc>0.934368</vAcc></extensions></trkpt>
      <trkpt lon="-82.145863" lat="33.556730"><ele>85.946364</ele><time>2025-03-22T15:15:29Z</time><extensions><speed>0.826504</speed><course>127.262491</course><hAcc>3.387448</hAcc><vAcc>1.007047</vAcc></extensions></trkpt>
      <trkpt lon="-82.145856" lat="33.556726"><ele>85.914373</ele><time>2025-03-22T15:15:30Z</time><extensions><speed>0.751206</speed><course>114.078515</course><hAcc>3.719852</hAcc><vAcc>1.105688</vAcc></extensions></trkpt>
      <trkpt lon="-82.145849" lat="33.556724"><ele>85.882479</ele><time>2025-03-22T15:15:31Z</time><extensions><speed>0.688438</speed><course>103.743653</course><hAcc>4.155657</hAcc><vAcc>1.231443</vAcc></extensions></trkpt>
      <trkpt lon="-82.145842" lat="33.556723"><ele>85.850823</ele><time>2025-03-22T15:15:32Z</time><extensions><speed>0.606488</speed><course>97.546294</course><hAcc>4.731712</hAcc><vAcc>1.384351</vAcc></extensions></trkpt>
    </trkseg>
  </trk>
</gpx>