<?xml version="1.0" encoding="UTF-8"?>
<gpx version="1.1" creator="Apple Health Export" xmlns="http://www.topografix.com/GPX/1/1" xmlns:xsi="http://www.w3.org/2001/XMLSchema-instance" xsi:schemaLocation="http://www.topografix.com/GPX/1/1 http://www.topografix.com/GPX/1/1/gpx.xsd">
  <metadata>
    <time>2026-03-14T12:15:35Z</time>
  </metadata>
  <trk>
    <name>Route 2021-03-14 11:12am</name>
    <trkseg>
      <trkpt lon="-82.146420" lat="33.556404"><ele>98.082443</ele><time>2021-03-14T15:07:12Z</time><extensions><speed>0.937289</speed><course>250.664062</course><hAcc>2.127423</hAcc><vAcc>2.030969</vAcc></extensions></trkpt>
      <trkpt lon="-82.146433" lat="33.556401"><ele>98.525711</ele><time>2021-03-14T15:07:13Z</time><extensions><speed>0.930863</speed><course>250.664062</course><hAcc>1.818945</hAcc><vAcc>1.766845</vAcc></extensions></trkpt>
      <trkpt lon="-82.146440" lat="33.556400"><ele>98.736107</ele><time>2021-03-14T15:07:14Z</time><extensions><speed>0.926622</speed><course>246.093750</course><hAcc>1.695785</hAcc><vAcc>1.656510</vAcc></extensions></trkpt>
      <trkpt lon="-82.146449" lat="33.556397"><ele>99.060471</ele><time>2021-03-14T15:07:15Z</time><extensions><speed>0.907215</speed><course>263.320312</course><hAcc>1.536107</hAcc><vAcc>1.506546</vAcc></extensions></trkpt>
      <trkpt lon="-82.146458" lat="33.556395"><ele>99.380829</ele><time>2021-03-14T15:07:16Z</time><extensions><speed>0.874628</speed><course>266.835938</course><hAcc>1.411830</hAcc><vAcc>1.382011</vAcc></extensions></trkpt>
      <trkpt lon="-82.146467" lat="33.556393"><ele>99.694794</ele><time>2021-03-14T15:07:17Z</time><extensions><speed>0.826850</speed><course>229.218750</course><hAcc>1.319206</hAcc><vAcc>1.282072</vAcc></extensions></trkpt>
      <trkpt lon="-82.146475" lat="33.556391"><ele>99.999374</ele><time>2021-03-14T15:07:18Z</time><extensions><speed>0.761978</speed><course>260.859375</course><hAcc>1.253384</hAcc><vAcc>1.204996</vAcc></extensions></trkpt>
      <trkpt lon="-82.146483" lat="33.556389"><ele>100.291214</ele><time>2021-03-14T15:07:19Z</time><extensions><speed>0.678238</speed><course>245.390625</course><hAcc>1.209057</hAcc><vAcc>1.148250</vAcc></extensions></trkpt>
      <trkpt lon="-82.146489" lat="33.556387"><ele>100.566849</ele><time>2021-03-14T15:07:20Z</time><extensions><speed>0.574951</speed><course>223.593750</course><hAcc>1.181128</hAcc><vAcc>1.108752</vAcc></extensions></trkpt>
      <trkpt lon="-82.146494" lat="33.556386"><ele>100.822754</ele><time>2021-03-14T15:07:21Z</time><extensions><speed>0.452930</speed><course>239.765625</course><hAcc>1.165070</hAcc><vAcc>1.083059</vAcc></extensions></trkpt>
      <trkpt lon="-82.146498" lat="33.556385"><ele>101.055504</ele><time>2021-03-14T15:07:22Z</time><extensions><speed>0.314213</speed><course>256.992188</course><hAcc>1.157054</hAcc><vAcc>1.067587</vAcc></extensions></trkpt>
      <trkpt lon="-82.146501" lat="33.556384"><ele>101.261955</ele><time>2021-03-14T15:07:23Z</time><extensions><speed>0.162087</speed><course>216.210938</course><hAcc>1.154132</hAcc><vAcc>1.059031</vAcc></extensions></trkpt>
      <trkpt lon="-82.146502" lat="33.556384"><ele>101.439278</ele><time>2021-03-14T15:07:24Z</time><extensions><speed>0.006176</speed><course>256.992188</course><hAcc>1.154277</hAcc><vAcc>1.054676</vAcc></extensions></trkpt>
      <trkpt lon="-82.146501" lat="33.556384"><ele>101.584991</ele><time>2021-03-14T15:07:25Z</time><extensions><speed>0.163769</speed><course>101.250000</course><hAcc>1.156221</hAcc><vAcc>1.052430</vAcc></extensions></trkpt>
      <trkpt lon="-82.146498" lat="33.556385"><ele>101.697060</ele><time>2021-03-14T15:07:26Z</time><extensions><speed>0.326280</speed><course>54.492188</course><hAcc>1.159267</hAcc><vAcc>1.050768</vAcc></extensions></trkpt>
      <trkpt lon="-82.146494" lat="33.556387"><ele>101.773949</ele><time>2021-03-14T15:07:27Z</time><extensions><speed>0.481895</speed><course>80.859375</course><hAcc>1.163108</hAcc><vAcc>1.048640</vAcc></extensions></trkpt>
      <trkpt lon="-82.146489" lat="33.556389"><ele>101.814667</ele><time>2021-03-14T15:07:28Z</time><extensions><speed>0.627693</speed><course>83.671875</course><hAcc>1.167662</hAcc><vAcc>1.045360</vAcc></extensions></trkpt>
      <trkpt lon="-82.146483" lat="33.556392"><ele>101.818802</ele><time>2021-03-14T15:07:29Z</time><extensions><speed>0.763033</speed><course>96.679688</course><hAcc>1.172918</hAcc><vAcc>1.040516</vAcc></extensions></trkpt>
      <trkpt lon="-82.146475" lat="33.556396"><ele>101.786331</ele><time>2021-03-14T15:07:30Z</time><extensions><speed>0.889254</speed><course>100.195312</course><hAcc>1.178784</hAcc><vAcc>1.033889</vAcc></extensions></trkpt>
      <trkpt lon="-82.146467" lat="33.556401"><ele>101.717537</ele><time>2021-03-14T15:07:31Z</time><extensions><speed>1.009273</speed><course>109.687500</course><hAcc>1.184947</hAcc><vAcc>1.025399</vAcc></extensions></trkpt>
      <trkpt lon="-82.146458" lat="33.556407"><ele>101.613190</ele><time>2021-03-14T15:07:32Z</time><extensions><speed>1.126624</speed><course>135.703125</course><hAcc>1.190743</hAcc><vAcc>1.015064</vAcc></extensions></trkpt>
      <trkpt lon="-82.146448" lat="33.556414"><ele>101.474648</ele><time>2021-03-14T15:07:33Z</time><extensions><speed>1.244287</speed><course>154.687500</course><hAcc>1.195070</hAcc><vAcc>1.002978</vAcc></extensions></trkpt>
      <trkpt lon="-82.146438" lat="33.556422"><ele>101.303795</ele><time>2021-03-14T15:07:34Z</time><extensions><speed>1.363155</speed><course>163.476562</course><hAcc>1.196572</hAcc><vAcc>0.989330</vAcc></extensions></trkpt>
      <trkpt lon="-82.146428" lat="33.556432"><ele>101.102989</ele><time>2021-03-14T15:07:35Z</time><extensions><speed>1.481772</speed><course>124.804688</course><hAcc>1.194069</hAcc><vAcc>0.974402</vAcc></extensions></trkpt>
      <trkpt lon="-82.146417" lat="33.556442"><ele>100.875206</ele><time>2021-03-14T15:07:36Z</time><extensions><speed>1.597498</speed><course>82.617188</course><hAcc>1.186761</hAcc><vAcc>0.958465</vAcc></extensions></trkpt>
      <trkpt lon="-82.146405" lat="33.556453"><ele>100.624130</ele><time>2021-03-14T15:07:37Z</time><extensions><speed>1.707423</speed><course>58.710938</course><hAcc>1.174244</hAcc><vAcc>0.941737</vAcc></extensions></trkpt>
      <trkpt lon="-82.146394" lat="33.556466"><ele>100.354042</ele><time>2021-03-14T15:07:38Z</time><extensions><speed>1.808718</speed><course>65.390625</course><hAcc>1.156561</hAcc><vAcc>0.924399</vAcc></extensions></trkpt>
      <trkpt lon="-82.146382" lat="33.556479"><ele>100.069443</ele><time>2021-03-14T15:07:39Z</time><extensions><speed>1.899011</speed><course>43.945312</course><hAcc>1.134248</hAcc><vAcc>0.906641</vAcc></extensions></trkpt>
      <trkpt lon="-82.146370" lat="33.556494"><ele>99.774635</ele><time>2021-03-14T15:07:40Z</time><extensions><speed>1.976536</speed><course>34.804688</course><hAcc>1.108387</hAcc><vAcc>0.888694</vAcc></extensions></trkpt>
      <trkpt lon="-82.146358" lat="33.556509"><ele>99.473587</ele><time>2021-03-14T15:07:41Z</time><extensions><speed>2.040001</speed><course>31.640625</course><hAcc>1.080625</hAcc><vAcc>0.870873</vAcc></extensions></trkpt>
      <trkpt lon="-82.146345" lat="33.556524"><ele>99.170006</ele><time>2021-03-14T15:07:42Z</time><extensions><speed>2.088648</speed><course>47.460938</course><hAcc>1.052865</hAcc><vAcc>0.853512</vAcc></extensions></trkpt>
      <trkpt lon="-82.146333" lat="33.556540"><ele>98.867302</ele><time>2021-03-14T15:07:43Z</time><extensions><speed>2.122093</speed><course>34.101562</course><hAcc>1.026645</hAcc><vAcc>0.836836</vAcc></extensions></trkpt>
      <trkpt lon="-82.146320" lat="33.556556"><ele>98.568451</ele><time>2021-03-14T15:07:44Z</time><extensions><speed>2.140005</speed><course>27.070312</course><hAcc>1.002870</hAcc><vAcc>0.820910</vAcc></extensions></trkpt>
      <trkpt lon="-82.146307" lat="33.556572"><ele>98.275803</ele><time>2021-03-14T15:07:45Z</time><extensions><speed>2.142678</speed><course>31.640625</course><hAcc>0.981906</hAcc><vAcc>0.805703</vAcc></extensions></trkpt>
      <trkpt lon="-82.146293" lat="33.556587"><ele>97.990982</ele><time>2021-03-14T15:07:46Z</time><extensions><speed>2.131504</speed><course>37.617188</course><hAcc>0.963742</hAcc><vAcc>0.791160</vAcc></extensions></trkpt>
      <trkpt lon="-82.146280" lat="33.556603"><ele>97.714973</ele><time>2021-03-14T15:07:47Z</time><extensions><speed>2.108621</speed><course>50.273438</course><hAcc>0.948163</hAcc><vAcc>0.777278</vAcc></extensions></trkpt>
      <trkpt lon="-82.146266" lat="33.556618"><ele>97.448357</ele><time>2021-03-14T15:07:48Z</time><extensions><speed>2.076378</speed><course>47.109375</course><hAcc>0.934915</hAcc><vAcc>0.764175</vAcc></extensions></trkpt>
      <trkpt lon="-82.146252" lat="33.556632"><ele>97.191452</ele><time>2021-03-14T15:07:49Z</time><extensions><speed>2.037442</speed><course>50.976562</course><hAcc>0.923841</hAcc><vAcc>0.752146</vAcc></extensions></trkpt>
      <trkpt lon="-82.146238" lat="33.556646"><ele>96.944374</ele><time>2021-03-14T15:07:50Z</time><extensions><speed>1.995704</speed><course>66.796875</course><hAcc>0.914878</hAcc><vAcc>0.741581</vAcc></extensions></trkpt>
      <trkpt lon="-82.146223" lat="33.556659"><ele>96.707199</ele><time>2021-03-14T15:07:51Z</time><extensions><speed>1.955722</speed><course>93.164062</course><hAcc>0.907943</hAcc><vAcc>0.732771</vAcc></extensions></trkpt>
      <trkpt lon="-82.146209" lat="33.556671"><ele>96.480263</ele><time>2021-03-14T15:07:52Z</time><extensions><speed>1.921649</speed><course>106.171875</course><hAcc>0.902904</hAcc><vAcc>0.725829</vAcc></extensions></trkpt>
      <trkpt lon="-82.146194" lat="33.556683"><ele>96.264343</ele><time>2021-03-14T15:07:53Z</time><extensions><speed>1.896237</speed><course>98.437500</course><hAcc>0.899708</hAcc><vAcc>0.720836</vAcc></extensions></trkpt>
      <trkpt lon="-82.146179" lat="33.556695"><ele>96.060501</ele><time>2021-03-14T15:07:54Z</time><extensions><speed>1.880049</speed><course>86.132812</course><hAcc>0.898498</hAcc><vAcc>0.717991</vAcc></extensions></trkpt>
      <trkpt lon="-82.146164" lat="33.556706"><ele>95.870003</ele><time>2021-03-14T15:07:55Z</time><extensions><speed>1.871567</speed><course>80.156250</course><hAcc>0.899528</hAcc><vAcc>0.717515</vAcc></extensions></trkpt>
      <trkpt lon="-82.146148" lat="33.556717"><ele>95.694206</ele><time>2021-03-14T15:07:56Z</time><extensions><speed>1.867588</speed><course>70.664062</course><hAcc>0.903056</hAcc><vAcc>0.719530</vAcc></extensions></trkpt>
      <trkpt lon="-82.146133" lat="33.556727"><ele>95.534439</ele><time>2021-03-14T15:07:57Z</time><extensions><speed>1.864185</speed><course>67.851562</course><hAcc>0.909284</hAcc><vAcc>0.724024</vAcc></extensions></trkpt>
      <trkpt lon="-82.146117" lat="33.556738"><ele>95.391838</ele><time>2021-03-14T15:07:58Z</time><extensions><speed>1.857562</speed><course>69.609375</course><hAcc>0.918281</hAcc><vAcc>0.730814</vAcc></extensions></trkpt>
      <trkpt lon="-82.146101" lat="33.556748"><ele>95.267174</ele><time>2021-03-14T15:07:59Z</time><extensions><speed>1.844838</speed><course>74.531250</course><hAcc>0.929891</hAcc><vAcc>0.739500</vAcc></extensions></trkpt>
      <trkpt lon="-82.146085" lat="33.556758"><ele>95.160706</ele><time>2021-03-14T15:08:00Z</time><extensions><speed>1.824560</speed><course>75.937500</course><hAcc>0.943625</hAcc><vAcc>0.749423</vAcc></extensions></trkpt>
      <trkpt lon="-82.146069" lat="33.556767"><ele>95.072105</ele><time>2021-03-14T15:08:01Z</time><extensions><speed>1.795795</speed><course>76.640625</course><hAcc>0.958563</hAcc><vAcc>0.759641</vAcc></extensions></trkpt>
      <trkpt lon="-82.146054" lat="33.556776"><ele>95.000534</ele><time>2021-03-14T15:08:02Z</time><extensions><speed>1.757455</speed><course>81.210938</course><hAcc>0.973372</hAcc><vAcc>0.769030</vAcc></extensions></trkpt>
      <trkpt lon="-82.146038" lat="33.556785"><ele>94.944641</ele><time>2021-03-14T15:08:03Z</time><extensions><speed>1.708452</speed><course>84.726562</course><hAcc>0.986428</hAcc><vAcc>0.776506</vAcc></extensions></trkpt>
      <trkpt lon="-82.146023" lat="33.556793"><ele>94.902573</ele><time>2021-03-14T15:08:04Z</time><extensions><speed>1.647886</speed><course>84.023438</course><hAcc>0.995909</hAcc><vAcc>0.781146</vAcc></extensions></trkpt>
      <trkpt lon="-82.146009" lat="33.556801"><ele>94.871979</ele><time>2021-03-14T15:08:05Z</time><extensions><speed>1.575451</speed><course>82.265625</course><hAcc>1.000124</hAcc><vAcc>0.782275</vAcc></extensions></trkpt>
      <trkpt lon="-82.145994" lat="33.556808"><ele>94.850143</ele><time>2021-03-14T15:08:06Z</time><extensions><speed>1.491206</speed><course>89.648438</course><hAcc>0.998154</hAcc><vAcc>0.779634</vAcc></extensions></trkpt>
      <trkpt lon="-82.145981" lat="33.556815"><ele>94.834099</ele><time>2021-03-14T15:08:07Z</time><extensions><speed>1.395192</speed><course>71.718750</course><hAcc>0.990208</hAcc><vAcc>0.773469</vAcc></extensions></trkpt>
      <trkpt lon="-82.145968" lat="33.556820"><ele>94.820747</ele><time>2021-03-14T15:08:08Z</time><extensions><speed>1.287735</speed><course>54.492188</course><hAcc>0.977653</hAcc><vAcc>0.764548</vAcc></extensions></trkpt>
      <trkpt lon="-82.145956" lat="33.556825"><ele>94.806908</ele><time>2021-03-14T15:08:09Z</time><extensions><speed>1.170160</speed><course>43.242188</course><hAcc>0.962707</hAcc><vAcc>0.754081</vAcc></extensions></trkpt>
      <trkpt lon="-82.145945" lat="33.556829"><ele>94.789703</ele><time>2021-03-14T15:08:10Z</time><extensions><speed>1.045344</speed><course>66.093750</course><hAcc>0.947736</hAcc><vAcc>0.743440</vAcc></extensions></trkpt>
      <trkpt lon="-82.145935" lat="33.556832"><ele>94.767021</ele><time>2021-03-14T15:08:11Z</time><extensions><speed>0.918178</speed><course>86.132812</course><hAcc>0.934764</hAcc><vAcc>0.733849</vAcc></extensions></trkpt>
      <trkpt lon="-82.145926" lat="33.556833"><ele>94.737892</ele><time>2021-03-14T15:08:12Z</time><extensions><speed>0.795379</speed><course>107.929688</course><hAcc>0.925400</hAcc><vAcc>0.726269</vAcc></extensions></trkpt>
      <trkpt lon="-82.145918" lat="33.556834"><ele>94.702095</ele><time>2021-03-14T15:08:13Z</time><extensions><speed>0.684752</speed><course>107.578125</course><hAcc>0.920890</hAcc><vAcc>0.721415</vAcc></extensions></trkpt>
      <trkpt lon="-82.145911" lat="33.556834"><ele>94.659767</ele><time>2021-03-14T15:08:14Z</time><extensions><speed>0.594681</speed><course>102.304688</course><hAcc>0.922171</hAcc><vAcc>0.719782</vAcc></extensions></trkpt>
      <trkpt lon="-82.145905" lat="33.556833"><ele>94.611137</ele><time>2021-03-14T15:08:15Z</time><extensions><speed>0.532746</speed><course>62.929688</course><hAcc>0.929892</hAcc><vAcc>0.721675</vAcc></extensions></trkpt>
      <trkpt lon="-82.145900" lat="33.556831"><ele>94.556282</ele><time>2021-03-14T15:08:16Z</time><extensions><speed>0.502953</speed><course>52.382812</course><hAcc>0.944379</hAcc><vAcc>0.727214</vAcc></extensions></trkpt>
      <trkpt lon="-82.145896" lat="33.556829"><ele>94.494934</ele><time>2021-03-14T15:08:17Z</time><extensions><speed>0.502761</speed><course>35.507812</course><hAcc>0.965532</hAcc><vAcc>0.736323</vAcc></extensions></trkpt>
      <trkpt lon="-82.145892" lat="33.556826"><ele>94.426689</ele><time>2021-03-14T15:08:18Z</time><extensions><speed>0.523472</speed><course>54.140625</course><hAcc>0.992689</hAcc><vAcc>0.748696</vAcc></extensions></trkpt>
      <trkpt lon="-82.145888" lat="33.556822"><ele>94.351143</ele><time>2021-03-14T15:08:19Z</time><extensions><speed>0.554452</speed><course>354.726562</course><hAcc>1.024485</hAcc><vAcc>0.763752</vAcc></extensions></trkpt>
      <trkpt lon="-82.145885" lat="33.556818"><ele>94.267944</ele><time>2021-03-14T15:08:20Z</time><extensions><speed>0.586445</speed><course>271.054688</course><hAcc>1.058757</hAcc><vAcc>0.780607</vAcc></extensions></trkpt>
      <trkpt lon="-82.145881" lat="33.556813"><ele>94.176811</ele><time>2021-03-14T15:08:21Z</time><extensions><speed>0.613442</speed><course>246.796875</course><hAcc>1.092877</hAcc><vAcc>0.798192</vAcc></extensions></trkpt>
      <trkpt lon="-82.145878" lat="33.556808"><ele>94.077515</ele><time>2021-03-14T15:08:22Z</time><extensions><speed>0.632342</speed><course>170.507812</course><hAcc>1.124491</hAcc><vAcc>0.815523</vAcc></extensions></trkpt>
      <trkpt lon="-82.145874" lat="33.556803"><ele>93.970009</ele><time>2021-03-14T15:08:23Z</time><extensions><speed>0.641621</speed><course>147.304688</course><hAcc>1.151850</hAcc><vAcc>0.831816</vAcc></extensions></trkpt>
      <trkpt lon="-82.145870" lat="33.556798"><ele>93.854584</ele><time>2021-03-14T15:08:24Z</time><extensions><speed>0.641168</speed><course>129.375000</course><hAcc>1.173710</hAcc><vAcc>0.846440</vAcc></extensions></trkpt>
      <trkpt lon="-82.145866" lat="33.556794"><ele>93.732033</ele><time>2021-03-14T15:08:25Z</time><extensions><speed>0.631596</speed><course>128.320312</course><hAcc>1.189229</hAcc><vAcc>0.858858</vAcc></extensions></trkpt>
      <trkpt lon="-82.145863" lat="33.556789"><ele>93.603691</ele><time>2021-03-14T15:08:26Z</time><extensions><speed>0.613812</speed><course>133.945312</course><hAcc>1.197886</hAcc><vAcc>0.868633</vAcc></extensions></trkpt>
      <trkpt lon="-82.145858" lat="33.556785"><ele>93.471214</ele><time>2021-03-14T15:08:27Z</time><extensions><speed>0.589081</speed><course>151.171875</course><hAcc>1.199466</hAcc><vAcc>0.875482</vAcc></extensions></trkpt>
      <trkpt lon="-82.145854" lat="33.556781"><ele>93.336380</ele><time>2021-03-14T15:08:28Z</time><extensions><speed>0.559038</speed><course>157.148438</course><hAcc>1.194055</hAcc><vAcc>0.879308</vAcc></extensions></trkpt>
      <trkpt lon="-82.145850" lat="33.556778"><ele>93.200996</ele><time>2021-03-14T15:08:29Z</time><extensions><speed>0.525287</speed><course>159.960938</course><hAcc>1.182035</hAcc><vAcc>0.880174</vAcc></extensions></trkpt>
      <trkpt lon="-82.145846" lat="33.556775"><ele>93.066872</ele><time>2021-03-14T15:08:30Z</time><extensions><speed>0.489104</speed><course>157.148438</course><hAcc>1.164120</hAcc><vAcc>0.878303</vAcc></extensions></trkpt>
      <trkpt lon="-82.145842" lat="33.556773"><ele>92.935768</ele><time>2021-03-14T15:08:31Z</time><extensions><speed>0.451460</speed><course>146.601562</course><hAcc>1.141401</hAcc><vAcc>0.874066</vAcc></extensions></trkpt>
      <trkpt lon="-82.145838" lat="33.556771"><ele>92.809334</ele><time>2021-03-14T15:08:32Z</time><extensions><speed>0.413092</speed><course>133.945312</course><hAcc>1.115411</hAcc><vAcc>0.867990</vAcc></extensions></trkpt>
      <trkpt lon="-82.145834" lat="33.556769"><ele>92.689117</ele><time>2021-03-14T15:08:33Z</time><extensions><speed>0.374977</speed><course>129.726562</course><hAcc>1.088160</hAcc><vAcc>0.860746</vAcc></extensions></trkpt>
      <trkpt lon="-82.145830" lat="33.556768"><ele>92.576302</ele><time>2021-03-14T15:08:34Z</time><extensions><speed>0.338960</speed><course>153.984375</course><hAcc>1.061822</hAcc><vAcc>0.853063</vAcc></extensions></trkpt>
      <trkpt lon="-82.145827" lat="33.556768"><ele>92.471443</ele><time>2021-03-14T15:08:35Z</time><extensions><speed>0.307042</speed><course>198.984375</course><hAcc>1.038114</hAcc><vAcc>0.845545</vAcc></extensions></trkpt>
      <trkpt lon="-82.145823" lat="33.556768"><ele>92.374466</ele><time>2021-03-14T15:08:36Z</time><extensions><speed>0.281418</speed><course>191.953125</course><hAcc>1.018031</hAcc><vAcc>0.838597</vAcc></extensions></trkpt>
      <trkpt lon="-82.145821" lat="33.556769"><ele>92.284897</ele><time>2021-03-14T15:08:37Z</time><extensions><speed>0.264121</speed><course>157.851562</course><hAcc>1.001958</hAcc><vAcc>0.832438</vAcc></extensions></trkpt>
      <trkpt lon="-82.145818" lat="33.556770"><ele>92.202248</ele><time>2021-03-14T15:08:38Z</time><extensions><speed>0.256244</speed><course>7.734375</course><hAcc>0.989817</hAcc><vAcc>0.827131</vAcc></extensions></trkpt>
      <trkpt lon="-82.145816" lat="33.556771"><ele>92.126183</ele><time>2021-03-14T15:08:39Z</time><extensions><speed>0.257371</speed><course>6.328125</course><hAcc>0.981235</hAcc><vAcc>0.822614</vAcc></extensions></trkpt>
      <trkpt lon="-82.145814" lat="33.556773"><ele>92.056618</ele><time>2021-03-14T15:08:40Z</time><extensions><speed>0.265260</speed><course>285.117188</course><hAcc>0.975681</hAcc><vAcc>0.818737</vAcc></extensions></trkpt>
      <trkpt lon="-82.145813" lat="33.556775"><ele>91.993675</ele><time>2021-03-14T15:08:41Z</time><extensions><speed>0.276530</speed><course>199.335938</course><hAcc>0.972576</hAcc><vAcc>0.815292</vAcc></extensions></trkpt>
      <trkpt lon="-82.145811" lat="33.556777"><ele>91.937561</ele><time>2021-03-14T15:08:42Z</time><extensions><speed>0.287584</speed><course>190.195312</course><hAcc>0.971353</hAcc><vAcc>0.812041</vAcc></extensions></trkpt>
      <trkpt lon="-82.145810" lat="33.556780"><ele>91.888535</ele><time>2021-03-14T15:08:43Z</time><extensions><speed>0.295384</speed><course>179.296875</course><hAcc>0.971483</hAcc><vAcc>0.808738</vAcc></extensions></trkpt>
      <trkpt lon="-82.145809" lat="33.556782"><ele>91.846786</ele><time>2021-03-14T15:08:44Z</time><extensions><speed>0.297368</speed><course>172.617188</course><hAcc>0.972467</hAcc><vAcc>0.805151</vAcc></extensions></trkpt>
      <trkpt lon="-82.145808" lat="33.556785"><ele>91.812378</ele><time>2021-03-14T15:08:45Z</time><extensions><speed>0.291194</speed><course>124.101562</course><hAcc>0.973820</hAcc><vAcc>0.801088</vAcc></extensions></trkpt>
      <trkpt lon="-82.145807" lat="33.556787"><ele>91.785133</ele><time>2021-03-14T15:08:46Z</time><extensions><speed>0.274788</speed><course>40.429688</course><hAcc>0.975055</hAcc><vAcc>0.796422</vAcc></extensions></trkpt>
      <trkpt lon="-82.145805" lat="33.556789"><ele>91.764450</ele><time>2021-03-14T15:08:47Z</time><extensions><speed>0.247147</speed><course>31.289062</course><hAcc>0.975683</hAcc><vAcc>0.791122</vAcc></extensions></trkpt>
      <trkpt lon="-82.145804" lat="33.556791"><ele>91.749336</ele><time>2021-03-14T15:08:48Z</time><extensions><speed>0.209239</speed><course>36.914062</course><hAcc>0.975268</hAcc><vAcc>0.785303</vAcc></extensions></trkpt>
      <trkpt lon="-82.145803" lat="33.556793"><ele>91.738602</ele><time>2021-03-14T15:08:49Z</time><extensions><speed>0.163881</speed><course>36.562500</course><hAcc>0.973789</hAcc><vAcc>0.779336</vAcc></extensions></trkpt>
      <trkpt lon="-82.145802" lat="33.556794"><ele>91.730927</ele><time>2021-03-14T15:08:50Z</time><extensions><speed>0.117257</speed><course>21.093750</course><hAcc>0.972239</hAcc><vAcc>0.773985</vAcc></extensions></trkpt>
      <trkpt lon="-82.145801" lat="33.556794"><ele>91.724892</ele><time>2021-03-14T15:08:51Z</time><extensions><speed>0.087195</speed><course>27.070312</course><hAcc>0.972509</hAcc><vAcc>0.770238</vAcc></extensions></trkpt>
      <trkpt lon="-82.145800" lat="33.556794"><ele>91.719193</ele><time>2021-03-14T15:08:52Z</time><extensions><speed>0.100081</speed><course>30.585938</course><hAcc>0.976647</hAcc><vAcc>0.769054</vAcc></extensions></trkpt>
      <trkpt lon="-82.145800" lat="33.556793"><ele>91.712845</ele><time>2021-03-14T15:08:53Z</time><extensions><speed>0.143325</speed><course>159.257812</course><hAcc>0.986394</hAcc><vAcc>0.771257</vAcc></extensions></trkpt>
      <trkpt lon="-82.145799" lat="33.556792"><ele>91.705208</ele><time>2021-03-14T15:08:54Z</time><extensions><speed>0.191768</speed><course>182.109375</course><hAcc>1.002863</hAcc><vAcc>0.777351</vAcc></extensions></trkpt>
      <trkpt lon="-82.145798" lat="33.556790"><ele>91.695892</ele><time>2021-03-14T15:08:55Z</time><extensions><speed>0.235349</speed><course>171.210938</course><hAcc>1.026255</hAcc><vAcc>0.787334</vAcc></extensions></trkpt>
      <trkpt lon="-82.145798" lat="33.556787"><ele>91.684677</ele><time>2021-03-14T15:08:56Z</time><extensions><speed>0.271206</speed><course>174.375000</course><hAcc>1.055719</hAcc><vAcc>0.800659</vAcc></extensions></trkpt>
      <trkpt lon="-82.145797" lat="33.556785"><ele>91.671471</ele><time>2021-03-14T15:08:57Z</time><extensions><speed>0.299293</speed><course>146.601562</course><hAcc>1.089324</hAcc><vAcc>0.816241</vAcc></extensions></trkpt>
      <trkpt lon="-82.145797" lat="33.556782"><ele>91.656334</ele><time>2021-03-14T15:08:58Z</time><extensions><speed>0.320138</speed><course>135.703125</course><hAcc>1.124511</hAcc><vAcc>0.832692</vAcc></extensions></trkpt>
      <trkpt lon="-82.145797" lat="33.556779"><ele>91.639519</ele><time>2021-03-14T15:08:59Z</time><extensions><speed>0.334318</speed><course>126.914062</course><hAcc>1.158982</hAcc><vAcc>0.848763</vAcc></extensions></trkpt>
      <trkpt lon="-82.145797" lat="33.556776"><ele>91.621475</ele><time>2021-03-14T15:09:00Z</time><extensions><speed>0.342463</speed><course>138.515625</course><hAcc>1.191115</hAcc><vAcc>0.863555</vAcc></extensions></trkpt>
      <trkpt lon="-82.145797" lat="33.556773"><ele>91.602837</ele><time>2021-03-14T15:09:01Z</time><extensions><speed>0.345019</speed><course>223.593750</course><hAcc>1.219905</hAcc><vAcc>0.876499</vAcc></extensions></trkpt>
      <trkpt lon="-82.145798" lat="33.556770"><ele>91.584244</ele><time>2021-03-14T15:09:02Z</time><extensions><speed>0.342373</speed><course>232.734375</course><hAcc>1.244843</hAcc><vAcc>0.887313</vAcc></extensions></trkpt>
      <trkpt lon="-82.145798" lat="33.556767"><ele>91.566277</ele><time>2021-03-14T15:09:03Z</time><extensions><speed>0.334832</speed><course>232.382812</course><hAcc>1.265807</hAcc><vAcc>0.895942</vAcc></extensions></trkpt>
      <trkpt lon="-82.145799" lat="33.556764"><ele>91.549370</ele><time>2021-03-14T15:09:04Z</time><extensions><speed>0.322722</speed><course>213.750000</course><hAcc>1.282945</hAcc><vAcc>0.902515</vAcc></extensions></trkpt>
      <trkpt lon="-82.145799" lat="33.556761"><ele>91.533928</ele><time>2021-03-14T15:09:05Z</time><extensions><speed>0.306735</speed><course>228.867188</course><hAcc>1.296598</hAcc><vAcc>0.907291</vAcc></extensions></trkpt>
      <trkpt lon="-82.145800" lat="33.556759"><ele>91.520287</ele><time>2021-03-14T15:09:06Z</time><extensions><speed>0.287922</speed><course>219.023438</course><hAcc>1.307218</hAcc><vAcc>0.910622</vAcc></extensions></trkpt>
      <trkpt lon="-82.145801" lat="33.556756"><ele>91.508766</ele><time>2021-03-14T15:09:07Z</time><extensions><speed>0.267656</speed><course>117.773438</course><hAcc>1.315295</hAcc><vAcc>0.912865</vAcc></extensions></trkpt>
      <trkpt lon="-82.145802" lat="33.556754"><ele>91.499672</ele><time>2021-03-14T15:09:08Z</time><extensions><speed>0.247488</speed><course>53.789062</course><hAcc>1.321282</hAcc><vAcc>0.914299</vAcc></extensions></trkpt>
      <trkpt lon="-82.145802" lat="33.556752"><ele>91.493248</ele><time>2021-03-14T15:09:09Z</time><extensions><speed>0.228874</speed><course>58.007812</course><hAcc>1.325570</hAcc><vAcc>0.915104</vAcc></extensions></trkpt>
      <trkpt lon="-82.145803" lat="33.556750"><ele>91.489700</ele><time>2021-03-14T15:09:10Z</time><extensions><speed>0.212900</speed><course>79.804688</course><hAcc>1.328445</hAcc><vAcc>0.915306</vAcc></extensions></trkpt>
      <trkpt lon="-82.145804" lat="33.556748"><ele>91.489166</ele><time>2021-03-14T15:09:11Z</time><extensions><speed>0.200309</speed><course>121.992188</course><hAcc>1.330086</hAcc><vAcc>0.914784</vAcc></extensions></trkpt>
      <trkpt lon="-82.145806" lat="33.556747"><ele>91.491661</ele><time>2021-03-14T15:09:12Z</time><extensions><speed>0.191702</speed><course>127.265625</course><hAcc>1.330629</hAcc><vAcc>0.913396</vAcc></extensions></trkpt>
      <trkpt lon="-82.145807" lat="33.556746"><ele>91.497108</ele><time>2021-03-14T15:09:13Z</time><extensions><speed>0.187306</speed><course>126.210938</course><hAcc>1.330201</hAcc><vAcc>0.911053</vAcc></extensions></trkpt>
      <trkpt lon="-82.145808" lat="33.556745"><ele>91.505302</ele><time>2021-03-14T15:09:14Z</time><extensions><speed>0.186646</speed><course>200.039062</course><hAcc>1.328939</hAcc><vAcc>0.907749</vAcc></extensions></trkpt>
      <trkpt lon="-82.145810" lat="33.556744"><ele>91.515900</ele><time>2021-03-14T15:09:15Z</time><extensions><speed>0.188552</speed><course>236.953125</course><hAcc>1.327003</hAcc><vAcc>0.903580</vAcc></extensions></trkpt>
      <trkpt lon="-82.145812" lat="33.556743"><ele>91.528435</ele><time>2021-03-14T15:09:16Z</time><extensions><speed>0.191286</speed><course>267.890625</course><hAcc>1.324588</hAcc><vAcc>0.898758</vAcc></extensions></trkpt>
      <trkpt lon="-82.145814" lat="33.556742"><ele>91.542313</ele><time>2021-03-14T15:09:17Z</time><extensions><speed>0.193248</speed><course>276.328125</course><hAcc>1.321932</hAcc><vAcc>0.893619</vAcc></extensions></trkpt>
      <trkpt lon="-82.145816" lat="33.556742"><ele>91.556900</ele><time>2021-03-14T15:09:18Z</time><extensions><speed>0.193726</speed><course>286.875000</course><hAcc>1.319290</hAcc><vAcc>0.888573</vAcc></extensions></trkpt>
      <trkpt lon="-82.145818" lat="33.556742"><ele>91.571571</ele><time>2021-03-14T15:09:19Z</time><extensions><speed>0.192828</speed><course>295.664062</course><hAcc>1.316891</hAcc><vAcc>0.884003</vAcc></extensions></trkpt>
      <trkpt lon="-82.145820" lat="33.556741"><ele>91.585732</ele><time>2021-03-14T15:09:20Z</time><extensions><speed>0.191349</speed><course>301.992188</course><hAcc>1.314915</hAcc><vAcc>0.880213</vAcc></extensions></trkpt>
      <trkpt lon="-82.145822" lat="33.556741"><ele>91.598831</ele><time>2021-03-14T15:09:21Z</time><extensions><speed>0.190683</speed><course>323.789062</course><hAcc>1.313497</hAcc><vAcc>0.877434</vAcc></extensions></trkpt>
      <trkpt lon="-82.145824" lat="33.556741"><ele>91.610382</ele><time>2021-03-14T15:09:22Z</time><extensions><speed>0.192475</speed><course>11.601562</course><hAcc>1.312740</hAcc><vAcc>0.875837</vAcc></extensions></trkpt>
      <trkpt lon="-82.145826" lat="33.556740"><ele>91.619896</ele><time>2021-03-14T15:09:23Z</time><extensions><speed>0.198056</speed><course>29.531250</course><hAcc>1.312720</hAcc><vAcc>0.875538</vAcc></extensions></trkpt>
      <trkpt lon="-82.145828" lat="33.556740"><ele>91.626839</ele><time>2021-03-14T15:09:24Z</time><extensions><speed>0.208234</speed><course>16.523438</course><hAcc>1.313491</hAcc><vAcc>0.876612</vAcc></extensions></trkpt>
      <trkpt lon="-82.145831" lat="33.556740"><ele>91.630577</ele><time>2021-03-14T15:09:25Z</time><extensions><speed>0.223570</speed><course>307.265625</course><hAcc>1.315094</hAcc><vAcc>0.879093</vAcc></extensions></trkpt>
      <trkpt lon="-82.145833" lat="33.556739"><ele>91.630447</ele><time>2021-03-14T15:09:26Z</time><extensions><speed>0.244713</speed><course>206.015625</course><hAcc>1.317551</hAcc><vAcc>0.882975</vAcc></extensions></trkpt>
      <trkpt lon="-82.145836" lat="33.556739"><ele>91.625816</ele><time>2021-03-14T15:09:27Z</time><extensions><speed>0.272504</speed><course>141.328125</course><hAcc>1.320861</hAcc><vAcc>0.888200</vAcc></extensions></trkpt>
      <trkpt lon="-82.145839" lat="33.556739"><ele>91.616173</ele><time>2021-03-14T15:09:28Z</time><extensions><speed>0.307743</speed><course>119.882812</course><hAcc>1.324995</hAcc><vAcc>0.894647</vAcc></extensions></trkpt>
      <trkpt lon="-82.145843" lat="33.556739"><ele>91.601265</ele><time>2021-03-14T15:09:29Z</time><extensions><speed>0.350617</speed><course>100.195312</course><hAcc>1.329887</hAcc><vAcc>0.902122</vAcc></extensions></trkpt>
      <trkpt lon="-82.145847" lat="33.556739"><ele>91.581169</ele><time>2021-03-14T15:09:30Z</time><extensions><speed>0.400361</speed><course>91.054688</course><hAcc>1.335426</hAcc><vAcc>0.910347</vAcc></extensions></trkpt>
      <trkpt lon="-82.145851" lat="33.556739"><ele>91.556213</ele><time>2021-03-14T15:09:31Z</time><extensions><speed>0.455217</speed><course>52.382812</course><hAcc>1.341470</hAcc><vAcc>0.919009</vAcc></extensions></trkpt>
      <trkpt lon="-82.145856" lat="33.556739"><ele>91.526794</ele><time>2021-03-14T15:09:32Z</time><extensions><speed>0.512737</speed><course>15.820312</course><hAcc>1.347899</hAcc><vAcc>0.927852</vAcc></extensions></trkpt>
      <trkpt lon="-82.145862" lat="33.556740"><ele>91.493263</ele><time>2021-03-14T15:09:33Z</time><extensions><speed>0.570380</speed><course>301.992188</course><hAcc>1.354623</hAcc><vAcc>0.936724</vAcc></extensions></trkpt>
      <trkpt lon="-82.145869" lat="33.556740"><ele>91.455872</ele><time>2021-03-14T15:09:34Z</time><extensions><speed>0.626085</speed><course>280.898438</course><hAcc>1.361572</hAcc><vAcc>0.945559</vAcc></extensions></trkpt>
      <trkpt lon="-82.145876" lat="33.556741"><ele>91.414719</ele><time>2021-03-14T15:09:35Z</time><extensions><speed>0.678360</speed><course>255.937500</course><hAcc>1.368679</hAcc><vAcc>0.954352</vAcc></extensions></trkpt>
      <trkpt lon="-82.145883" lat="33.556742"><ele>91.369858</ele><time>2021-03-14T15:09:36Z</time><extensions><speed>0.725881</speed><course>319.570312</course><hAcc>1.375854</hAcc><vAcc>0.963135</vAcc></extensions></trkpt>
      <trkpt lon="-82.145891" lat="33.556743"><ele>91.321259</ele><time>2021-03-14T15:09:37Z</time><extensions><speed>0.767315</speed><course>315.000000</course><hAcc>1.382974</hAcc><vAcc>0.971946</vAcc></extensions></trkpt>
      <trkpt lon="-82.145899" lat="33.556744"><ele>91.268890</ele><time>2021-03-14T15:09:38Z</time><extensions><speed>0.801390</speed><course>262.265625</course><hAcc>1.389864</hAcc><vAcc>0.980809</vAcc></extensions></trkpt>
      <trkpt lon="-82.145908" lat="33.556745"><ele>91.212761</ele><time>2021-03-14T15:09:39Z</time><extensions><speed>0.826869</speed><course>228.867188</course><hAcc>1.396296</hAcc><vAcc>0.989712</vAcc></extensions></trkpt>
      <trkpt lon="-82.145917" lat="33.556746"><ele>91.152939</ele><time>2021-03-14T15:09:40Z</time><extensions><speed>0.842512</speed><course>257.343750</course><hAcc>1.401999</hAcc><vAcc>0.998596</vAcc></extensions></trkpt>
      <trkpt lon="-82.145926" lat="33.556747"><ele>91.089592</ele><time>2021-03-14T15:09:41Z</time><extensions><speed>0.847651</speed><course>282.656250</course><hAcc>1.406860</hAcc><vAcc>1.007475</vAcc></extensions></trkpt>
      <trkpt lon="-82.145935" lat="33.556748"><ele>91.023010</ele><time>2021-03-14T15:09:42Z</time><extensions><speed>0.841909</speed><course>293.554688</course><hAcc>1.411115</hAcc><vAcc>1.016536</vAcc></extensions></trkpt>
      <trkpt lon="-82.145944" lat="33.556749"><ele>90.953644</ele><time>2021-03-14T15:09:43Z</time><extensions><speed>0.825154</speed><course>273.867188</course><hAcc>1.415124</hAcc><vAcc>1.025976</vAcc></extensions></trkpt>
      <trkpt lon="-82.145953" lat="33.556750"><ele>90.882149</ele><time>2021-03-14T15:09:44Z</time><extensions><speed>0.797977</speed><course>279.492188</course><hAcc>1.419129</hAcc><vAcc>1.035831</vAcc></extensions></trkpt>
      <trkpt lon="-82.145961" lat="33.556750"><ele>90.809372</ele><time>2021-03-14T15:09:45Z</time><extensions><speed>0.761208</speed><course>286.171875</course><hAcc>1.423216</hAcc><vAcc>1.045939</vAcc></extensions></trkpt>
      <trkpt lon="-82.145969" lat="33.556751"><ele>90.736229</ele><time>2021-03-14T15:09:46Z</time><extensions><speed>0.715673</speed><course>320.625000</course><hAcc>1.427296</hAcc><vAcc>1.055922</vAcc></extensions></trkpt>
      <trkpt lon="-82.145976" lat="33.556752"><ele>90.663559</ele><time>2021-03-14T15:09:47Z</time><extensions><speed>0.662126</speed><course>283.007812</course><hAcc>1.431146</hAcc><vAcc>1.065261</vAcc></extensions></trkpt>
      <trkpt lon="-82.145983" lat="33.556752"><ele>90.592110</ele><time>2021-03-14T15:09:48Z</time><extensions><speed>0.601356</speed><course>217.617188</course><hAcc>1.434509</hAcc><vAcc>1.073443</vAcc></extensions></trkpt>
      <trkpt lon="-82.145989" lat="33.556753"><ele>90.522545</ele><time>2021-03-14T15:09:49Z</time><extensions><speed>0.534338</speed><course>238.710938</course><hAcc>1.437148</hAcc><vAcc>1.080041</vAcc></extensions></trkpt>
      <trkpt lon="-82.145994" lat="33.556753"><ele>90.455452</ele><time>2021-03-14T15:09:50Z</time><extensions><speed>0.462489</speed><course>242.929688</course><hAcc>1.438860</hAcc><vAcc>1.084719</vAcc></extensions></trkpt>
      <trkpt lon="-82.145999" lat="33.556753"><ele>90.391396</ele><time>2021-03-14T15:09:51Z</time><extensions><speed>0.387898</speed><course>294.609375</course><hAcc>1.439483</hAcc><vAcc>1.087229</vAcc></extensions></trkpt>
      <trkpt lon="-82.146003" lat="33.556752"><ele>90.330833</ele><time>2021-03-14T15:09:52Z</time><extensions><speed>0.313787</speed><course>342.070312</course><hAcc>1.438895</hAcc><vAcc>1.087406</vAcc></extensions></trkpt>
      <trkpt lon="-82.146006" lat="33.556752"><ele>90.274200</ele><time>2021-03-14T15:09:53Z</time><extensions><speed>0.245017</speed><course>340.312500</course><hAcc>1.437021</hAcc><vAcc>1.085166</vAcc></extensions></trkpt>
      <trkpt lon="-82.146008" lat="33.556751"><ele>90.221863</ele><time>2021-03-14T15:09:54Z</time><extensions><speed>0.188273</speed><course>63.984375</course><hAcc>1.433839</hAcc><vAcc>1.080505</vAcc></extensions></trkpt>
      <trkpt lon="-82.146009" lat="33.556750"><ele>90.174194</ele><time>2021-03-14T15:09:55Z</time><extensions><speed>0.151655</speed><course>176.835938</course><hAcc>1.429381</hAcc><vAcc>1.073509</vAcc></extensions></trkpt>
      <trkpt lon="-82.146009" lat="33.556748"><ele>90.131516</ele><time>2021-03-14T15:09:56Z</time><extensions><speed>0.140501</speed><course>152.929688</course><hAcc>1.423743</hAcc><vAcc>1.064354</vAcc></extensions></trkpt>
      <trkpt lon="-82.146009" lat="33.556747"><ele>90.094139</ele><time>2021-03-14T15:09:57Z</time><extensions><speed>0.149773</speed><course>164.531250</course><hAcc>1.417090</hAcc><vAcc>1.053328</vAcc></extensions></trkpt>
      <trkpt lon="-82.146008" lat="33.556746"><ele>90.062340</ele><time>2021-03-14T15:09:58Z</time><extensions><speed>0.168112</speed><course>171.210938</course><hAcc>1.409663</hAcc><vAcc>1.040835</vAcc></extensions></trkpt>
      <trkpt lon="-82.146007" lat="33.556745"><ele>90.036255</ele><time>2021-03-14T15:09:59Z</time><extensions><speed>0.187935</speed><course>189.843750</course><hAcc>1.401782</hAcc><vAcc>1.027408</vAcc></extensions></trkpt>
      <trkpt lon="-82.146005" lat="33.556744"><ele>90.015877</ele><time>2021-03-14T15:10:00Z</time><extensions><speed>0.207011</speed><course>189.140625</course><hAcc>1.393800</hAcc><vAcc>1.013639</vAcc></extensions></trkpt>
      <trkpt lon="-82.146003" lat="33.556743"><ele>90.000923</ele><time>2021-03-14T15:10:01Z</time><extensions><speed>0.226381</speed><course>180.351562</course><hAcc>1.386022</hAcc><vAcc>1.000051</vAcc></extensions></trkpt>
      <trkpt lon="-82.146001" lat="33.556743"><ele>89.990860</ele><time>2021-03-14T15:10:02Z</time><extensions><speed>0.248646</speed><course>150.468750</course><hAcc>1.378667</hAcc><vAcc>0.987035</vAcc></extensions></trkpt>
      <trkpt lon="-82.145998" lat="33.556744"><ele>89.984871</ele><time>2021-03-14T15:10:03Z</time><extensions><speed>0.276728</speed><course>139.921875</course><hAcc>1.371890</hAcc><vAcc>0.974877</vAcc></extensions></trkpt>
      <trkpt lon="-82.145995" lat="33.556745"><ele>89.981873</ele><time>2021-03-14T15:10:04Z</time><extensions><speed>0.312398</speed><course>139.218750</course><hAcc>1.365807</hAcc><vAcc>0.963793</vAcc></extensions></trkpt>
      <trkpt lon="-82.145992" lat="33.556746"><ele>89.980591</ele><time>2021-03-14T15:10:05Z</time><extensions><speed>0.355049</speed><course>132.187500</course><hAcc>1.360532</hAcc><vAcc>0.953974</vAcc></extensions></trkpt>
      <trkpt lon="-82.145989" lat="33.556749"><ele>89.979607</ele><time>2021-03-14T15:10:06Z</time><extensions><speed>0.401939</speed><course>105.820312</course><hAcc>1.356208</hAcc><vAcc>0.945629</vAcc></extensions></trkpt>
      <trkpt lon="-82.145986" lat="33.556752"><ele>89.977486</ele><time>2021-03-14T15:10:07Z</time><extensions><speed>0.449522</speed><course>53.789062</course><hAcc>1.353051</hAcc><vAcc>0.939028</vAcc></extensions></trkpt>
      <trkpt lon="-82.145983" lat="33.556755"><ele>89.972763</ele><time>2021-03-14T15:10:08Z</time><extensions><speed>0.494373</speed><course>24.257812</course><hAcc>1.351375</hAcc><vAcc>0.934531</vAcc></extensions></trkpt>
      <trkpt lon="-82.145979" lat="33.556759"><ele>89.964066</ele><time>2021-03-14T15:10:09Z</time><extensions><speed>0.533639</speed><course>329.062500</course><hAcc>1.351603</hAcc><vAcc>0.932554</vAcc></extensions></trkpt>
      <trkpt lon="-82.145976" lat="33.556763"><ele>89.950226</ele><time>2021-03-14T15:10:10Z</time><extensions><speed>0.565409</speed><course>306.210938</course><hAcc>1.354240</hAcc><vAcc>0.933476</vAcc></extensions></trkpt>
      <trkpt lon="-82.145973" lat="33.556767"><ele>89.930344</ele><time>2021-03-14T15:10:11Z</time><extensions><speed>0.588857</speed><course>294.960938</course><hAcc>1.359875</hAcc><vAcc>0.937596</vAcc></extensions></trkpt>
      <trkpt lon="-82.145970" lat="33.556772"><ele>89.903732</ele><time>2021-03-14T15:10:12Z</time><extensions><speed>0.604244</speed><course>294.960938</course><hAcc>1.369211</hAcc><vAcc>0.945155</vAcc></extensions></trkpt>
      <trkpt lon="-82.145966" lat="33.556776"><ele>89.869881</ele><time>2021-03-14T15:10:13Z</time><extensions><speed>0.613089</speed><course>294.960938</course><hAcc>1.383114</hAcc><vAcc>0.956403</vAcc></extensions></trkpt>
      <trkpt lon="-82.145962" lat="33.556781"><ele>89.828346</ele><time>2021-03-14T15:10:14Z</time><extensions><speed>0.617951</speed><course>294.960938</course><hAcc>1.402672</hAcc><vAcc>0.971727</vAcc></extensions></trkpt>
      <trkpt lon="-82.145958" lat="33.556785"><ele>89.778839</ele><time>2021-03-14T15:10:15Z</time><extensions><speed>0.621705</speed><course>294.960938</course><hAcc>1.429200</hAcc><vAcc>0.991698</vAcc></extensions></trkpt>
      <trkpt lon="-82.145953" lat="33.556789"><ele>89.721130</ele><time>2021-03-14T15:10:16Z</time><extensions><speed>0.627077</speed><course>64.687500</course><hAcc>1.464170</hAcc><vAcc>1.017031</vAcc></extensions></trkpt>
      <trkpt lon="-82.145948" lat="33.556793"><ele>89.655159</ele><time>2021-03-14T15:10:17Z</time><extensions><speed>0.636446</speed><course>64.687500</course><hAcc>1.509104</hAcc><vAcc>1.048519</vAcc></extensions></trkpt>
      <trkpt lon="-82.145942" lat="33.556796"><ele>89.580971</ele><time>2021-03-14T15:10:18Z</time><extensions><speed>0.651598</speed><course>234.140625</course><hAcc>1.565423</hAcc><vAcc>1.086942</vAcc></extensions></trkpt>
      <trkpt lon="-82.145936" lat="33.556799"><ele>89.498817</ele><time>2021-03-14T15:10:19Z</time><extensions><speed>0.673504</speed><course>234.140625</course><hAcc>1.634285</hAcc><vAcc>1.132956</vAcc></extensions></trkpt>
      <trkpt lon="-82.145929" lat="33.556801"><ele>89.409149</ele><time>2021-03-14T15:10:20Z</time><extensions><speed>0.702177</speed><course>80.859375</course><hAcc>1.716419</hAcc><vAcc>1.186990</vAcc></extensions></trkpt>
      <trkpt lon="-82.145922" lat="33.556803"><ele>89.312622</ele><time>2021-03-14T15:10:21Z</time><extensions><speed>0.736685</speed><course>96.679688</course><hAcc>1.812001</hAcc><vAcc>1.249160</vAcc></extensions></trkpt>
      <trkpt lon="-82.145914" lat="33.556805"><ele>89.210121</ele><time>2021-03-14T15:10:22Z</time><extensions><speed>0.775865</speed><course>82.265625</course><hAcc>1.920565</hAcc><vAcc>1.319203</vAcc></extensions></trkpt>
      <trkpt lon="-82.145905" lat="33.556806"><ele>89.102745</ele><time>2021-03-14T15:10:23Z</time><extensions><speed>0.818483</speed><course>74.882812</course><hAcc>2.041032</hAcc><vAcc>1.396539</vAcc></extensions></trkpt>
      <trkpt lon="-82.145896" lat="33.556806"><ele>88.991737</ele><time>2021-03-14T15:10:24Z</time><extensions><speed>0.863409</speed><course>210.234375</course><hAcc>2.172026</hAcc><vAcc>1.480513</vAcc></extensions></trkpt>
      <trkpt lon="-82.145887" lat="33.556806"><ele>88.878326</ele><time>2021-03-14T15:10:25Z</time><extensions><speed>0.909857</speed><course>210.234375</course><hAcc>2.312388</hAcc><vAcc>1.570661</vAcc></extensions></trkpt>
      <trkpt lon="-82.145877" lat="33.556805"><ele>88.763641</ele><time>2021-03-14T15:10:26Z</time><extensions><speed>0.957000</speed><course>210.234375</course><hAcc>2.461382</hAcc><vAcc>1.666780</vAcc></extensions></trkpt>
      <trkpt lon="-82.145866" lat="33.556803"><ele>88.648705</ele><time>2021-03-14T15:10:27Z</time><extensions><speed>1.003976</speed><course>35.507812</course><hAcc>2.618668</hAcc><vAcc>1.768894</vAcc></extensions></trkpt>
      <trkpt lon="-82.145855" lat="33.556801"><ele>88.534370</ele><time>2021-03-14T15:10:28Z</time><extensions><speed>1.049898</speed><course>40.429688</course><hAcc>2.784236</hAcc><vAcc>1.877208</vAcc></extensions></trkpt>
      <trkpt lon="-82.145832" lat="33.556795"><ele>88.313713</ele><time>2021-03-14T15:10:30Z</time><extensions><speed>1.226993</speed><course>76.289062</course><hAcc>3.107864</hAcc><vAcc>2.089896</vAcc></extensions></trkpt>
      <trkpt lon="-82.145820" lat="33.556790"><ele>88.207962</ele><time>2021-03-14T15:10:31Z</time><extensions><speed>1.267364</speed><course>107.929688</course><hAcc>3.274510</hAcc><vAcc>2.200619</vAcc></extensions></trkpt>
      <trkpt lon="-82.145768" lat="33.556707"><ele>87.883484</ele><time>2021-03-14T15:10:46Z</time><extensions><speed>0.872581</speed><course>151.875000</course><hAcc>2.979961</hAcc><vAcc>2.009738</vAcc></extensions></trkpt>
      <trkpt lon="-82.145773" lat="33.556701"><ele>87.944489</ele><time>2021-03-14T15:10:47Z</time><extensions><speed>0.855955</speed><course>163.476562</course><hAcc>2.754701</hAcc><vAcc>1.859769</vAcc></extensions></trkpt>
      <trkpt lon="-82.145779" lat="33.556695"><ele>88.004692</ele><time>2021-03-14T15:10:48Z</time><extensions><speed>0.842085</speed><course>162.070312</course><hAcc>2.545146</hAcc><vAcc>1.721419</vAcc></extensions></trkpt>
      <trkpt lon="-82.145786" lat="33.556690"><ele>88.064140</ele><time>2021-03-14T15:10:49Z</time><extensions><speed>0.832893</speed><course>150.468750</course><hAcc>2.352071</hAcc><vAcc>1.595202</vAcc></extensions></trkpt>
      <trkpt lon="-82.145793" lat="33.556685"><ele>88.123001</ele><time>2021-03-14T15:10:50Z</time><extensions><speed>0.830119</speed><course>156.445312</course><hAcc>2.176541</hAcc><vAcc>1.481793</vAcc></extensions></trkpt>
      <trkpt lon="-82.145800" lat="33.556681"><ele>88.181587</ele><time>2021-03-14T15:10:51Z</time><extensions><speed>0.835187</speed><course>182.812500</course><hAcc>2.019937</hAcc><vAcc>1.382042</vAcc></extensions></trkpt>
      <trkpt lon="-82.145808" lat="33.556677"><ele>88.240341</ele><time>2021-03-14T15:10:52Z</time><extensions><speed>0.848764</speed><course>217.968750</course><hAcc>1.883651</hAcc><vAcc>1.296772</vAcc></extensions></trkpt>
      <trkpt lon="-82.145817" lat="33.556675"><ele>88.299904</ele><time>2021-03-14T15:10:53Z</time><extensions><speed>0.870236</speed><course>234.843750</course><hAcc>1.768461</hAcc><vAcc>1.226365</vAcc></extensions></trkpt>
      <trkpt lon="-82.145826" lat="33.556672"><ele>88.361168</ele><time>2021-03-14T15:10:54Z</time><extensions><speed>0.898061</speed><course>270.703125</course><hAcc>1.674210</hAcc><vAcc>1.170550</vAcc></extensions></trkpt>
      <trkpt lon="-82.145836" lat="33.556670"><ele>88.425415</ele><time>2021-03-14T15:10:55Z</time><extensions><speed>0.930278</speed><course>315.703125</course><hAcc>1.599835</hAcc><vAcc>1.128424</vAcc></extensions></trkpt>
      <trkpt lon="-82.145846" lat="33.556669"><ele>88.494362</ele><time>2021-03-14T15:10:56Z</time><extensions><speed>0.965012</speed><course>333.281250</course><hAcc>1.543479</hAcc><vAcc>1.098534</vAcc></extensions></trkpt>
      <trkpt lon="-82.145856" lat="33.556668"><ele>88.570068</ele><time>2021-03-14T15:10:57Z</time><extensions><speed>1.000759</speed><course>339.609375</course><hAcc>1.502691</hAcc><vAcc>1.079020</vAcc></extensions></trkpt>
      <trkpt lon="-82.145867" lat="33.556668"><ele>88.654663</ele><time>2021-03-14T15:10:58Z</time><extensions><speed>1.036340</speed><course>316.054688</course><hAcc>1.474679</hAcc><vAcc>1.067781</vAcc></extensions></trkpt>
      <trkpt lon="-82.145879" lat="33.556668"><ele>88.750130</ele><time>2021-03-14T15:10:59Z</time><extensions><speed>1.070824</speed><course>274.570312</course><hAcc>1.456555</hAcc><vAcc>1.062633</vAcc></extensions></trkpt>
      <trkpt lon="-82.145890" lat="33.556668"><ele>88.858078</ele><time>2021-03-14T15:11:00Z</time><extensions><speed>1.103615</speed><course>301.289062</course><hAcc>1.445534</hAcc><vAcc>1.061430</vAcc></extensions></trkpt>
      <trkpt lon="-82.145902" lat="33.556669"><ele>88.979599</ele><time>2021-03-14T15:11:01Z</time><extensions><speed>1.134274</speed><course>323.437500</course><hAcc>1.439108</hAcc><vAcc>1.062208</vAcc></extensions></trkpt>
      <trkpt lon="-82.145915" lat="33.556670"><ele>89.115173</ele><time>2021-03-14T15:11:02Z</time><extensions><speed>1.162378</speed><course>337.500000</course><hAcc>1.435194</hAcc><vAcc>1.063360</vAcc></extensions></trkpt>
      <trkpt lon="-82.145927" lat="33.556671"><ele>89.264664</ele><time>2021-03-14T15:11:03Z</time><extensions><speed>1.187328</speed><course>324.843750</course><hAcc>1.432172</hAcc><vAcc>1.063689</vAcc></extensions></trkpt>
      <trkpt lon="-82.145940" lat="33.556672"><ele>89.427254</ele><time>2021-03-14T15:11:04Z</time><extensions><speed>1.208073</speed><course>298.828125</course><hAcc>1.428839</hAcc><vAcc>1.062371</vAcc></extensions></trkpt>
      <trkpt lon="-82.145953" lat="33.556673"><ele>89.601532</ele><time>2021-03-14T15:11:05Z</time><extensions><speed>1.223227</speed><course>291.796875</course><hAcc>1.424347</hAcc><vAcc>1.058913</vAcc></extensions></trkpt>
      <trkpt lon="-82.145966" lat="33.556674"><ele>89.785683</ele><time>2021-03-14T15:11:06Z</time><extensions><speed>1.231266</speed><course>294.960938</course><hAcc>1.418135</hAcc><vAcc>1.053099</vAcc></extensions></trkpt>
      <trkpt lon="-82.145979" lat="33.556675"><ele>89.977577</ele><time>2021-03-14T15:11:07Z</time><extensions><speed>1.230715</speed><course>279.492188</course><hAcc>1.409865</hAcc><vAcc>1.044959</vAcc></extensions></trkpt>
      <trkpt lon="-82.145992" lat="33.556676"><ele>90.174805</ele><time>2021-03-14T15:11:08Z</time><extensions><speed>1.220520</speed><course>274.218750</course><hAcc>1.399374</hAcc><vAcc>1.034729</vAcc></extensions></trkpt>
      <trkpt lon="-82.146005" lat="33.556677"><ele>90.374870</ele><time>2021-03-14T15:11:09Z</time><extensions><speed>1.200480</speed><course>278.437500</course><hAcc>1.386628</hAcc><vAcc>1.022829</vAcc></extensions></trkpt>
      <trkpt lon="-82.146018" lat="33.556678"><ele>90.575264</ele><time>2021-03-14T15:11:10Z</time><extensions><speed>1.171330</speed><course>286.875000</course><hAcc>1.371650</hAcc><vAcc>1.009762</vAcc></extensions></trkpt>
      <trkpt lon="-82.146031" lat="33.556678"><ele>90.773705</ele><time>2021-03-14T15:11:11Z</time><extensions><speed>1.134654</speed><course>291.796875</course><hAcc>1.354416</hAcc><vAcc>0.995958</vAcc></extensions></trkpt>
      <trkpt lon="-82.146043" lat="33.556678"><ele>90.968536</ele><time>2021-03-14T15:11:12Z</time><extensions><speed>1.092512</speed><course>284.765625</course><hAcc>1.334814</hAcc><vAcc>0.981695</vAcc></extensions></trkpt>
      <trkpt lon="-82.146054" lat="33.556678"><ele>91.158882</ele><time>2021-03-14T15:11:13Z</time><extensions><speed>1.046836</speed><course>278.437500</course><hAcc>1.312668</hAcc><vAcc>0.967105</vAcc></extensions></trkpt>
      <trkpt lon="-82.146065" lat="33.556677"><ele>91.344521</ele><time>2021-03-14T15:11:14Z</time><extensions><speed>0.999478</speed><course>284.414062</course><hAcc>1.287782</hAcc><vAcc>0.952200</vAcc></extensions></trkpt>
      <trkpt lon="-82.146075" lat="33.556676"><ele>91.525467</ele><time>2021-03-14T15:11:15Z</time><extensions><speed>0.952547</speed><course>299.179688</course><hAcc>1.260005</hAcc><vAcc>0.936904</vAcc></extensions></trkpt>
      <trkpt lon="-82.146085" lat="33.556674"><ele>91.701797</ele><time>2021-03-14T15:11:16Z</time><extensions><speed>0.908347</speed><course>304.101562</course><hAcc>1.229309</hAcc><vAcc>0.921100</vAcc></extensions></trkpt>
      <trkpt lon="-82.146094" lat="33.556671"><ele>91.873627</ele><time>2021-03-14T15:11:17Z</time><extensions><speed>0.869254</speed><course>286.523438</course><hAcc>1.195885</hAcc><vAcc>0.904678</vAcc></extensions></trkpt>
      <trkpt lon="-82.146103" lat="33.556668"><ele>92.041130</ele><time>2021-03-14T15:11:18Z</time><extensions><speed>0.837579</speed><course>277.734375</course><hAcc>1.160243</hAcc><vAcc>0.887585</vAcc></extensions></trkpt>
      <trkpt lon="-82.146110" lat="33.556664"><ele>92.204437</ele><time>2021-03-14T15:11:19Z</time><extensions><speed>0.815277</speed><course>268.945312</course><hAcc>1.123318</hAcc><vAcc>0.869876</vAcc></extensions></trkpt>
      <trkpt lon="-82.146117" lat="33.556659"><ele>92.363510</ele><time>2021-03-14T15:11:20Z</time><extensions><speed>0.803541</speed><course>217.968750</course><hAcc>1.086529</hAcc><vAcc>0.851750</vAcc></extensions></trkpt>
      <trkpt lon="-82.146123" lat="33.556654"><ele>92.518105</ele><time>2021-03-14T15:11:21Z</time><extensions><speed>0.803208</speed><course>178.945312</course><hAcc>1.051511</hAcc><vAcc>0.833504</vAcc></extensions></trkpt>
      <trkpt lon="-82.146128" lat="33.556649"><ele>92.667862</ele><time>2021-03-14T15:11:22Z</time><extensions><speed>0.813822</speed><course>169.453125</course><hAcc>1.019516</hAcc><vAcc>0.815404</vAcc></extensions></trkpt>
      <trkpt lon="-82.146133" lat="33.556642"><ele>92.812538</ele><time>2021-03-14T15:11:23Z</time><extensions><speed>0.833091</speed><course>204.257812</course><hAcc>0.991190</hAcc><vAcc>0.797648</vAcc></extensions></trkpt>
      <trkpt lon="-82.146137" lat="33.556636"><ele>92.952019</ele><time>2021-03-14T15:11:24Z</time><extensions><speed>0.858361</speed><course>237.656250</course><hAcc>0.966715</hAcc><vAcc>0.780432</vAcc></extensions></trkpt>
      <trkpt lon="-82.146141" lat="33.556628"><ele>93.086288</ele><time>2021-03-14T15:11:25Z</time><extensions><speed>0.887854</speed><course>244.335938</course><hAcc>0.946003</hAcc><vAcc>0.764019</vAcc></extensions></trkpt>
      <trkpt lon="-82.146145" lat="33.556621"><ele>93.215149</ele><time>2021-03-14T15:11:26Z</time><extensions><speed>0.920857</speed><course>225.000000</course><hAcc>0.928868</hAcc><vAcc>0.748798</vAcc></extensions></trkpt>
      <trkpt lon="-82.146149" lat="33.556613"><ele>93.338142</ele><time>2021-03-14T15:11:27Z</time><extensions><speed>0.957681</speed><course>111.445312</course><hAcc>0.915090</hAcc><vAcc>0.735215</vAcc></extensions></trkpt>
      <trkpt lon="-82.146153" lat="33.556605"><ele>93.454651</ele><time>2021-03-14T15:11:28Z</time><extensions><speed>0.999210</speed><course>96.328125</course><hAcc>0.904350</hAcc><vAcc>0.723583</vAcc></extensions></trkpt>
      <trkpt lon="-82.146157" lat="33.556596"><ele>93.564262</ele><time>2021-03-14T15:11:29Z</time><extensions><speed>1.046152</speed><course>108.281250</course><hAcc>0.896226</hAcc><vAcc>0.714003</vAcc></extensions></trkpt>
      <trkpt lon="-82.146162" lat="33.556588"><ele>93.667084</ele><time>2021-03-14T15:11:30Z</time><extensions><speed>1.098436</speed><course>149.765625</course><hAcc>0.890257</hAcc><vAcc>0.706403</vAcc></extensions></trkpt>
      <trkpt lon="-82.146169" lat="33.556579"><ele>93.764008</ele><time>2021-03-14T15:11:31Z</time><extensions><speed>1.155017</speed><course>183.164062</course><hAcc>0.885997</hAcc><vAcc>0.700597</vAcc></extensions></trkpt>
      <trkpt lon="-82.146176" lat="33.556570"><ele>93.856689</ele><time>2021-03-14T15:11:32Z</time><extensions><speed>1.214095</speed><course>199.687500</course><hAcc>0.883048</hAcc><vAcc>0.696331</vAcc></extensions></trkpt>
      <trkpt lon="-82.146185" lat="33.556562"><ele>93.946823</ele><time>2021-03-14T15:11:33Z</time><extensions><speed>1.273217</speed><course>222.890625</course><hAcc>0.881074</hAcc><vAcc>0.693335</vAcc></extensions></trkpt>
      <trkpt lon="-82.146194" lat="33.556553"><ele>94.035515</ele><time>2021-03-14T15:11:34Z</time><extensions><speed>1.329530</speed><course>236.250000</course><hAcc>0.879811</hAcc><vAcc>0.691347</vAcc></extensions></trkpt>
      <trkpt lon="-82.146205" lat="33.556545"><ele>94.123253</ele><time>2021-03-14T15:11:35Z</time><extensions><speed>1.380283</speed><course>224.648438</course><hAcc>0.879066</hAcc><vAcc>0.690141</vAcc></extensions></trkpt>
      <trkpt lon="-82.146217" lat="33.556537"><ele>94.210342</ele><time>2021-03-14T15:11:36Z</time><extensions><speed>1.423362</speed><course>214.101562</course><hAcc>0.878702</hAcc><vAcc>0.689534</vAcc></extensions></trkpt>
      <trkpt lon="-82.146229" lat="33.556529"><ele>94.297218</ele><time>2021-03-14T15:11:37Z</time><extensions><speed>1.457665</speed><course>216.562500</course><hAcc>0.878638</hAcc><vAcc>0.689389</vAcc></extensions></trkpt>
      <trkpt lon="-82.146242" lat="33.556522"><ele>94.384598</ele><time>2021-03-14T15:11:38Z</time><extensions><speed>1.483440</speed><course>224.296875</course><hAcc>0.878832</hAcc><vAcc>0.689611</vAcc></extensions></trkpt>
      <trkpt lon="-82.146256" lat="33.556515"><ele>94.473389</ele><time>2021-03-14T15:11:39Z</time><extensions><speed>1.502375</speed><course>228.164062</course><hAcc>0.879275</hAcc><vAcc>0.690137</vAcc></extensions></trkpt>
      <trkpt lon="-82.146270" lat="33.556509"><ele>94.564507</ele><time>2021-03-14T15:11:40Z</time><extensions><speed>1.516370</speed><course>222.187500</course><hAcc>0.879977</hAcc><vAcc>0.690930</vAcc></extensions></trkpt>
      <trkpt lon="-82.146285" lat="33.556502"><ele>94.658798</ele><time>2021-03-14T15:11:41Z</time><extensions><speed>1.525975</speed><course>217.968750</course><hAcc>0.880960</hAcc><vAcc>0.691962</vAcc></extensions></trkpt>
      <trkpt lon="-82.146300" lat="33.556496"><ele>94.756950</ele><time>2021-03-14T15:11:42Z</time><extensions><speed>1.530298</speed><course>237.304688</course><hAcc>0.882243</hAcc><vAcc>0.693209</vAcc></extensions></trkpt>
      <trkpt lon="-82.146315" lat="33.556491"><ele>94.859451</ele><time>2021-03-14T15:11:43Z</time><extensions><speed>1.527920</speed><course>252.773438</course><hAcc>0.883829</hAcc><vAcc>0.694635</vAcc></extensions></trkpt>
      <trkpt lon="-82.146330" lat="33.556485"><ele>94.966461</ele><time>2021-03-14T15:11:44Z</time><extensions><speed>1.517793</speed><course>270.703125</course><hAcc>0.885695</hAcc><vAcc>0.696185</vAcc></extensions></trkpt>
      <trkpt lon="-82.146345" lat="33.556480"><ele>95.077568</ele><time>2021-03-14T15:11:45Z</time><extensions><speed>1.499826</speed><course>298.476562</course><hAcc>0.887777</hAcc><vAcc>0.697783</vAcc></extensions></trkpt>
      <trkpt lon="-82.146360" lat="33.556475"><ele>95.191750</ele><time>2021-03-14T15:11:46Z</time><extensions><speed>1.475236</speed><course>268.242188</course><hAcc>0.889965</hAcc><vAcc>0.699336</vAcc></extensions></trkpt>
      <trkpt lon="-82.146374" lat="33.556469"><ele>95.307487</ele><time>2021-03-14T15:11:47Z</time><extensions><speed>1.446217</speed><course>238.007812</course><hAcc>0.892110</hAcc><vAcc>0.700752</vAcc></extensions></trkpt>
      <trkpt lon="-82.146388" lat="33.556464"><ele>95.422928</ele><time>2021-03-14T15:11:48Z</time><extensions><speed>1.414783</speed><course>196.171875</course><hAcc>0.894042</hAcc><vAcc>0.701975</vAcc></extensions></trkpt>
      <trkpt lon="-82.146402" lat="33.556459"><ele>95.535934</ele><time>2021-03-14T15:11:49Z</time><extensions><speed>1.382007</speed><course>203.203125</course><hAcc>0.895635</hAcc><vAcc>0.703048</vAcc></extensions></trkpt>
      <trkpt lon="-82.146415" lat="33.556453"><ele>95.644478</ele><time>2021-03-14T15:11:50Z</time><extensions><speed>1.348177</speed><course>206.015625</course><hAcc>0.896904</hAcc><vAcc>0.704211</vAcc></extensions></trkpt>
      <trkpt lon="-82.146428" lat="33.556448"><ele>95.747223</ele><time>2021-03-14T15:11:51Z</time><extensions><speed>1.313232</speed><course>215.859375</course><hAcc>0.898182</hAcc><vAcc>0.706039</vAcc></extensions></trkpt>
      <trkpt lon="-82.146440" lat="33.556442"><ele>95.843628</ele><time>2021-03-14T15:11:52Z</time><extensions><speed>1.277079</speed><course>221.132812</course><hAcc>0.900374</hAcc><vAcc>0.709627</vAcc></extensions></trkpt>
      <trkpt lon="-82.146452" lat="33.556437"><ele>95.933716</ele><time>2021-03-14T15:11:53Z</time><extensions><speed>1.239810</speed><course>258.750000</course><hAcc>0.905308</hAcc><vAcc>0.716804</vAcc></extensions></trkpt>
      <trkpt lon="-82.146464" lat="33.556432"><ele>96.017952</ele><time>2021-03-14T15:11:54Z</time><extensions><speed>1.202023</speed><course>251.718750</course><hAcc>0.916147</hAcc><vAcc>0.730322</vAcc></extensions></trkpt>
      <trkpt lon="-82.146475" lat="33.556427"><ele>96.097191</ele><time>2021-03-14T15:11:55Z</time><extensions><speed>1.165135</speed><course>242.226562</course><hAcc>0.937741</hAcc><vAcc>0.753927</vAcc></extensions></trkpt>
      <trkpt lon="-82.146486" lat="33.556422"><ele>96.172714</ele><time>2021-03-14T15:11:56Z</time><extensions><speed>1.131928</speed><course>326.601562</course><hAcc>0.976671</hAcc><vAcc>0.792158</vAcc></extensions></trkpt>
      <trkpt lon="-82.146497" lat="33.556417"><ele>96.246025</ele><time>2021-03-14T15:11:57Z</time><extensions><speed>1.104892</speed><course>328.710938</course><hAcc>1.040680</hAcc><vAcc>0.849797</vAcc></extensions></trkpt>
      <trkpt lon="-82.146507" lat="33.556413"><ele>96.318436</ele><time>2021-03-14T15:11:58Z</time><extensions><speed>1.085492</speed><course>77.343750</course><hAcc>1.137382</hAcc><vAcc>0.931060</vAcc></extensions></trkpt>
      <trkpt lon="-82.146517" lat="33.556408"><ele>96.390656</ele><time>2021-03-14T15:11:59Z</time><extensions><speed>1.074177</speed><course>209.179688</course><hAcc>1.272770</hAcc><vAcc>1.038969</vAcc></extensions></trkpt>
      <trkpt lon="-82.146528" lat="33.556404"><ele>96.462868</ele><time>2021-03-14T15:12:00Z</time><extensions><speed>1.069317</speed><course>285.468750</course><hAcc>1.450266</hAcc><vAcc>1.175168</vAcc></extensions></trkpt>
      <trkpt lon="-82.146538" lat="33.556400"><ele>96.535103</ele><time>2021-03-14T15:12:01Z</time><extensions><speed>1.068184</speed><course>282.656250</course><hAcc>1.670325</hAcc><vAcc>1.339797</vAcc></extensions></trkpt>
    </trkseg>
  </trk>
</gpx>