<?xml version="1.0" encoding="UTF-8"?>
<gpx version="1.1" creator="Apple Health Export" xmlns="http://www.topografix.com/GPX/1/1" xmlns:xsi="http://www.w3.org/2001/XMLSchema-instance" xsi:schemaLocation="http://www.topografix.com/GPX/1/1 http://www.topografix.com/GPX/1/1/gpx.xsd">
  <metadata>
    <time>2026-03-14T12:16:21Z</time>
  </metadata>
  <trk>
    <name>Route 2023-08-25 9:02am</name>
    <trkseg>
      <trkpt lon="-82.145651" lat="33.557031"><ele>79.723551</ele><time>2023-08-25T12:51:57Z</time><extensions><speed>2.411432</speed><course>53.499861</course><hAcc>13.343708</hAcc><vAcc>4.525199</vAcc></extensions></trkpt>
      <trkpt lon="-82.145631" lat="33.557044"><ele>79.721703</ele><time>2023-08-25T12:51:58Z</time><extensions><speed>2.411471</speed><course>53.499832</course><hAcc>13.471331</hAcc><vAcc>4.526373</vAcc></extensions></trkpt>
      <trkpt lon="-82.145827" lat="33.556863"><ele>89.524980</ele><time>2023-08-25T12:52:34Z</time><extensions><speed>0.424285</speed><course>125.131403</course><hAcc>14.070257</hAcc><vAcc>5.553605</vAcc></extensions></trkpt>
      <trkpt lon="-82.145823" lat="33.556861"><ele>89.234156</ele><time>2023-08-25T12:52:35Z</time><extensions><speed>0.470249</speed><course>124.577523</course><hAcc>13.782780</hAcc><vAcc>5.273363</vAcc></extensions></trkpt>
      <trkpt lon="-82.145812" lat="33.556856"><ele>88.637523</ele><time>2023-08-25T12:52:37Z</time><extensions><speed>0.710567</speed><course>112.557668</course><hAcc>13.392603</hAcc><vAcc>4.765089</vAcc></extensions></trkpt>
      <trkpt lon="-82.145805" lat="33.556853"><ele>88.330763</ele><time>2023-08-25T12:52:38Z</time><extensions><speed>0.749356</speed><course>114.121073</course><hAcc>13.195504</hAcc><vAcc>4.537547</vAcc></extensions></trkpt>
      <trkpt lon="-82.145791" lat="33.556846"><ele>87.698296</ele><time>2023-08-25T12:52:40Z</time><extensions><speed>0.759458</speed><course>128.436412</course><hAcc>12.595560</hAcc><vAcc>4.141748</vAcc></extensions></trkpt>
      <trkpt lon="-82.145756" lat="33.556816"><ele>86.424272</ele><time>2023-08-25T12:52:44Z</time><extensions><speed>1.589251</speed><course>139.350156</course><hAcc>12.017118</hAcc><vAcc>3.628008</vAcc></extensions></trkpt>
      <trkpt lon="-82.145744" lat="33.556805"><ele>86.113053</ele><time>2023-08-25T12:52:45Z</time><extensions><speed>1.662706</speed><course>139.809856</course><hAcc>12.554295</hAcc><vAcc>3.580795</vAcc></extensions></trkpt>
      <trkpt lon="-82.145733" lat="33.556793"><ele>85.805614</ele><time>2023-08-25T12:52:46Z</time><extensions><speed>1.709215</speed><course>139.778288</course><hAcc>13.601317</hAcc><vAcc>3.582602</vAcc></extensions></trkpt>
      <trkpt lon="-82.145721" lat="33.556781"><ele>85.500901</ele><time>2023-08-25T12:52:47Z</time><extensions><speed>1.731089</speed><course>139.158105</course><hAcc>15.140050</hAcc><vAcc>3.635085</vAcc></extensions></trkpt>
      <trkpt lon="-82.145675" lat="33.556641"><ele>78.146001</ele><time>2023-08-25T12:53:12Z</time><extensions><speed>0.511014</speed><course>206.891962</course><hAcc>18.949819</hAcc><vAcc>5.580241</vAcc></extensions></trkpt>
      <trkpt lon="-82.145677" lat="33.556637"><ele>78.278043</ele><time>2023-08-25T12:53:13Z</time><extensions><speed>0.528777</speed><course>200.880581</course><hAcc>18.737028</hAcc><vAcc>5.371350</vAcc></extensions></trkpt>
      <trkpt lon="-82.145679" lat="33.556633"><ele>78.411310</ele><time>2023-08-25T12:53:14Z</time><extensions><speed>0.558392</speed><course>193.772212</course><hAcc>18.581269</hAcc><vAcc>5.199328</vAcc></extensions></trkpt>
      <trkpt lon="-82.145676" lat="33.556603"><ele>78.988874</ele><time>2023-08-25T12:53:18Z</time><extensions><speed>1.134764</speed><course>165.854459</course><hAcc>17.732877</hAcc><vAcc>4.850122</vAcc></extensions></trkpt>
      <trkpt lon="-82.145630" lat="33.556491"><ele>81.272047</ele><time>2023-08-25T12:53:33Z</time><extensions><speed>0.628288</speed><course>152.440960</course><hAcc>22.311716</hAcc><vAcc>4.911665</vAcc></extensions></trkpt>
      <trkpt lon="-82.145605" lat="33.556406"><ele>82.503313</ele><time>2023-08-25T12:53:43Z</time><extensions><speed>1.340191</speed><course>172.894616</course><hAcc>27.986817</hAcc><vAcc>5.503126</vAcc></extensions></trkpt>
      <trkpt lon="-82.145811" lat="33.556677"><ele>79.548637</ele><time>2023-08-25T12:54:07Z</time><extensions><speed>0.376984</speed><course>194.392648</course><hAcc>10.617184</hAcc><vAcc>2.693789</vAcc></extensions></trkpt>
      <trkpt lon="-82.145812" lat="33.556674"><ele>79.713173</ele><time>2023-08-25T12:54:08Z</time><extensions><speed>0.378225</speed><course>193.308645</course><hAcc>9.933620</hAcc><vAcc>2.489533</vAcc></extensions></trkpt>
      <trkpt lon="-82.145813" lat="33.556671"><ele>79.878652</ele><time>2023-08-25T12:54:09Z</time><extensions><speed>0.255745</speed><course>201.108595</course><hAcc>9.396817</hAcc><vAcc>2.303564</vAcc></extensions></trkpt>
      <trkpt lon="-82.145814" lat="33.556669"><ele>80.045011</ele><time>2023-08-25T12:54:10Z</time><extensions><speed>0.129077</speed><course>228.822014</course><hAcc>8.937031</hAcc><vAcc>2.136396</vAcc></extensions></trkpt>
      <trkpt lon="-82.145816" lat="33.556669"><ele>80.212174</ele><time>2023-08-25T12:54:11Z</time><extensions><speed>0.131430</speed><course>268.213314</course><hAcc>8.485653</hAcc><vAcc>1.988412</vAcc></extensions></trkpt>
      <trkpt lon="-82.145820" lat="33.556669"><ele>80.540520</ele><time>2023-08-25T12:54:13Z</time><extensions><speed>0.294969</speed><course>268.972451</course><hAcc>7.512589</hAcc><vAcc>1.738394</vAcc></extensions></trkpt>
      <trkpt lon="-82.145824" lat="33.556669"><ele>80.699476</ele><time>2023-08-25T12:54:14Z</time><extensions><speed>0.351412</speed><course>257.883933</course><hAcc>7.065335</hAcc><vAcc>1.630447</vAcc></extensions></trkpt>
      <trkpt lon="-82.145828" lat="33.556668"><ele>80.853788</ele><time>2023-08-25T12:54:15Z</time><extensions><speed>0.420461</speed><course>248.900644</course><hAcc>6.733445</hAcc><vAcc>1.536824</vAcc></extensions></trkpt>
      <trkpt lon="-82.145832" lat="33.556666"><ele>81.001947</ele><time>2023-08-25T12:54:16Z</time><extensions><speed>0.510724</speed><course>242.669791</course><hAcc>6.498804</hAcc><vAcc>1.456692</vAcc></extensions></trkpt>
      <trkpt lon="-82.145838" lat="33.556663"><ele>81.142834</ele><time>2023-08-25T12:54:17Z</time><extensions><speed>0.654999</speed><course>239.705175</course><hAcc>6.334044</hAcc><vAcc>1.389091</vAcc></extensions></trkpt>
      <trkpt lon="-82.145844" lat="33.556661"><ele>81.275400</ele><time>2023-08-25T12:54:18Z</time><extensions><speed>0.569051</speed><course>257.164438</course><hAcc>6.135916</hAcc><vAcc>1.332930</vAcc></extensions></trkpt>
      <trkpt lon="-82.145849" lat="33.556661"><ele>81.399146</ele><time>2023-08-25T12:54:19Z</time><extensions><speed>0.519548</speed><course>275.563083</course><hAcc>5.922475</hAcc><vAcc>1.287003</vAcc></extensions></trkpt>
      <trkpt lon="-82.145855" lat="33.556662"><ele>81.513254</ele><time>2023-08-25T12:54:20Z</time><extensions><speed>0.506042</speed><course>288.802116</course><hAcc>5.754314</hAcc><vAcc>1.250028</vAcc></extensions></trkpt>
      <trkpt lon="-82.145860" lat="33.556663"><ele>81.617362</ele><time>2023-08-25T12:54:21Z</time><extensions><speed>0.465956</speed><course>293.464423</course><hAcc>5.616540</hAcc><vAcc>1.220689</vAcc></extensions></trkpt>
      <trkpt lon="-82.145864" lat="33.556665"><ele>81.710499</ele><time>2023-08-25T12:54:22Z</time><extensions><speed>0.375610</speed><course>301.220375</course><hAcc>5.461286</hAcc><vAcc>1.197687</vAcc></extensions></trkpt>
      <trkpt lon="-82.145867" lat="33.556667"><ele>81.793743</ele><time>2023-08-25T12:54:23Z</time><extensions><speed>0.347368</speed><course>323.402684</course><hAcc>5.252436</hAcc><vAcc>1.179792</vAcc></extensions></trkpt>
      <trkpt lon="-82.145868" lat="33.556670"><ele>81.866565</ele><time>2023-08-25T12:54:24Z</time><extensions><speed>0.372126</speed><course>341.994796</course><hAcc>5.010792</hAcc><vAcc>1.165887</vAcc></extensions></trkpt>
      <trkpt lon="-82.145869" lat="33.556673"><ele>81.928871</ele><time>2023-08-25T12:54:25Z</time><extensions><speed>0.381650</speed><course>352.053924</course><hAcc>4.778672</hAcc><vAcc>1.155000</vAcc></extensions></trkpt>
      <trkpt lon="-82.145870" lat="33.556677"><ele>81.980819</ele><time>2023-08-25T12:54:26Z</time><extensions><speed>0.352237</speed><course>357.115885</course><hAcc>4.575770</hAcc><vAcc>1.146301</vAcc></extensions></trkpt>
      <trkpt lon="-82.145870" lat="33.556680"><ele>82.022850</ele><time>2023-08-25T12:54:27Z</time><extensions><speed>0.278087</speed><course>358.857947</course><hAcc>4.407587</hAcc><vAcc>1.139085</vAcc></extensions></trkpt>
      <trkpt lon="-82.145870" lat="33.556682"><ele>82.055492</ele><time>2023-08-25T12:54:28Z</time><extensions><speed>0.194242</speed><course>355.521876</course><hAcc>4.259104</hAcc><vAcc>1.132787</vAcc></extensions></trkpt>
      <trkpt lon="-82.145870" lat="33.556683"><ele>82.079167</ele><time>2023-08-25T12:54:29Z</time><extensions><speed>0.125735</speed><course>351.953034</course><hAcc>4.137305</hAcc><vAcc>1.126979</vAcc></extensions></trkpt>
      <trkpt lon="-82.145870" lat="33.556684"><ele>82.094105</ele><time>2023-08-25T12:54:30Z</time><extensions><speed>0.059935</speed><course>326.342630</course><hAcc>4.057115</hAcc><vAcc>1.121377</vAcc></extensions></trkpt>
      <trkpt lon="-82.145871" lat="33.556684"><ele>82.100277</ele><time>2023-08-25T12:54:31Z</time><extensions><speed>0.059246</speed><course>328.881148</course><hAcc>3.981418</hAcc><vAcc>1.115846</vAcc></extensions></trkpt>
      <trkpt lon="-82.145871" lat="33.556685"><ele>82.097394</ele><time>2023-08-25T12:54:32Z</time><extensions><speed>0.069634</speed><course>335.003297</course><hAcc>3.907155</hAcc><vAcc>1.110412</vAcc></extensions></trkpt>
      <trkpt lon="-82.145871" lat="33.556685"><ele>82.084934</ele><time>2023-08-25T12:54:33Z</time><extensions><speed>0.082537</speed><course>329.473459</course><hAcc>3.843256</hAcc><vAcc>1.105252</vAcc></extensions></trkpt>
      <trkpt lon="-82.145872" lat="33.556686"><ele>82.062330</ele><time>2023-08-25T12:54:34Z</time><extensions><speed>0.112648</speed><course>265.561337</course><hAcc>3.795027</hAcc><vAcc>1.100670</vAcc></extensions></trkpt>
      <trkpt lon="-82.145874" lat="33.556685"><ele>82.029272</ele><time>2023-08-25T12:54:35Z</time><extensions><speed>0.188961</speed><course>245.599793</course><hAcc>3.748678</hAcc><vAcc>1.097028</vAcc></extensions></trkpt>
      <trkpt lon="-82.145875" lat="33.556685"><ele>81.985793</ele><time>2023-08-25T12:54:36Z</time><extensions><speed>0.121530</speed><course>262.383579</course><hAcc>3.679729</hAcc><vAcc>1.094695</vAcc></extensions></trkpt>
      <trkpt lon="-82.145876" lat="33.556685"><ele>81.932165</ele><time>2023-08-25T12:54:37Z</time><extensions><speed>0.091933</speed><course>264.446487</course><hAcc>3.633631</hAcc><vAcc>1.094023</vAcc></extensions></trkpt>
      <trkpt lon="-82.145877" lat="33.556684"><ele>81.868914</ele><time>2023-08-25T12:54:38Z</time><extensions><speed>0.158046</speed><course>228.917453</course><hAcc>3.624345</hAcc><vAcc>1.095335</vAcc></extensions></trkpt>
      <trkpt lon="-82.145880" lat="33.556682"><ele>81.796989</ele><time>2023-08-25T12:54:39Z</time><extensions><speed>0.473104</speed><course>215.560875</course><hAcc>3.601183</hAcc><vAcc>1.098896</vAcc></extensions></trkpt>
      <trkpt lon="-82.145883" lat="33.556677"><ele>81.717813</ele><time>2023-08-25T12:54:40Z</time><extensions><speed>0.765177</speed><course>206.962523</course><hAcc>3.594959</hAcc><vAcc>1.104856</vAcc></extensions></trkpt>
      <trkpt lon="-82.145886" lat="33.556671"><ele>81.633158</ele><time>2023-08-25T12:54:41Z</time><extensions><speed>0.841474</speed><course>194.821410</course><hAcc>3.559534</hAcc><vAcc>1.113242</vAcc></extensions></trkpt>
      <trkpt lon="-82.145888" lat="33.556663"><ele>81.544982</ele><time>2023-08-25T12:54:42Z</time><extensions><speed>0.919610</speed><course>184.173939</course><hAcc>3.535100</hAcc><vAcc>1.123991</vAcc></extensions></trkpt>
      <trkpt lon="-82.145887" lat="33.556655"><ele>81.455353</ele><time>2023-08-25T12:54:43Z</time><extensions><speed>0.908564</speed><course>175.559946</course><hAcc>3.542361</hAcc><vAcc>1.137009</vAcc></extensions></trkpt>
      <trkpt lon="-82.145887" lat="33.556647"><ele>81.366336</ele><time>2023-08-25T12:54:44Z</time><extensions><speed>0.787517</speed><course>174.709034</course><hAcc>3.577227</hAcc><vAcc>1.152232</vAcc></extensions></trkpt>
      <trkpt lon="-82.145886" lat="33.556640"><ele>81.279892</ele><time>2023-08-25T12:54:45Z</time><extensions><speed>0.832673</speed><course>175.002771</course><hAcc>3.584148</hAcc><vAcc>1.169678</vAcc></extensions></trkpt>
      <trkpt lon="-82.145885" lat="33.556632"><ele>81.197856</ele><time>2023-08-25T12:54:46Z</time><extensions><speed>0.872577</speed><course>174.377958</course><hAcc>3.563357</hAcc><vAcc>1.189491</vAcc></extensions></trkpt>
      <trkpt lon="-82.145884" lat="33.556624"><ele>81.121907</ele><time>2023-08-25T12:54:47Z</time><extensions><speed>0.936369</speed><course>171.458484</course><hAcc>3.574236</hAcc><vAcc>1.211971</vAcc></extensions></trkpt>
      <trkpt lon="-82.145882" lat="33.556616"><ele>81.053611</ele><time>2023-08-25T12:54:48Z</time><extensions><speed>0.951162</speed><course>166.668483</course><hAcc>3.659022</hAcc><vAcc>1.237601</vAcc></extensions></trkpt>
      <trkpt lon="-82.145879" lat="33.556608"><ele>80.994532</ele><time>2023-08-25T12:54:49Z</time><extensions><speed>0.916445</speed><course>160.554115</course><hAcc>3.803669</hAcc><vAcc>1.267069</vAcc></extensions></trkpt>
      <trkpt lon="-82.145875" lat="33.556600"><ele>80.946310</ele><time>2023-08-25T12:54:50Z</time><extensions><speed>0.928788</speed><course>151.937571</course><hAcc>3.963589</hAcc><vAcc>1.301274</vAcc></extensions></trkpt>
      <trkpt lon="-82.145870" lat="33.556593"><ele>80.910535</ele><time>2023-08-25T12:54:51Z</time><extensions><speed>0.951867</speed><course>141.771503</course><hAcc>4.104666</hAcc><vAcc>1.341319</vAcc></extensions></trkpt>
      <trkpt lon="-82.145863" lat="33.556586"><ele>80.888314</ele><time>2023-08-25T12:54:52Z</time><extensions><speed>0.998415</speed><course>134.242311</course><hAcc>4.224001</hAcc><vAcc>1.388480</vAcc></extensions></trkpt>
      <trkpt lon="-82.145855" lat="33.556581"><ele>80.879872</ele><time>2023-08-25T12:54:53Z</time><extensions><speed>0.841857</speed><course>125.908754</course><hAcc>4.344522</hAcc><vAcc>1.444161</vAcc></extensions></trkpt>
      <trkpt lon="-82.145849" lat="33.556578"><ele>80.884525</ele><time>2023-08-25T12:54:54Z</time><extensions><speed>0.500009</speed><course>118.335679</course><hAcc>4.504187</hAcc><vAcc>1.509846</vAcc></extensions></trkpt>
      <trkpt lon="-82.145845" lat="33.556576"><ele>80.900791</ele><time>2023-08-25T12:54:55Z</time><extensions><speed>0.246379</speed><course>101.470423</course><hAcc>4.732628</hAcc><vAcc>1.587057</vAcc></extensions></trkpt>
      <trkpt lon="-82.145844" lat="33.556577"><ele>80.926492</ele><time>2023-08-25T12:54:56Z</time><extensions><speed>0.134090</speed><course>37.470879</course><hAcc>5.025511</hAcc><vAcc>1.677306</vAcc></extensions></trkpt>
      <trkpt lon="-82.145844" lat="33.556578"><ele>80.958841</ele><time>2023-08-25T12:54:57Z</time><extensions><speed>0.257668</speed><course>343.529920</course><hAcc>5.339212</hAcc><vAcc>1.782062</vAcc></extensions></trkpt>
      <trkpt lon="-82.145845" lat="33.556581"><ele>80.995014</ele><time>2023-08-25T12:54:58Z</time><extensions><speed>0.450319</speed><course>328.110084</course><hAcc>5.630115</hAcc><vAcc>1.902684</vAcc></extensions></trkpt>
      <trkpt lon="-82.145884" lat="33.556614"><ele>81.478961</ele><time>2023-08-25T12:55:08Z</time><extensions><speed>0.506285</speed><course>302.754215</course><hAcc>7.287954</hAcc><vAcc>2.614000</vAcc></extensions></trkpt>
      <trkpt lon="-82.145891" lat="33.556617"><ele>81.575173</ele><time>2023-08-25T12:55:10Z</time><extensions><speed>0.213018</speed><course>311.412223</course><hAcc>7.282299</hAcc><vAcc>2.705139</vAcc></extensions></trkpt>
      <trkpt lon="-82.145893" lat="33.556620"><ele>81.660365</ele><time>2023-08-25T12:55:12Z</time><extensions><speed>0.130768</speed><course>339.829447</course><hAcc>7.459265</hAcc><vAcc>2.792782</vAcc></extensions></trkpt>
      <trkpt lon="-82.145893" lat="33.556621"><ele>81.735058</ele><time>2023-08-25T12:55:14Z</time><extensions><speed>0.088530</speed><course>14.999526</course><hAcc>7.889934</hAcc><vAcc>2.870659</vAcc></extensions></trkpt>
      <trkpt lon="-82.145891" lat="33.556624"><ele>81.800457</ele><time>2023-08-25T12:55:16Z</time><extensions><speed>0.251053</speed><course>33.505483</course><hAcc>7.999810</hAcc><vAcc>2.946568</vAcc></extensions></trkpt>
      <trkpt lon="-82.145859" lat="33.556635"><ele>81.906773</ele><time>2023-08-25T12:55:22Z</time><extensions><speed>0.874302</speed><course>77.567196</course><hAcc>8.709093</hAcc><vAcc>2.806459</vAcc></extensions></trkpt>
      <trkpt lon="-82.145849" lat="33.556636"><ele>81.911520</ele><time>2023-08-25T12:55:24Z</time><extensions><speed>0.935240</speed><course>81.547453</course><hAcc>8.845769</hAcc><vAcc>2.727712</vAcc></extensions></trkpt>
      <trkpt lon="-82.145839" lat="33.556637"><ele>81.915579</ele><time>2023-08-25T12:55:25Z</time><extensions><speed>1.029312</speed><course>84.726521</course><hAcc>9.027221</hAcc><vAcc>2.673248</vAcc></extensions></trkpt>
      <trkpt lon="-82.145813" lat="33.556637"><ele>81.922575</ele><time>2023-08-25T12:55:27Z</time><extensions><speed>1.382369</speed><course>95.725324</course><hAcc>9.327498</hAcc><vAcc>2.617795</vAcc></extensions></trkpt>
      <trkpt lon="-82.145798" lat="33.556635"><ele>81.925805</ele><time>2023-08-25T12:55:28Z</time><extensions><speed>1.490826</speed><course>99.489330</course><hAcc>9.445513</hAcc><vAcc>2.620469</vAcc></extensions></trkpt>
      <trkpt lon="-82.145781" lat="33.556633"><ele>81.929386</ele><time>2023-08-25T12:55:29Z</time><extensions><speed>1.715087</speed><course>102.630200</course><hAcc>9.599802</hAcc><vAcc>2.651338</vAcc></extensions></trkpt>
      <trkpt lon="-82.145762" lat="33.556629"><ele>81.933654</ele><time>2023-08-25T12:55:30Z</time><extensions><speed>1.829609</speed><course>103.690165</course><hAcc>9.772619</hAcc><vAcc>2.711812</vAcc></extensions></trkpt>
      <trkpt lon="-82.145743" lat="33.556625"><ele>81.938754</ele><time>2023-08-25T12:55:31Z</time><extensions><speed>1.861159</speed><course>102.264498</course><hAcc>10.001257</hAcc><vAcc>2.802986</vAcc></extensions></trkpt>
      <trkpt lon="-82.145723" lat="33.556622"><ele>81.944438</ele><time>2023-08-25T12:55:32Z</time><extensions><speed>1.865242</speed><course>101.056962</course><hAcc>10.392530</hAcc><vAcc>2.925487</vAcc></extensions></trkpt>
      <trkpt lon="-82.145896" lat="33.556628"><ele>84.428612</ele><time>2023-08-25T12:57:42Z</time><extensions><speed>0.006365</speed><course>237.864086</course><hAcc>8.161013</hAcc><vAcc>16.460804</vAcc></extensions></trkpt>
      <trkpt lon="-82.145897" lat="33.556627"><ele>84.413888</ele><time>2023-08-25T12:57:44Z</time><extensions><speed>0.025623</speed><course>241.712246</course><hAcc>7.586369</hAcc><vAcc>16.240486</vAcc></extensions></trkpt>
      <trkpt lon="-82.145899" lat="33.556627"><ele>84.340922</ele><time>2023-08-25T12:57:54Z</time><extensions><speed>0.011247</speed><course>244.314016</course><hAcc>8.049282</hAcc><vAcc>16.240638</vAcc></extensions></trkpt>
      <trkpt lon="-82.145899" lat="33.556627"><ele>84.326816</ele><time>2023-08-25T12:57:56Z</time><extensions><speed>0.004912</speed><course>244.318212</course><hAcc>8.677917</hAcc><vAcc>16.460565</vAcc></extensions></trkpt>
      <trkpt lon="-82.145905" lat="33.556628"><ele>81.701366</ele><time>2023-08-25T12:58:27Z</time><extensions><speed>0.062704</speed><course>271.016141</course><hAcc>8.653085</hAcc><vAcc>8.284725</vAcc></extensions></trkpt>
      <trkpt lon="-82.145915" lat="33.556629"><ele>81.546222</ele><time>2023-08-25T12:58:40Z</time><extensions><speed>0.089692</speed><course>282.517238</course><hAcc>6.628883</hAcc><vAcc>3.404120</vAcc></extensions></trkpt>
      <trkpt lon="-82.145916" lat="33.556630"><ele>81.531422</ele><time>2023-08-25T12:58:43Z</time><extensions><speed>0.065930</speed><course>353.790287</course><hAcc>6.568819</hAcc><vAcc>2.898022</vAcc></extensions></trkpt>
      <trkpt lon="-82.145897" lat="33.556633"><ele>81.512011</ele><time>2023-08-25T12:58:47Z</time><extensions><speed>0.912384</speed><course>83.577993</course><hAcc>5.796836</hAcc><vAcc>2.192962</vAcc></extensions></trkpt>
      <trkpt lon="-82.145886" lat="33.556634"><ele>81.509225</ele><time>2023-08-25T12:58:48Z</time><extensions><speed>1.033262</speed><course>86.256389</course><hAcc>5.650902</hAcc><vAcc>2.045500</vAcc></extensions></trkpt>
      <trkpt lon="-82.145874" lat="33.556634"><ele>81.506953</ele><time>2023-08-25T12:58:49Z</time><extensions><speed>1.240393</speed><course>90.118196</course><hAcc>5.574415</hAcc><vAcc>1.913945</vAcc></extensions></trkpt>
      <trkpt lon="-82.145860" lat="33.556634"><ele>81.505716</ele><time>2023-08-25T12:58:50Z</time><extensions><speed>1.337984</speed><course>90.625625</course><hAcc>5.482932</hAcc><vAcc>1.797699</vAcc></extensions></trkpt>
      <trkpt lon="-82.145845" lat="33.556634"><ele>81.506372</ele><time>2023-08-25T12:58:51Z</time><extensions><speed>1.479516</speed><course>90.304937</course><hAcc>5.377096</hAcc><vAcc>1.696030</vAcc></extensions></trkpt>
      <trkpt lon="-82.145828" lat="33.556635"><ele>81.510079</ele><time>2023-08-25T12:58:52Z</time><extensions><speed>1.672489</speed><course>86.147843</course><hAcc>5.282144</hAcc><vAcc>1.608045</vAcc></extensions></trkpt>
      <trkpt lon="-82.145809" lat="33.556636"><ele>81.518256</ele><time>2023-08-25T12:58:53Z</time><extensions><speed>1.819270</speed><course>84.333298</course><hAcc>5.186566</hAcc><vAcc>1.532695</vAcc></extensions></trkpt>
      <trkpt lon="-82.145790" lat="33.556638"><ele>81.532526</ele><time>2023-08-25T12:58:54Z</time><extensions><speed>1.779053</speed><course>78.268581</course><hAcc>5.058736</hAcc><vAcc>1.468792</vAcc></extensions></trkpt>
      <trkpt lon="-82.145773" lat="33.556642"><ele>81.554550</ele><time>2023-08-25T12:58:55Z</time><extensions><speed>1.588505</speed><course>69.882734</course><hAcc>4.895933</hAcc><vAcc>1.415041</vAcc></extensions></trkpt>
      <trkpt lon="-82.145758" lat="33.556648"><ele>81.585855</ele><time>2023-08-25T12:58:56Z</time><extensions><speed>1.442287</speed><course>63.805488</course><hAcc>4.766412</hAcc><vAcc>1.370080</vAcc></extensions></trkpt>
      <trkpt lon="-82.145745" lat="33.556654"><ele>81.627817</ele><time>2023-08-25T12:58:57Z</time><extensions><speed>1.330645</speed><course>59.891960</course><hAcc>4.690377</hAcc><vAcc>1.332543</vAcc></extensions></trkpt>
      <trkpt lon="-82.145733" lat="33.556660"><ele>81.681606</ele><time>2023-08-25T12:58:58Z</time><extensions><speed>1.300350</speed><course>55.935115</course><hAcc>4.600006</hAcc><vAcc>1.301113</vAcc></extensions></trkpt>
      <trkpt lon="-82.145722" lat="33.556667"><ele>81.747875</ele><time>2023-08-25T12:58:59Z</time><extensions><speed>1.228080</speed><course>50.664231</course><hAcc>4.468477</hAcc><vAcc>1.274564</vAcc></extensions></trkpt>
      <trkpt lon="-82.145712" lat="33.556674"><ele>81.826449</ele><time>2023-08-25T12:59:00Z</time><extensions><speed>1.153486</speed><course>47.776373</course><hAcc>4.341983</hAcc><vAcc>1.251790</vAcc></extensions></trkpt>
      <trkpt lon="-82.145703" lat="33.556680"><ele>81.916218</ele><time>2023-08-25T12:59:01Z</time><extensions><speed>1.080183</speed><course>46.882875</course><hAcc>4.239215</hAcc><vAcc>1.231835</vAcc></extensions></trkpt>
      <trkpt lon="-82.145696" lat="33.556687"><ele>82.015068</ele><time>2023-08-25T12:59:02Z</time><extensions><speed>0.902433</speed><course>42.982435</course><hAcc>4.122630</hAcc><vAcc>1.213913</vAcc></extensions></trkpt>
      <trkpt lon="-82.145690" lat="33.556692"><ele>82.119730</ele><time>2023-08-25T12:59:03Z</time><extensions><speed>0.734592</speed><course>39.552867</course><hAcc>4.021681</hAcc><vAcc>1.197426</vAcc></extensions></trkpt>
      <trkpt lon="-82.145686" lat="33.556697"><ele>82.225785</ele><time>2023-08-25T12:59:04Z</time><extensions><speed>0.542102</speed><course>35.158345</course><hAcc>3.957885</hAcc><vAcc>1.181979</vAcc></extensions></trkpt>
      <trkpt lon="-82.145683" lat="33.556700"><ele>82.327918</ele><time>2023-08-25T12:59:05Z</time><extensions><speed>0.315872</speed><course>21.799674</course><hAcc>3.930434</hAcc><vAcc>1.167388</vAcc></extensions></trkpt>
      <trkpt lon="-82.145683" lat="33.556702"><ele>82.420724</ele><time>2023-08-25T12:59:06Z</time><extensions><speed>0.157212</speed><course>321.880239</course><hAcc>3.923303</hAcc><vAcc>1.153665</vAcc></extensions></trkpt>
      <trkpt lon="-82.145685" lat="33.556703"><ele>82.499922</ele><time>2023-08-25T12:59:07Z</time><extensions><speed>0.240566</speed><course>278.245396</course><hAcc>3.901598</hAcc><vAcc>1.140959</vAcc></extensions></trkpt>
      <trkpt lon="-82.145688" lat="33.556703"><ele>82.562789</ele><time>2023-08-25T12:59:08Z</time><extensions><speed>0.274417</speed><course>265.384404</course><hAcc>3.894859</hAcc><vAcc>1.129498</vAcc></extensions></trkpt>
      <trkpt lon="-82.145691" lat="33.556703"><ele>82.607904</ele><time>2023-08-25T12:59:09Z</time><extensions><speed>0.304457</speed><course>263.062401</course><hAcc>3.866103</hAcc><vAcc>1.119542</vAcc></extensions></trkpt>
      <trkpt lon="-82.145694" lat="33.556702"><ele>82.634866</ele><time>2023-08-25T12:59:10Z</time><extensions><speed>0.273534</speed><course>265.444050</course><hAcc>3.832558</hAcc><vAcc>1.111352</vAcc></extensions></trkpt>
      <trkpt lon="-82.145697" lat="33.556702"><ele>82.644083</ele><time>2023-08-25T12:59:11Z</time><extensions><speed>0.271887</speed><course>266.733579</course><hAcc>3.801687</hAcc><vAcc>1.105155</vAcc></extensions></trkpt>
      <trkpt lon="-82.145700" lat="33.556702"><ele>82.636578</ele><time>2023-08-25T12:59:12Z</time><extensions><speed>0.223354</speed><course>269.157416</course><hAcc>3.796479</hAcc><vAcc>1.101114</vAcc></extensions></trkpt>
      <trkpt lon="-82.145702" lat="33.556702"><ele>82.613802</ele><time>2023-08-25T12:59:13Z</time><extensions><speed>0.195787</speed><course>268.173769</course><hAcc>3.816879</hAcc><vAcc>1.099348</vAcc></extensions></trkpt>
      <trkpt lon="-82.145704" lat="33.556702"><ele>82.577520</ele><time>2023-08-25T12:59:14Z</time><extensions><speed>0.140676</speed><course>266.654922</course><hAcc>3.847960</hAcc><vAcc>1.099984</vAcc></extensions></trkpt>
      <trkpt lon="-82.145705" lat="33.556702"><ele>82.529652</ele><time>2023-08-25T12:59:15Z</time><extensions><speed>0.098632</speed><course>266.881401</course><hAcc>3.858963</hAcc><vAcc>1.103204</vAcc></extensions></trkpt>
      <trkpt lon="-82.145705" lat="33.556702"><ele>82.472055</ele><time>2023-08-25T12:59:16Z</time><extensions><speed>0.025072</speed><course>80.657863</course><hAcc>3.882034</hAcc><vAcc>1.109278</vAcc></extensions></trkpt>
      <trkpt lon="-82.145705" lat="33.556702"><ele>82.406410</ele><time>2023-08-25T12:59:17Z</time><extensions><speed>0.054401</speed><course>152.224456</course><hAcc>3.897407</hAcc><vAcc>1.118588</vAcc></extensions></trkpt>
      <trkpt lon="-82.145704" lat="33.556701"><ele>82.334214</ele><time>2023-08-25T12:59:18Z</time><extensions><speed>0.235480</speed><course>111.747778</course><hAcc>3.967513</hAcc><vAcc>1.131655</vAcc></extensions></trkpt>
      <trkpt lon="-82.145699" lat="33.556700"><ele>82.256767</ele><time>2023-08-25T12:59:19Z</time><extensions><speed>0.656008</speed><course>100.057826</course><hAcc>4.085616</hAcc><vAcc>1.149128</vAcc></extensions></trkpt>
      <trkpt lon="-82.145691" lat="33.556699"><ele>82.175151</ele><time>2023-08-25T12:59:20Z</time><extensions><speed>0.805086</speed><course>99.085338</course><hAcc>4.202452</hAcc><vAcc>1.171769</vAcc></extensions></trkpt>
      <trkpt lon="-82.145682" lat="33.556698"><ele>82.090235</ele><time>2023-08-25T12:59:21Z</time><extensions><speed>1.006553</speed><course>96.814148</course><hAcc>4.348022</hAcc><vAcc>1.200443</vAcc></extensions></trkpt>
      <trkpt lon="-82.145670" lat="33.556697"><ele>82.002711</ele><time>2023-08-25T12:59:22Z</time><extensions><speed>1.242923</speed><course>97.267935</course><hAcc>4.495317</hAcc><vAcc>1.236151</vAcc></extensions></trkpt>
      <trkpt lon="-82.145640" lat="33.556693"><ele>81.819718</ele><time>2023-08-25T12:59:24Z</time><extensions><speed>1.554011</speed><course>98.275678</course><hAcc>4.926521</hAcc><vAcc>1.303222</vAcc></extensions></trkpt>
      <trkpt lon="-82.145609" lat="33.556688"><ele>81.629457</ele><time>2023-08-25T12:59:26Z</time><extensions><speed>1.384886</speed><course>103.804317</course><hAcc>5.565848</hAcc><vAcc>1.362062</vAcc></extensions></trkpt>
      <trkpt lon="-82.145594" lat="33.556685"><ele>81.533445</ele><time>2023-08-25T12:59:27Z</time><extensions><speed>1.388685</speed><course>104.095231</course><hAcc>5.939485</hAcc><vAcc>1.400693</vAcc></extensions></trkpt>
      <trkpt lon="-82.145580" lat="33.556682"><ele>81.437185</ele><time>2023-08-25T12:59:28Z</time><extensions><speed>1.328863</speed><course>106.721382</course><hAcc>6.352462</hAcc><vAcc>1.456151</vAcc></extensions></trkpt>
      <trkpt lon="-82.145527" lat="33.556669"><ele>80.979083</ele><time>2023-08-25T12:59:33Z</time><extensions><speed>0.722875</speed><course>107.478074</course><hAcc>7.888068</hAcc><vAcc>1.615181</vAcc></extensions></trkpt>
      <trkpt lon="-82.145520" lat="33.556667"><ele>80.892938</ele><time>2023-08-25T12:59:34Z</time><extensions><speed>0.710511</speed><course>106.041850</course><hAcc>7.959711</hAcc><vAcc>1.662432</vAcc></extensions></trkpt>
      <trkpt lon="-82.145513" lat="33.556665"><ele>80.808126</ele><time>2023-08-25T12:59:35Z</time><extensions><speed>0.705802</speed><course>102.682664</course><hAcc>8.066328</hAcc><vAcc>1.747057</vAcc></extensions></trkpt>
      <trkpt lon="-82.145505" lat="33.556664"><ele>80.724620</ele><time>2023-08-25T12:59:36Z</time><extensions><speed>0.734768</speed><course>97.982459</course><hAcc>8.240715</hAcc><vAcc>1.866715</vAcc></extensions></trkpt>
      <trkpt lon="-82.145497" lat="33.556663"><ele>80.642254</ele><time>2023-08-25T12:59:37Z</time><extensions><speed>0.797189</speed><course>92.826195</course><hAcc>8.513493</hAcc><vAcc>2.019025</vAcc></extensions></trkpt>
      <trkpt lon="-82.145488" lat="33.556663"><ele>80.560686</ele><time>2023-08-25T12:59:38Z</time><extensions><speed>0.846335</speed><course>89.243966</course><hAcc>8.946314</hAcc><vAcc>2.201825</vAcc></extensions></trkpt>
      <trkpt lon="-82.145893" lat="33.556633"><ele>83.738895</ele><time>2023-08-25T13:00:48Z</time><extensions><speed>0.014219</speed><course>259.149675</course><hAcc>17.186986</hAcc><vAcc>15.960078</vAcc></extensions></trkpt>
      <trkpt lon="-82.145894" lat="33.556633"><ele>83.841969</ele><time>2023-08-25T13:01:00Z</time><extensions><speed>0.012058</speed><course>250.374756</course><hAcc>7.200247</hAcc><vAcc>15.196146</vAcc></extensions></trkpt>
      <trkpt lon="-82.145895" lat="33.556633"><ele>83.888997</ele><time>2023-08-25T13:01:06Z</time><extensions><speed>0.012074</speed><course>248.887553</course><hAcc>7.347380</hAcc><vAcc>16.091250</vAcc></extensions></trkpt>
      <trkpt lon="-82.145902" lat="33.556638"><ele>83.246682</ele><time>2023-08-25T13:02:00Z</time><extensions><speed>0.068413</speed><course>322.483158</course><hAcc>19.806431</hAcc><vAcc>14.582213</vAcc></extensions></trkpt>
      <trkpt lon="-82.145903" lat="33.556640"><ele>83.244086</ele><time>2023-08-25T13:02:08Z</time><extensions><speed>0.012190</speed><course>92.446366</course><hAcc>8.383537</hAcc><vAcc>12.972336</vAcc></extensions></trkpt>
      <trkpt lon="-82.145903" lat="33.556640"><ele>83.243856</ele><time>2023-08-25T13:02:10Z</time><extensions><speed>0.043791</speed><course>109.605777</course><hAcc>7.886959</hAcc><vAcc>12.757916</vAcc></extensions></trkpt>
      <trkpt lon="-82.145899" lat="33.556639"><ele>83.242944</ele><time>2023-08-25T13:02:20Z</time><extensions><speed>0.030939</speed><course>112.581661</course><hAcc>8.522450</hAcc><vAcc>12.720212</vAcc></extensions></trkpt>
      <trkpt lon="-82.145899" lat="33.556639"><ele>83.242751</ele><time>2023-08-25T13:02:22Z</time><extensions><speed>0.006979</speed><course>112.584852</course><hAcc>9.332146</hAcc><vAcc>12.961057</vAcc></extensions></trkpt>
    </trkseg>
  </trk>
</gpx>