<?xml version="1.0" encoding="UTF-8"?>
<gpx version="1.1" creator="Apple Health Export" xmlns="http://www.topografix.com/GPX/1/1" xmlns:xsi="http://www.w3.org/2001/XMLSchema-instance" xsi:schemaLocation="http://www.topografix.com/GPX/1/1 http://www.topografix.com/GPX/1/1/gpx.xsd">
  <metadata>
    <time>2026-03-14T12:17:02Z</time>
  </metadata>
  <trk>
    <name>Route 2025-08-15 8:22am</name>
    <trkseg>
      <trkpt lon="-82.146299" lat="33.556575"><ele>86.081609</ele><time>2025-08-15T12:21:35Z</time><extensions><speed>1.550992</speed><course>77.151315</course><hAcc>2.824440</hAcc><vAcc>1.812495</vAcc></extensions></trkpt>
      <trkpt lon="-82.146285" lat="33.556578"><ele>86.175902</ele><time>2025-08-15T12:21:36Z</time><extensions><speed>1.492083</speed><course>76.781642</course><hAcc>2.685963</hAcc><vAcc>1.617649</vAcc></extensions></trkpt>
      <trkpt lon="-82.146271" lat="33.556581"><ele>86.272707</ele><time>2025-08-15T12:21:37Z</time><extensions><speed>1.364616</speed><course>76.795077</course><hAcc>2.509218</hAcc><vAcc>1.463177</vAcc></extensions></trkpt>
      <trkpt lon="-82.146259" lat="33.556584"><ele>86.369095</ele><time>2025-08-15T12:21:38Z</time><extensions><speed>1.282932</speed><course>76.032871</course><hAcc>2.323358</hAcc><vAcc>1.343515</vAcc></extensions></trkpt>
      <trkpt lon="-82.146247" lat="33.556588"><ele>86.460289</ele><time>2025-08-15T12:21:39Z</time><extensions><speed>1.271471</speed><course>75.594558</course><hAcc>2.224278</hAcc><vAcc>1.253329</vAcc></extensions></trkpt>
      <trkpt lon="-82.146235" lat="33.556591"><ele>86.543064</ele><time>2025-08-15T12:21:40Z</time><extensions><speed>1.306945</speed><course>76.372582</course><hAcc>2.189496</hAcc><vAcc>1.187426</vAcc></extensions></trkpt>
      <trkpt lon="-82.146223" lat="33.556594"><ele>86.615848</ele><time>2025-08-15T12:21:41Z</time><extensions><speed>1.223406</speed><course>81.202271</course><hAcc>2.111450</hAcc><vAcc>1.140889</vAcc></extensions></trkpt>
      <trkpt lon="-82.146212" lat="33.556596"><ele>86.677983</ele><time>2025-08-15T12:21:42Z</time><extensions><speed>1.195058</speed><course>81.539685</course><hAcc>2.049047</hAcc><vAcc>1.109141</vAcc></extensions></trkpt>
      <trkpt lon="-82.146200" lat="33.556599"><ele>86.728056</ele><time>2025-08-15T12:21:43Z</time><extensions><speed>1.280137</speed><course>77.555527</course><hAcc>2.036098</hAcc><vAcc>1.088227</vAcc></extensions></trkpt>
      <trkpt lon="-82.146188" lat="33.556602"><ele>86.766940</ele><time>2025-08-15T12:21:44Z</time><extensions><speed>1.175285</speed><course>70.920967</course><hAcc>1.974269</hAcc><vAcc>1.074857</vAcc></extensions></trkpt>
      <trkpt lon="-82.146177" lat="33.556606"><ele>86.789209</ele><time>2025-08-15T12:21:45Z</time><extensions><speed>1.204605</speed><course>68.498923</course><hAcc>1.945260</hAcc><vAcc>1.066467</vAcc></extensions></trkpt>
      <trkpt lon="-82.146167" lat="33.556611"><ele>86.795978</ele><time>2025-08-15T12:21:46Z</time><extensions><speed>1.084642</speed><course>66.751292</course><hAcc>1.901851</hAcc><vAcc>1.061199</vAcc></extensions></trkpt>
      <trkpt lon="-82.146157" lat="33.556616"><ele>86.783686</ele><time>2025-08-15T12:21:47Z</time><extensions><speed>1.082342</speed><course>65.183610</course><hAcc>1.887017</hAcc><vAcc>1.057686</vAcc></extensions></trkpt>
      <trkpt lon="-82.146147" lat="33.556621"><ele>86.751951</ele><time>2025-08-15T12:21:48Z</time><extensions><speed>1.183971</speed><course>69.933559</course><hAcc>1.896619</hAcc><vAcc>1.055012</vAcc></extensions></trkpt>
      <trkpt lon="-82.146137" lat="33.556626"><ele>86.699490</ele><time>2025-08-15T12:21:49Z</time><extensions><speed>1.097433</speed><course>67.082329</course><hAcc>1.856983</hAcc><vAcc>1.052633</vAcc></extensions></trkpt>
      <trkpt lon="-82.146127" lat="33.556630"><ele>86.632165</ele><time>2025-08-15T12:21:50Z</time><extensions><speed>1.179895</speed><course>72.905760</course><hAcc>1.860548</hAcc><vAcc>1.050170</vAcc></extensions></trkpt>
      <trkpt lon="-82.146117" lat="33.556635"><ele>86.552402</ele><time>2025-08-15T12:21:51Z</time><extensions><speed>1.052164</speed><course>63.554080</course><hAcc>1.811515</hAcc><vAcc>1.047426</vAcc></extensions></trkpt>
      <trkpt lon="-82.146109" lat="33.556640"><ele>86.458206</ele><time>2025-08-15T12:21:52Z</time><extensions><speed>1.060636</speed><course>61.443821</course><hAcc>1.808084</hAcc><vAcc>1.044410</vAcc></extensions></trkpt>
      <trkpt lon="-82.146100" lat="33.556645"><ele>86.343373</ele><time>2025-08-15T12:21:53Z</time><extensions><speed>1.208597</speed><course>65.638025</course><hAcc>1.831723</hAcc><vAcc>1.041116</vAcc></extensions></trkpt>
      <trkpt lon="-82.146090" lat="33.556650"><ele>86.217449</ele><time>2025-08-15T12:21:54Z</time><extensions><speed>1.104871</speed><course>64.634715</course><hAcc>1.811420</hAcc><vAcc>1.037646</vAcc></extensions></trkpt>
      <trkpt lon="-82.146080" lat="33.556655"><ele>86.085262</ele><time>2025-08-15T12:21:55Z</time><extensions><speed>1.185115</speed><course>74.303914</course><hAcc>1.829749</hAcc><vAcc>1.034043</vAcc></extensions></trkpt>
      <trkpt lon="-82.146070" lat="33.556659"><ele>85.947271</ele><time>2025-08-15T12:21:56Z</time><extensions><speed>0.989367</speed><course>56.969564</course><hAcc>1.775353</hAcc><vAcc>1.030389</vAcc></extensions></trkpt>
      <trkpt lon="-82.146062" lat="33.556665"><ele>85.805419</ele><time>2025-08-15T12:21:57Z</time><extensions><speed>1.022232</speed><course>56.474416</course><hAcc>1.794368</hAcc><vAcc>1.026814</vAcc></extensions></trkpt>
      <trkpt lon="-82.146053" lat="33.556671"><ele>85.660941</ele><time>2025-08-15T12:21:58Z</time><extensions><speed>1.183108</speed><course>59.476784</course><hAcc>1.827684</hAcc><vAcc>1.023372</vAcc></extensions></trkpt>
      <trkpt lon="-82.146044" lat="33.556677"><ele>85.513074</ele><time>2025-08-15T12:21:59Z</time><extensions><speed>1.038377</speed><course>53.781277</course><hAcc>1.815486</hAcc><vAcc>1.020193</vAcc></extensions></trkpt>
      <trkpt lon="-82.146035" lat="33.556682"><ele>85.365734</ele><time>2025-08-15T12:22:00Z</time><extensions><speed>1.015254</speed><course>55.603806</course><hAcc>1.839968</hAcc><vAcc>1.017531</vAcc></extensions></trkpt>
      <trkpt lon="-82.146026" lat="33.556687"><ele>85.219409</ele><time>2025-08-15T12:22:01Z</time><extensions><speed>1.024116</speed><course>59.337260</course><hAcc>1.873573</hAcc><vAcc>1.015533</vAcc></extensions></trkpt>
      <trkpt lon="-82.146017" lat="33.556692"><ele>85.075246</ele><time>2025-08-15T12:22:02Z</time><extensions><speed>0.976167</speed><course>65.947715</course><hAcc>1.897288</hAcc><vAcc>1.014263</vAcc></extensions></trkpt>
      <trkpt lon="-82.146008" lat="33.556695"><ele>84.934024</ele><time>2025-08-15T12:22:03Z</time><extensions><speed>1.061884</speed><course>70.572622</course><hAcc>1.930376</hAcc><vAcc>1.013710</vAcc></extensions></trkpt>
      <trkpt lon="-82.145998" lat="33.556698"><ele>84.797604</ele><time>2025-08-15T12:22:04Z</time><extensions><speed>0.903212</speed><course>73.524080</course><hAcc>1.944616</hAcc><vAcc>1.013829</vAcc></extensions></trkpt>
      <trkpt lon="-82.145989" lat="33.556701"><ele>84.669123</ele><time>2025-08-15T12:22:05Z</time><extensions><speed>0.856560</speed><course>75.727909</course><hAcc>1.991274</hAcc><vAcc>1.014572</vAcc></extensions></trkpt>
      <trkpt lon="-82.145981" lat="33.556703"><ele>84.547968</ele><time>2025-08-15T12:22:06Z</time><extensions><speed>0.821526</speed><course>80.047854</course><hAcc>2.059150</hAcc><vAcc>1.015931</vAcc></extensions></trkpt>
      <trkpt lon="-82.145972" lat="33.556704"><ele>84.432381</ele><time>2025-08-15T12:22:07Z</time><extensions><speed>0.810177</speed><course>86.597034</course><hAcc>2.148448</hAcc><vAcc>1.018113</vAcc></extensions></trkpt>
      <trkpt lon="-82.145964" lat="33.556704"><ele>84.324232</ele><time>2025-08-15T12:22:08Z</time><extensions><speed>0.794129</speed><course>92.692257</course><hAcc>2.249910</hAcc><vAcc>1.021447</vAcc></extensions></trkpt>
      <trkpt lon="-82.145956" lat="33.556704"><ele>84.224679</ele><time>2025-08-15T12:22:09Z</time><extensions><speed>0.727440</speed><course>98.801982</course><hAcc>2.352707</hAcc><vAcc>1.026303</vAcc></extensions></trkpt>
      <trkpt lon="-82.145950" lat="33.556703"><ele>84.132009</ele><time>2025-08-15T12:22:10Z</time><extensions><speed>0.543702</speed><course>95.782303</course><hAcc>2.456929</hAcc><vAcc>1.032974</vAcc></extensions></trkpt>
      <trkpt lon="-82.145945" lat="33.556703"><ele>84.044841</ele><time>2025-08-15T12:22:11Z</time><extensions><speed>0.427440</speed><course>93.309436</course><hAcc>2.618909</hAcc><vAcc>1.041695</vAcc></extensions></trkpt>
      <trkpt lon="-82.145940" lat="33.556703"><ele>83.963036</ele><time>2025-08-15T12:22:12Z</time><extensions><speed>0.362635</speed><course>91.879402</course><hAcc>2.811670</hAcc><vAcc>1.052654</vAcc></extensions></trkpt>
      <trkpt lon="-82.145937" lat="33.556703"><ele>83.886415</ele><time>2025-08-15T12:22:13Z</time><extensions><speed>0.348260</speed><course>96.312944</course><hAcc>3.000830</hAcc><vAcc>1.065855</vAcc></extensions></trkpt>
      <trkpt lon="-82.145929" lat="33.556701"><ele>84.007171</ele><time>2025-08-15T12:22:14Z</time><extensions><speed>0.468197</speed><course>102.905268</course><hAcc>3.133887</hAcc><vAcc>1.060818</vAcc></extensions></trkpt>
      <trkpt lon="-82.145923" lat="33.556700"><ele>84.069104</ele><time>2025-08-15T12:22:15Z</time><extensions><speed>0.496852</speed><course>102.265047</course><hAcc>3.223640</hAcc><vAcc>1.062980</vAcc></extensions></trkpt>
      <trkpt lon="-82.145918" lat="33.556699"><ele>84.079713</ele><time>2025-08-15T12:22:16Z</time><extensions><speed>0.500528</speed><course>99.421583</course><hAcc>3.293196</hAcc><vAcc>1.079279</vAcc></extensions></trkpt>
      <trkpt lon="-82.145912" lat="33.556698"><ele>84.102740</ele><time>2025-08-15T12:22:17Z</time><extensions><speed>0.492077</speed><course>96.966090</course><hAcc>3.375166</hAcc><vAcc>1.098062</vAcc></extensions></trkpt>
      <trkpt lon="-82.145907" lat="33.556698"><ele>84.137946</ele><time>2025-08-15T12:22:18Z</time><extensions><speed>0.501948</speed><course>99.096898</course><hAcc>3.498445</hAcc><vAcc>1.119983</vAcc></extensions></trkpt>
      <trkpt lon="-82.145902" lat="33.556697"><ele>84.184955</ele><time>2025-08-15T12:22:19Z</time><extensions><speed>0.492632</speed><course>99.955176</course><hAcc>3.606777</hAcc><vAcc>1.145945</vAcc></extensions></trkpt>
      <trkpt lon="-82.145896" lat="33.556696"><ele>84.243239</ele><time>2025-08-15T12:22:20Z</time><extensions><speed>0.541599</speed><course>101.632591</course><hAcc>3.687813</hAcc><vAcc>1.177176</vAcc></extensions></trkpt>
      <trkpt lon="-82.145890" lat="33.556695"><ele>84.312118</ele><time>2025-08-15T12:22:21Z</time><extensions><speed>0.694885</speed><course>102.901599</course><hAcc>3.716661</hAcc><vAcc>1.215315</vAcc></extensions></trkpt>
      <trkpt lon="-82.145881" lat="33.556693"><ele>84.390739</ele><time>2025-08-15T12:22:22Z</time><extensions><speed>0.917663</speed><course>103.747048</course><hAcc>3.679397</hAcc><vAcc>1.262467</vAcc></extensions></trkpt>
      <trkpt lon="-82.145870" lat="33.556691"><ele>84.478052</ele><time>2025-08-15T12:22:23Z</time><extensions><speed>1.189159</speed><course>104.252880</course><hAcc>3.567665</hAcc><vAcc>1.321231</vAcc></extensions></trkpt>
      <trkpt lon="-82.145835" lat="33.556683"><ele>84.949479</ele><time>2025-08-15T12:22:27Z</time><extensions><speed>0.516014</speed><course>105.027057</course><hAcc>3.598024</hAcc><vAcc>1.628378</vAcc></extensions></trkpt>
      <trkpt lon="-82.145830" lat="33.556682"><ele>85.093525</ele><time>2025-08-15T12:22:28Z</time><extensions><speed>0.337136</speed><course>105.037189</course><hAcc>3.801785</hAcc><vAcc>1.791697</vAcc></extensions></trkpt>
    </trkseg>
  </trk>
</gpx>