<?xml version="1.0" encoding="UTF-8"?>
<gpx version="1.1" creator="Apple Health Export" xmlns="http://www.topografix.com/GPX/1/1" xmlns:xsi="http://www.w3.org/2001/XMLSchema-instance" xsi:schemaLocation="http://www.topografix.com/GPX/1/1 http://www.topografix.com/GPX/1/1/gpx.xsd">
  <metadata>
    <time>2026-03-14T12:15:49Z</time>
  </metadata>
  <trk>
    <name>Route 2022-01-01 10:43am</name>
    <trkseg>
      <trkpt lon="-82.148955" lat="33.554259"><ele>98.578087</ele><time>2022-01-01T15:37:06Z</time><extensions><speed>1.740624</speed><course>57.396683</course><hAcc>2.324990</hAcc><vAcc>2.329362</vAcc></extensions></trkpt>
      <trkpt lon="-82.148928" lat="33.554272"><ele>98.513588</ele><time>2022-01-01T15:37:07Z</time><extensions><speed>1.794391</speed><course>64.275551</course><hAcc>1.889548</hAcc><vAcc>1.985285</vAcc></extensions></trkpt>
      <trkpt lon="-82.148922" lat="33.554274"><ele>98.495094</ele><time>2022-01-01T15:37:08Z</time><extensions><speed>1.806317</speed><course>65.822624</course><hAcc>1.833646</hAcc><vAcc>1.904144</vAcc></extensions></trkpt>
      <trkpt lon="-82.148904" lat="33.554281"><ele>98.448669</ele><time>2022-01-01T15:37:09Z</time><extensions><speed>1.918719</speed><course>71.515434</course><hAcc>1.739521</hAcc><vAcc>1.737258</vAcc></extensions></trkpt>
      <trkpt lon="-82.148885" lat="33.554285"><ele>98.400330</ele><time>2022-01-01T15:37:10Z</time><extensions><speed>1.786012</speed><course>75.519089</course><hAcc>1.629521</hAcc><vAcc>1.595427</vAcc></extensions></trkpt>
      <trkpt lon="-82.148867" lat="33.554289"><ele>98.360840</ele><time>2022-01-01T15:37:11Z</time><extensions><speed>1.665190</speed><course>80.151245</course><hAcc>1.595060</hAcc><vAcc>1.475379</vAcc></extensions></trkpt>
      <trkpt lon="-82.148851" lat="33.554292"><ele>98.326271</ele><time>2022-01-01T15:37:12Z</time><extensions><speed>1.431006</speed><course>70.427246</course><hAcc>1.624998</hAcc><vAcc>1.374197</vAcc></extensions></trkpt>
      <trkpt lon="-82.148837" lat="33.554297"><ele>98.303459</ele><time>2022-01-01T15:37:13Z</time><extensions><speed>1.314915</speed><course>67.219193</course><hAcc>1.569494</hAcc><vAcc>1.289300</vAcc></extensions></trkpt>
      <trkpt lon="-82.148825" lat="33.554302"><ele>98.287910</ele><time>2022-01-01T15:37:14Z</time><extensions><speed>1.258151</speed><course>64.993141</course><hAcc>1.520240</hAcc><vAcc>1.218473</vAcc></extensions></trkpt>
      <trkpt lon="-82.148813" lat="33.554306"><ele>98.270653</ele><time>2022-01-01T15:37:15Z</time><extensions><speed>1.257127</speed><course>63.115551</course><hAcc>1.532982</hAcc><vAcc>1.159889</vAcc></extensions></trkpt>
      <trkpt lon="-82.148800" lat="33.554312"><ele>98.246582</ele><time>2022-01-01T15:37:16Z</time><extensions><speed>1.402699</speed><course>58.158951</course><hAcc>1.587429</hAcc><vAcc>1.112031</vAcc></extensions></trkpt>
      <trkpt lon="-82.148787" lat="33.554318"><ele>98.218124</ele><time>2022-01-01T15:37:17Z</time><extensions><speed>1.398268</speed><course>65.017357</course><hAcc>1.584250</hAcc><vAcc>1.073492</vAcc></extensions></trkpt>
      <trkpt lon="-82.148774" lat="33.554324"><ele>98.200546</ele><time>2022-01-01T15:37:18Z</time><extensions><speed>1.366379</speed><course>64.857361</course><hAcc>1.559259</hAcc><vAcc>1.042895</vAcc></extensions></trkpt>
      <trkpt lon="-82.148761" lat="33.554329"><ele>98.184113</ele><time>2022-01-01T15:37:19Z</time><extensions><speed>1.247503</speed><course>60.539188</course><hAcc>1.553470</hAcc><vAcc>1.018937</vAcc></extensions></trkpt>
      <trkpt lon="-82.148750" lat="33.554334"><ele>98.163132</ele><time>2022-01-01T15:37:20Z</time><extensions><speed>1.035137</speed><course>64.217667</course><hAcc>1.553670</hAcc><vAcc>1.000418</vAcc></extensions></trkpt>
      <trkpt lon="-82.148740" lat="33.554337"><ele>98.139908</ele><time>2022-01-01T15:37:21Z</time><extensions><speed>0.941372</speed><course>71.962852</course><hAcc>1.581785</hAcc><vAcc>0.980442</vAcc></extensions></trkpt>
      <trkpt lon="-82.148730" lat="33.554339"><ele>98.124321</ele><time>2022-01-01T15:37:22Z</time><extensions><speed>0.889423</speed><course>84.628120</course><hAcc>1.612238</hAcc><vAcc>0.963325</vAcc></extensions></trkpt>
      <trkpt lon="-82.148721" lat="33.554340"><ele>98.095345</ele><time>2022-01-01T15:37:23Z</time><extensions><speed>0.833236</speed><course>79.234856</course><hAcc>1.609561</hAcc><vAcc>0.948091</vAcc></extensions></trkpt>
      <trkpt lon="-82.148712" lat="33.554342"><ele>98.063446</ele><time>2022-01-01T15:37:24Z</time><extensions><speed>0.909376</speed><course>75.563675</course><hAcc>1.586334</hAcc><vAcc>0.933935</vAcc></extensions></trkpt>
      <trkpt lon="-82.148701" lat="33.554344"><ele>98.041496</ele><time>2022-01-01T15:37:25Z</time><extensions><speed>1.129761</speed><course>73.629890</course><hAcc>1.576052</hAcc><vAcc>0.920207</vAcc></extensions></trkpt>
      <trkpt lon="-82.148689" lat="33.554347"><ele>98.019470</ele><time>2022-01-01T15:37:26Z</time><extensions><speed>1.238106</speed><course>74.323433</course><hAcc>1.571463</hAcc><vAcc>0.906417</vAcc></extensions></trkpt>
      <trkpt lon="-82.148675" lat="33.554350"><ele>97.994812</ele><time>2022-01-01T15:37:27Z</time><extensions><speed>1.330182</speed><course>74.975235</course><hAcc>1.559955</hAcc><vAcc>0.892240</vAcc></extensions></trkpt>
      <trkpt lon="-82.148661" lat="33.554353"><ele>97.967209</ele><time>2022-01-01T15:37:28Z</time><extensions><speed>1.507335</speed><course>74.497246</course><hAcc>1.541146</hAcc><vAcc>0.877533</vAcc></extensions></trkpt>
      <trkpt lon="-82.148644" lat="33.554357"><ele>97.927231</ele><time>2022-01-01T15:37:29Z</time><extensions><speed>1.603388</speed><course>73.105995</course><hAcc>1.560878</hAcc><vAcc>0.862352</vAcc></extensions></trkpt>
      <trkpt lon="-82.148628" lat="33.554360"><ele>97.893242</ele><time>2022-01-01T15:37:30Z</time><extensions><speed>1.549648</speed><course>76.567581</course><hAcc>1.592688</hAcc><vAcc>0.846972</vAcc></extensions></trkpt>
      <trkpt lon="-82.148611" lat="33.554362"><ele>97.860413</ele><time>2022-01-01T15:37:31Z</time><extensions><speed>1.558542</speed><course>87.912003</course><hAcc>1.557289</hAcc><vAcc>0.831895</vAcc></extensions></trkpt>
      <trkpt lon="-82.148595" lat="33.554363"><ele>97.829781</ele><time>2022-01-01T15:37:32Z</time><extensions><speed>1.537303</speed><course>85.039497</course><hAcc>1.559476</hAcc><vAcc>0.817736</vAcc></extensions></trkpt>
      <trkpt lon="-82.148579" lat="33.554365"><ele>97.799957</ele><time>2022-01-01T15:37:33Z</time><extensions><speed>1.483497</speed><course>80.141304</course><hAcc>1.577769</hAcc><vAcc>0.804997</vAcc></extensions></trkpt>
      <trkpt lon="-82.148563" lat="33.554366"><ele>97.768288</ele><time>2022-01-01T15:37:34Z</time><extensions><speed>1.458372</speed><course>83.308464</course><hAcc>1.586623</hAcc><vAcc>0.793965</vAcc></extensions></trkpt>
      <trkpt lon="-82.148547" lat="33.554367"><ele>97.738098</ele><time>2022-01-01T15:37:35Z</time><extensions><speed>1.457479</speed><course>87.330772</course><hAcc>1.575886</hAcc><vAcc>0.784739</vAcc></extensions></trkpt>
      <trkpt lon="-82.148531" lat="33.554368"><ele>97.711807</ele><time>2022-01-01T15:37:36Z</time><extensions><speed>1.590049</speed><course>85.244743</course><hAcc>1.590045</hAcc><vAcc>0.777270</vAcc></extensions></trkpt>
      <trkpt lon="-82.148514" lat="33.554369"><ele>97.687004</ele><time>2022-01-01T15:37:37Z</time><extensions><speed>1.626720</speed><course>81.922707</course><hAcc>1.612918</hAcc><vAcc>0.771409</vAcc></extensions></trkpt>
      <trkpt lon="-82.148497" lat="33.554372"><ele>97.666565</ele><time>2022-01-01T15:37:38Z</time><extensions><speed>1.627743</speed><course>79.554924</course><hAcc>1.618748</hAcc><vAcc>0.766945</vAcc></extensions></trkpt>
      <trkpt lon="-82.148479" lat="33.554375"><ele>97.647491</ele><time>2022-01-01T15:37:39Z</time><extensions><speed>1.627984</speed><course>77.251343</course><hAcc>1.627972</hAcc><vAcc>0.763647</vAcc></extensions></trkpt>
      <trkpt lon="-82.148463" lat="33.554378"><ele>97.623871</ele><time>2022-01-01T15:37:40Z</time><extensions><speed>1.525733</speed><course>78.276665</course><hAcc>1.633289</hAcc><vAcc>0.761284</vAcc></extensions></trkpt>
      <trkpt lon="-82.148447" lat="33.554380"><ele>97.601776</ele><time>2022-01-01T15:37:41Z</time><extensions><speed>1.496117</speed><course>81.568039</course><hAcc>1.616583</hAcc><vAcc>0.759644</vAcc></extensions></trkpt>
      <trkpt lon="-82.148431" lat="33.554381"><ele>97.575279</ele><time>2022-01-01T15:37:42Z</time><extensions><speed>1.442522</speed><course>89.529411</course><hAcc>1.601112</hAcc><vAcc>0.758546</vAcc></extensions></trkpt>
      <trkpt lon="-82.148416" lat="33.554380"><ele>97.543564</ele><time>2022-01-01T15:37:43Z</time><extensions><speed>1.431855</speed><course>97.041542</course><hAcc>1.622500</hAcc><vAcc>0.757837</vAcc></extensions></trkpt>
      <trkpt lon="-82.148401" lat="33.554378"><ele>97.515236</ele><time>2022-01-01T15:37:44Z</time><extensions><speed>1.395501</speed><course>103.182014</course><hAcc>1.636323</hAcc><vAcc>0.757401</vAcc></extensions></trkpt>
      <trkpt lon="-82.148387" lat="33.554375"><ele>97.493942</ele><time>2022-01-01T15:37:45Z</time><extensions><speed>1.242691</speed><course>102.715034</course><hAcc>1.648306</hAcc><vAcc>0.757146</vAcc></extensions></trkpt>
      <trkpt lon="-82.148371" lat="33.554374"><ele>97.468910</ele><time>2022-01-01T15:37:46Z</time><extensions><speed>1.615694</speed><course>91.289108</course><hAcc>1.645947</hAcc><vAcc>0.757006</vAcc></extensions></trkpt>
      <trkpt lon="-82.148355" lat="33.554374"><ele>97.437866</ele><time>2022-01-01T15:37:47Z</time><extensions><speed>1.490695</speed><course>88.850960</course><hAcc>1.630328</hAcc><vAcc>0.756936</vAcc></extensions></trkpt>
      <trkpt lon="-82.148339" lat="33.554374"><ele>97.405098</ele><time>2022-01-01T15:37:48Z</time><extensions><speed>1.427126</speed><course>91.402817</course><hAcc>1.621899</hAcc><vAcc>0.756905</vAcc></extensions></trkpt>
      <trkpt lon="-82.148324" lat="33.554373"><ele>97.370483</ele><time>2022-01-01T15:37:49Z</time><extensions><speed>1.316913</speed><course>96.124687</course><hAcc>1.589784</hAcc><vAcc>0.756892</vAcc></extensions></trkpt>
      <trkpt lon="-82.148308" lat="33.554372"><ele>97.332756</ele><time>2022-01-01T15:37:50Z</time><extensions><speed>1.607679</speed><course>93.588081</course><hAcc>1.571047</hAcc><vAcc>0.756885</vAcc></extensions></trkpt>
      <trkpt lon="-82.148291" lat="33.554372"><ele>97.296623</ele><time>2022-01-01T15:37:51Z</time><extensions><speed>1.655309</speed><course>82.046379</course><hAcc>1.565498</hAcc><vAcc>0.756880</vAcc></extensions></trkpt>
      <trkpt lon="-82.148274" lat="33.554376"><ele>97.257645</ele><time>2022-01-01T15:37:52Z</time><extensions><speed>1.583900</speed><course>64.278107</course><hAcc>1.593708</hAcc><vAcc>0.756872</vAcc></extensions></trkpt>
      <trkpt lon="-82.148259" lat="33.554381"><ele>97.223572</ele><time>2022-01-01T15:37:53Z</time><extensions><speed>1.541486</speed><course>74.278336</course><hAcc>1.581278</hAcc><vAcc>0.756862</vAcc></extensions></trkpt>
      <trkpt lon="-82.148243" lat="33.554386"><ele>97.197044</ele><time>2022-01-01T15:37:54Z</time><extensions><speed>1.514424</speed><course>63.794346</course><hAcc>1.582747</hAcc><vAcc>0.756849</vAcc></extensions></trkpt>
      <trkpt lon="-82.148230" lat="33.554392"><ele>97.173370</ele><time>2022-01-01T15:37:55Z</time><extensions><speed>1.229432</speed><course>59.600864</course><hAcc>1.561918</hAcc><vAcc>0.756835</vAcc></extensions></trkpt>
      <trkpt lon="-82.148220" lat="33.554399"><ele>97.150558</ele><time>2022-01-01T15:37:56Z</time><extensions><speed>1.235967</speed><course>35.296082</course><hAcc>1.586703</hAcc><vAcc>0.756821</vAcc></extensions></trkpt>
      <trkpt lon="-82.148210" lat="33.554407"><ele>97.133743</ele><time>2022-01-01T15:37:57Z</time><extensions><speed>1.355851</speed><course>60.333805</course><hAcc>1.613111</hAcc><vAcc>0.756807</vAcc></extensions></trkpt>
      <trkpt lon="-82.148197" lat="33.554413"><ele>97.117317</ele><time>2022-01-01T15:37:58Z</time><extensions><speed>1.353438</speed><course>60.557739</course><hAcc>1.608506</hAcc><vAcc>0.756794</vAcc></extensions></trkpt>
      <trkpt lon="-82.148186" lat="33.554419"><ele>97.106331</ele><time>2022-01-01T15:37:59Z</time><extensions><speed>1.235113</speed><course>49.799450</course><hAcc>1.623408</hAcc><vAcc>0.756783</vAcc></extensions></trkpt>
      <trkpt lon="-82.148178" lat="33.554427"><ele>97.104164</ele><time>2022-01-01T15:38:00Z</time><extensions><speed>1.172781</speed><course>28.026543</course><hAcc>1.631130</hAcc><vAcc>0.756773</vAcc></extensions></trkpt>
      <trkpt lon="-82.148172" lat="33.554437"><ele>97.108238</ele><time>2022-01-01T15:38:01Z</time><extensions><speed>1.243931</speed><course>24.330990</course><hAcc>1.645834</hAcc><vAcc>0.756765</vAcc></extensions></trkpt>
      <trkpt lon="-82.148166" lat="33.554447"><ele>97.122192</ele><time>2022-01-01T15:38:02Z</time><extensions><speed>1.287623</speed><course>22.536308</course><hAcc>1.681692</hAcc><vAcc>0.756759</vAcc></extensions></trkpt>
      <trkpt lon="-82.148160" lat="33.554457"><ele>97.153343</ele><time>2022-01-01T15:38:03Z</time><extensions><speed>1.287566</speed><course>30.955532</course><hAcc>1.664232</hAcc><vAcc>0.756754</vAcc></extensions></trkpt>
      <trkpt lon="-82.148152" lat="33.554467"><ele>97.188072</ele><time>2022-01-01T15:38:04Z</time><extensions><speed>1.276959</speed><course>36.168556</course><hAcc>1.644891</hAcc><vAcc>0.756750</vAcc></extensions></trkpt>
      <trkpt lon="-82.148144" lat="33.554475"><ele>97.228004</ele><time>2022-01-01T15:38:05Z</time><extensions><speed>1.221485</speed><course>38.959984</course><hAcc>1.633254</hAcc><vAcc>0.756748</vAcc></extensions></trkpt>
      <trkpt lon="-82.148135" lat="33.554484"><ele>97.275543</ele><time>2022-01-01T15:38:06Z</time><extensions><speed>1.299498</speed><course>38.477901</course><hAcc>1.661095</hAcc><vAcc>0.756746</vAcc></extensions></trkpt>
      <trkpt lon="-82.148125" lat="33.554492"><ele>97.328171</ele><time>2022-01-01T15:38:07Z</time><extensions><speed>1.220719</speed><course>52.531647</course><hAcc>1.652582</hAcc><vAcc>0.756744</vAcc></extensions></trkpt>
      <trkpt lon="-82.148113" lat="33.554497"><ele>97.388763</ele><time>2022-01-01T15:38:08Z</time><extensions><speed>1.255169</speed><course>69.711266</course><hAcc>1.650749</hAcc><vAcc>0.756744</vAcc></extensions></trkpt>
      <trkpt lon="-82.148099" lat="33.554499"><ele>97.453217</ele><time>2022-01-01T15:38:09Z</time><extensions><speed>1.335350</speed><course>88.759132</course><hAcc>1.621472</hAcc><vAcc>0.756743</vAcc></extensions></trkpt>
      <trkpt lon="-82.148084" lat="33.554498"><ele>97.519104</ele><time>2022-01-01T15:38:10Z</time><extensions><speed>1.489289</speed><course>97.339272</course><hAcc>1.620391</hAcc><vAcc>0.756743</vAcc></extensions></trkpt>
      <trkpt lon="-82.148067" lat="33.554495"><ele>97.587524</ele><time>2022-01-01T15:38:11Z</time><extensions><speed>1.671517</speed><course>99.774170</course><hAcc>1.639874</hAcc><vAcc>0.756742</vAcc></extensions></trkpt>
      <trkpt lon="-82.148049" lat="33.554492"><ele>97.654701</ele><time>2022-01-01T15:38:12Z</time><extensions><speed>1.820693</speed><course>104.271713</course><hAcc>1.630973</hAcc><vAcc>0.756742</vAcc></extensions></trkpt>
      <trkpt lon="-82.148029" lat="33.554488"><ele>97.718430</ele><time>2022-01-01T15:38:13Z</time><extensions><speed>1.849618</speed><course>105.168121</course><hAcc>1.639929</hAcc><vAcc>0.756742</vAcc></extensions></trkpt>
      <trkpt lon="-82.148010" lat="33.554484"><ele>97.774590</ele><time>2022-01-01T15:38:14Z</time><extensions><speed>1.861694</speed><course>102.829575</course><hAcc>1.628915</hAcc><vAcc>0.756742</vAcc></extensions></trkpt>
      <trkpt lon="-82.147990" lat="33.554480"><ele>97.828873</ele><time>2022-01-01T15:38:15Z</time><extensions><speed>1.982227</speed><course>98.523125</course><hAcc>1.593532</hAcc><vAcc>0.756742</vAcc></extensions></trkpt>
      <trkpt lon="-82.147968" lat="33.554479"><ele>97.882729</ele><time>2022-01-01T15:38:16Z</time><extensions><speed>2.040326</speed><course>91.446442</course><hAcc>1.593011</hAcc><vAcc>0.756742</vAcc></extensions></trkpt>
      <trkpt lon="-82.147948" lat="33.554480"><ele>97.926445</ele><time>2022-01-01T15:38:17Z</time><extensions><speed>1.775536</speed><course>77.371941</course><hAcc>1.650697</hAcc><vAcc>0.756742</vAcc></extensions></trkpt>
      <trkpt lon="-82.147929" lat="33.554483"><ele>97.967384</ele><time>2022-01-01T15:38:18Z</time><extensions><speed>1.744734</speed><course>84.400139</course><hAcc>1.623337</hAcc><vAcc>0.756742</vAcc></extensions></trkpt>
      <trkpt lon="-82.147911" lat="33.554485"><ele>97.999557</ele><time>2022-01-01T15:38:19Z</time><extensions><speed>1.724360</speed><course>84.088699</course><hAcc>1.599218</hAcc><vAcc>0.756742</vAcc></extensions></trkpt>
      <trkpt lon="-82.147892" lat="33.554487"><ele>98.024071</ele><time>2022-01-01T15:38:20Z</time><extensions><speed>1.822464</speed><course>82.711800</course><hAcc>1.590660</hAcc><vAcc>0.756742</vAcc></extensions></trkpt>
      <trkpt lon="-82.147872" lat="33.554489"><ele>98.038239</ele><time>2022-01-01T15:38:21Z</time><extensions><speed>1.961526</speed><course>79.628693</course><hAcc>1.609251</hAcc><vAcc>0.756742</vAcc></extensions></trkpt>
      <trkpt lon="-82.147853" lat="33.554493"><ele>98.041626</ele><time>2022-01-01T15:38:22Z</time><extensions><speed>1.738361</speed><course>79.021553</course><hAcc>1.621066</hAcc><vAcc>0.756742</vAcc></extensions></trkpt>
      <trkpt lon="-82.147835" lat="33.554496"><ele>98.031021</ele><time>2022-01-01T15:38:23Z</time><extensions><speed>1.682685</speed><course>80.988823</course><hAcc>1.610124</hAcc><vAcc>0.756742</vAcc></extensions></trkpt>
      <trkpt lon="-82.147817" lat="33.554497"><ele>98.009895</ele><time>2022-01-01T15:38:24Z</time><extensions><speed>1.592629</speed><course>86.746811</course><hAcc>1.630544</hAcc><vAcc>0.756742</vAcc></extensions></trkpt>
      <trkpt lon="-82.147800" lat="33.554498"><ele>97.983505</ele><time>2022-01-01T15:38:25Z</time><extensions><speed>1.570555</speed><course>91.772316</course><hAcc>1.624227</hAcc><vAcc>0.756742</vAcc></extensions></trkpt>
      <trkpt lon="-82.147783" lat="33.554498"><ele>97.952499</ele><time>2022-01-01T15:38:26Z</time><extensions><speed>1.597335</speed><course>87.568192</course><hAcc>1.627944</hAcc><vAcc>0.756742</vAcc></extensions></trkpt>
      <trkpt lon="-82.147767" lat="33.554500"><ele>97.912437</ele><time>2022-01-01T15:38:27Z</time><extensions><speed>1.494686</speed><course>70.317917</course><hAcc>1.619673</hAcc><vAcc>0.756742</vAcc></extensions></trkpt>
      <trkpt lon="-82.147753" lat="33.554507"><ele>97.866104</ele><time>2022-01-01T15:38:28Z</time><extensions><speed>1.478620</speed><course>51.868752</course><hAcc>1.623496</hAcc><vAcc>0.756742</vAcc></extensions></trkpt>
      <trkpt lon="-82.147741" lat="33.554516"><ele>97.814850</ele><time>2022-01-01T15:38:29Z</time><extensions><speed>1.502841</speed><course>42.987381</course><hAcc>1.643453</hAcc><vAcc>0.756742</vAcc></extensions></trkpt>
      <trkpt lon="-82.147730" lat="33.554526"><ele>97.752136</ele><time>2022-01-01T15:38:30Z</time><extensions><speed>1.545380</speed><course>38.628445</course><hAcc>1.641673</hAcc><vAcc>0.756742</vAcc></extensions></trkpt>
      <trkpt lon="-82.147720" lat="33.554537"><ele>97.690605</ele><time>2022-01-01T15:38:31Z</time><extensions><speed>1.588082</speed><course>35.712563</course><hAcc>1.627903</hAcc><vAcc>0.756742</vAcc></extensions></trkpt>
      <trkpt lon="-82.147710" lat="33.554549"><ele>97.625763</ele><time>2022-01-01T15:38:32Z</time><extensions><speed>1.625787</speed><course>35.831306</course><hAcc>1.615201</hAcc><vAcc>0.756742</vAcc></extensions></trkpt>
      <trkpt lon="-82.147699" lat="33.554560"><ele>97.559601</ele><time>2022-01-01T15:38:33Z</time><extensions><speed>1.625753</speed><course>42.341702</course><hAcc>1.643527</hAcc><vAcc>0.756742</vAcc></extensions></trkpt>
      <trkpt lon="-82.147686" lat="33.554570"><ele>97.500923</ele><time>2022-01-01T15:38:34Z</time><extensions><speed>1.615084</speed><course>55.154003</course><hAcc>1.658427</hAcc><vAcc>0.756742</vAcc></extensions></trkpt>
      <trkpt lon="-82.147670" lat="33.554577"><ele>97.440437</ele><time>2022-01-01T15:38:35Z</time><extensions><speed>1.647183</speed><course>62.378178</course><hAcc>1.643588</hAcc><vAcc>0.756742</vAcc></extensions></trkpt>
      <trkpt lon="-82.147654" lat="33.554584"><ele>97.372566</ele><time>2022-01-01T15:38:36Z</time><extensions><speed>1.745051</speed><course>58.034992</course><hAcc>1.678590</hAcc><vAcc>0.756742</vAcc></extensions></trkpt>
      <trkpt lon="-82.147640" lat="33.554593"><ele>97.314537</ele><time>2022-01-01T15:38:37Z</time><extensions><speed>1.589604</speed><course>47.833168</course><hAcc>1.680400</hAcc><vAcc>0.756742</vAcc></extensions></trkpt>
      <trkpt lon="-82.147627" lat="33.554603"><ele>97.261322</ele><time>2022-01-01T15:38:38Z</time><extensions><speed>1.586415</speed><course>51.307632</course><hAcc>1.703334</hAcc><vAcc>0.756742</vAcc></extensions></trkpt>
      <trkpt lon="-82.147613" lat="33.554611"><ele>97.211349</ele><time>2022-01-01T15:38:39Z</time><extensions><speed>1.552630</speed><course>51.208080</course><hAcc>1.772966</hAcc><vAcc>0.756742</vAcc></extensions></trkpt>
      <trkpt lon="-82.147600" lat="33.554619"><ele>97.163589</ele><time>2022-01-01T15:38:40Z</time><extensions><speed>1.517320</speed><course>56.274025</course><hAcc>1.829312</hAcc><vAcc>0.756742</vAcc></extensions></trkpt>
      <trkpt lon="-82.147586" lat="33.554626"><ele>97.121025</ele><time>2022-01-01T15:38:41Z</time><extensions><speed>1.553166</speed><course>61.055885</course><hAcc>1.872071</hAcc><vAcc>0.756742</vAcc></extensions></trkpt>
      <trkpt lon="-82.147571" lat="33.554633"><ele>97.080612</ele><time>2022-01-01T15:38:42Z</time><extensions><speed>1.508021</speed><course>65.108139</course><hAcc>1.901999</hAcc><vAcc>0.756742</vAcc></extensions></trkpt>
      <trkpt lon="-82.147556" lat="33.554638"><ele>97.044464</ele><time>2022-01-01T15:38:43Z</time><extensions><speed>1.502151</speed><course>69.266479</course><hAcc>1.831766</hAcc><vAcc>0.756742</vAcc></extensions></trkpt>
      <trkpt lon="-82.147541" lat="33.554642"><ele>97.011604</ele><time>2022-01-01T15:38:44Z</time><extensions><speed>1.466322</speed><course>68.475616</course><hAcc>1.733803</hAcc><vAcc>0.756742</vAcc></extensions></trkpt>
      <trkpt lon="-82.147526" lat="33.554648"><ele>96.982185</ele><time>2022-01-01T15:38:45Z</time><extensions><speed>1.649143</speed><course>59.146358</course><hAcc>1.692816</hAcc><vAcc>0.756742</vAcc></extensions></trkpt>
      <trkpt lon="-82.147512" lat="33.554657"><ele>96.956337</ele><time>2022-01-01T15:38:46Z</time><extensions><speed>1.687923</speed><course>46.408775</course><hAcc>1.706414</hAcc><vAcc>0.756742</vAcc></extensions></trkpt>
      <trkpt lon="-82.147499" lat="33.554668"><ele>96.937202</ele><time>2022-01-01T15:38:47Z</time><extensions><speed>1.603162</speed><course>46.096371</course><hAcc>1.683748</hAcc><vAcc>0.756742</vAcc></extensions></trkpt>
      <trkpt lon="-82.147486" lat="33.554677"><ele>96.926979</ele><time>2022-01-01T15:38:48Z</time><extensions><speed>1.575833</speed><course>57.739426</course><hAcc>1.631648</hAcc><vAcc>0.756742</vAcc></extensions></trkpt>
      <trkpt lon="-82.147471" lat="33.554683"><ele>96.923599</ele><time>2022-01-01T15:38:49Z</time><extensions><speed>1.543674</speed><course>66.608467</course><hAcc>1.605512</hAcc><vAcc>0.756742</vAcc></extensions></trkpt>
      <trkpt lon="-82.147455" lat="33.554688"><ele>96.923637</ele><time>2022-01-01T15:38:50Z</time><extensions><speed>1.477045</speed><course>78.024376</course><hAcc>1.610118</hAcc><vAcc>0.756742</vAcc></extensions></trkpt>
      <trkpt lon="-82.147440" lat="33.554689"><ele>96.934280</ele><time>2022-01-01T15:38:51Z</time><extensions><speed>1.471008</speed><course>93.224442</course><hAcc>1.627287</hAcc><vAcc>0.756742</vAcc></extensions></trkpt>
      <trkpt lon="-82.147424" lat="33.554688"><ele>96.951691</ele><time>2022-01-01T15:38:52Z</time><extensions><speed>1.478157</speed><course>97.477196</course><hAcc>1.651148</hAcc><vAcc>0.756742</vAcc></extensions></trkpt>
      <trkpt lon="-82.147409" lat="33.554687"><ele>96.976288</ele><time>2022-01-01T15:38:53Z</time><extensions><speed>1.455012</speed><course>97.455894</course><hAcc>1.631191</hAcc><vAcc>0.756742</vAcc></extensions></trkpt>
      <trkpt lon="-82.147394" lat="33.554687"><ele>97.016281</ele><time>2022-01-01T15:38:54Z</time><extensions><speed>1.432526</speed><course>86.551910</course><hAcc>1.601909</hAcc><vAcc>0.756742</vAcc></extensions></trkpt>
      <trkpt lon="-82.147379" lat="33.554689"><ele>97.067635</ele><time>2022-01-01T15:38:55Z</time><extensions><speed>1.490823</speed><course>70.615692</course><hAcc>1.606369</hAcc><vAcc>0.756742</vAcc></extensions></trkpt>
      <trkpt lon="-82.147364" lat="33.554696"><ele>97.124413</ele><time>2022-01-01T15:38:56Z</time><extensions><speed>1.663470</speed><course>55.700623</course><hAcc>1.620375</hAcc><vAcc>0.756742</vAcc></extensions></trkpt>
      <trkpt lon="-82.147349" lat="33.554705"><ele>97.191864</ele><time>2022-01-01T15:38:57Z</time><extensions><speed>1.736371</speed><course>49.574310</course><hAcc>1.641700</hAcc><vAcc>0.756742</vAcc></extensions></trkpt>
      <trkpt lon="-82.147337" lat="33.554717"><ele>97.266396</ele><time>2022-01-01T15:38:58Z</time><extensions><speed>1.825963</speed><course>35.201115</course><hAcc>1.619714</hAcc><vAcc>0.756742</vAcc></extensions></trkpt>
      <trkpt lon="-82.147327" lat="33.554731"><ele>97.351875</ele><time>2022-01-01T15:38:59Z</time><extensions><speed>1.894979</speed><course>26.673779</course><hAcc>1.620649</hAcc><vAcc>0.756742</vAcc></extensions></trkpt>
      <trkpt lon="-82.147319" lat="33.554746"><ele>97.445152</ele><time>2022-01-01T15:39:00Z</time><extensions><speed>1.741283</speed><course>20.221975</course><hAcc>1.642739</hAcc><vAcc>0.756742</vAcc></extensions></trkpt>
      <trkpt lon="-82.147313" lat="33.554761"><ele>97.547577</ele><time>2022-01-01T15:39:01Z</time><extensions><speed>1.626768</speed><course>18.173563</course><hAcc>1.648245</hAcc><vAcc>0.756742</vAcc></extensions></trkpt>
      <trkpt lon="-82.147307" lat="33.554773"><ele>97.658722</ele><time>2022-01-01T15:39:02Z</time><extensions><speed>1.349672</speed><course>26.146128</course><hAcc>1.674526</hAcc><vAcc>0.756742</vAcc></extensions></trkpt>
      <trkpt lon="-82.147301" lat="33.554783"><ele>97.775490</ele><time>2022-01-01T15:39:03Z</time><extensions><speed>0.996748</speed><course>36.229908</course><hAcc>1.720256</hAcc><vAcc>0.756742</vAcc></extensions></trkpt>
      <trkpt lon="-82.147294" lat="33.554788"><ele>97.903473</ele><time>2022-01-01T15:39:04Z</time><extensions><speed>0.710186</speed><course>57.365421</course><hAcc>1.715183</hAcc><vAcc>0.756742</vAcc></extensions></trkpt>
      <trkpt lon="-82.147288" lat="33.554792"><ele>98.038895</ele><time>2022-01-01T15:39:05Z</time><extensions><speed>0.672208</speed><course>56.927383</course><hAcc>1.692778</hAcc><vAcc>0.756742</vAcc></extensions></trkpt>
      <trkpt lon="-82.147282" lat="33.554795"><ele>98.180412</ele><time>2022-01-01T15:39:06Z</time><extensions><speed>0.657962</speed><course>54.558750</course><hAcc>1.678147</hAcc><vAcc>0.756742</vAcc></extensions></trkpt>
      <trkpt lon="-82.147276" lat="33.554799"><ele>98.322708</ele><time>2022-01-01T15:39:07Z</time><extensions><speed>0.657477</speed><course>54.995937</course><hAcc>1.685479</hAcc><vAcc>0.756742</vAcc></extensions></trkpt>
      <trkpt lon="-82.147271" lat="33.554803"><ele>98.470482</ele><time>2022-01-01T15:39:08Z</time><extensions><speed>0.643975</speed><course>58.448509</course><hAcc>1.697366</hAcc><vAcc>0.756742</vAcc></extensions></trkpt>
      <trkpt lon="-82.147264" lat="33.554806"><ele>98.615372</ele><time>2022-01-01T15:39:09Z</time><extensions><speed>0.649914</speed><course>62.702759</course><hAcc>1.688883</hAcc><vAcc>0.756742</vAcc></extensions></trkpt>
      <trkpt lon="-82.147259" lat="33.554809"><ele>98.749344</ele><time>2022-01-01T15:39:10Z</time><extensions><speed>0.641315</speed><course>39.822983</course><hAcc>1.639738</hAcc><vAcc>0.756742</vAcc></extensions></trkpt>
      <trkpt lon="-82.147256" lat="33.554815"><ele>98.885811</ele><time>2022-01-01T15:39:11Z</time><extensions><speed>0.811420</speed><course>16.319098</course><hAcc>1.623890</hAcc><vAcc>0.756742</vAcc></extensions></trkpt>
      <trkpt lon="-82.147252" lat="33.554822"><ele>99.023483</ele><time>2022-01-01T15:39:12Z</time><extensions><speed>0.934723</speed><course>30.253700</course><hAcc>1.634232</hAcc><vAcc>0.756742</vAcc></extensions></trkpt>
      <trkpt lon="-82.147246" lat="33.554831"><ele>99.154373</ele><time>2022-01-01T15:39:13Z</time><extensions><speed>1.298855</speed><course>29.455057</course><hAcc>1.630065</hAcc><vAcc>0.756742</vAcc></extensions></trkpt>
      <trkpt lon="-82.147239" lat="33.554843"><ele>99.278397</ele><time>2022-01-01T15:39:14Z</time><extensions><speed>1.538018</speed><course>26.599773</course><hAcc>1.619711</hAcc><vAcc>0.756742</vAcc></extensions></trkpt>
      <trkpt lon="-82.147231" lat="33.554857"><ele>99.395584</ele><time>2022-01-01T15:39:15Z</time><extensions><speed>1.957513</speed><course>18.704655</course><hAcc>1.605999</hAcc><vAcc>0.756742</vAcc></extensions></trkpt>
      <trkpt lon="-82.147225" lat="33.554875"><ele>99.508286</ele><time>2022-01-01T15:39:16Z</time><extensions><speed>2.068891</speed><course>15.854482</course><hAcc>1.594789</hAcc><vAcc>0.756742</vAcc></extensions></trkpt>
      <trkpt lon="-82.147218" lat="33.554892"><ele>99.620262</ele><time>2022-01-01T15:39:17Z</time><extensions><speed>1.999304</speed><course>17.447802</course><hAcc>1.596507</hAcc><vAcc>0.756742</vAcc></extensions></trkpt>
      <trkpt lon="-82.147211" lat="33.554908"><ele>99.728088</ele><time>2022-01-01T15:39:18Z</time><extensions><speed>1.742486</speed><course>23.119032</course><hAcc>1.623259</hAcc><vAcc>0.756742</vAcc></extensions></trkpt>
      <trkpt lon="-82.147204" lat="33.554922"><ele>99.827728</ele><time>2022-01-01T15:39:19Z</time><extensions><speed>1.675391</speed><course>24.411606</course><hAcc>1.609377</hAcc><vAcc>0.756742</vAcc></extensions></trkpt>
      <trkpt lon="-82.147197" lat="33.554935"><ele>99.911957</ele><time>2022-01-01T15:39:20Z</time><extensions><speed>1.368991</speed><course>22.513842</course><hAcc>1.614542</hAcc><vAcc>0.756742</vAcc></extensions></trkpt>
      <trkpt lon="-82.147192" lat="33.554947"><ele>99.992149</ele><time>2022-01-01T15:39:21Z</time><extensions><speed>1.442823</speed><course>18.529257</course><hAcc>1.602883</hAcc><vAcc>0.756742</vAcc></extensions></trkpt>
      <trkpt lon="-82.147187" lat="33.554959"><ele>100.073921</ele><time>2022-01-01T15:39:22Z</time><extensions><speed>1.441960</speed><course>14.966793</course><hAcc>1.633598</hAcc><vAcc>0.756742</vAcc></extensions></trkpt>
      <trkpt lon="-82.147183" lat="33.554972"><ele>100.155846</ele><time>2022-01-01T15:39:23Z</time><extensions><speed>1.475015</speed><course>17.179201</course><hAcc>1.658214</hAcc><vAcc>0.756742</vAcc></extensions></trkpt>
      <trkpt lon="-82.147177" lat="33.554985"><ele>100.239052</ele><time>2022-01-01T15:39:24Z</time><extensions><speed>1.628441</speed><course>22.191229</course><hAcc>1.623454</hAcc><vAcc>0.756742</vAcc></extensions></trkpt>
      <trkpt lon="-82.147170" lat="33.554999"><ele>100.311798</ele><time>2022-01-01T15:39:25Z</time><extensions><speed>1.730498</speed><course>24.200706</course><hAcc>1.622065</hAcc><vAcc>0.756742</vAcc></extensions></trkpt>
      <trkpt lon="-82.147163" lat="33.555013"><ele>100.381950</ele><time>2022-01-01T15:39:26Z</time><extensions><speed>1.718106</speed><course>20.973412</course><hAcc>1.658091</hAcc><vAcc>0.756742</vAcc></extensions></trkpt>
      <trkpt lon="-82.147157" lat="33.555027"><ele>100.446808</ele><time>2022-01-01T15:39:27Z</time><extensions><speed>1.660147</speed><course>17.941601</course><hAcc>1.656347</hAcc><vAcc>0.756742</vAcc></extensions></trkpt>
      <trkpt lon="-82.147152" lat="33.555041"><ele>100.511147</ele><time>2022-01-01T15:39:28Z</time><extensions><speed>1.567594</speed><course>14.780054</course><hAcc>1.659346</hAcc><vAcc>0.756742</vAcc></extensions></trkpt>
      <trkpt lon="-82.147147" lat="33.555054"><ele>100.570778</ele><time>2022-01-01T15:39:29Z</time><extensions><speed>1.428808</speed><course>16.280706</course><hAcc>1.665128</hAcc><vAcc>0.756742</vAcc></extensions></trkpt>
      <trkpt lon="-82.147143" lat="33.555066"><ele>100.630066</ele><time>2022-01-01T15:39:30Z</time><extensions><speed>1.265541</speed><course>17.257467</course><hAcc>1.691589</hAcc><vAcc>0.756742</vAcc></extensions></trkpt>
      <trkpt lon="-82.147139" lat="33.555077"><ele>100.683945</ele><time>2022-01-01T15:39:31Z</time><extensions><speed>1.408929</speed><course>17.158932</course><hAcc>1.717685</hAcc><vAcc>0.756742</vAcc></extensions></trkpt>
      <trkpt lon="-82.147134" lat="33.555089"><ele>100.744667</ele><time>2022-01-01T15:39:32Z</time><extensions><speed>1.408893</speed><course>17.771471</course><hAcc>1.699902</hAcc><vAcc>0.756742</vAcc></extensions></trkpt>
      <trkpt lon="-82.147129" lat="33.555101"><ele>100.804649</ele><time>2022-01-01T15:39:33Z</time><extensions><speed>1.437870</speed><course>18.490629</course><hAcc>1.701465</hAcc><vAcc>0.756742</vAcc></extensions></trkpt>
      <trkpt lon="-82.147124" lat="33.555114"><ele>100.862709</ele><time>2022-01-01T15:39:34Z</time><extensions><speed>1.491188</speed><course>17.395878</course><hAcc>1.720710</hAcc><vAcc>0.756742</vAcc></extensions></trkpt>
      <trkpt lon="-82.147119" lat="33.555127"><ele>100.917038</ele><time>2022-01-01T15:39:35Z</time><extensions><speed>1.591085</speed><course>15.974581</course><hAcc>1.748573</hAcc><vAcc>0.756742</vAcc></extensions></trkpt>
      <trkpt lon="-82.147115" lat="33.555141"><ele>100.967041</ele><time>2022-01-01T15:39:36Z</time><extensions><speed>1.559844</speed><course>15.805426</course><hAcc>1.768859</hAcc><vAcc>0.756742</vAcc></extensions></trkpt>
      <trkpt lon="-82.147110" lat="33.555154"><ele>101.015785</ele><time>2022-01-01T15:39:37Z</time><extensions><speed>1.417148</speed><course>17.691280</course><hAcc>1.782723</hAcc><vAcc>0.756742</vAcc></extensions></trkpt>
      <trkpt lon="-82.147105" lat="33.555165"><ele>101.063828</ele><time>2022-01-01T15:39:38Z</time><extensions><speed>1.305944</speed><course>21.886747</course><hAcc>1.781049</hAcc><vAcc>0.756742</vAcc></extensions></trkpt>
      <trkpt lon="-82.147099" lat="33.555176"><ele>101.110641</ele><time>2022-01-01T15:39:39Z</time><extensions><speed>1.217316</speed><course>30.178522</course><hAcc>1.774044</hAcc><vAcc>0.756742</vAcc></extensions></trkpt>
      <trkpt lon="-82.147092" lat="33.555184"><ele>101.150917</ele><time>2022-01-01T15:39:40Z</time><extensions><speed>1.165439</speed><course>38.143417</course><hAcc>1.786694</hAcc><vAcc>0.756742</vAcc></extensions></trkpt>
      <trkpt lon="-82.147083" lat="33.555194"><ele>101.188240</ele><time>2022-01-01T15:39:41Z</time><extensions><speed>1.507412</speed><course>40.004543</course><hAcc>1.784441</hAcc><vAcc>0.756742</vAcc></extensions></trkpt>
      <trkpt lon="-82.147071" lat="33.555204"><ele>101.220207</ele><time>2022-01-01T15:39:42Z</time><extensions><speed>1.706103</speed><course>46.479145</course><hAcc>1.755854</hAcc><vAcc>0.756742</vAcc></extensions></trkpt>
      <trkpt lon="-82.147057" lat="33.555214"><ele>101.245796</ele><time>2022-01-01T15:39:43Z</time><extensions><speed>1.826709</speed><course>52.082561</course><hAcc>1.738872</hAcc><vAcc>0.756742</vAcc></extensions></trkpt>
      <trkpt lon="-82.147042" lat="33.555224"><ele>101.275505</ele><time>2022-01-01T15:39:44Z</time><extensions><speed>1.779472</speed><course>52.427807</course><hAcc>1.746566</hAcc><vAcc>0.756742</vAcc></extensions></trkpt>
      <trkpt lon="-82.147028" lat="33.555235"><ele>101.292297</ele><time>2022-01-01T15:39:45Z</time><extensions><speed>1.798007</speed><course>43.775669</course><hAcc>1.744322</hAcc><vAcc>0.756742</vAcc></extensions></trkpt>
      <trkpt lon="-82.147017" lat="33.555247"><ele>101.290527</ele><time>2022-01-01T15:39:46Z</time><extensions><speed>1.702582</speed><course>27.112476</course><hAcc>1.750569</hAcc><vAcc>0.756742</vAcc></extensions></trkpt>
      <trkpt lon="-82.147011" lat="33.555260"><ele>101.277168</ele><time>2022-01-01T15:39:47Z</time><extensions><speed>1.438307</speed><course>17.984941</course><hAcc>1.790896</hAcc><vAcc>0.756742</vAcc></extensions></trkpt>
      <trkpt lon="-82.147006" lat="33.555272"><ele>101.256599</ele><time>2022-01-01T15:39:48Z</time><extensions><speed>1.253720</speed><course>19.957172</course><hAcc>1.841826</hAcc><vAcc>0.756742</vAcc></extensions></trkpt>
      <trkpt lon="-82.147003" lat="33.555282"><ele>101.234070</ele><time>2022-01-01T15:39:49Z</time><extensions><speed>1.218225</speed><course>14.312011</course><hAcc>1.908130</hAcc><vAcc>0.756742</vAcc></extensions></trkpt>
      <trkpt lon="-82.147002" lat="33.555294"><ele>101.204590</ele><time>2022-01-01T15:39:50Z</time><extensions><speed>1.313011</speed><course>358.116455</course><hAcc>1.984101</hAcc><vAcc>0.756742</vAcc></extensions></trkpt>
      <trkpt lon="-82.147004" lat="33.555305"><ele>101.162392</ele><time>2022-01-01T15:39:51Z</time><extensions><speed>1.291330</speed><course>348.524475</course><hAcc>2.104306</hAcc><vAcc>0.756742</vAcc></extensions></trkpt>
      <trkpt lon="-82.147007" lat="33.555316"><ele>101.111191</ele><time>2022-01-01T15:39:52Z</time><extensions><speed>1.094972</speed><course>347.847595</course><hAcc>2.234151</hAcc><vAcc>0.756742</vAcc></extensions></trkpt>
      <trkpt lon="-82.147010" lat="33.555325"><ele>101.058167</ele><time>2022-01-01T15:39:53Z</time><extensions><speed>0.942614</speed><course>347.290833</course><hAcc>2.325701</hAcc><vAcc>0.758385</vAcc></extensions></trkpt>
      <trkpt lon="-82.147012" lat="33.555333"><ele>101.001671</ele><time>2022-01-01T15:39:54Z</time><extensions><speed>0.918929</speed><course>352.295898</course><hAcc>2.371121</hAcc><vAcc>0.759099</vAcc></extensions></trkpt>
      <trkpt lon="-82.147014" lat="33.555342"><ele>100.945770</ele><time>2022-01-01T15:39:55Z</time><extensions><speed>1.002929</speed><course>355.489655</course><hAcc>2.380466</hAcc><vAcc>0.759944</vAcc></extensions></trkpt>
      <trkpt lon="-82.147015" lat="33.555351"><ele>100.891701</ele><time>2022-01-01T15:39:56Z</time><extensions><speed>1.064655</speed><course>355.973083</course><hAcc>2.414660</hAcc><vAcc>0.760922</vAcc></extensions></trkpt>
      <trkpt lon="-82.147016" lat="33.555362"><ele>100.834480</ele><time>2022-01-01T15:39:57Z</time><extensions><speed>1.169540</speed><course>352.607758</course><hAcc>2.479209</hAcc><vAcc>0.762020</vAcc></extensions></trkpt>
      <trkpt lon="-82.147019" lat="33.555373"><ele>100.777359</ele><time>2022-01-01T15:39:58Z</time><extensions><speed>1.326797</speed><course>345.078583</course><hAcc>2.531702</hAcc><vAcc>0.763210</vAcc></extensions></trkpt>
      <trkpt lon="-82.147024" lat="33.555385"><ele>100.720055</ele><time>2022-01-01T15:39:59Z</time><extensions><speed>1.403701</speed><course>341.132996</course><hAcc>2.568319</hAcc><vAcc>0.764437</vAcc></extensions></trkpt>
      <trkpt lon="-82.147029" lat="33.555397"><ele>100.659348</ele><time>2022-01-01T15:40:00Z</time><extensions><speed>1.300892</speed><course>336.778107</course><hAcc>2.559155</hAcc><vAcc>0.765616</vAcc></extensions></trkpt>
      <trkpt lon="-82.147035" lat="33.555407"><ele>100.607407</ele><time>2022-01-01T15:40:01Z</time><extensions><speed>1.082995</speed><course>333.503937</course><hAcc>2.553890</hAcc><vAcc>0.766627</vAcc></extensions></trkpt>
      <trkpt lon="-82.147039" lat="33.555414"><ele>100.556046</ele><time>2022-01-01T15:40:02Z</time><extensions><speed>0.638476</speed><course>332.946808</course><hAcc>2.573711</hAcc><vAcc>0.769065</vAcc></extensions></trkpt>
      <trkpt lon="-82.147042" lat="33.555419"><ele>100.509232</ele><time>2022-01-01T15:40:03Z</time><extensions><speed>0.574233</speed><course>342.246887</course><hAcc>2.575804</hAcc><vAcc>0.772032</vAcc></extensions></trkpt>
      <trkpt lon="-82.147044" lat="33.555424"><ele>100.469521</ele><time>2022-01-01T15:40:04Z</time><extensions><speed>0.623187</speed><course>0.668653</course><hAcc>2.589978</hAcc><vAcc>0.775669</vAcc></extensions></trkpt>
      <trkpt lon="-82.147043" lat="33.555433"><ele>100.433624</ele><time>2022-01-01T15:40:05Z</time><extensions><speed>1.160712</speed><course>7.763541</course><hAcc>2.581464</hAcc><vAcc>0.780285</vAcc></extensions></trkpt>
      <trkpt lon="-82.147042" lat="33.555445"><ele>100.394402</ele><time>2022-01-01T15:40:06Z</time><extensions><speed>1.452891</speed><course>4.894741</course><hAcc>2.595074</hAcc><vAcc>0.782755</vAcc></extensions></trkpt>
      <trkpt lon="-82.147041" lat="33.555458"><ele>100.352615</ele><time>2022-01-01T15:40:07Z</time><extensions><speed>1.502005</speed><course>3.214548</course><hAcc>2.599861</hAcc><vAcc>0.785604</vAcc></extensions></trkpt>
      <trkpt lon="-82.147041" lat="33.555472"><ele>100.297218</ele><time>2022-01-01T15:40:08Z</time><extensions><speed>1.526193</speed><course>0.766178</course><hAcc>2.584265</hAcc><vAcc>0.788863</vAcc></extensions></trkpt>
      <trkpt lon="-82.147041" lat="33.555486"><ele>100.231628</ele><time>2022-01-01T15:40:09Z</time><extensions><speed>1.510480</speed><course>1.054194</course><hAcc>2.590269</hAcc><vAcc>0.792435</vAcc></extensions></trkpt>
      <trkpt lon="-82.147041" lat="33.555499"><ele>100.163193</ele><time>2022-01-01T15:40:10Z</time><extensions><speed>1.455928</speed><course>0.272083</course><hAcc>2.605580</hAcc><vAcc>0.796067</vAcc></extensions></trkpt>
      <trkpt lon="-82.147041" lat="33.555512"><ele>100.096428</ele><time>2022-01-01T15:40:11Z</time><extensions><speed>1.497030</speed><course>359.240814</course><hAcc>2.586594</hAcc><vAcc>0.799351</vAcc></extensions></trkpt>
      <trkpt lon="-82.147042" lat="33.555526"><ele>100.025185</ele><time>2022-01-01T15:40:12Z</time><extensions><speed>1.581707</speed><course>359.502411</course><hAcc>2.573774</hAcc><vAcc>0.801729</vAcc></extensions></trkpt>
      <trkpt lon="-82.147042" lat="33.555540"><ele>99.952454</ele><time>2022-01-01T15:40:13Z</time><extensions><speed>1.722285</speed><course>1.018668</course><hAcc>2.600670</hAcc><vAcc>0.802625</vAcc></extensions></trkpt>
      <trkpt lon="-82.147041" lat="33.555557"><ele>99.882828</ele><time>2022-01-01T15:40:14Z</time><extensions><speed>1.958716</speed><course>4.141209</course><hAcc>2.642439</hAcc><vAcc>0.801697</vAcc></extensions></trkpt>
      <trkpt lon="-82.147040" lat="33.555574"><ele>99.813995</ele><time>2022-01-01T15:40:15Z</time><extensions><speed>2.054262</speed><course>1.803755</course><hAcc>2.607722</hAcc><vAcc>0.798954</vAcc></extensions></trkpt>
      <trkpt lon="-82.147041" lat="33.555592"><ele>99.745773</ele><time>2022-01-01T15:40:16Z</time><extensions><speed>1.927947</speed><course>359.111969</course><hAcc>2.580845</hAcc><vAcc>0.794762</vAcc></extensions></trkpt>
      <trkpt lon="-82.147041" lat="33.555607"><ele>99.679901</ele><time>2022-01-01T15:40:17Z</time><extensions><speed>1.626283</speed><course>1.008899</course><hAcc>2.596659</hAcc><vAcc>0.789710</vAcc></extensions></trkpt>
      <trkpt lon="-82.147040" lat="33.555621"><ele>99.614807</ele><time>2022-01-01T15:40:18Z</time><extensions><speed>1.452679</speed><course>4.095297</course><hAcc>2.595043</hAcc><vAcc>0.784371</vAcc></extensions></trkpt>
      <trkpt lon="-82.147039" lat="33.555633"><ele>99.550331</ele><time>2022-01-01T15:40:19Z</time><extensions><speed>1.372061</speed><course>5.243126</course><hAcc>2.581134</hAcc><vAcc>0.779178</vAcc></extensions></trkpt>
      <trkpt lon="-82.147038" lat="33.555645"><ele>99.494019</ele><time>2022-01-01T15:40:20Z</time><extensions><speed>1.355799</speed><course>1.758046</course><hAcc>2.561077</hAcc><vAcc>0.774423</vAcc></extensions></trkpt>
      <trkpt lon="-82.147039" lat="33.555657"><ele>99.447395</ele><time>2022-01-01T15:40:21Z</time><extensions><speed>1.338804</speed><course>354.464691</course><hAcc>2.529529</hAcc><vAcc>0.770276</vAcc></extensions></trkpt>
      <trkpt lon="-82.147041" lat="33.555669"><ele>99.408249</ele><time>2022-01-01T15:40:22Z</time><extensions><speed>1.316779</speed><course>349.151367</course><hAcc>2.528808</hAcc><vAcc>0.766804</vAcc></extensions></trkpt>
      <trkpt lon="-82.147044" lat="33.555681"><ele>99.378151</ele><time>2022-01-01T15:40:23Z</time><extensions><speed>1.267304</speed><course>340.657745</course><hAcc>2.529972</hAcc><vAcc>0.764003</vAcc></extensions></trkpt>
      <trkpt lon="-82.147050" lat="33.555690"><ele>99.354454</ele><time>2022-01-01T15:40:24Z</time><extensions><speed>1.138012</speed><course>324.550385</course><hAcc>2.526424</hAcc><vAcc>0.761820</vAcc></extensions></trkpt>
      <trkpt lon="-82.147059" lat="33.555698"><ele>99.344597</ele><time>2022-01-01T15:40:25Z</time><extensions><speed>1.297330</speed><course>309.700806</course><hAcc>2.542434</hAcc><vAcc>0.760175</vAcc></extensions></trkpt>
      <trkpt lon="-82.147070" lat="33.555705"><ele>99.354553</ele><time>2022-01-01T15:40:26Z</time><extensions><speed>1.310445</speed><course>303.827179</course><hAcc>2.539251</hAcc><vAcc>0.758977</vAcc></extensions></trkpt>
      <trkpt lon="-82.147081" lat="33.555712"><ele>99.379532</ele><time>2022-01-01T15:40:27Z</time><extensions><speed>1.238002</speed><course>303.525391</course><hAcc>2.545506</hAcc><vAcc>0.758135</vAcc></extensions></trkpt>
      <trkpt lon="-82.147092" lat="33.555718"><ele>99.417999</ele><time>2022-01-01T15:40:28Z</time><extensions><speed>1.228222</speed><course>309.420044</course><hAcc>2.546420</hAcc><vAcc>0.757566</vAcc></extensions></trkpt>
      <trkpt lon="-82.147101" lat="33.555727"><ele>99.466103</ele><time>2022-01-01T15:40:29Z</time><extensions><speed>1.289995</speed><course>320.568542</course><hAcc>2.553458</hAcc><vAcc>0.757199</vAcc></extensions></trkpt>
      <trkpt lon="-82.147109" lat="33.555737"><ele>99.526154</ele><time>2022-01-01T15:40:30Z</time><extensions><speed>1.378697</speed><course>329.540588</course><hAcc>2.557164</hAcc><vAcc>0.756975</vAcc></extensions></trkpt>
      <trkpt lon="-82.147115" lat="33.555749"><ele>99.604561</ele><time>2022-01-01T15:40:31Z</time><extensions><speed>1.410635</speed><course>334.868256</course><hAcc>2.557074</hAcc><vAcc>0.756848</vAcc></extensions></trkpt>
      <trkpt lon="-82.147121" lat="33.555761"><ele>99.694572</ele><time>2022-01-01T15:40:32Z</time><extensions><speed>1.411207</speed><course>333.367889</course><hAcc>2.590851</hAcc><vAcc>0.756785</vAcc></extensions></trkpt>
      <trkpt lon="-82.147128" lat="33.555773"><ele>99.797432</ele><time>2022-01-01T15:40:33Z</time><extensions><speed>1.370281</speed><course>324.815582</course><hAcc>2.632095</hAcc><vAcc>0.756759</vAcc></extensions></trkpt>
      <trkpt lon="-82.147135" lat="33.555783"><ele>99.916046</ele><time>2022-01-01T15:40:34Z</time><extensions><speed>1.249972</speed><course>315.597290</course><hAcc>2.612819</hAcc><vAcc>0.756754</vAcc></extensions></trkpt>
      <trkpt lon="-82.147143" lat="33.555791"><ele>100.044418</ele><time>2022-01-01T15:40:35Z</time><extensions><speed>1.176057</speed><course>313.521606</course><hAcc>2.594414</hAcc><vAcc>0.756759</vAcc></extensions></trkpt>
      <trkpt lon="-82.147150" lat="33.555801"><ele>100.193626</ele><time>2022-01-01T15:40:36Z</time><extensions><speed>1.295373</speed><course>319.876160</course><hAcc>2.587081</hAcc><vAcc>0.756767</vAcc></extensions></trkpt>
      <trkpt lon="-82.147156" lat="33.555812"><ele>100.338463</ele><time>2022-01-01T15:40:37Z</time><extensions><speed>1.411247</speed><course>332.326233</course><hAcc>2.577894</hAcc><vAcc>0.756774</vAcc></extensions></trkpt>
      <trkpt lon="-82.147160" lat="33.555825"><ele>100.483971</ele><time>2022-01-01T15:40:38Z</time><extensions><speed>1.508951</speed><course>340.013428</course><hAcc>2.580822</hAcc><vAcc>0.756779</vAcc></extensions></trkpt>
      <trkpt lon="-82.147164" lat="33.555839"><ele>100.629089</ele><time>2022-01-01T15:40:39Z</time><extensions><speed>1.581854</speed><course>345.082489</course><hAcc>2.585083</hAcc><vAcc>0.756781</vAcc></extensions></trkpt>
      <trkpt lon="-82.147166" lat="33.555853"><ele>100.774742</ele><time>2022-01-01T15:40:40Z</time><extensions><speed>1.518146</speed><course>342.371887</course><hAcc>2.609271</hAcc><vAcc>0.756781</vAcc></extensions></trkpt>
      <trkpt lon="-82.147169" lat="33.555868"><ele>100.920685</ele><time>2022-01-01T15:40:41Z</time><extensions><speed>1.582380</speed><course>352.421570</course><hAcc>2.578769</hAcc><vAcc>0.756778</vAcc></extensions></trkpt>
      <trkpt lon="-82.147168" lat="33.555883"><ele>101.062653</ele><time>2022-01-01T15:40:42Z</time><extensions><speed>1.683635</speed><course>3.829025</course><hAcc>2.544900</hAcc><vAcc>0.756775</vAcc></extensions></trkpt>
      <trkpt lon="-82.147164" lat="33.555899"><ele>101.199631</ele><time>2022-01-01T15:40:43Z</time><extensions><speed>1.687264</speed><course>10.943839</course><hAcc>2.541512</hAcc><vAcc>0.756770</vAcc></extensions></trkpt>
      <trkpt lon="-82.147159" lat="33.555914"><ele>101.331558</ele><time>2022-01-01T15:40:44Z</time><extensions><speed>1.658451</speed><course>15.557630</course><hAcc>2.526781</hAcc><vAcc>0.756765</vAcc></extensions></trkpt>
      <trkpt lon="-82.147154" lat="33.555928"><ele>101.454910</ele><time>2022-01-01T15:40:45Z</time><extensions><speed>1.371034</speed><course>15.150166</course><hAcc>2.524537</hAcc><vAcc>0.756761</vAcc></extensions></trkpt>
      <trkpt lon="-82.147149" lat="33.555942"><ele>101.572876</ele><time>2022-01-01T15:40:46Z</time><extensions><speed>1.593185</speed><course>13.775099</course><hAcc>2.501066</hAcc><vAcc>0.756757</vAcc></extensions></trkpt>
      <trkpt lon="-82.147144" lat="33.555956"><ele>101.679230</ele><time>2022-01-01T15:40:47Z</time><extensions><speed>1.642711</speed><course>14.282800</course><hAcc>2.495702</hAcc><vAcc>0.756753</vAcc></extensions></trkpt>
      <trkpt lon="-82.147139" lat="33.555971"><ele>101.779663</ele><time>2022-01-01T15:40:48Z</time><extensions><speed>1.595498</speed><course>12.938756</course><hAcc>2.514637</hAcc><vAcc>0.756750</vAcc></extensions></trkpt>
      <trkpt lon="-82.147134" lat="33.555985"><ele>101.873802</ele><time>2022-01-01T15:40:49Z</time><extensions><speed>1.640906</speed><course>17.248203</course><hAcc>2.493881</hAcc><vAcc>0.756748</vAcc></extensions></trkpt>
      <trkpt lon="-82.147128" lat="33.556000"><ele>101.960625</ele><time>2022-01-01T15:40:50Z</time><extensions><speed>1.649292</speed><course>16.429518</course><hAcc>2.490919</hAcc><vAcc>0.756746</vAcc></extensions></trkpt>
      <trkpt lon="-82.147123" lat="33.556015"><ele>102.041016</ele><time>2022-01-01T15:40:51Z</time><extensions><speed>1.823822</speed><course>12.319892</course><hAcc>2.486322</hAcc><vAcc>0.756745</vAcc></extensions></trkpt>
      <trkpt lon="-82.147119" lat="33.556031"><ele>102.115845</ele><time>2022-01-01T15:40:52Z</time><extensions><speed>1.775360</speed><course>6.158892</course><hAcc>2.490673</hAcc><vAcc>0.756744</vAcc></extensions></trkpt>
      <trkpt lon="-82.147118" lat="33.556047"><ele>102.184303</ele><time>2022-01-01T15:40:53Z</time><extensions><speed>1.713334</speed><course>0.918259</course><hAcc>2.490222</hAcc><vAcc>0.756743</vAcc></extensions></trkpt>
      <trkpt lon="-82.147117" lat="33.556062"><ele>102.249908</ele><time>2022-01-01T15:40:54Z</time><extensions><speed>1.641844</speed><course>358.248657</course><hAcc>2.464780</hAcc><vAcc>0.756743</vAcc></extensions></trkpt>
      <trkpt lon="-82.147118" lat="33.556077"><ele>102.306236</ele><time>2022-01-01T15:40:55Z</time><extensions><speed>1.688027</speed><course>357.194031</course><hAcc>2.446779</hAcc><vAcc>0.756742</vAcc></extensions></trkpt>
      <trkpt lon="-82.147119" lat="33.556092"><ele>102.359131</ele><time>2022-01-01T15:40:56Z</time><extensions><speed>1.649441</speed><course>356.530853</course><hAcc>2.460825</hAcc><vAcc>0.756742</vAcc></extensions></trkpt>
      <trkpt lon="-82.147120" lat="33.556106"><ele>102.407578</ele><time>2022-01-01T15:40:57Z</time><extensions><speed>1.526212</speed><course>358.332336</course><hAcc>2.488475</hAcc><vAcc>0.756742</vAcc></extensions></trkpt>
      <trkpt lon="-82.147120" lat="33.556120"><ele>102.450615</ele><time>2022-01-01T15:40:58Z</time><extensions><speed>1.475451</speed><course>3.338550</course><hAcc>2.502278</hAcc><vAcc>0.756742</vAcc></extensions></trkpt>
      <trkpt lon="-82.147119" lat="33.556134"><ele>102.495224</ele><time>2022-01-01T15:40:59Z</time><extensions><speed>1.484136</speed><course>7.341236</course><hAcc>2.477335</hAcc><vAcc>0.756742</vAcc></extensions></trkpt>
      <trkpt lon="-82.147118" lat="33.556147"><ele>102.538033</ele><time>2022-01-01T15:41:00Z</time><extensions><speed>1.480251</speed><course>7.071368</course><hAcc>2.473312</hAcc><vAcc>0.756742</vAcc></extensions></trkpt>
      <trkpt lon="-82.147117" lat="33.556161"><ele>102.572411</ele><time>2022-01-01T15:41:01Z</time><extensions><speed>1.468228</speed><course>4.862274</course><hAcc>2.487107</hAcc><vAcc>0.756742</vAcc></extensions></trkpt>
      <trkpt lon="-82.147116" lat="33.556174"><ele>102.598183</ele><time>2022-01-01T15:41:02Z</time><extensions><speed>1.435520</speed><course>2.548543</course><hAcc>2.506146</hAcc><vAcc>0.756742</vAcc></extensions></trkpt>
      <trkpt lon="-82.147115" lat="33.556187"><ele>102.619095</ele><time>2022-01-01T15:41:03Z</time><extensions><speed>1.358339</speed><course>1.606382</course><hAcc>2.497676</hAcc><vAcc>0.756742</vAcc></extensions></trkpt>
      <trkpt lon="-82.147116" lat="33.556198"><ele>102.622307</ele><time>2022-01-01T15:41:04Z</time><extensions><speed>1.180109</speed><course>359.009460</course><hAcc>2.491469</hAcc><vAcc>0.756742</vAcc></extensions></trkpt>
      <trkpt lon="-82.147116" lat="33.556209"><ele>102.598625</ele><time>2022-01-01T15:41:05Z</time><extensions><speed>1.079410</speed><course>354.725006</course><hAcc>2.490763</hAcc><vAcc>0.756742</vAcc></extensions></trkpt>
      <trkpt lon="-82.147119" lat="33.556219"><ele>102.566147</ele><time>2022-01-01T15:41:06Z</time><extensions><speed>1.067125</speed><course>348.347015</course><hAcc>2.506368</hAcc><vAcc>0.756742</vAcc></extensions></trkpt>
      <trkpt lon="-82.147123" lat="33.556228"><ele>102.525391</ele><time>2022-01-01T15:41:07Z</time><extensions><speed>1.121757</speed><course>338.515747</course><hAcc>2.538270</hAcc><vAcc>0.756742</vAcc></extensions></trkpt>
      <trkpt lon="-82.147128" lat="33.556239"><ele>102.468246</ele><time>2022-01-01T15:41:08Z</time><extensions><speed>1.355531</speed><course>338.014801</course><hAcc>2.549875</hAcc><vAcc>0.756742</vAcc></extensions></trkpt>
      <trkpt lon="-82.147135" lat="33.556252"><ele>102.397675</ele><time>2022-01-01T15:41:09Z</time><extensions><speed>1.575797</speed><course>342.894135</course><hAcc>2.543233</hAcc><vAcc>0.756742</vAcc></extensions></trkpt>
      <trkpt lon="-82.147139" lat="33.556265"><ele>102.322365</ele><time>2022-01-01T15:41:10Z</time><extensions><speed>1.344485</speed><course>352.733215</course><hAcc>2.523434</hAcc><vAcc>0.756742</vAcc></extensions></trkpt>
      <trkpt lon="-82.147141" lat="33.556277"><ele>102.236969</ele><time>2022-01-01T15:41:11Z</time><extensions><speed>1.252020</speed><course>2.748697</course><hAcc>2.491088</hAcc><vAcc>0.756742</vAcc></extensions></trkpt>
      <trkpt lon="-82.147139" lat="33.556287"><ele>102.138702</ele><time>2022-01-01T15:41:12Z</time><extensions><speed>1.192597</speed><course>22.112839</course><hAcc>2.485153</hAcc><vAcc>0.756742</vAcc></extensions></trkpt>
      <trkpt lon="-82.147133" lat="33.556296"><ele>102.034370</ele><time>2022-01-01T15:41:13Z</time><extensions><speed>1.254881</speed><course>43.166790</course><hAcc>2.504543</hAcc><vAcc>0.756742</vAcc></extensions></trkpt>
      <trkpt lon="-82.147123" lat="33.556303"><ele>101.925812</ele><time>2022-01-01T15:41:14Z</time><extensions><speed>1.304444</speed><course>55.999226</course><hAcc>2.547054</hAcc><vAcc>0.756742</vAcc></extensions></trkpt>
      <trkpt lon="-82.147113" lat="33.556310"><ele>101.814728</ele><time>2022-01-01T15:41:15Z</time><extensions><speed>1.213734</speed><course>45.384354</course><hAcc>2.572310</hAcc><vAcc>0.756742</vAcc></extensions></trkpt>
      <trkpt lon="-82.147106" lat="33.556318"><ele>101.706703</ele><time>2022-01-01T15:41:16Z</time><extensions><speed>1.291229</speed><course>28.103203</course><hAcc>2.580817</hAcc><vAcc>0.756742</vAcc></extensions></trkpt>
      <trkpt lon="-82.147101" lat="33.556328"><ele>101.596329</ele><time>2022-01-01T15:41:17Z</time><extensions><speed>1.254069</speed><course>18.356770</course><hAcc>2.572044</hAcc><vAcc>0.756742</vAcc></extensions></trkpt>
      <trkpt lon="-82.147098" lat="33.556338"><ele>101.492584</ele><time>2022-01-01T15:41:18Z</time><extensions><speed>1.079494</speed><course>16.435814</course><hAcc>2.549159</hAcc><vAcc>0.756742</vAcc></extensions></trkpt>
      <trkpt lon="-82.147095" lat="33.556346"><ele>101.398827</ele><time>2022-01-01T15:41:19Z</time><extensions><speed>0.739664</speed><course>17.902472</course><hAcc>2.540469</hAcc><vAcc>0.756742</vAcc></extensions></trkpt>
      <trkpt lon="-82.147093" lat="33.556350"><ele>101.304337</ele><time>2022-01-01T15:41:20Z</time><extensions><speed>0.311076</speed><course>53.885723</course><hAcc>2.567828</hAcc><vAcc>0.756742</vAcc></extensions></trkpt>
      <trkpt lon="-82.147089" lat="33.556350"><ele>101.210205</ele><time>2022-01-01T15:41:21Z</time><extensions><speed>0.682430</speed><course>104.082458</course><hAcc>2.609510</hAcc><vAcc>0.756742</vAcc></extensions></trkpt>
      <trkpt lon="-82.147082" lat="33.556346"><ele>101.122391</ele><time>2022-01-01T15:41:22Z</time><extensions><speed>1.011979</speed><course>137.487396</course><hAcc>2.622384</hAcc><vAcc>0.756742</vAcc></extensions></trkpt>
      <trkpt lon="-82.147074" lat="33.556338"><ele>101.033989</ele><time>2022-01-01T15:41:23Z</time><extensions><speed>1.267763</speed><course>147.709702</course><hAcc>2.620730</hAcc><vAcc>0.756742</vAcc></extensions></trkpt>
      <trkpt lon="-82.147067" lat="33.556328"><ele>100.954681</ele><time>2022-01-01T15:41:24Z</time><extensions><speed>1.410474</speed><course>149.998276</course><hAcc>2.624166</hAcc><vAcc>0.756742</vAcc></extensions></trkpt>
      <trkpt lon="-82.147058" lat="33.556317"><ele>100.879967</ele><time>2022-01-01T15:41:25Z</time><extensions><speed>1.493050</speed><course>146.751953</course><hAcc>2.627620</hAcc><vAcc>0.756742</vAcc></extensions></trkpt>
      <trkpt lon="-82.147048" lat="33.556307"><ele>100.815910</ele><time>2022-01-01T15:41:26Z</time><extensions><speed>1.456013</speed><course>137.792953</course><hAcc>2.657313</hAcc><vAcc>0.756742</vAcc></extensions></trkpt>
      <trkpt lon="-82.147037" lat="33.556300"><ele>100.756439</ele><time>2022-01-01T15:41:27Z</time><extensions><speed>1.236846</speed><course>125.443756</course><hAcc>2.687531</hAcc><vAcc>0.756742</vAcc></extensions></trkpt>
      <trkpt lon="-82.147025" lat="33.556295"><ele>100.699646</ele><time>2022-01-01T15:41:28Z</time><extensions><speed>1.096264</speed><course>107.764450</course><hAcc>2.680778</hAcc><vAcc>0.758385</vAcc></extensions></trkpt>
      <trkpt lon="-82.147013" lat="33.556294"><ele>100.646156</ele><time>2022-01-01T15:41:29Z</time><extensions><speed>1.072873</speed><course>98.263206</course><hAcc>2.640305</hAcc><vAcc>0.761085</vAcc></extensions></trkpt>
      <trkpt lon="-82.147001" lat="33.556293"><ele>100.600189</ele><time>2022-01-01T15:41:30Z</time><extensions><speed>1.064406</speed><course>93.000923</course><hAcc>2.606913</hAcc><vAcc>0.765080</vAcc></extensions></trkpt>
      <trkpt lon="-82.146989" lat="33.556294"><ele>100.563705</ele><time>2022-01-01T15:41:31Z</time><extensions><speed>1.084078</speed><course>90.626862</course><hAcc>2.604046</hAcc><vAcc>0.770563</vAcc></extensions></trkpt>
      <trkpt lon="-82.146976" lat="33.556295"><ele>100.539444</ele><time>2022-01-01T15:41:32Z</time><extensions><speed>1.116415</speed><course>88.374542</course><hAcc>2.629575</hAcc><vAcc>0.777677</vAcc></extensions></trkpt>
      <trkpt lon="-82.146963" lat="33.556296"><ele>100.519577</ele><time>2022-01-01T15:41:33Z</time><extensions><speed>1.183866</speed><course>86.751945</course><hAcc>2.666517</hAcc><vAcc>0.786499</vAcc></extensions></trkpt>
      <trkpt lon="-82.146948" lat="33.556298"><ele>100.503075</ele><time>2022-01-01T15:41:34Z</time><extensions><speed>1.649706</speed><course>83.360680</course><hAcc>2.639920</hAcc><vAcc>0.797018</vAcc></extensions></trkpt>
      <trkpt lon="-82.146928" lat="33.556301"><ele>100.494171</ele><time>2022-01-01T15:41:35Z</time><extensions><speed>1.847548</speed><course>80.174072</course><hAcc>2.610881</hAcc><vAcc>0.809118</vAcc></extensions></trkpt>
      <trkpt lon="-82.146909" lat="33.556304"><ele>100.486977</ele><time>2022-01-01T15:41:36Z</time><extensions><speed>1.829456</speed><course>79.339088</course><hAcc>2.608153</hAcc><vAcc>0.822541</vAcc></extensions></trkpt>
      <trkpt lon="-82.146890" lat="33.556308"><ele>100.486824</ele><time>2022-01-01T15:41:37Z</time><extensions><speed>1.557787</speed><course>78.222099</course><hAcc>2.602819</hAcc><vAcc>0.830836</vAcc></extensions></trkpt>
      <trkpt lon="-82.146877" lat="33.556311"><ele>100.496147</ele><time>2022-01-01T15:41:38Z</time><extensions><speed>1.040757</speed><course>71.618774</course><hAcc>2.586852</hAcc><vAcc>0.844054</vAcc></extensions></trkpt>
      <trkpt lon="-82.146866" lat="33.556315"><ele>100.515511</ele><time>2022-01-01T15:41:39Z</time><extensions><speed>0.943974</speed><course>67.957947</course><hAcc>2.580689</hAcc><vAcc>0.856779</vAcc></extensions></trkpt>
      <trkpt lon="-82.146854" lat="33.556319"><ele>100.550842</ele><time>2022-01-01T15:41:40Z</time><extensions><speed>1.599490</speed><course>68.064400</course><hAcc>2.554177</hAcc><vAcc>0.862912</vAcc></extensions></trkpt>
      <trkpt lon="-82.146836" lat="33.556326"><ele>100.584061</ele><time>2022-01-01T15:41:41Z</time><extensions><speed>2.012534</speed><course>68.185440</course><hAcc>2.542684</hAcc><vAcc>0.871863</vAcc></extensions></trkpt>
      <trkpt lon="-82.146816" lat="33.556333"><ele>100.623634</ele><time>2022-01-01T15:41:42Z</time><extensions><speed>1.942401</speed><course>68.078354</course><hAcc>2.545070</hAcc><vAcc>0.874429</vAcc></extensions></trkpt>
      <trkpt lon="-82.146797" lat="33.556340"><ele>100.662598</ele><time>2022-01-01T15:41:43Z</time><extensions><speed>1.930867</speed><course>67.298752</course><hAcc>2.535680</hAcc><vAcc>0.878806</vAcc></extensions></trkpt>
      <trkpt lon="-82.146778" lat="33.556347"><ele>100.706459</ele><time>2022-01-01T15:41:44Z</time><extensions><speed>1.899745</speed><course>66.234406</course><hAcc>2.539552</hAcc><vAcc>0.877520</vAcc></extensions></trkpt>
      <trkpt lon="-82.146760" lat="33.556355"><ele>100.755203</ele><time>2022-01-01T15:41:45Z</time><extensions><speed>1.880119</speed><course>65.404144</course><hAcc>2.540925</hAcc><vAcc>0.874299</vAcc></extensions></trkpt>
      <trkpt lon="-82.146742" lat="33.556362"><ele>100.807755</ele><time>2022-01-01T15:41:46Z</time><extensions><speed>1.813784</speed><course>64.472198</course><hAcc>2.537743</hAcc><vAcc>0.869331</vAcc></extensions></trkpt>
      <trkpt lon="-82.146725" lat="33.556369"><ele>100.859222</ele><time>2022-01-01T15:41:47Z</time><extensions><speed>1.651326</speed><course>63.564182</course><hAcc>2.561643</hAcc><vAcc>0.862929</vAcc></extensions></trkpt>
      <trkpt lon="-82.146710" lat="33.556377"><ele>100.912865</ele><time>2022-01-01T15:41:48Z</time><extensions><speed>1.469793</speed><course>58.370281</course><hAcc>2.578903</hAcc><vAcc>0.855411</vAcc></extensions></trkpt>
      <trkpt lon="-82.146698" lat="33.556384"><ele>100.972366</ele><time>2022-01-01T15:41:49Z</time><extensions><speed>1.340957</speed><course>52.890404</course><hAcc>2.591557</hAcc><vAcc>0.846988</vAcc></extensions></trkpt>
      <trkpt lon="-82.146687" lat="33.556392"><ele>101.021751</ele><time>2022-01-01T15:41:50Z</time><extensions><speed>1.164303</speed><course>46.001125</course><hAcc>2.573287</hAcc><vAcc>0.837895</vAcc></extensions></trkpt>
      <trkpt lon="-82.146679" lat="33.556400"><ele>101.061996</ele><time>2022-01-01T15:41:51Z</time><extensions><speed>1.131572</speed><course>40.501114</course><hAcc>2.559716</hAcc><vAcc>0.828419</vAcc></extensions></trkpt>
      <trkpt lon="-82.146671" lat="33.556408"><ele>101.088730</ele><time>2022-01-01T15:41:52Z</time><extensions><speed>1.141538</speed><course>36.541500</course><hAcc>2.568636</hAcc><vAcc>0.818807</vAcc></extensions></trkpt>
      <trkpt lon="-82.146664" lat="33.556417"><ele>101.099495</ele><time>2022-01-01T15:41:53Z</time><extensions><speed>1.210889</speed><course>34.833702</course><hAcc>2.598217</hAcc><vAcc>0.809301</vAcc></extensions></trkpt>
      <trkpt lon="-82.146656" lat="33.556427"><ele>101.102669</ele><time>2022-01-01T15:41:54Z</time><extensions><speed>1.298968</speed><course>35.849281</course><hAcc>2.643774</hAcc><vAcc>0.800166</vAcc></extensions></trkpt>
      <trkpt lon="-82.146647" lat="33.556437"><ele>101.094948</ele><time>2022-01-01T15:41:55Z</time><extensions><speed>1.421509</speed><course>38.095440</course><hAcc>2.645006</hAcc><vAcc>0.791710</vAcc></extensions></trkpt>
      <trkpt lon="-82.146638" lat="33.556447"><ele>101.080017</ele><time>2022-01-01T15:41:56Z</time><extensions><speed>1.447427</speed><course>41.006546</course><hAcc>2.633188</hAcc><vAcc>0.784202</vAcc></extensions></trkpt>
      <trkpt lon="-82.146628" lat="33.556457"><ele>101.046768</ele><time>2022-01-01T15:41:57Z</time><extensions><speed>1.424519</speed><course>43.107681</course><hAcc>2.619323</hAcc><vAcc>0.777777</vAcc></extensions></trkpt>
      <trkpt lon="-82.146618" lat="33.556466"><ele>101.004631</ele><time>2022-01-01T15:41:58Z</time><extensions><speed>1.332304</speed><course>41.424767</course><hAcc>2.615796</hAcc><vAcc>0.772460</vAcc></extensions></trkpt>
      <trkpt lon="-82.146608" lat="33.556476"><ele>100.953751</ele><time>2022-01-01T15:41:59Z</time><extensions><speed>1.340490</speed><course>39.152843</course><hAcc>2.613562</hAcc><vAcc>0.768196</vAcc></extensions></trkpt>
      <trkpt lon="-82.146599" lat="33.556485"><ele>100.895020</ele><time>2022-01-01T15:42:00Z</time><extensions><speed>1.403456</speed><course>38.372208</course><hAcc>2.621689</hAcc><vAcc>0.764877</vAcc></extensions></trkpt>
      <trkpt lon="-82.146589" lat="33.556495"><ele>100.831696</ele><time>2022-01-01T15:42:01Z</time><extensions><speed>1.401141</speed><course>39.889370</course><hAcc>2.615615</hAcc><vAcc>0.762370</vAcc></extensions></trkpt>
      <trkpt lon="-82.146580" lat="33.556504"><ele>100.766548</ele><time>2022-01-01T15:42:02Z</time><extensions><speed>1.346878</speed><course>39.821098</course><hAcc>2.611665</hAcc><vAcc>0.760530</vAcc></extensions></trkpt>
      <trkpt lon="-82.146571" lat="33.556513"><ele>100.704048</ele><time>2022-01-01T15:42:03Z</time><extensions><speed>1.223336</speed><course>38.972462</course><hAcc>2.601580</hAcc><vAcc>0.759220</vAcc></extensions></trkpt>
      <trkpt lon="-82.146563" lat="33.556521"><ele>100.641884</ele><time>2022-01-01T15:42:04Z</time><extensions><speed>1.129459</speed><course>39.780895</course><hAcc>2.581459</hAcc><vAcc>0.758318</vAcc></extensions></trkpt>
      <trkpt lon="-82.146555" lat="33.556528"><ele>100.593445</ele><time>2022-01-01T15:42:05Z</time><extensions><speed>1.137725</speed><course>43.344662</course><hAcc>2.563297</hAcc><vAcc>0.757717</vAcc></extensions></trkpt>
      <trkpt lon="-82.146546" lat="33.556535"><ele>100.553833</ele><time>2022-01-01T15:42:06Z</time><extensions><speed>1.290769</speed><course>46.559284</course><hAcc>2.574852</hAcc><vAcc>0.757333</vAcc></extensions></trkpt>
      <trkpt lon="-82.146536" lat="33.556543"><ele>100.511345</ele><time>2022-01-01T15:42:07Z</time><extensions><speed>1.197258</speed><course>43.444794</course><hAcc>2.593337</hAcc><vAcc>0.757098</vAcc></extensions></trkpt>
      <trkpt lon="-82.146527" lat="33.556551"><ele>100.481110</ele><time>2022-01-01T15:42:08Z</time><extensions><speed>1.273251</speed><course>38.852139</course><hAcc>2.574389</hAcc><vAcc>0.756963</vAcc></extensions></trkpt>
      <trkpt lon="-82.146518" lat="33.556559"><ele>100.462532</ele><time>2022-01-01T15:42:09Z</time><extensions><speed>1.295325</speed><course>40.536827</course><hAcc>2.563278</hAcc><vAcc>0.756889</vAcc></extensions></trkpt>
      <trkpt lon="-82.146509" lat="33.556567"><ele>100.451508</ele><time>2022-01-01T15:42:10Z</time><extensions><speed>1.308232</speed><course>46.708199</course><hAcc>2.566215</hAcc><vAcc>0.756853</vAcc></extensions></trkpt>
      <trkpt lon="-82.146498" lat="33.556574"><ele>100.444054</ele><time>2022-01-01T15:42:11Z</time><extensions><speed>1.255457</speed><course>53.493732</course><hAcc>2.539577</hAcc><vAcc>0.756837</vAcc></extensions></trkpt>
      <trkpt lon="-82.146487" lat="33.556580"><ele>100.433876</ele><time>2022-01-01T15:42:12Z</time><extensions><speed>1.168364</speed><course>52.240749</course><hAcc>2.523144</hAcc><vAcc>0.756830</vAcc></extensions></trkpt>
      <trkpt lon="-82.146478" lat="33.556586"><ele>100.428162</ele><time>2022-01-01T15:42:13Z</time><extensions><speed>1.020410</speed><course>50.806740</course><hAcc>2.524497</hAcc><vAcc>0.756826</vAcc></extensions></trkpt>
      <trkpt lon="-82.146469" lat="33.556591"><ele>100.422356</ele><time>2022-01-01T15:42:14Z</time><extensions><speed>0.956404</speed><course>48.180744</course><hAcc>2.541877</hAcc><vAcc>0.756823</vAcc></extensions></trkpt>
      <trkpt lon="-82.146460" lat="33.556597"><ele>100.416870</ele><time>2022-01-01T15:42:15Z</time><extensions><speed>1.133982</speed><course>46.129288</course><hAcc>2.562818</hAcc><vAcc>0.756818</vAcc></extensions></trkpt>
      <trkpt lon="-82.146450" lat="33.556605"><ele>100.409737</ele><time>2022-01-01T15:42:16Z</time><extensions><speed>1.438435</speed><course>38.092510</course><hAcc>2.555862</hAcc><vAcc>0.756812</vAcc></extensions></trkpt>
      <trkpt lon="-82.146440" lat="33.556615"><ele>100.405136</ele><time>2022-01-01T15:42:17Z</time><extensions><speed>1.418161</speed><course>36.197403</course><hAcc>2.529307</hAcc><vAcc>0.756804</vAcc></extensions></trkpt>
      <trkpt lon="-82.146430" lat="33.556624"><ele>100.409088</ele><time>2022-01-01T15:42:18Z</time><extensions><speed>1.327189</speed><course>37.371956</course><hAcc>2.512002</hAcc><vAcc>0.756796</vAcc></extensions></trkpt>
      <trkpt lon="-82.146420" lat="33.556633"><ele>100.415108</ele><time>2022-01-01T15:42:19Z</time><extensions><speed>1.181154</speed><course>48.189129</course><hAcc>2.512248</hAcc><vAcc>0.756787</vAcc></extensions></trkpt>
      <trkpt lon="-82.146408" lat="33.556639"><ele>100.419937</ele><time>2022-01-01T15:42:20Z</time><extensions><speed>1.336997</speed><course>57.286121</course><hAcc>2.540041</hAcc><vAcc>0.756779</vAcc></extensions></trkpt>
      <trkpt lon="-82.146393" lat="33.556647"><ele>100.420158</ele><time>2022-01-01T15:42:21Z</time><extensions><speed>1.799497</speed><course>57.436920</course><hAcc>2.577018</hAcc><vAcc>0.756772</vAcc></extensions></trkpt>
      <trkpt lon="-82.146375" lat="33.556654"><ele>100.419800</ele><time>2022-01-01T15:42:22Z</time><extensions><speed>1.722082</speed><course>68.320679</course><hAcc>2.571792</hAcc><vAcc>0.756765</vAcc></extensions></trkpt>
      <trkpt lon="-82.146357" lat="33.556659"><ele>100.408577</ele><time>2022-01-01T15:42:23Z</time><extensions><speed>1.666610</speed><course>69.814148</course><hAcc>2.552462</hAcc><vAcc>0.756760</vAcc></extensions></trkpt>
      <trkpt lon="-82.146340" lat="33.556664"><ele>100.396736</ele><time>2022-01-01T15:42:24Z</time><extensions><speed>1.548013</speed><course>76.334747</course><hAcc>2.520333</hAcc><vAcc>0.756755</vAcc></extensions></trkpt>
      <trkpt lon="-82.146325" lat="33.556666"><ele>100.381195</ele><time>2022-01-01T15:42:25Z</time><extensions><speed>1.144412</speed><course>79.624947</course><hAcc>2.504848</hAcc><vAcc>0.756752</vAcc></extensions></trkpt>
      <trkpt lon="-82.146314" lat="33.556668"><ele>100.367599</ele><time>2022-01-01T15:42:26Z</time><extensions><speed>0.726281</speed><course>81.338181</course><hAcc>2.524043</hAcc><vAcc>0.756749</vAcc></extensions></trkpt>
      <trkpt lon="-82.146306" lat="33.556669"><ele>100.355225</ele><time>2022-01-01T15:42:27Z</time><extensions><speed>0.571892</speed><course>74.162994</course><hAcc>2.553182</hAcc><vAcc>0.756747</vAcc></extensions></trkpt>
      <trkpt lon="-82.146298" lat="33.556671"><ele>100.336578</ele><time>2022-01-01T15:42:28Z</time><extensions><speed>0.720002</speed><course>73.255241</course><hAcc>2.534543</hAcc><vAcc>0.756745</vAcc></extensions></trkpt>
      <trkpt lon="-82.146289" lat="33.556673"><ele>100.308434</ele><time>2022-01-01T15:42:29Z</time><extensions><speed>0.929009</speed><course>71.537773</course><hAcc>2.523721</hAcc><vAcc>0.756744</vAcc></extensions></trkpt>
      <trkpt lon="-82.146277" lat="33.556677"><ele>100.279121</ele><time>2022-01-01T15:42:30Z</time><extensions><speed>1.279885</speed><course>72.738724</course><hAcc>2.524720</hAcc><vAcc>0.756743</vAcc></extensions></trkpt>
      <trkpt lon="-82.146262" lat="33.556681"><ele>100.244514</ele><time>2022-01-01T15:42:31Z</time><extensions><speed>1.465928</speed><course>69.040886</course><hAcc>2.547305</hAcc><vAcc>0.756743</vAcc></extensions></trkpt>
      <trkpt lon="-82.146246" lat="33.556685"><ele>100.199333</ele><time>2022-01-01T15:42:32Z</time><extensions><speed>1.377441</speed><course>70.897102</course><hAcc>2.526409</hAcc><vAcc>0.756743</vAcc></extensions></trkpt>
      <trkpt lon="-82.146231" lat="33.556689"><ele>100.153099</ele><time>2022-01-01T15:42:33Z</time><extensions><speed>1.327145</speed><course>69.049896</course><hAcc>2.515491</hAcc><vAcc>0.756742</vAcc></extensions></trkpt>
      <trkpt lon="-82.146217" lat="33.556693"><ele>100.101448</ele><time>2022-01-01T15:42:34Z</time><extensions><speed>1.258121</speed><course>61.510468</course><hAcc>2.532074</hAcc><vAcc>0.756742</vAcc></extensions></trkpt>
      <trkpt lon="-82.146204" lat="33.556699"><ele>100.042953</ele><time>2022-01-01T15:42:35Z</time><extensions><speed>1.452607</speed><course>53.323917</course><hAcc>2.531781</hAcc><vAcc>0.756742</vAcc></extensions></trkpt>
      <trkpt lon="-82.146191" lat="33.556707"><ele>99.979599</ele><time>2022-01-01T15:42:36Z</time><extensions><speed>1.488627</speed><course>48.619705</course><hAcc>2.537554</hAcc><vAcc>0.756742</vAcc></extensions></trkpt>
      <trkpt lon="-82.146178" lat="33.556716"><ele>99.912430</ele><time>2022-01-01T15:42:37Z</time><extensions><speed>1.498975</speed><course>46.886593</course><hAcc>2.524723</hAcc><vAcc>0.756742</vAcc></extensions></trkpt>
      <trkpt lon="-82.146166" lat="33.556724"><ele>99.841637</ele><time>2022-01-01T15:42:38Z</time><extensions><speed>1.486765</speed><course>46.672459</course><hAcc>2.502925</hAcc><vAcc>0.756742</vAcc></extensions></trkpt>
      <trkpt lon="-82.146153" lat="33.556733"><ele>99.771202</ele><time>2022-01-01T15:42:39Z</time><extensions><speed>1.477629</speed><course>47.132175</course><hAcc>2.508772</hAcc><vAcc>0.756742</vAcc></extensions></trkpt>
      <trkpt lon="-82.146140" lat="33.556741"><ele>99.694397</ele><time>2022-01-01T15:42:40Z</time><extensions><speed>1.505264</speed><course>51.379734</course><hAcc>2.538709</hAcc><vAcc>0.756742</vAcc></extensions></trkpt>
      <trkpt lon="-82.146127" lat="33.556749"><ele>99.610741</ele><time>2022-01-01T15:42:41Z</time><extensions><speed>1.525584</speed><course>56.707764</course><hAcc>2.563467</hAcc><vAcc>0.756742</vAcc></extensions></trkpt>
      <trkpt lon="-82.146112" lat="33.556755"><ele>99.526848</ele><time>2022-01-01T15:42:42Z</time><extensions><speed>1.549810</speed><course>65.189209</course><hAcc>2.563235</hAcc><vAcc>0.756742</vAcc></extensions></trkpt>
      <trkpt lon="-82.146096" lat="33.556760"><ele>99.442528</ele><time>2022-01-01T15:42:43Z</time><extensions><speed>1.504964</speed><course>72.240318</course><hAcc>2.570295</hAcc><vAcc>0.756742</vAcc></extensions></trkpt>
      <trkpt lon="-82.146080" lat="33.556763"><ele>99.359772</ele><time>2022-01-01T15:42:44Z</time><extensions><speed>1.329590</speed><course>80.191467</course><hAcc>2.579399</hAcc><vAcc>0.756742</vAcc></extensions></trkpt>
      <trkpt lon="-82.146068" lat="33.556763"><ele>99.280579</ele><time>2022-01-01T15:42:45Z</time><extensions><speed>0.873327</speed><course>95.669746</course><hAcc>2.565393</hAcc><vAcc>0.756742</vAcc></extensions></trkpt>
      <trkpt lon="-82.146060" lat="33.556761"><ele>99.203636</ele><time>2022-01-01T15:42:46Z</time><extensions><speed>0.579553</speed><course>115.100304</course><hAcc>2.569796</hAcc><vAcc>0.756742</vAcc></extensions></trkpt>
      <trkpt lon="-82.146056" lat="33.556758"><ele>99.136147</ele><time>2022-01-01T15:42:47Z</time><extensions><speed>0.219366</speed><course>159.158783</course><hAcc>2.593138</hAcc><vAcc>0.756742</vAcc></extensions></trkpt>
      <trkpt lon="-82.146056" lat="33.556757"><ele>99.074043</ele><time>2022-01-01T15:42:48Z</time><extensions><speed>0.103955</speed><course>270.205414</course><hAcc>2.591214</hAcc><vAcc>0.756742</vAcc></extensions></trkpt>
      <trkpt lon="-82.146057" lat="33.556758"><ele>99.017708</ele><time>2022-01-01T15:42:49Z</time><extensions><speed>0.170115</speed><course>314.234650</course><hAcc>2.561548</hAcc><vAcc>0.756742</vAcc></extensions></trkpt>
      <trkpt lon="-82.146058" lat="33.556758"><ele>98.965408</ele><time>2022-01-01T15:42:50Z</time><extensions><speed>0.171013</speed><course>307.121857</course><hAcc>2.557747</hAcc><vAcc>0.756742</vAcc></extensions></trkpt>
      <trkpt lon="-82.146057" lat="33.556757"><ele>98.913719</ele><time>2022-01-01T15:42:51Z</time><extensions><speed>0.518821</speed><course>151.815933</course><hAcc>2.549843</hAcc><vAcc>0.756742</vAcc></extensions></trkpt>
      <trkpt lon="-82.146055" lat="33.556751"><ele>98.868393</ele><time>2022-01-01T15:42:52Z</time><extensions><speed>0.702887</speed><course>176.829254</course><hAcc>2.540105</hAcc><vAcc>0.756742</vAcc></extensions></trkpt>
      <trkpt lon="-82.146055" lat="33.556745"><ele>98.829483</ele><time>2022-01-01T15:42:53Z</time><extensions><speed>0.689142</speed><course>186.298996</course><hAcc>2.559663</hAcc><vAcc>0.761841</vAcc></extensions></trkpt>
      <trkpt lon="-82.146058" lat="33.556739"><ele>98.795578</ele><time>2022-01-01T15:42:54Z</time><extensions><speed>0.829057</speed><course>202.060654</course><hAcc>2.589579</hAcc><vAcc>0.770611</vAcc></extensions></trkpt>
      <trkpt lon="-82.146061" lat="33.556732"><ele>98.766060</ele><time>2022-01-01T15:42:55Z</time><extensions><speed>0.821456</speed><course>206.287415</course><hAcc>2.618799</hAcc><vAcc>0.785223</vAcc></extensions></trkpt>
      <trkpt lon="-82.146065" lat="33.556726"><ele>98.740112</ele><time>2022-01-01T15:42:56Z</time><extensions><speed>0.649607</speed><course>203.523514</course><hAcc>2.643809</hAcc><vAcc>0.808550</vAcc></extensions></trkpt>
      <trkpt lon="-82.146066" lat="33.556722"><ele>98.716843</ele><time>2022-01-01T15:42:57Z</time><extensions><speed>0.301176</speed><course>193.072220</course><hAcc>2.722306</hAcc><vAcc>0.844090</vAcc></extensions></trkpt>
      <trkpt lon="-82.146067" lat="33.556720"><ele>98.695351</ele><time>2022-01-01T15:42:58Z</time><extensions><speed>0.135837</speed><course>178.020645</course><hAcc>2.852979</hAcc><vAcc>0.895687</vAcc></extensions></trkpt>
      <trkpt lon="-82.146067" lat="33.556719"><ele>98.674911</ele><time>2022-01-01T15:42:59Z</time><extensions><speed>0.055069</speed><course>159.267197</course><hAcc>3.000356</hAcc><vAcc>0.967093</vAcc></extensions></trkpt>
      <trkpt lon="-82.146066" lat="33.556719"><ele>98.655037</ele><time>2022-01-01T15:43:00Z</time><extensions><speed>0.021920</speed><course>140.973877</course><hAcc>3.126068</hAcc><vAcc>1.061478</vAcc></extensions></trkpt>
      <trkpt lon="-82.146066" lat="33.556719"><ele>98.635475</ele><time>2022-01-01T15:43:01Z</time><extensions><speed>0.002238</speed><course>126.485336</course><hAcc>3.206253</hAcc><vAcc>1.181049</vAcc></extensions></trkpt>
      <trkpt lon="-82.146066" lat="33.556719"><ele>98.616096</ele><time>2022-01-01T15:43:02Z</time><extensions><speed>0.004107</speed><course>116.837730</course><hAcc>3.254116</hAcc><vAcc>1.326894</vAcc></extensions></trkpt>
    </trkseg>
  </trk>
</gpx>