<?xml version="1.0" encoding="UTF-8"?>
<gpx version="1.1" creator="Apple Health Export" xmlns="http://www.topografix.com/GPX/1/1" xmlns:xsi="http://www.w3.org/2001/XMLSchema-instance" xsi:schemaLocation="http://www.topografix.com/GPX/1/1 http://www.topografix.com/GPX/1/1/gpx.xsd">
  <metadata>
    <time>2026-03-14T12:16:18Z</time>
  </metadata>
  <trk>
    <name>Route 2023-06-09 8:32am</name>
    <trkseg>
      <trkpt lon="-82.149081" lat="33.554227"><ele>107.200435</ele><time>2023-06-09T12:28:23Z</time><extensions><speed>1.392355</speed><course>80.554671</course><hAcc>2.372264</hAcc><vAcc>1.682978</vAcc></extensions></trkpt>
      <trkpt lon="-82.149066" lat="33.554229"><ele>107.186711</ele><time>2023-06-09T12:28:24Z</time><extensions><speed>1.446556</speed><course>79.738267</course><hAcc>2.129484</hAcc><vAcc>1.473015</vAcc></extensions></trkpt>
      <trkpt lon="-82.149050" lat="33.554232"><ele>107.160487</ele><time>2023-06-09T12:28:25Z</time><extensions><speed>1.483029</speed><course>78.265828</course><hAcc>1.948411</hAcc><vAcc>1.296139</vAcc></extensions></trkpt>
      <trkpt lon="-82.149034" lat="33.554234"><ele>107.127430</ele><time>2023-06-09T12:28:26Z</time><extensions><speed>1.517239</speed><course>80.406159</course><hAcc>1.819486</hAcc><vAcc>1.155181</vAcc></extensions></trkpt>
      <trkpt lon="-82.149018" lat="33.554237"><ele>107.073510</ele><time>2023-06-09T12:28:27Z</time><extensions><speed>1.542713</speed><course>83.748735</course><hAcc>1.727363</hAcc><vAcc>1.045276</vAcc></extensions></trkpt>
      <trkpt lon="-82.149001" lat="33.554238"><ele>107.004250</ele><time>2023-06-09T12:28:28Z</time><extensions><speed>1.570881</speed><course>88.286400</course><hAcc>1.673795</hAcc><vAcc>0.960566</vAcc></extensions></trkpt>
      <trkpt lon="-82.148984" lat="33.554239"><ele>106.924907</ele><time>2023-06-09T12:28:29Z</time><extensions><speed>1.540870</speed><course>91.105134</course><hAcc>1.662931</hAcc><vAcc>0.898165</vAcc></extensions></trkpt>
      <trkpt lon="-82.148968" lat="33.554239"><ele>106.839478</ele><time>2023-06-09T12:28:30Z</time><extensions><speed>1.510894</speed><course>89.897973</course><hAcc>1.632001</hAcc><vAcc>0.853033</vAcc></extensions></trkpt>
      <trkpt lon="-82.148951" lat="33.554240"><ele>106.750804</ele><time>2023-06-09T12:28:31Z</time><extensions><speed>1.561897</speed><course>84.815399</course><hAcc>1.618678</hAcc><vAcc>0.821927</vAcc></extensions></trkpt>
      <trkpt lon="-82.148935" lat="33.554242"><ele>106.660547</ele><time>2023-06-09T12:28:32Z</time><extensions><speed>1.437258</speed><course>79.326057</course><hAcc>1.603449</hAcc><vAcc>0.801148</vAcc></extensions></trkpt>
      <trkpt lon="-82.148920" lat="33.554245"><ele>106.576562</ele><time>2023-06-09T12:28:33Z</time><extensions><speed>1.357121</speed><course>67.126535</course><hAcc>1.574086</hAcc><vAcc>0.787654</vAcc></extensions></trkpt>
      <trkpt lon="-82.148907" lat="33.554251"><ele>106.482965</ele><time>2023-06-09T12:28:34Z</time><extensions><speed>1.335861</speed><course>64.474998</course><hAcc>1.581164</hAcc><vAcc>0.779007</vAcc></extensions></trkpt>
      <trkpt lon="-82.148893" lat="33.554256"><ele>106.383203</ele><time>2023-06-09T12:28:35Z</time><extensions><speed>1.500133</speed><course>63.014530</course><hAcc>1.587200</hAcc><vAcc>0.773530</vAcc></extensions></trkpt>
      <trkpt lon="-82.148878" lat="33.554263"><ele>106.280181</ele><time>2023-06-09T12:28:36Z</time><extensions><speed>1.566046</speed><course>62.035014</course><hAcc>1.585989</hAcc><vAcc>0.770082</vAcc></extensions></trkpt>
      <trkpt lon="-82.148863" lat="33.554271"><ele>106.175243</ele><time>2023-06-09T12:28:37Z</time><extensions><speed>1.667608</speed><course>56.859742</course><hAcc>1.578775</hAcc><vAcc>0.767858</vAcc></extensions></trkpt>
      <trkpt lon="-82.148847" lat="33.554278"><ele>106.068749</ele><time>2023-06-09T12:28:38Z</time><extensions><speed>1.678746</speed><course>61.954549</course><hAcc>1.593732</hAcc><vAcc>0.766212</vAcc></extensions></trkpt>
      <trkpt lon="-82.148831" lat="33.554285"><ele>105.963072</ele><time>2023-06-09T12:28:39Z</time><extensions><speed>1.619240</speed><course>69.516975</course><hAcc>1.587355</hAcc><vAcc>0.764778</vAcc></extensions></trkpt>
      <trkpt lon="-82.148815" lat="33.554289"><ele>105.863972</ele><time>2023-06-09T12:28:40Z</time><extensions><speed>1.550509</speed><course>77.770764</course><hAcc>1.586586</hAcc><vAcc>0.763630</vAcc></extensions></trkpt>
      <trkpt lon="-82.148799" lat="33.554292"><ele>105.766514</ele><time>2023-06-09T12:28:41Z</time><extensions><speed>1.555319</speed><course>73.413536</course><hAcc>1.589682</hAcc><vAcc>0.762636</vAcc></extensions></trkpt>
      <trkpt lon="-82.148783" lat="33.554297"><ele>105.662438</ele><time>2023-06-09T12:28:42Z</time><extensions><speed>1.523141</speed><course>61.942585</course><hAcc>1.630954</hAcc><vAcc>0.761889</vAcc></extensions></trkpt>
      <trkpt lon="-82.148768" lat="33.554303"><ele>105.568475</ele><time>2023-06-09T12:28:43Z</time><extensions><speed>1.539743</speed><course>67.536838</course><hAcc>1.633048</hAcc><vAcc>0.761156</vAcc></extensions></trkpt>
      <trkpt lon="-82.148752" lat="33.554308"><ele>105.479888</ele><time>2023-06-09T12:28:44Z</time><extensions><speed>1.618316</speed><course>69.141123</course><hAcc>1.620435</hAcc><vAcc>0.760390</vAcc></extensions></trkpt>
      <trkpt lon="-82.148736" lat="33.554313"><ele>105.404792</ele><time>2023-06-09T12:28:45Z</time><extensions><speed>1.590302</speed><course>67.086727</course><hAcc>1.652025</hAcc><vAcc>0.759698</vAcc></extensions></trkpt>
      <trkpt lon="-82.148721" lat="33.554319"><ele>105.338012</ele><time>2023-06-09T12:28:46Z</time><extensions><speed>1.569729</speed><course>65.049135</course><hAcc>1.651116</hAcc><vAcc>0.759169</vAcc></extensions></trkpt>
      <trkpt lon="-82.148705" lat="33.554324"><ele>105.280808</ele><time>2023-06-09T12:28:47Z</time><extensions><speed>1.555057</speed><course>69.559871</course><hAcc>1.659911</hAcc><vAcc>0.758717</vAcc></extensions></trkpt>
      <trkpt lon="-82.148689" lat="33.554327"><ele>105.231153</ele><time>2023-06-09T12:28:48Z</time><extensions><speed>1.572294</speed><course>82.024652</course><hAcc>1.688016</hAcc><vAcc>0.758344</vAcc></extensions></trkpt>
      <trkpt lon="-82.148672" lat="33.554327"><ele>105.191256</ele><time>2023-06-09T12:28:49Z</time><extensions><speed>1.650788</speed><course>98.272799</course><hAcc>1.684174</hAcc><vAcc>0.757935</vAcc></extensions></trkpt>
      <trkpt lon="-82.148654" lat="33.554323"><ele>105.157806</ele><time>2023-06-09T12:28:50Z</time><extensions><speed>1.737004</speed><course>109.596996</course><hAcc>1.684115</hAcc><vAcc>0.757769</vAcc></extensions></trkpt>
      <trkpt lon="-82.148637" lat="33.554317"><ele>105.133123</ele><time>2023-06-09T12:28:51Z</time><extensions><speed>1.775437</speed><course>116.105752</course><hAcc>1.695644</hAcc><vAcc>0.757590</vAcc></extensions></trkpt>
      <trkpt lon="-82.148620" lat="33.554309"><ele>105.114801</ele><time>2023-06-09T12:28:52Z</time><extensions><speed>1.826910</speed><course>121.319558</course><hAcc>1.676765</hAcc><vAcc>0.757367</vAcc></extensions></trkpt>
      <trkpt lon="-82.148604" lat="33.554300"><ele>105.103274</ele><time>2023-06-09T12:28:53Z</time><extensions><speed>1.762740</speed><course>124.069333</course><hAcc>1.671128</hAcc><vAcc>0.757001</vAcc></extensions></trkpt>
      <trkpt lon="-82.148590" lat="33.554292"><ele>105.098141</ele><time>2023-06-09T12:28:54Z</time><extensions><speed>1.575767</speed><course>124.441859</course><hAcc>1.670496</hAcc><vAcc>0.756738</vAcc></extensions></trkpt>
      <trkpt lon="-82.148577" lat="33.554284"><ele>105.096919</ele><time>2023-06-09T12:28:55Z</time><extensions><speed>1.476826</speed><course>125.681746</course><hAcc>1.662717</hAcc><vAcc>0.756691</vAcc></extensions></trkpt>
      <trkpt lon="-82.148565" lat="33.554276"><ele>105.097423</ele><time>2023-06-09T12:28:56Z</time><extensions><speed>1.395195</speed><course>126.693681</course><hAcc>1.644797</hAcc><vAcc>0.756732</vAcc></extensions></trkpt>
      <trkpt lon="-82.148553" lat="33.554269"><ele>105.097291</ele><time>2023-06-09T12:28:57Z</time><extensions><speed>1.282072</speed><course>125.861603</course><hAcc>1.636473</hAcc><vAcc>0.756802</vAcc></extensions></trkpt>
      <trkpt lon="-82.148543" lat="33.554263"><ele>105.097771</ele><time>2023-06-09T12:28:58Z</time><extensions><speed>1.031045</speed><course>123.802022</course><hAcc>1.611532</hAcc><vAcc>0.756705</vAcc></extensions></trkpt>
      <trkpt lon="-82.148536" lat="33.554259"><ele>105.097802</ele><time>2023-06-09T12:28:59Z</time><extensions><speed>0.545885</speed><course>129.547038</course><hAcc>1.578598</hAcc><vAcc>0.756530</vAcc></extensions></trkpt>
      <trkpt lon="-82.148533" lat="33.554256"><ele>105.097542</ele><time>2023-06-09T12:29:00Z</time><extensions><speed>0.211886</speed><course>117.473953</course><hAcc>1.574865</hAcc><vAcc>0.756561</vAcc></extensions></trkpt>
      <trkpt lon="-82.148532" lat="33.554257"><ele>105.097235</ele><time>2023-06-09T12:29:01Z</time><extensions><speed>0.156148</speed><course>339.963818</course><hAcc>1.570515</hAcc><vAcc>0.756531</vAcc></extensions></trkpt>
      <trkpt lon="-82.148534" lat="33.554260"><ele>105.094786</ele><time>2023-06-09T12:29:02Z</time><extensions><speed>0.622637</speed><course>334.394615</course><hAcc>1.592381</hAcc><vAcc>0.756406</vAcc></extensions></trkpt>
      <trkpt lon="-82.148536" lat="33.554265"><ele>105.091370</ele><time>2023-06-09T12:29:03Z</time><extensions><speed>0.661345</speed><course>346.944077</course><hAcc>1.655122</hAcc><vAcc>0.756510</vAcc></extensions></trkpt>
      <trkpt lon="-82.148539" lat="33.554269"><ele>105.085044</ele><time>2023-06-09T12:29:04Z</time><extensions><speed>0.307752</speed><course>300.190456</course><hAcc>1.601426</hAcc><vAcc>0.756599</vAcc></extensions></trkpt>
      <trkpt lon="-82.148542" lat="33.554270"><ele>105.074101</ele><time>2023-06-09T12:29:05Z</time><extensions><speed>0.389550</speed><course>272.730277</course><hAcc>1.598612</hAcc><vAcc>0.756518</vAcc></extensions></trkpt>
      <trkpt lon="-82.148545" lat="33.554269"><ele>105.055347</ele><time>2023-06-09T12:29:06Z</time><extensions><speed>0.246968</speed><course>250.110434</course><hAcc>1.636429</hAcc><vAcc>0.756204</vAcc></extensions></trkpt>
      <trkpt lon="-82.148547" lat="33.554268"><ele>105.028261</ele><time>2023-06-09T12:29:07Z</time><extensions><speed>0.214338</speed><course>226.925901</course><hAcc>1.671348</hAcc><vAcc>0.756357</vAcc></extensions></trkpt>
      <trkpt lon="-82.148549" lat="33.554267"><ele>104.994262</ele><time>2023-06-09T12:29:08Z</time><extensions><speed>0.216716</speed><course>208.063310</course><hAcc>1.710752</hAcc><vAcc>0.756494</vAcc></extensions></trkpt>
      <trkpt lon="-82.148550" lat="33.554265"><ele>104.959526</ele><time>2023-06-09T12:29:09Z</time><extensions><speed>0.242858</speed><course>197.585346</course><hAcc>1.748278</hAcc><vAcc>0.756624</vAcc></extensions></trkpt>
      <trkpt lon="-82.148551" lat="33.554262"><ele>104.916239</ele><time>2023-06-09T12:29:10Z</time><extensions><speed>0.335996</speed><course>199.669293</course><hAcc>1.760566</hAcc><vAcc>0.756773</vAcc></extensions></trkpt>
      <trkpt lon="-82.148552" lat="33.554260"><ele>104.875923</ele><time>2023-06-09T12:29:11Z</time><extensions><speed>0.359724</speed><course>216.129920</course><hAcc>1.783231</hAcc><vAcc>0.756872</vAcc></extensions></trkpt>
      <trkpt lon="-82.148555" lat="33.554257"><ele>104.834034</ele><time>2023-06-09T12:29:12Z</time><extensions><speed>0.500190</speed><course>232.216865</course><hAcc>1.809893</hAcc><vAcc>0.756940</vAcc></extensions></trkpt>
      <trkpt lon="-82.148561" lat="33.554254"><ele>104.790070</ele><time>2023-06-09T12:29:13Z</time><extensions><speed>0.734049</speed><course>235.791979</course><hAcc>1.804446</hAcc><vAcc>0.757032</vAcc></extensions></trkpt>
      <trkpt lon="-82.148567" lat="33.554249"><ele>104.749617</ele><time>2023-06-09T12:29:14Z</time><extensions><speed>0.785033</speed><course>225.547340</course><hAcc>1.798558</hAcc><vAcc>0.756977</vAcc></extensions></trkpt>
      <trkpt lon="-82.148571" lat="33.554244"><ele>104.714630</ele><time>2023-06-09T12:29:15Z</time><extensions><speed>0.673137</speed><course>201.089957</course><hAcc>1.811216</hAcc><vAcc>0.756920</vAcc></extensions></trkpt>
      <trkpt lon="-82.148570" lat="33.554239"><ele>104.677622</ele><time>2023-06-09T12:29:16Z</time><extensions><speed>0.615975</speed><course>139.248577</course><hAcc>1.816390</hAcc><vAcc>0.757063</vAcc></extensions></trkpt>
      <trkpt lon="-82.148562" lat="33.554236"><ele>104.649162</ele><time>2023-06-09T12:29:17Z</time><extensions><speed>1.162896</speed><course>102.760075</course><hAcc>1.801202</hAcc><vAcc>0.757136</vAcc></extensions></trkpt>
      <trkpt lon="-82.148547" lat="33.554235"><ele>104.622670</ele><time>2023-06-09T12:29:18Z</time><extensions><speed>1.750703</speed><course>91.036643</course><hAcc>1.788555</hAcc><vAcc>0.757153</vAcc></extensions></trkpt>
      <trkpt lon="-82.148525" lat="33.554237"><ele>104.598904</ele><time>2023-06-09T12:29:19Z</time><extensions><speed>2.189553</speed><course>81.499956</course><hAcc>1.786895</hAcc><vAcc>0.757162</vAcc></extensions></trkpt>
      <trkpt lon="-82.148500" lat="33.554242"><ele>104.582973</ele><time>2023-06-09T12:29:20Z</time><extensions><speed>2.603002</speed><course>69.915748</course><hAcc>1.780398</hAcc><vAcc>0.757032</vAcc></extensions></trkpt>
      <trkpt lon="-82.148475" lat="33.554253"><ele>104.577290</ele><time>2023-06-09T12:29:21Z</time><extensions><speed>2.699993</speed><course>57.799184</course><hAcc>1.789434</hAcc><vAcc>0.756836</vAcc></extensions></trkpt>
      <trkpt lon="-82.148453" lat="33.554267"><ele>104.576945</ele><time>2023-06-09T12:29:22Z</time><extensions><speed>2.565647</speed><course>46.683960</course><hAcc>1.804652</hAcc><vAcc>0.756766</vAcc></extensions></trkpt>
      <trkpt lon="-82.148436" lat="33.554283"><ele>104.583475</ele><time>2023-06-09T12:29:23Z</time><extensions><speed>2.185870</speed><course>33.375306</course><hAcc>1.776604</hAcc><vAcc>0.756745</vAcc></extensions></trkpt>
      <trkpt lon="-82.148426" lat="33.554299"><ele>104.592277</ele><time>2023-06-09T12:29:24Z</time><extensions><speed>1.640343</speed><course>20.203403</course><hAcc>1.749917</hAcc><vAcc>0.756862</vAcc></extensions></trkpt>
      <trkpt lon="-82.148422" lat="33.554312"><ele>104.604614</ele><time>2023-06-09T12:29:25Z</time><extensions><speed>1.521835</speed><course>9.731068</course><hAcc>1.728675</hAcc><vAcc>0.756972</vAcc></extensions></trkpt>
      <trkpt lon="-82.148419" lat="33.554326"><ele>104.615887</ele><time>2023-06-09T12:29:26Z</time><extensions><speed>1.555030</speed><course>8.333033</course><hAcc>1.720597</hAcc><vAcc>0.756988</vAcc></extensions></trkpt>
      <trkpt lon="-82.148415" lat="33.554341"><ele>104.634819</ele><time>2023-06-09T12:29:27Z</time><extensions><speed>1.796267</speed><course>16.412950</course><hAcc>1.731233</hAcc><vAcc>0.756934</vAcc></extensions></trkpt>
      <trkpt lon="-82.148406" lat="33.554356"><ele>104.653656</ele><time>2023-06-09T12:29:28Z</time><extensions><speed>2.002077</speed><course>35.609447</course><hAcc>1.746628</hAcc><vAcc>0.756905</vAcc></extensions></trkpt>
      <trkpt lon="-82.148391" lat="33.554368"><ele>104.666505</ele><time>2023-06-09T12:29:29Z</time><extensions><speed>1.998479</speed><course>56.867559</course><hAcc>1.730325</hAcc><vAcc>0.756861</vAcc></extensions></trkpt>
      <trkpt lon="-82.148372" lat="33.554375"><ele>104.678111</ele><time>2023-06-09T12:29:30Z</time><extensions><speed>1.831314</speed><course>73.039279</course><hAcc>1.720915</hAcc><vAcc>0.756840</vAcc></extensions></trkpt>
      <trkpt lon="-82.148353" lat="33.554379"><ele>104.685189</ele><time>2023-06-09T12:29:31Z</time><extensions><speed>1.759872</speed><course>79.478366</course><hAcc>1.715516</hAcc><vAcc>0.756822</vAcc></extensions></trkpt>
      <trkpt lon="-82.148335" lat="33.554381"><ele>104.689803</ele><time>2023-06-09T12:29:32Z</time><extensions><speed>1.642098</speed><course>84.275805</course><hAcc>1.727348</hAcc><vAcc>0.756815</vAcc></extensions></trkpt>
      <trkpt lon="-82.148319" lat="33.554382"><ele>104.697073</ele><time>2023-06-09T12:29:33Z</time><extensions><speed>1.390723</speed><course>86.859589</course><hAcc>1.735779</hAcc><vAcc>0.756900</vAcc></extensions></trkpt>
      <trkpt lon="-82.148304" lat="33.554383"><ele>104.694018</ele><time>2023-06-09T12:29:34Z</time><extensions><speed>1.376220</speed><course>88.492013</course><hAcc>1.727677</hAcc><vAcc>0.756927</vAcc></extensions></trkpt>
      <trkpt lon="-82.148289" lat="33.554383"><ele>104.691318</ele><time>2023-06-09T12:29:35Z</time><extensions><speed>1.420322</speed><course>86.082274</course><hAcc>1.731938</hAcc><vAcc>0.757045</vAcc></extensions></trkpt>
      <trkpt lon="-82.148272" lat="33.554385"><ele>104.683499</ele><time>2023-06-09T12:29:36Z</time><extensions><speed>1.635619</speed><course>82.321840</course><hAcc>1.727188</hAcc><vAcc>0.757163</vAcc></extensions></trkpt>
      <trkpt lon="-82.148253" lat="33.554387"><ele>104.675647</ele><time>2023-06-09T12:29:37Z</time><extensions><speed>1.980864</speed><course>79.154967</course><hAcc>1.724857</hAcc><vAcc>0.757122</vAcc></extensions></trkpt>
      <trkpt lon="-82.148229" lat="33.554392"><ele>104.669338</ele><time>2023-06-09T12:29:38Z</time><extensions><speed>2.440799</speed><course>75.225133</course><hAcc>1.745881</hAcc><vAcc>0.757047</vAcc></extensions></trkpt>
      <trkpt lon="-82.148204" lat="33.554397"><ele>104.662119</ele><time>2023-06-09T12:29:39Z</time><extensions><speed>2.538179</speed><course>79.301981</course><hAcc>1.712051</hAcc><vAcc>0.756824</vAcc></extensions></trkpt>
      <trkpt lon="-82.148177" lat="33.554400"><ele>104.650552</ele><time>2023-06-09T12:29:40Z</time><extensions><speed>2.465578</speed><course>85.245063</course><hAcc>1.684087</hAcc><vAcc>0.756933</vAcc></extensions></trkpt>
      <trkpt lon="-82.148152" lat="33.554400"><ele>104.633904</ele><time>2023-06-09T12:29:41Z</time><extensions><speed>2.214119</speed><course>91.820868</course><hAcc>1.690491</hAcc><vAcc>0.757092</vAcc></extensions></trkpt>
      <trkpt lon="-82.148130" lat="33.554399"><ele>104.614678</ele><time>2023-06-09T12:29:42Z</time><extensions><speed>1.904578</speed><course>97.528807</course><hAcc>1.708260</hAcc><vAcc>0.757231</vAcc></extensions></trkpt>
      <trkpt lon="-82.148111" lat="33.554396"><ele>104.588978</ele><time>2023-06-09T12:29:43Z</time><extensions><speed>1.823667</speed><course>101.057237</course><hAcc>1.712840</hAcc><vAcc>0.757386</vAcc></extensions></trkpt>
      <trkpt lon="-82.148091" lat="33.554393"><ele>104.561168</ele><time>2023-06-09T12:29:44Z</time><extensions><speed>1.900792</speed><course>101.488285</course><hAcc>1.708424</hAcc><vAcc>0.757551</vAcc></extensions></trkpt>
      <trkpt lon="-82.148069" lat="33.554389"><ele>104.528803</ele><time>2023-06-09T12:29:45Z</time><extensions><speed>2.148724</speed><course>99.401028</course><hAcc>1.736151</hAcc><vAcc>0.757407</vAcc></extensions></trkpt>
      <trkpt lon="-82.148045" lat="33.554386"><ele>104.497234</ele><time>2023-06-09T12:29:46Z</time><extensions><speed>2.264967</speed><course>97.525437</course><hAcc>1.736232</hAcc><vAcc>0.756615</vAcc></extensions></trkpt>
      <trkpt lon="-82.148023" lat="33.554384"><ele>104.465910</ele><time>2023-06-09T12:29:47Z</time><extensions><speed>2.141766</speed><course>97.390943</course><hAcc>1.738948</hAcc><vAcc>0.756225</vAcc></extensions></trkpt>
      <trkpt lon="-82.148002" lat="33.554381"><ele>104.427865</ele><time>2023-06-09T12:29:48Z</time><extensions><speed>1.856031</speed><course>100.278431</course><hAcc>1.749541</hAcc><vAcc>0.756581</vAcc></extensions></trkpt>
      <trkpt lon="-82.147984" lat="33.554378"><ele>104.386196</ele><time>2023-06-09T12:29:49Z</time><extensions><speed>1.596210</speed><course>104.589978</course><hAcc>1.764437</hAcc><vAcc>0.756835</vAcc></extensions></trkpt>
      <trkpt lon="-82.147968" lat="33.554374"><ele>104.341220</ele><time>2023-06-09T12:29:50Z</time><extensions><speed>1.370291</speed><course>107.369825</course><hAcc>1.774575</hAcc><vAcc>0.756872</vAcc></extensions></trkpt>
      <trkpt lon="-82.147955" lat="33.554370"><ele>104.298401</ele><time>2023-06-09T12:29:51Z</time><extensions><speed>1.203782</speed><course>108.218049</course><hAcc>1.767512</hAcc><vAcc>0.756767</vAcc></extensions></trkpt>
      <trkpt lon="-82.147943" lat="33.554368"><ele>104.262215</ele><time>2023-06-09T12:29:52Z</time><extensions><speed>1.223631</speed><course>103.742244</course><hAcc>1.755020</hAcc><vAcc>0.756613</vAcc></extensions></trkpt>
      <trkpt lon="-82.147930" lat="33.554366"><ele>104.229774</ele><time>2023-06-09T12:29:53Z</time><extensions><speed>1.241284</speed><course>103.310932</course><hAcc>1.715869</hAcc><vAcc>0.756628</vAcc></extensions></trkpt>
      <trkpt lon="-82.147917" lat="33.554364"><ele>104.198764</ele><time>2023-06-09T12:29:54Z</time><extensions><speed>1.282766</speed><course>100.531686</course><hAcc>1.680989</hAcc><vAcc>0.756516</vAcc></extensions></trkpt>
      <trkpt lon="-82.147903" lat="33.554363"><ele>104.167557</ele><time>2023-06-09T12:29:55Z</time><extensions><speed>1.332156</speed><course>90.014393</course><hAcc>1.681785</hAcc><vAcc>0.756437</vAcc></extensions></trkpt>
      <trkpt lon="-82.147889" lat="33.554366"><ele>104.138777</ele><time>2023-06-09T12:29:56Z</time><extensions><speed>1.650658</speed><course>67.845729</course><hAcc>1.699386</hAcc><vAcc>0.755972</vAcc></extensions></trkpt>
      <trkpt lon="-82.147873" lat="33.554373"><ele>104.108069</ele><time>2023-06-09T12:29:57Z</time><extensions><speed>1.558015</speed><course>61.382582</course><hAcc>1.662789</hAcc><vAcc>0.756121</vAcc></extensions></trkpt>
      <trkpt lon="-82.147859" lat="33.554380"><ele>104.080621</ele><time>2023-06-09T12:29:58Z</time><extensions><speed>1.650341</speed><course>56.177238</course><hAcc>1.633767</hAcc><vAcc>0.756278</vAcc></extensions></trkpt>
      <trkpt lon="-82.147844" lat="33.554389"><ele>104.052674</ele><time>2023-06-09T12:29:59Z</time><extensions><speed>1.638642</speed><course>51.494567</course><hAcc>1.618109</hAcc><vAcc>0.756367</vAcc></extensions></trkpt>
      <trkpt lon="-82.147831" lat="33.554398"><ele>104.022710</ele><time>2023-06-09T12:30:00Z</time><extensions><speed>1.558820</speed><course>51.182897</course><hAcc>1.645380</hAcc><vAcc>0.756418</vAcc></extensions></trkpt>
      <trkpt lon="-82.147819" lat="33.554408"><ele>103.997533</ele><time>2023-06-09T12:30:01Z</time><extensions><speed>1.590647</speed><course>40.751211</course><hAcc>1.646685</hAcc><vAcc>0.756532</vAcc></extensions></trkpt>
      <trkpt lon="-82.147810" lat="33.554420"><ele>103.969574</ele><time>2023-06-09T12:30:02Z</time><extensions><speed>1.713235</speed><course>25.268853</course><hAcc>1.665500</hAcc><vAcc>0.756676</vAcc></extensions></trkpt>
      <trkpt lon="-82.147801" lat="33.554434"><ele>103.929232</ele><time>2023-06-09T12:30:03Z</time><extensions><speed>1.600971</speed><course>30.082877</course><hAcc>1.689668</hAcc><vAcc>0.756791</vAcc></extensions></trkpt>
      <trkpt lon="-82.147793" lat="33.554447"><ele>103.887560</ele><time>2023-06-09T12:30:04Z</time><extensions><speed>1.690740</speed><course>22.235665</course><hAcc>1.675691</hAcc><vAcc>0.756717</vAcc></extensions></trkpt>
      <trkpt lon="-82.147785" lat="33.554460"><ele>103.837651</ele><time>2023-06-09T12:30:05Z</time><extensions><speed>1.616227</speed><course>32.375668</course><hAcc>1.681350</hAcc><vAcc>0.756660</vAcc></extensions></trkpt>
      <trkpt lon="-82.147775" lat="33.554471"><ele>103.779761</ele><time>2023-06-09T12:30:06Z</time><extensions><speed>1.516561</speed><course>40.297324</course><hAcc>1.685079</hAcc><vAcc>0.756705</vAcc></extensions></trkpt>
      <trkpt lon="-82.147764" lat="33.554480"><ele>103.719153</ele><time>2023-06-09T12:30:07Z</time><extensions><speed>1.405232</speed><course>48.402968</course><hAcc>1.685575</hAcc><vAcc>0.756808</vAcc></extensions></trkpt>
      <trkpt lon="-82.147753" lat="33.554488"><ele>103.658231</ele><time>2023-06-09T12:30:08Z</time><extensions><speed>1.304219</speed><course>59.174645</course><hAcc>1.695663</hAcc><vAcc>0.756865</vAcc></extensions></trkpt>
      <trkpt lon="-82.147740" lat="33.554493"><ele>103.600543</ele><time>2023-06-09T12:30:09Z</time><extensions><speed>1.259718</speed><course>67.520023</course><hAcc>1.702951</hAcc><vAcc>0.756881</vAcc></extensions></trkpt>
      <trkpt lon="-82.147727" lat="33.554497"><ele>103.545322</ele><time>2023-06-09T12:30:10Z</time><extensions><speed>1.399184</speed><course>73.653138</course><hAcc>1.732973</hAcc><vAcc>0.756905</vAcc></extensions></trkpt>
      <trkpt lon="-82.147713" lat="33.554500"><ele>103.492315</ele><time>2023-06-09T12:30:11Z</time><extensions><speed>1.247361</speed><course>75.556348</course><hAcc>1.713095</hAcc><vAcc>0.756842</vAcc></extensions></trkpt>
      <trkpt lon="-82.147700" lat="33.554502"><ele>103.439013</ele><time>2023-06-09T12:30:12Z</time><extensions><speed>1.296288</speed><course>78.800530</course><hAcc>1.670187</hAcc><vAcc>0.756701</vAcc></extensions></trkpt>
      <trkpt lon="-82.147685" lat="33.554505"><ele>103.383349</ele><time>2023-06-09T12:30:13Z</time><extensions><speed>1.508872</speed><course>79.284168</course><hAcc>1.654952</hAcc><vAcc>0.756589</vAcc></extensions></trkpt>
      <trkpt lon="-82.147668" lat="33.554507"><ele>103.321840</ele><time>2023-06-09T12:30:14Z</time><extensions><speed>1.706263</speed><course>80.101184</course><hAcc>1.652687</hAcc><vAcc>0.756564</vAcc></extensions></trkpt>
      <trkpt lon="-82.147650" lat="33.554511"><ele>103.268899</ele><time>2023-06-09T12:30:15Z</time><extensions><speed>1.780971</speed><course>72.668765</course><hAcc>1.675758</hAcc><vAcc>0.756797</vAcc></extensions></trkpt>
      <trkpt lon="-82.147632" lat="33.554517"><ele>103.214867</ele><time>2023-06-09T12:30:16Z</time><extensions><speed>1.719846</speed><course>65.522784</course><hAcc>1.658581</hAcc><vAcc>0.756986</vAcc></extensions></trkpt>
      <trkpt lon="-82.147617" lat="33.554524"><ele>103.168629</ele><time>2023-06-09T12:30:17Z</time><extensions><speed>1.591704</speed><course>58.203603</course><hAcc>1.658256</hAcc><vAcc>0.756827</vAcc></extensions></trkpt>
      <trkpt lon="-82.147603" lat="33.554531"><ele>103.124488</ele><time>2023-06-09T12:30:18Z</time><extensions><speed>1.553397</speed><course>57.540556</course><hAcc>1.665712</hAcc><vAcc>0.756726</vAcc></extensions></trkpt>
      <trkpt lon="-82.147589" lat="33.554538"><ele>103.091380</ele><time>2023-06-09T12:30:19Z</time><extensions><speed>1.495691</speed><course>57.893303</course><hAcc>1.644229</hAcc><vAcc>0.756780</vAcc></extensions></trkpt>
      <trkpt lon="-82.147575" lat="33.554545"><ele>103.058137</ele><time>2023-06-09T12:30:20Z</time><extensions><speed>1.439225</speed><course>56.950599</course><hAcc>1.625898</hAcc><vAcc>0.756831</vAcc></extensions></trkpt>
      <trkpt lon="-82.147563" lat="33.554553"><ele>103.031575</ele><time>2023-06-09T12:30:21Z</time><extensions><speed>1.423392</speed><course>53.380786</course><hAcc>1.627079</hAcc><vAcc>0.756819</vAcc></extensions></trkpt>
      <trkpt lon="-82.147551" lat="33.554561"><ele>103.008632</ele><time>2023-06-09T12:30:22Z</time><extensions><speed>1.439846</speed><course>49.630521</course><hAcc>1.664062</hAcc><vAcc>0.756709</vAcc></extensions></trkpt>
      <trkpt lon="-82.147539" lat="33.554570"><ele>102.989167</ele><time>2023-06-09T12:30:23Z</time><extensions><speed>1.485984</speed><course>45.419067</course><hAcc>1.655115</hAcc><vAcc>0.756624</vAcc></extensions></trkpt>
      <trkpt lon="-82.147528" lat="33.554579"><ele>102.979672</ele><time>2023-06-09T12:30:24Z</time><extensions><speed>1.432265</speed><course>44.334061</course><hAcc>1.626889</hAcc><vAcc>0.756502</vAcc></extensions></trkpt>
      <trkpt lon="-82.147517" lat="33.554588"><ele>102.971036</ele><time>2023-06-09T12:30:25Z</time><extensions><speed>1.385578</speed><course>43.784601</course><hAcc>1.626132</hAcc><vAcc>0.756539</vAcc></extensions></trkpt>
      <trkpt lon="-82.147508" lat="33.554597"><ele>102.968705</ele><time>2023-06-09T12:30:26Z</time><extensions><speed>1.210934</speed><course>43.934283</course><hAcc>1.642268</hAcc><vAcc>0.756609</vAcc></extensions></trkpt>
      <trkpt lon="-82.147500" lat="33.554604"><ele>102.970540</ele><time>2023-06-09T12:30:27Z</time><extensions><speed>0.945068</speed><course>40.134427</course><hAcc>1.632980</hAcc><vAcc>0.756619</vAcc></extensions></trkpt>
      <trkpt lon="-82.147494" lat="33.554611"><ele>102.976356</ele><time>2023-06-09T12:30:28Z</time><extensions><speed>0.936075</speed><course>39.336594</course><hAcc>1.607828</hAcc><vAcc>0.756592</vAcc></extensions></trkpt>
      <trkpt lon="-82.147487" lat="33.554617"><ele>102.980229</ele><time>2023-06-09T12:30:29Z</time><extensions><speed>0.964876</speed><course>41.183171</course><hAcc>1.624936</hAcc><vAcc>0.756542</vAcc></extensions></trkpt>
      <trkpt lon="-82.147479" lat="33.554623"><ele>102.987686</ele><time>2023-06-09T12:30:30Z</time><extensions><speed>1.068876</speed><course>50.397429</course><hAcc>1.633360</hAcc><vAcc>0.756624</vAcc></extensions></trkpt>
      <trkpt lon="-82.147469" lat="33.554629"><ele>102.998007</ele><time>2023-06-09T12:30:31Z</time><extensions><speed>1.202751</speed><course>63.422401</course><hAcc>1.639579</hAcc><vAcc>0.756720</vAcc></extensions></trkpt>
      <trkpt lon="-82.147457" lat="33.554634"><ele>103.006862</ele><time>2023-06-09T12:30:32Z</time><extensions><speed>1.317481</speed><course>67.980352</course><hAcc>1.607637</hAcc><vAcc>0.756746</vAcc></extensions></trkpt>
      <trkpt lon="-82.147443" lat="33.554638"><ele>103.014922</ele><time>2023-06-09T12:30:33Z</time><extensions><speed>1.440871</speed><course>66.637291</course><hAcc>1.597712</hAcc><vAcc>0.756722</vAcc></extensions></trkpt>
      <trkpt lon="-82.147429" lat="33.554644"><ele>103.021051</ele><time>2023-06-09T12:30:34Z</time><extensions><speed>1.468446</speed><course>59.731649</course><hAcc>1.618556</hAcc><vAcc>0.756713</vAcc></extensions></trkpt>
      <trkpt lon="-82.147416" lat="33.554652"><ele>103.023426</ele><time>2023-06-09T12:30:35Z</time><extensions><speed>1.479472</speed><course>51.509736</course><hAcc>1.638861</hAcc><vAcc>0.756660</vAcc></extensions></trkpt>
      <trkpt lon="-82.147404" lat="33.554661"><ele>103.020222</ele><time>2023-06-09T12:30:36Z</time><extensions><speed>1.501011</speed><course>41.025597</course><hAcc>1.643940</hAcc><vAcc>0.756603</vAcc></extensions></trkpt>
      <trkpt lon="-82.147395" lat="33.554672"><ele>103.005496</ele><time>2023-06-09T12:30:37Z</time><extensions><speed>1.567302</speed><course>30.408436</course><hAcc>1.622739</hAcc><vAcc>0.756558</vAcc></extensions></trkpt>
      <trkpt lon="-82.147387" lat="33.554685"><ele>102.981139</ele><time>2023-06-09T12:30:38Z</time><extensions><speed>1.573122</speed><course>23.780572</course><hAcc>1.634895</hAcc><vAcc>0.756527</vAcc></extensions></trkpt>
      <trkpt lon="-82.147381" lat="33.554697"><ele>102.949994</ele><time>2023-06-09T12:30:39Z</time><extensions><speed>1.432849</speed><course>20.458713</course><hAcc>1.668816</hAcc><vAcc>0.756539</vAcc></extensions></trkpt>
      <trkpt lon="-82.147376" lat="33.554708"><ele>102.919001</ele><time>2023-06-09T12:30:40Z</time><extensions><speed>1.175809</speed><course>21.890408</course><hAcc>1.683882</hAcc><vAcc>0.758177</vAcc></extensions></trkpt>
      <trkpt lon="-82.147371" lat="33.554717"><ele>102.885003</ele><time>2023-06-09T12:30:41Z</time><extensions><speed>0.986138</speed><course>24.532352</course><hAcc>1.659833</hAcc><vAcc>0.758945</vAcc></extensions></trkpt>
      <trkpt lon="-82.147367" lat="33.554724"><ele>102.843453</ele><time>2023-06-09T12:30:42Z</time><extensions><speed>0.708641</speed><course>29.724810</course><hAcc>1.637718</hAcc><vAcc>0.759895</vAcc></extensions></trkpt>
      <trkpt lon="-82.147363" lat="33.554729"><ele>102.801331</ele><time>2023-06-09T12:30:43Z</time><extensions><speed>0.584511</speed><course>38.756726</course><hAcc>1.636054</hAcc><vAcc>0.760597</vAcc></extensions></trkpt>
      <trkpt lon="-82.147358" lat="33.554734"><ele>102.759800</ele><time>2023-06-09T12:30:44Z</time><extensions><speed>0.705702</speed><course>45.088187</course><hAcc>1.664804</hAcc><vAcc>0.761684</vAcc></extensions></trkpt>
      <trkpt lon="-82.147351" lat="33.554740"><ele>102.706077</ele><time>2023-06-09T12:30:45Z</time><extensions><speed>0.986256</speed><course>39.456297</course><hAcc>1.652160</hAcc><vAcc>0.762978</vAcc></extensions></trkpt>
      <trkpt lon="-82.147344" lat="33.554748"><ele>102.653427</ele><time>2023-06-09T12:30:46Z</time><extensions><speed>1.253604</speed><course>30.071546</course><hAcc>1.623521</hAcc><vAcc>0.766171</vAcc></extensions></trkpt>
      <trkpt lon="-82.147339" lat="33.554758"><ele>102.599194</ele><time>2023-06-09T12:30:47Z</time><extensions><speed>1.216946</speed><course>15.850379</course><hAcc>1.612660</hAcc><vAcc>0.768227</vAcc></extensions></trkpt>
      <trkpt lon="-82.147335" lat="33.554770"><ele>102.548026</ele><time>2023-06-09T12:30:48Z</time><extensions><speed>1.396718</speed><course>10.452859</course><hAcc>1.603060</hAcc><vAcc>0.772376</vAcc></extensions></trkpt>
      <trkpt lon="-82.147331" lat="33.554782"><ele>102.491207</ele><time>2023-06-09T12:30:49Z</time><extensions><speed>1.499401</speed><course>18.354171</course><hAcc>1.593398</hAcc><vAcc>0.774674</vAcc></extensions></trkpt>
      <trkpt lon="-82.147325" lat="33.554795"><ele>102.438436</ele><time>2023-06-09T12:30:50Z</time><extensions><speed>1.552633</speed><course>27.895906</course><hAcc>1.598692</hAcc><vAcc>0.776641</vAcc></extensions></trkpt>
      <trkpt lon="-82.147315" lat="33.554808"><ele>102.382093</ele><time>2023-06-09T12:30:51Z</time><extensions><speed>1.726391</speed><course>34.274601</course><hAcc>1.571919</hAcc><vAcc>0.780848</vAcc></extensions></trkpt>
      <trkpt lon="-82.147304" lat="33.554821"><ele>102.320796</ele><time>2023-06-09T12:30:52Z</time><extensions><speed>1.757100</speed><course>35.102862</course><hAcc>1.562365</hAcc><vAcc>0.785912</vAcc></extensions></trkpt>
      <trkpt lon="-82.147293" lat="33.554834"><ele>102.261272</ele><time>2023-06-09T12:30:53Z</time><extensions><speed>1.752374</speed><course>35.772690</course><hAcc>1.565244</hAcc><vAcc>0.791739</vAcc></extensions></trkpt>
      <trkpt lon="-82.147282" lat="33.554846"><ele>102.204767</ele><time>2023-06-09T12:30:54Z</time><extensions><speed>1.676668</speed><course>35.361858</course><hAcc>1.589964</hAcc><vAcc>0.798806</vAcc></extensions></trkpt>
      <trkpt lon="-82.147271" lat="33.554859"><ele>102.156643</ele><time>2023-06-09T12:30:55Z</time><extensions><speed>1.727224</speed><course>37.596537</course><hAcc>1.579962</hAcc><vAcc>0.806841</vAcc></extensions></trkpt>
      <trkpt lon="-82.147260" lat="33.554871"><ele>102.095967</ele><time>2023-06-09T12:30:56Z</time><extensions><speed>1.649170</speed><course>38.619831</course><hAcc>1.572932</hAcc><vAcc>0.816066</vAcc></extensions></trkpt>
      <trkpt lon="-82.147249" lat="33.554881"><ele>102.038446</ele><time>2023-06-09T12:30:57Z</time><extensions><speed>1.378337</speed><course>44.555913</course><hAcc>1.573718</hAcc><vAcc>0.826256</vAcc></extensions></trkpt>
      <trkpt lon="-82.147238" lat="33.554890"><ele>101.983423</ele><time>2023-06-09T12:30:58Z</time><extensions><speed>1.369913</speed><course>46.922059</course><hAcc>1.586295</hAcc><vAcc>0.837030</vAcc></extensions></trkpt>
      <trkpt lon="-82.147227" lat="33.554899"><ele>101.934325</ele><time>2023-06-09T12:30:59Z</time><extensions><speed>1.383993</speed><course>46.613041</course><hAcc>1.593713</hAcc><vAcc>0.848212</vAcc></extensions></trkpt>
      <trkpt lon="-82.147217" lat="33.554908"><ele>101.891848</ele><time>2023-06-09T12:31:00Z</time><extensions><speed>1.406578</speed><course>40.199718</course><hAcc>1.599323</hAcc><vAcc>0.860066</vAcc></extensions></trkpt>
      <trkpt lon="-82.147208" lat="33.554918"><ele>101.854489</ele><time>2023-06-09T12:31:01Z</time><extensions><speed>1.141544</speed><course>37.703657</course><hAcc>1.598599</hAcc><vAcc>0.871408</vAcc></extensions></trkpt>
      <trkpt lon="-82.147202" lat="33.554925"><ele>101.825571</ele><time>2023-06-09T12:31:02Z</time><extensions><speed>0.883735</speed><course>31.737328</course><hAcc>1.617358</hAcc><vAcc>0.881577</vAcc></extensions></trkpt>
      <trkpt lon="-82.147198" lat="33.554930"><ele>101.807222</ele><time>2023-06-09T12:31:03Z</time><extensions><speed>0.362336</speed><course>34.913017</course><hAcc>1.632298</hAcc><vAcc>0.892225</vAcc></extensions></trkpt>
      <trkpt lon="-82.147197" lat="33.554934"><ele>101.786478</ele><time>2023-06-09T12:31:04Z</time><extensions><speed>0.611393</speed><course>357.689786</course><hAcc>1.651614</hAcc><vAcc>0.901834</vAcc></extensions></trkpt>
      <trkpt lon="-82.147194" lat="33.554942"><ele>101.775313</ele><time>2023-06-09T12:31:05Z</time><extensions><speed>1.189967</speed><course>21.634734</course><hAcc>1.640925</hAcc><vAcc>0.909987</vAcc></extensions></trkpt>
      <trkpt lon="-82.147188" lat="33.554955"><ele>101.770569</ele><time>2023-06-09T12:31:06Z</time><extensions><speed>1.836369</speed><course>23.061550</course><hAcc>1.639980</hAcc><vAcc>0.917325</vAcc></extensions></trkpt>
      <trkpt lon="-82.147180" lat="33.554971"><ele>101.776061</ele><time>2023-06-09T12:31:07Z</time><extensions><speed>2.067578</speed><course>22.051480</course><hAcc>1.636420</hAcc><vAcc>0.922859</vAcc></extensions></trkpt>
      <trkpt lon="-82.147171" lat="33.554989"><ele>101.782286</ele><time>2023-06-09T12:31:08Z</time><extensions><speed>2.093177</speed><course>22.076087</course><hAcc>1.627836</hAcc><vAcc>0.927528</vAcc></extensions></trkpt>
      <trkpt lon="-82.147163" lat="33.555006"><ele>101.801392</ele><time>2023-06-09T12:31:09Z</time><extensions><speed>1.881773</speed><course>22.169874</course><hAcc>1.637569</hAcc><vAcc>0.931405</vAcc></extensions></trkpt>
      <trkpt lon="-82.147156" lat="33.555020"><ele>101.831544</ele><time>2023-06-09T12:31:10Z</time><extensions><speed>1.689047</speed><course>22.717551</course><hAcc>1.652368</hAcc><vAcc>0.934158</vAcc></extensions></trkpt>
      <trkpt lon="-82.147149" lat="33.555034"><ele>101.865733</ele><time>2023-06-09T12:31:11Z</time><extensions><speed>1.594090</speed><course>20.880989</course><hAcc>1.653879</hAcc><vAcc>0.936587</vAcc></extensions></trkpt>
      <trkpt lon="-82.147143" lat="33.555048"><ele>101.903048</ele><time>2023-06-09T12:31:12Z</time><extensions><speed>1.648082</speed><course>20.016230</course><hAcc>1.655183</hAcc><vAcc>0.938368</vAcc></extensions></trkpt>
      <trkpt lon="-82.147137" lat="33.555063"><ele>101.948009</ele><time>2023-06-09T12:31:13Z</time><extensions><speed>1.744811</speed><course>18.954932</course><hAcc>1.662103</hAcc><vAcc>0.939732</vAcc></extensions></trkpt>
      <trkpt lon="-82.147131" lat="33.555078"><ele>101.994874</ele><time>2023-06-09T12:31:14Z</time><extensions><speed>1.808874</speed><course>16.435277</course><hAcc>1.711054</hAcc><vAcc>0.940610</vAcc></extensions></trkpt>
      <trkpt lon="-82.147126" lat="33.555094"><ele>102.025154</ele><time>2023-06-09T12:31:15Z</time><extensions><speed>1.722345</speed><course>9.486324</course><hAcc>1.771539</hAcc><vAcc>0.941361</vAcc></extensions></trkpt>
      <trkpt lon="-82.147125" lat="33.555109"><ele>102.062721</ele><time>2023-06-09T12:31:16Z</time><extensions><speed>1.490752</speed><course>356.434681</course><hAcc>1.856338</hAcc><vAcc>0.941846</vAcc></extensions></trkpt>
      <trkpt lon="-82.147127" lat="33.555122"><ele>102.091548</ele><time>2023-06-09T12:31:17Z</time><extensions><speed>1.424506</speed><course>343.848035</course><hAcc>1.959573</hAcc><vAcc>0.942099</vAcc></extensions></trkpt>
      <trkpt lon="-82.147131" lat="33.555134"><ele>102.121383</ele><time>2023-06-09T12:31:18Z</time><extensions><speed>1.361824</speed><course>341.689433</course><hAcc>2.059042</hAcc><vAcc>0.942200</vAcc></extensions></trkpt>
      <trkpt lon="-82.147134" lat="33.555147"><ele>102.154521</ele><time>2023-06-09T12:31:19Z</time><extensions><speed>1.385452</speed><course>355.644152</course><hAcc>2.123949</hAcc><vAcc>0.942367</vAcc></extensions></trkpt>
      <trkpt lon="-82.147133" lat="33.555160"><ele>102.181563</ele><time>2023-06-09T12:31:20Z</time><extensions><speed>1.497350</speed><course>11.380084</course><hAcc>2.171938</hAcc><vAcc>0.942677</vAcc></extensions></trkpt>
      <trkpt lon="-82.147128" lat="33.555175"><ele>102.206477</ele><time>2023-06-09T12:31:21Z</time><extensions><speed>1.712869</speed><course>17.843753</course><hAcc>2.229690</hAcc><vAcc>0.942916</vAcc></extensions></trkpt>
      <trkpt lon="-82.147121" lat="33.555190"><ele>102.241898</ele><time>2023-06-09T12:31:22Z</time><extensions><speed>1.710043</speed><course>21.376033</course><hAcc>2.300885</hAcc><vAcc>0.943137</vAcc></extensions></trkpt>
      <trkpt lon="-82.147115" lat="33.555204"><ele>102.280528</ele><time>2023-06-09T12:31:23Z</time><extensions><speed>1.584263</speed><course>18.504753</course><hAcc>2.324993</hAcc><vAcc>0.943132</vAcc></extensions></trkpt>
      <trkpt lon="-82.147110" lat="33.555218"><ele>102.334984</ele><time>2023-06-09T12:31:24Z</time><extensions><speed>1.539222</speed><course>15.864206</course><hAcc>2.336965</hAcc><vAcc>0.943386</vAcc></extensions></trkpt>
      <trkpt lon="-82.147106" lat="33.555233"><ele>102.395031</ele><time>2023-06-09T12:31:25Z</time><extensions><speed>1.586587</speed><course>11.238464</course><hAcc>2.373632</hAcc><vAcc>0.943434</vAcc></extensions></trkpt>
      <trkpt lon="-82.147102" lat="33.555248"><ele>102.505411</ele><time>2023-06-09T12:31:26Z</time><extensions><speed>1.616149</speed><course>11.777476</course><hAcc>2.416303</hAcc><vAcc>0.936910</vAcc></extensions></trkpt>
      <trkpt lon="-82.147099" lat="33.555262"><ele>102.620410</ele><time>2023-06-09T12:31:27Z</time><extensions><speed>1.539961</speed><course>11.840725</course><hAcc>2.458824</hAcc><vAcc>0.930326</vAcc></extensions></trkpt>
      <trkpt lon="-82.147096" lat="33.555277"><ele>102.744307</ele><time>2023-06-09T12:31:28Z</time><extensions><speed>1.499502</speed><course>10.715555</course><hAcc>2.465773</hAcc><vAcc>0.923239</vAcc></extensions></trkpt>
      <trkpt lon="-82.147093" lat="33.555290"><ele>102.862987</ele><time>2023-06-09T12:31:29Z</time><extensions><speed>1.280570</speed><course>5.069788</course><hAcc>2.466753</hAcc><vAcc>0.915180</vAcc></extensions></trkpt>
      <trkpt lon="-82.147093" lat="33.555302"><ele>102.988867</ele><time>2023-06-09T12:31:30Z</time><extensions><speed>1.298446</speed><course>1.410352</course><hAcc>2.465183</hAcc><vAcc>0.905923</vAcc></extensions></trkpt>
      <trkpt lon="-82.147093" lat="33.555314"><ele>103.123477</ele><time>2023-06-09T12:31:31Z</time><extensions><speed>1.263701</speed><course>0.619786</course><hAcc>2.487600</hAcc><vAcc>0.895492</vAcc></extensions></trkpt>
      <trkpt lon="-82.147092" lat="33.555326"><ele>103.261451</ele><time>2023-06-09T12:31:32Z</time><extensions><speed>1.331979</speed><course>3.591327</course><hAcc>2.489138</hAcc><vAcc>0.883987</vAcc></extensions></trkpt>
      <trkpt lon="-82.147091" lat="33.555339"><ele>103.404827</ele><time>2023-06-09T12:31:33Z</time><extensions><speed>1.431119</speed><course>2.179632</course><hAcc>2.496400</hAcc><vAcc>0.871217</vAcc></extensions></trkpt>
      <trkpt lon="-82.147091" lat="33.555353"><ele>103.548256</ele><time>2023-06-09T12:31:34Z</time><extensions><speed>1.453390</speed><course>359.237137</course><hAcc>2.516499</hAcc><vAcc>0.857566</vAcc></extensions></trkpt>
      <trkpt lon="-82.147092" lat="33.555366"><ele>103.697472</ele><time>2023-06-09T12:31:35Z</time><extensions><speed>1.370637</speed><course>358.009949</course><hAcc>2.552370</hAcc><vAcc>0.843398</vAcc></extensions></trkpt>
      <trkpt lon="-82.147091" lat="33.555379"><ele>103.846265</ele><time>2023-06-09T12:31:36Z</time><extensions><speed>1.307768</speed><course>4.398160</course><hAcc>2.536407</hAcc><vAcc>0.829099</vAcc></extensions></trkpt>
      <trkpt lon="-82.147090" lat="33.555391"><ele>103.996920</ele><time>2023-06-09T12:31:37Z</time><extensions><speed>1.126957</speed><course>10.342330</course><hAcc>2.517635</hAcc><vAcc>0.815585</vAcc></extensions></trkpt>
      <trkpt lon="-82.147088" lat="33.555401"><ele>104.149586</ele><time>2023-06-09T12:31:38Z</time><extensions><speed>0.864842</speed><course>13.762400</course><hAcc>2.511990</hAcc><vAcc>0.803291</vAcc></extensions></trkpt>
      <trkpt lon="-82.147086" lat="33.555409"><ele>104.304426</ele><time>2023-06-09T12:31:39Z</time><extensions><speed>0.740659</speed><course>17.165044</course><hAcc>2.524236</hAcc><vAcc>0.792537</vAcc></extensions></trkpt>
      <trkpt lon="-82.147083" lat="33.555415"><ele>104.458178</ele><time>2023-06-09T12:31:40Z</time><extensions><speed>0.648221</speed><course>26.680165</course><hAcc>2.553854</hAcc><vAcc>0.783508</vAcc></extensions></trkpt>
      <trkpt lon="-82.147080" lat="33.555421"><ele>104.607793</ele><time>2023-06-09T12:31:41Z</time><extensions><speed>0.722084</speed><course>28.747566</course><hAcc>2.562682</hAcc><vAcc>0.777748</vAcc></extensions></trkpt>
      <trkpt lon="-82.147077" lat="33.555428"><ele>104.753037</ele><time>2023-06-09T12:31:42Z</time><extensions><speed>0.809053</speed><course>26.913624</course><hAcc>2.575818</hAcc><vAcc>0.774677</vAcc></extensions></trkpt>
      <trkpt lon="-82.147073" lat="33.555437"><ele>104.891334</ele><time>2023-06-09T12:31:43Z</time><extensions><speed>1.091140</speed><course>23.197926</course><hAcc>2.554346</hAcc><vAcc>0.774290</vAcc></extensions></trkpt>
      <trkpt lon="-82.147069" lat="33.555447"><ele>105.024375</ele><time>2023-06-09T12:31:44Z</time><extensions><speed>1.184244</speed><course>17.786741</course><hAcc>2.534857</hAcc><vAcc>0.776555</vAcc></extensions></trkpt>
      <trkpt lon="-82.147066" lat="33.555459"><ele>105.149312</ele><time>2023-06-09T12:31:45Z</time><extensions><speed>1.115304</speed><course>14.782974</course><hAcc>2.545848</hAcc><vAcc>0.781421</vAcc></extensions></trkpt>
      <trkpt lon="-82.147063" lat="33.555469"><ele>105.260557</ele><time>2023-06-09T12:31:46Z</time><extensions><speed>1.047045</speed><course>12.150281</course><hAcc>2.565953</hAcc><vAcc>0.788659</vAcc></extensions></trkpt>
      <trkpt lon="-82.147062" lat="33.555480"><ele>105.360841</ele><time>2023-06-09T12:31:47Z</time><extensions><speed>1.134068</speed><course>9.684921</course><hAcc>2.562180</hAcc><vAcc>0.798279</vAcc></extensions></trkpt>
      <trkpt lon="-82.147060" lat="33.555492"><ele>105.453287</ele><time>2023-06-09T12:31:48Z</time><extensions><speed>1.438234</speed><course>13.010954</course><hAcc>2.547239</hAcc><vAcc>0.809765</vAcc></extensions></trkpt>
      <trkpt lon="-82.147057" lat="33.555506"><ele>105.520136</ele><time>2023-06-09T12:31:49Z</time><extensions><speed>1.543702</speed><course>13.965239</course><hAcc>2.539759</hAcc><vAcc>0.822851</vAcc></extensions></trkpt>
      <trkpt lon="-82.147054" lat="33.555520"><ele>105.578786</ele><time>2023-06-09T12:31:50Z</time><extensions><speed>1.504723</speed><course>14.051115</course><hAcc>2.540796</hAcc><vAcc>0.836982</vAcc></extensions></trkpt>
      <trkpt lon="-82.147052" lat="33.555533"><ele>105.624676</ele><time>2023-06-09T12:31:51Z</time><extensions><speed>1.408338</speed><course>5.744829</course><hAcc>2.537964</hAcc><vAcc>0.851726</vAcc></extensions></trkpt>
      <trkpt lon="-82.147052" lat="33.555547"><ele>105.658450</ele><time>2023-06-09T12:31:52Z</time><extensions><speed>1.491076</speed><course>0.285250</course><hAcc>2.550350</hAcc><vAcc>0.865670</vAcc></extensions></trkpt>
      <trkpt lon="-82.147053" lat="33.555564"><ele>105.694454</ele><time>2023-06-09T12:31:53Z</time><extensions><speed>2.139157</speed><course>358.470350</course><hAcc>2.542521</hAcc><vAcc>0.878842</vAcc></extensions></trkpt>
      <trkpt lon="-82.147056" lat="33.555585"><ele>105.717020</ele><time>2023-06-09T12:31:54Z</time><extensions><speed>2.561947</speed><course>354.913053</course><hAcc>2.537695</hAcc><vAcc>0.890924</vAcc></extensions></trkpt>
      <trkpt lon="-82.147060" lat="33.555609"><ele>105.749641</ele><time>2023-06-09T12:31:55Z</time><extensions><speed>2.663893</speed><course>350.981454</course><hAcc>2.544036</hAcc><vAcc>0.901573</vAcc></extensions></trkpt>
      <trkpt lon="-82.147066" lat="33.555633"><ele>105.785237</ele><time>2023-06-09T12:31:56Z</time><extensions><speed>2.530619</speed><course>348.129152</course><hAcc>2.533368</hAcc><vAcc>0.910575</vAcc></extensions></trkpt>
      <trkpt lon="-82.147072" lat="33.555653"><ele>105.818559</ele><time>2023-06-09T12:31:57Z</time><extensions><speed>2.036439</speed><course>347.021293</course><hAcc>2.522909</hAcc><vAcc>0.918208</vAcc></extensions></trkpt>
      <trkpt lon="-82.147077" lat="33.555670"><ele>105.860071</ele><time>2023-06-09T12:31:58Z</time><extensions><speed>1.702767</speed><course>348.064289</course><hAcc>2.532025</hAcc><vAcc>0.924512</vAcc></extensions></trkpt>
      <trkpt lon="-82.147082" lat="33.555684"><ele>105.916036</ele><time>2023-06-09T12:31:59Z</time><extensions><speed>1.680560</speed><course>341.054948</course><hAcc>2.514162</hAcc><vAcc>0.922386</vAcc></extensions></trkpt>
      <trkpt lon="-82.147088" lat="33.555698"><ele>105.963768</ele><time>2023-06-09T12:32:00Z</time><extensions><speed>1.659179</speed><course>338.763855</course><hAcc>2.506755</hAcc><vAcc>0.924965</vAcc></extensions></trkpt>
      <trkpt lon="-82.147095" lat="33.555712"><ele>106.023266</ele><time>2023-06-09T12:32:01Z</time><extensions><speed>1.551884</speed><course>341.546297</course><hAcc>2.506804</hAcc><vAcc>0.921002</vAcc></extensions></trkpt>
      <trkpt lon="-82.147101" lat="33.555726"><ele>106.073313</ele><time>2023-06-09T12:32:02Z</time><extensions><speed>1.858600</speed><course>341.382065</course><hAcc>2.483070</hAcc><vAcc>0.920189</vAcc></extensions></trkpt>
      <trkpt lon="-82.147107" lat="33.555742"><ele>106.131834</ele><time>2023-06-09T12:32:03Z</time><extensions><speed>1.908468</speed><course>341.956248</course><hAcc>2.450954</hAcc><vAcc>0.914116</vAcc></extensions></trkpt>
      <trkpt lon="-82.147113" lat="33.555758"><ele>106.187656</ele><time>2023-06-09T12:32:04Z</time><extensions><speed>1.820889</speed><course>344.328547</course><hAcc>2.457678</hAcc><vAcc>0.910612</vAcc></extensions></trkpt>
      <trkpt lon="-82.147118" lat="33.555773"><ele>106.249339</ele><time>2023-06-09T12:32:05Z</time><extensions><speed>1.578948</speed><course>348.715998</course><hAcc>2.492879</hAcc><vAcc>0.906651</vAcc></extensions></trkpt>
      <trkpt lon="-82.147121" lat="33.555786"><ele>106.333549</ele><time>2023-06-09T12:32:06Z</time><extensions><speed>1.402935</speed><course>350.216965</course><hAcc>2.515148</hAcc><vAcc>0.898331</vAcc></extensions></trkpt>
      <trkpt lon="-82.147125" lat="33.555798"><ele>106.400921</ele><time>2023-06-09T12:32:07Z</time><extensions><speed>1.353264</speed><course>347.142146</course><hAcc>2.498436</hAcc><vAcc>0.892502</vAcc></extensions></trkpt>
      <trkpt lon="-82.147129" lat="33.555809"><ele>106.469093</ele><time>2023-06-09T12:32:08Z</time><extensions><speed>1.328850</speed><course>344.365687</course><hAcc>2.474729</hAcc><vAcc>0.887108</vAcc></extensions></trkpt>
      <trkpt lon="-82.147133" lat="33.555821"><ele>106.546929</ele><time>2023-06-09T12:32:09Z</time><extensions><speed>1.314152</speed><course>347.868870</course><hAcc>2.484485</hAcc><vAcc>0.882568</vAcc></extensions></trkpt>
      <trkpt lon="-82.147135" lat="33.555832"><ele>106.630672</ele><time>2023-06-09T12:32:10Z</time><extensions><speed>1.320969</speed><course>354.810656</course><hAcc>2.527314</hAcc><vAcc>0.879242</vAcc></extensions></trkpt>
      <trkpt lon="-82.147137" lat="33.555844"><ele>106.703729</ele><time>2023-06-09T12:32:11Z</time><extensions><speed>1.383243</speed><course>352.251631</course><hAcc>2.529625</hAcc><vAcc>0.872979</vAcc></extensions></trkpt>
      <trkpt lon="-82.147140" lat="33.555857"><ele>106.764164</ele><time>2023-06-09T12:32:12Z</time><extensions><speed>1.464880</speed><course>346.943229</course><hAcc>2.511222</hAcc><vAcc>0.867613</vAcc></extensions></trkpt>
      <trkpt lon="-82.147145" lat="33.555869"><ele>106.835823</ele><time>2023-06-09T12:32:13Z</time><extensions><speed>1.440405</speed><course>335.139873</course><hAcc>2.504833</hAcc><vAcc>0.862831</vAcc></extensions></trkpt>
      <trkpt lon="-82.147151" lat="33.555881"><ele>106.918495</ele><time>2023-06-09T12:32:14Z</time><extensions><speed>1.415901</speed><course>333.500792</course><hAcc>2.533700</hAcc><vAcc>0.858360</vAcc></extensions></trkpt>
      <trkpt lon="-82.147158" lat="33.555891"><ele>106.988556</ele><time>2023-06-09T12:32:15Z</time><extensions><speed>1.239414</speed><course>330.561058</course><hAcc>2.540087</hAcc><vAcc>0.853751</vAcc></extensions></trkpt>
      <trkpt lon="-82.147164" lat="33.555901"><ele>107.060236</ele><time>2023-06-09T12:32:16Z</time><extensions><speed>1.320344</speed><course>332.671464</course><hAcc>2.550465</hAcc><vAcc>0.848744</vAcc></extensions></trkpt>
      <trkpt lon="-82.147170" lat="33.555912"><ele>107.141249</ele><time>2023-06-09T12:32:17Z</time><extensions><speed>1.306997</speed><course>336.717006</course><hAcc>2.540900</hAcc><vAcc>0.843084</vAcc></extensions></trkpt>
      <trkpt lon="-82.147175" lat="33.555923"><ele>107.213922</ele><time>2023-06-09T12:32:18Z</time><extensions><speed>1.242750</speed><course>342.890415</course><hAcc>2.538459</hAcc><vAcc>0.836576</vAcc></extensions></trkpt>
      <trkpt lon="-82.147178" lat="33.555934"><ele>107.281002</ele><time>2023-06-09T12:32:19Z</time><extensions><speed>1.073554</speed><course>350.518029</course><hAcc>2.540244</hAcc><vAcc>0.828911</vAcc></extensions></trkpt>
      <trkpt lon="-82.147179" lat="33.555943"><ele>107.340980</ele><time>2023-06-09T12:32:20Z</time><extensions><speed>1.012472</speed><course>0.677050</course><hAcc>2.540065</hAcc><vAcc>0.821896</vAcc></extensions></trkpt>
      <trkpt lon="-82.147178" lat="33.555953"><ele>107.393529</ele><time>2023-06-09T12:32:21Z</time><extensions><speed>1.010911</speed><course>12.186924</course><hAcc>2.534338</hAcc><vAcc>0.815369</vAcc></extensions></trkpt>
      <trkpt lon="-82.147176" lat="33.555962"><ele>107.438373</ele><time>2023-06-09T12:32:22Z</time><extensions><speed>1.041404</speed><course>16.279892</course><hAcc>2.527175</hAcc><vAcc>0.810126</vAcc></extensions></trkpt>
      <trkpt lon="-82.147173" lat="33.555973"><ele>107.472632</ele><time>2023-06-09T12:32:23Z</time><extensions><speed>1.180218</speed><course>10.977711</course><hAcc>2.450234</hAcc><vAcc>0.806873</vAcc></extensions></trkpt>
      <trkpt lon="-82.147172" lat="33.555986"><ele>107.496538</ele><time>2023-06-09T12:32:24Z</time><extensions><speed>1.390472</speed><course>1.210492</course><hAcc>2.405443</hAcc><vAcc>0.802870</vAcc></extensions></trkpt>
      <trkpt lon="-82.147173" lat="33.555999"><ele>107.512579</ele><time>2023-06-09T12:32:25Z</time><extensions><speed>1.469599</speed><course>354.861219</course><hAcc>2.341313</hAcc><vAcc>0.803444</vAcc></extensions></trkpt>
      <trkpt lon="-82.147174" lat="33.556012"><ele>107.531272</ele><time>2023-06-09T12:32:26Z</time><extensions><speed>1.520447</speed><course>354.122186</course><hAcc>2.311639</hAcc><vAcc>0.813285</vAcc></extensions></trkpt>
      <trkpt lon="-82.147175" lat="33.556026"><ele>107.543440</ele><time>2023-06-09T12:32:27Z</time><extensions><speed>1.513950</speed><course>359.401837</course><hAcc>2.334349</hAcc><vAcc>0.830740</vAcc></extensions></trkpt>
      <trkpt lon="-82.147176" lat="33.556040"><ele>107.549100</ele><time>2023-06-09T12:32:28Z</time><extensions><speed>1.587217</speed><course>357.145666</course><hAcc>2.304313</hAcc><vAcc>0.857765</vAcc></extensions></trkpt>
      <trkpt lon="-82.147178" lat="33.556053"><ele>107.548895</ele><time>2023-06-09T12:32:29Z</time><extensions><speed>1.471538</speed><course>346.699560</course><hAcc>2.311055</hAcc><vAcc>0.896572</vAcc></extensions></trkpt>
      <trkpt lon="-82.147182" lat="33.556066"><ele>107.543803</ele><time>2023-06-09T12:32:30Z</time><extensions><speed>1.465274</speed><course>345.377550</course><hAcc>2.257021</hAcc><vAcc>0.949818</vAcc></extensions></trkpt>
      <trkpt lon="-82.147185" lat="33.556079"><ele>107.535093</ele><time>2023-06-09T12:32:31Z</time><extensions><speed>1.389725</speed><course>349.035534</course><hAcc>2.215895</hAcc><vAcc>1.018957</vAcc></extensions></trkpt>
      <trkpt lon="-82.147186" lat="33.556091"><ele>107.523730</ele><time>2023-06-09T12:32:32Z</time><extensions><speed>1.275260</speed><course>6.107445</course><hAcc>2.194665</hAcc><vAcc>1.107801</vAcc></extensions></trkpt>
      <trkpt lon="-82.147184" lat="33.556101"><ele>107.510914</ele><time>2023-06-09T12:32:33Z</time><extensions><speed>1.068906</speed><course>13.825688</course><hAcc>2.221766</hAcc><vAcc>1.216855</vAcc></extensions></trkpt>
      <trkpt lon="-82.147180" lat="33.556109"><ele>107.497320</ele><time>2023-06-09T12:32:34Z</time><extensions><speed>0.846443</speed><course>40.196077</course><hAcc>2.302441</hAcc><vAcc>1.348935</vAcc></extensions></trkpt>
      <trkpt lon="-82.147175" lat="33.556116"><ele>107.483653</ele><time>2023-06-09T12:32:35Z</time><extensions><speed>0.943475</speed><course>14.636270</course><hAcc>2.489156</hAcc><vAcc>1.503027</vAcc></extensions></trkpt>
    </trkseg>
  </trk>
</gpx>