<?xml version="1.0" encoding="UTF-8"?>
<gpx version="1.1" creator="Apple Health Export" xmlns="http://www.topografix.com/GPX/1/1" xmlns:xsi="http://www.w3.org/2001/XMLSchema-instance" xsi:schemaLocation="http://www.topografix.com/GPX/1/1 http://www.topografix.com/GPX/1/1/gpx.xsd">
  <metadata>
    <time>2026-03-14T12:16:00Z</time>
  </metadata>
  <trk>
    <name>Route 2022-06-06 10:41am</name>
    <trkseg>
      <trkpt lon="-82.146185" lat="33.556715"><ele>81.876022</ele><time>2022-06-06T14:40:00Z</time><extensions><speed>1.215688</speed><course>261.296539</course><hAcc>3.956202</hAcc><vAcc>3.295768</vAcc></extensions></trkpt>
      <trkpt lon="-82.146198" lat="33.556711"><ele>81.686546</ele><time>2022-06-06T14:40:01Z</time><extensions><speed>1.276495</speed><course>255.957169</course><hAcc>3.454933</hAcc><vAcc>3.038640</vAcc></extensions></trkpt>
      <trkpt lon="-82.146211" lat="33.556707"><ele>81.524521</ele><time>2022-06-06T14:40:02Z</time><extensions><speed>1.211856</speed><course>249.687302</course><hAcc>3.224052</hAcc><vAcc>2.818816</vAcc></extensions></trkpt>
      <trkpt lon="-82.146223" lat="33.556701"><ele>81.410843</ele><time>2022-06-06T14:40:03Z</time><extensions><speed>1.249176</speed><course>239.888748</course><hAcc>3.095439</hAcc><vAcc>2.630367</vAcc></extensions></trkpt>
      <trkpt lon="-82.146234" lat="33.556694"><ele>81.272888</ele><time>2022-06-06T14:40:04Z</time><extensions><speed>1.199579</speed><course>230.425964</course><hAcc>2.997526</hAcc><vAcc>2.468832</vAcc></extensions></trkpt>
      <trkpt lon="-82.146243" lat="33.556686"><ele>81.203880</ele><time>2022-06-06T14:40:05Z</time><extensions><speed>1.010482</speed><course>219.397888</course><hAcc>2.929284</hAcc><vAcc>2.330723</vAcc></extensions></trkpt>
      <trkpt lon="-82.146249" lat="33.556678"><ele>81.175926</ele><time>2022-06-06T14:40:06Z</time><extensions><speed>0.990326</speed><course>214.346649</course><hAcc>2.876915</hAcc><vAcc>2.213146</vAcc></extensions></trkpt>
      <trkpt lon="-82.146256" lat="33.556670"><ele>81.223854</ele><time>2022-06-06T14:40:07Z</time><extensions><speed>1.074282</speed><course>222.113693</course><hAcc>2.814917</hAcc><vAcc>2.113581</vAcc></extensions></trkpt>
      <trkpt lon="-82.146265" lat="33.556663"><ele>81.281296</ele><time>2022-06-06T14:40:08Z</time><extensions><speed>1.278628</speed><course>238.367905</course><hAcc>2.759382</hAcc><vAcc>2.029775</vAcc></extensions></trkpt>
      <trkpt lon="-82.146279" lat="33.556657"><ele>81.308479</ele><time>2022-06-06T14:40:09Z</time><extensions><speed>1.618540</speed><course>247.220276</course><hAcc>2.714743</hAcc><vAcc>1.959690</vAcc></extensions></trkpt>
      <trkpt lon="-82.146295" lat="33.556651"><ele>81.367081</ele><time>2022-06-06T14:40:10Z</time><extensions><speed>1.767582</speed><course>249.252426</course><hAcc>2.682463</hAcc><vAcc>1.901468</vAcc></extensions></trkpt>
      <trkpt lon="-82.146313" lat="33.556644"><ele>81.503624</ele><time>2022-06-06T14:40:11Z</time><extensions><speed>1.913382</speed><course>248.748962</course><hAcc>2.666704</hAcc><vAcc>1.853423</vAcc></extensions></trkpt>
      <trkpt lon="-82.146332" lat="33.556637"><ele>81.617874</ele><time>2022-06-06T14:40:12Z</time><extensions><speed>1.884119</speed><course>247.547485</course><hAcc>2.669748</hAcc><vAcc>1.814028</vAcc></extensions></trkpt>
      <trkpt lon="-82.146350" lat="33.556629"><ele>81.815239</ele><time>2022-06-06T14:40:13Z</time><extensions><speed>1.801479</speed><course>243.460526</course><hAcc>2.660665</hAcc><vAcc>1.757773</vAcc></extensions></trkpt>
      <trkpt lon="-82.146365" lat="33.556621"><ele>81.990669</ele><time>2022-06-06T14:40:14Z</time><extensions><speed>1.615629</speed><course>239.201599</course><hAcc>2.661268</hAcc><vAcc>1.709116</vAcc></extensions></trkpt>
      <trkpt lon="-82.146378" lat="33.556613"><ele>82.154510</ele><time>2022-06-06T14:40:15Z</time><extensions><speed>1.280155</speed><course>237.160126</course><hAcc>2.654786</hAcc><vAcc>1.666461</vAcc></extensions></trkpt>
      <trkpt lon="-82.146389" lat="33.556607"><ele>82.285255</ele><time>2022-06-06T14:40:16Z</time><extensions><speed>1.138926</speed><course>244.671158</course><hAcc>2.661235</hAcc><vAcc>1.628566</vAcc></extensions></trkpt>
      <trkpt lon="-82.146399" lat="33.556602"><ele>82.429970</ele><time>2022-06-06T14:40:17Z</time><extensions><speed>0.992452</speed><course>253.310089</course><hAcc>2.630914</hAcc><vAcc>1.594452</vAcc></extensions></trkpt>
      <trkpt lon="-82.146409" lat="33.556599"><ele>82.614311</ele><time>2022-06-06T14:40:18Z</time><extensions><speed>0.891014</speed><course>265.890198</course><hAcc>2.619248</hAcc><vAcc>1.563349</vAcc></extensions></trkpt>
      <trkpt lon="-82.146417" lat="33.556598"><ele>82.787560</ele><time>2022-06-06T14:40:19Z</time><extensions><speed>0.767693</speed><course>261.927155</course><hAcc>2.593627</hAcc><vAcc>1.534676</vAcc></extensions></trkpt>
      <trkpt lon="-82.146425" lat="33.556595"><ele>83.007614</ele><time>2022-06-06T14:40:20Z</time><extensions><speed>0.666679</speed><course>247.427567</course><hAcc>2.578744</hAcc><vAcc>1.508020</vAcc></extensions></trkpt>
      <trkpt lon="-82.146431" lat="33.556591"><ele>83.264412</ele><time>2022-06-06T14:40:21Z</time><extensions><speed>0.781145</speed><course>235.860123</course><hAcc>2.571786</hAcc><vAcc>1.483125</vAcc></extensions></trkpt>
      <trkpt lon="-82.146438" lat="33.556585"><ele>83.541283</ele><time>2022-06-06T14:40:22Z</time><extensions><speed>0.904085</speed><course>228.711166</course><hAcc>2.585492</hAcc><vAcc>1.459884</vAcc></extensions></trkpt>
      <trkpt lon="-82.146446" lat="33.556579"><ele>83.810478</ele><time>2022-06-06T14:40:23Z</time><extensions><speed>0.990503</speed><course>227.917068</course><hAcc>2.611145</hAcc><vAcc>1.438327</vAcc></extensions></trkpt>
      <trkpt lon="-82.146454" lat="33.556572"><ele>84.083839</ele><time>2022-06-06T14:40:24Z</time><extensions><speed>0.999388</speed><course>219.762589</course><hAcc>2.607596</hAcc><vAcc>1.418565</vAcc></extensions></trkpt>
      <trkpt lon="-82.146459" lat="33.556564"><ele>84.312263</ele><time>2022-06-06T14:40:25Z</time><extensions><speed>0.911080</speed><course>203.591431</course><hAcc>2.578546</hAcc><vAcc>1.400695</vAcc></extensions></trkpt>
      <trkpt lon="-82.146463" lat="33.556555"><ele>84.526695</ele><time>2022-06-06T14:40:26Z</time><extensions><speed>1.050508</speed><course>194.395721</course><hAcc>2.556017</hAcc><vAcc>1.384751</vAcc></extensions></trkpt>
      <trkpt lon="-82.146466" lat="33.556546"><ele>84.737747</ele><time>2022-06-06T14:40:27Z</time><extensions><speed>0.909083</speed><course>193.987045</course><hAcc>2.566013</hAcc><vAcc>1.370712</vAcc></extensions></trkpt>
      <trkpt lon="-82.146470" lat="33.556537"><ele>84.957787</ele><time>2022-06-06T14:40:28Z</time><extensions><speed>1.078350</speed><course>198.134186</course><hAcc>2.558235</hAcc><vAcc>1.358508</vAcc></extensions></trkpt>
      <trkpt lon="-82.146475" lat="33.556527"><ele>85.219627</ele><time>2022-06-06T14:40:29Z</time><extensions><speed>1.204129</speed><course>204.286560</course><hAcc>2.535358</hAcc><vAcc>1.348033</vAcc></extensions></trkpt>
      <trkpt lon="-82.146481" lat="33.556515"><ele>85.544167</ele><time>2022-06-06T14:40:30Z</time><extensions><speed>1.452828</speed><course>207.698059</course><hAcc>2.510504</hAcc><vAcc>1.314453</vAcc></extensions></trkpt>
      <trkpt lon="-82.146489" lat="33.556503"><ele>85.826950</ele><time>2022-06-06T14:40:31Z</time><extensions><speed>1.444602</speed><course>210.557449</course><hAcc>2.512958</hAcc><vAcc>1.285692</vAcc></extensions></trkpt>
      <trkpt lon="-82.146498" lat="33.556493"><ele>86.143448</ele><time>2022-06-06T14:40:32Z</time><extensions><speed>1.193788</speed><course>217.636261</course><hAcc>2.510129</hAcc><vAcc>1.259602</vAcc></extensions></trkpt>
      <trkpt lon="-82.146506" lat="33.556485"><ele>86.395836</ele><time>2022-06-06T14:40:33Z</time><extensions><speed>1.101418</speed><course>226.813995</course><hAcc>2.497834</hAcc><vAcc>1.234964</vAcc></extensions></trkpt>
      <trkpt lon="-82.146516" lat="33.556478"><ele>86.626213</ele><time>2022-06-06T14:40:34Z</time><extensions><speed>1.122604</speed><course>241.556519</course><hAcc>2.514492</hAcc><vAcc>1.211022</vAcc></extensions></trkpt>
      <trkpt lon="-82.146529" lat="33.556474"><ele>86.850288</ele><time>2022-06-06T14:40:35Z</time><extensions><speed>1.397122</speed><course>253.140564</course><hAcc>2.500070</hAcc><vAcc>1.187298</vAcc></extensions></trkpt>
      <trkpt lon="-82.146544" lat="33.556470"><ele>87.080788</ele><time>2022-06-06T14:40:36Z</time><extensions><speed>1.453663</speed><course>250.582321</course><hAcc>2.486899</hAcc><vAcc>1.163530</vAcc></extensions></trkpt>
      <trkpt lon="-82.146558" lat="33.556464"><ele>87.321831</ele><time>2022-06-06T14:40:37Z</time><extensions><speed>1.356476</speed><course>241.682098</course><hAcc>2.478918</hAcc><vAcc>1.139645</vAcc></extensions></trkpt>
      <trkpt lon="-82.146570" lat="33.556457"><ele>87.561714</ele><time>2022-06-06T14:40:38Z</time><extensions><speed>1.321766</speed><course>233.197754</course><hAcc>2.493705</hAcc><vAcc>1.115760</vAcc></extensions></trkpt>
      <trkpt lon="-82.146581" lat="33.556450"><ele>87.797195</ele><time>2022-06-06T14:40:39Z</time><extensions><speed>1.288859</speed><course>233.208298</course><hAcc>2.526260</hAcc><vAcc>1.092194</vAcc></extensions></trkpt>
      <trkpt lon="-82.146593" lat="33.556443"><ele>88.011497</ele><time>2022-06-06T14:40:40Z</time><extensions><speed>1.343440</speed><course>235.451202</course><hAcc>2.557791</hAcc><vAcc>1.069461</vAcc></extensions></trkpt>
      <trkpt lon="-82.146605" lat="33.556436"><ele>88.196381</ele><time>2022-06-06T14:40:41Z</time><extensions><speed>1.370020</speed><course>235.542480</course><hAcc>2.577564</hAcc><vAcc>1.048174</vAcc></extensions></trkpt>
      <trkpt lon="-82.146617" lat="33.556428"><ele>88.363083</ele><time>2022-06-06T14:40:42Z</time><extensions><speed>1.345905</speed><course>235.498611</course><hAcc>2.599994</hAcc><vAcc>1.028835</vAcc></extensions></trkpt>
      <trkpt lon="-82.146629" lat="33.556422"><ele>88.512787</ele><time>2022-06-06T14:40:43Z</time><extensions><speed>1.317205</speed><course>236.345551</course><hAcc>2.600946</hAcc><vAcc>1.011748</vAcc></extensions></trkpt>
      <trkpt lon="-82.146641" lat="33.556416"><ele>88.650459</ele><time>2022-06-06T14:40:44Z</time><extensions><speed>1.252442</speed><course>238.065628</course><hAcc>2.609318</hAcc><vAcc>0.997039</vAcc></extensions></trkpt>
      <trkpt lon="-82.146653" lat="33.556410"><ele>88.778252</ele><time>2022-06-06T14:40:45Z</time><extensions><speed>1.163804</speed><course>240.712891</course><hAcc>2.626667</hAcc><vAcc>0.984683</vAcc></extensions></trkpt>
      <trkpt lon="-82.146664" lat="33.556405"><ele>88.901932</ele><time>2022-06-06T14:40:46Z</time><extensions><speed>1.179829</speed><course>242.569733</course><hAcc>2.647524</hAcc><vAcc>0.974543</vAcc></extensions></trkpt>
      <trkpt lon="-82.146676" lat="33.556400"><ele>89.014076</ele><time>2022-06-06T14:40:47Z</time><extensions><speed>1.201565</speed><course>242.066101</course><hAcc>2.655928</hAcc><vAcc>0.966410</vAcc></extensions></trkpt>
      <trkpt lon="-82.146688" lat="33.556395"><ele>89.138435</ele><time>2022-06-06T14:40:48Z</time><extensions><speed>1.212625</speed><course>240.584885</course><hAcc>2.672014</hAcc><vAcc>0.960029</vAcc></extensions></trkpt>
      <trkpt lon="-82.146700" lat="33.556390"><ele>89.256607</ele><time>2022-06-06T14:40:49Z</time><extensions><speed>1.199861</speed><course>241.244003</course><hAcc>2.697156</hAcc><vAcc>0.955134</vAcc></extensions></trkpt>
      <trkpt lon="-82.146712" lat="33.556386"><ele>89.387398</ele><time>2022-06-06T14:40:50Z</time><extensions><speed>1.290623</speed><course>243.960663</course><hAcc>2.680329</hAcc><vAcc>0.945175</vAcc></extensions></trkpt>
      <trkpt lon="-82.146725" lat="33.556381"><ele>89.525185</ele><time>2022-06-06T14:40:51Z</time><extensions><speed>1.334756</speed><course>245.796448</course><hAcc>2.656370</hAcc><vAcc>0.935952</vAcc></extensions></trkpt>
      <trkpt lon="-82.146739" lat="33.556376"><ele>89.664536</ele><time>2022-06-06T14:40:52Z</time><extensions><speed>1.337498</speed><course>246.565628</course><hAcc>2.623174</hAcc><vAcc>0.926878</vAcc></extensions></trkpt>
      <trkpt lon="-82.146752" lat="33.556372"><ele>89.775146</ele><time>2022-06-06T14:40:53Z</time><extensions><speed>1.335252</speed><course>247.654251</course><hAcc>2.610463</hAcc><vAcc>0.920935</vAcc></extensions></trkpt>
      <trkpt lon="-82.146766" lat="33.556368"><ele>89.891579</ele><time>2022-06-06T14:40:54Z</time><extensions><speed>1.324750</speed><course>251.077362</course><hAcc>2.633607</hAcc><vAcc>0.915075</vAcc></extensions></trkpt>
      <trkpt lon="-82.146781" lat="33.556365"><ele>90.010101</ele><time>2022-06-06T14:40:55Z</time><extensions><speed>1.364470</speed><course>254.907761</course><hAcc>2.636713</hAcc><vAcc>0.909294</vAcc></extensions></trkpt>
      <trkpt lon="-82.146797" lat="33.556361"><ele>90.137039</ele><time>2022-06-06T14:40:56Z</time><extensions><speed>1.620416</speed><course>252.917664</course><hAcc>2.607413</hAcc><vAcc>0.903678</vAcc></extensions></trkpt>
      <trkpt lon="-82.146813" lat="33.556357"><ele>90.267006</ele><time>2022-06-06T14:40:57Z</time><extensions><speed>1.513002</speed><course>250.474487</course><hAcc>2.577776</hAcc><vAcc>0.898407</vAcc></extensions></trkpt>
      <trkpt lon="-82.146829" lat="33.556353"><ele>90.397438</ele><time>2022-06-06T14:40:58Z</time><extensions><speed>1.405687</speed><course>250.451508</course><hAcc>2.563707</hAcc><vAcc>0.893774</vAcc></extensions></trkpt>
      <trkpt lon="-82.146843" lat="33.556349"><ele>90.532593</ele><time>2022-06-06T14:40:59Z</time><extensions><speed>1.238224</speed><course>255.546738</course><hAcc>2.582745</hAcc><vAcc>0.890182</vAcc></extensions></trkpt>
      <trkpt lon="-82.146855" lat="33.556348"><ele>90.660057</ele><time>2022-06-06T14:41:00Z</time><extensions><speed>0.982209</speed><course>267.798859</course><hAcc>2.599480</hAcc><vAcc>0.888129</vAcc></extensions></trkpt>
      <trkpt lon="-82.146866" lat="33.556348"><ele>90.793892</ele><time>2022-06-06T14:41:01Z</time><extensions><speed>0.994242</speed><course>280.667297</course><hAcc>2.612693</hAcc><vAcc>0.888058</vAcc></extensions></trkpt>
      <trkpt lon="-82.146877" lat="33.556350"><ele>90.924065</ele><time>2022-06-06T14:41:02Z</time><extensions><speed>1.038895</speed><course>284.885284</course><hAcc>2.623770</hAcc><vAcc>0.895152</vAcc></extensions></trkpt>
      <trkpt lon="-82.146888" lat="33.556353"><ele>91.064178</ele><time>2022-06-06T14:41:03Z</time><extensions><speed>1.034988</speed><course>288.023071</course><hAcc>2.659066</hAcc><vAcc>0.900051</vAcc></extensions></trkpt>
      <trkpt lon="-82.146899" lat="33.556356"><ele>91.201164</ele><time>2022-06-06T14:41:04Z</time><extensions><speed>1.088420</speed><course>297.573669</course><hAcc>2.662867</hAcc><vAcc>0.912734</vAcc></extensions></trkpt>
      <trkpt lon="-82.146909" lat="33.556362"><ele>91.335281</ele><time>2022-06-06T14:41:05Z</time><extensions><speed>1.198159</speed><course>307.724213</course><hAcc>2.657125</hAcc><vAcc>0.928469</vAcc></extensions></trkpt>
      <trkpt lon="-82.146920" lat="33.556369"><ele>91.470711</ele><time>2022-06-06T14:41:06Z</time><extensions><speed>1.379593</speed><course>313.196289</course><hAcc>2.678416</hAcc><vAcc>0.946829</vAcc></extensions></trkpt>
      <trkpt lon="-82.146931" lat="33.556377"><ele>91.599709</ele><time>2022-06-06T14:41:07Z</time><extensions><speed>1.260036</speed><course>312.412201</course><hAcc>2.729039</hAcc><vAcc>0.967418</vAcc></extensions></trkpt>
      <trkpt lon="-82.146941" lat="33.556385"><ele>91.724655</ele><time>2022-06-06T14:41:08Z</time><extensions><speed>1.207455</speed><course>308.923279</course><hAcc>2.772644</hAcc><vAcc>0.989863</vAcc></extensions></trkpt>
      <trkpt lon="-82.146951" lat="33.556391"><ele>91.845070</ele><time>2022-06-06T14:41:09Z</time><extensions><speed>1.223799</speed><course>302.856781</course><hAcc>2.793445</hAcc><vAcc>1.013793</vAcc></extensions></trkpt>
      <trkpt lon="-82.146962" lat="33.556397"><ele>91.956184</ele><time>2022-06-06T14:41:10Z</time><extensions><speed>1.275344</speed><course>297.758545</course><hAcc>2.805972</hAcc><vAcc>1.038811</vAcc></extensions></trkpt>
      <trkpt lon="-82.146974" lat="33.556403"><ele>92.069237</ele><time>2022-06-06T14:41:11Z</time><extensions><speed>1.306073</speed><course>296.626251</course><hAcc>2.823667</hAcc><vAcc>1.064459</vAcc></extensions></trkpt>
      <trkpt lon="-82.146986" lat="33.556408"><ele>92.202629</ele><time>2022-06-06T14:41:12Z</time><extensions><speed>1.281006</speed><course>298.840637</course><hAcc>2.843796</hAcc><vAcc>1.090193</vAcc></extensions></trkpt>
      <trkpt lon="-82.146998" lat="33.556414"><ele>92.337540</ele><time>2022-06-06T14:41:13Z</time><extensions><speed>1.205583</speed><course>304.045563</course><hAcc>2.876404</hAcc><vAcc>1.115454</vAcc></extensions></trkpt>
      <trkpt lon="-82.147008" lat="33.556420"><ele>92.486229</ele><time>2022-06-06T14:41:14Z</time><extensions><speed>1.064355</speed><course>309.503326</course><hAcc>2.898162</hAcc><vAcc>1.139736</vAcc></extensions></trkpt>
      <trkpt lon="-82.147015" lat="33.556426"><ele>92.595711</ele><time>2022-06-06T14:41:15Z</time><extensions><speed>0.856796</speed><course>318.522034</course><hAcc>2.905431</hAcc><vAcc>1.186891</vAcc></extensions></trkpt>
      <trkpt lon="-82.147020" lat="33.556432"><ele>92.702454</ele><time>2022-06-06T14:41:16Z</time><extensions><speed>0.802647</speed><course>332.501892</course><hAcc>2.894421</hAcc><vAcc>1.240855</vAcc></extensions></trkpt>
      <trkpt lon="-82.147023" lat="33.556440"><ele>92.806641</ele><time>2022-06-06T14:41:17Z</time><extensions><speed>0.866105</speed><course>348.935791</course><hAcc>2.903597</hAcc><vAcc>1.302998</vAcc></extensions></trkpt>
      <trkpt lon="-82.147025" lat="33.556448"><ele>92.908524</ele><time>2022-06-06T14:41:18Z</time><extensions><speed>0.999476</speed><course>354.998444</course><hAcc>2.950636</hAcc><vAcc>1.374937</vAcc></extensions></trkpt>
      <trkpt lon="-82.147026" lat="33.556457"><ele>93.008385</ele><time>2022-06-06T14:41:19Z</time><extensions><speed>1.040931</speed><course>349.727295</course><hAcc>3.053497</hAcc><vAcc>1.458441</vAcc></extensions></trkpt>
      <trkpt lon="-82.147030" lat="33.556466"><ele>93.106529</ele><time>2022-06-06T14:41:20Z</time><extensions><speed>1.021504</speed><course>332.940033</course><hAcc>3.193815</hAcc><vAcc>1.555337</vAcc></extensions></trkpt>
      <trkpt lon="-82.147036" lat="33.556472"><ele>93.203201</ele><time>2022-06-06T14:41:21Z</time><extensions><speed>0.980604</speed><course>307.698669</course><hAcc>3.316663</hAcc><vAcc>1.667413</vAcc></extensions></trkpt>
      <trkpt lon="-82.147044" lat="33.556476"><ele>93.298599</ele><time>2022-06-06T14:41:22Z</time><extensions><speed>0.718579</speed><course>289.015350</course><hAcc>3.453427</hAcc><vAcc>1.796327</vAcc></extensions></trkpt>
      <trkpt lon="-82.147049" lat="33.556478"><ele>93.392914</ele><time>2022-06-06T14:41:23Z</time><extensions><speed>0.294086</speed><course>289.415253</course><hAcc>3.643925</hAcc><vAcc>1.943547</vAcc></extensions></trkpt>
      <trkpt lon="-82.147051" lat="33.556478"><ele>93.486435</ele><time>2022-06-06T14:41:24Z</time><extensions><speed>0.058279</speed><course>289.723358</course><hAcc>3.824082</hAcc><vAcc>2.110297</vAcc></extensions></trkpt>
    </trkseg>
  </trk>
</gpx>