<?xml version="1.0" encoding="UTF-8"?>
<gpx version="1.1" creator="Apple Health Export" xmlns="http://www.topografix.com/GPX/1/1" xmlns:xsi="http://www.w3.org/2001/XMLSchema-instance" xsi:schemaLocation="http://www.topografix.com/GPX/1/1 http://www.topografix.com/GPX/1/1/gpx.xsd">
  <metadata>
    <time>2026-03-14T12:16:00Z</time>
  </metadata>
  <trk>
    <name>Route 2022-06-19 10:04am</name>
    <trkseg>
      <trkpt lon="-82.304588" lat="35.644466"><ele>805.889771</ele><time>2022-06-19T13:58:15Z</time><extensions><speed>0.975136</speed><course>66.106461</course><hAcc>3.782918</hAcc><vAcc>3.082476</vAcc></extensions></trkpt>
      <trkpt lon="-82.304582" lat="35.644460"><ele>806.520325</ele><time>2022-06-19T13:58:15Z</time><extensions><speed>0.965970</speed><course>66.949181</course><hAcc>3.706645</hAcc><vAcc>2.910530</vAcc></extensions></trkpt>
      <trkpt lon="-82.304574" lat="35.644458"><ele>806.994080</ele><time>2022-06-19T13:58:16Z</time><extensions><speed>0.865280</speed><course>52.147800</course><hAcc>3.583658</hAcc><vAcc>2.717737</vAcc></extensions></trkpt>
      <trkpt lon="-82.304567" lat="35.644461"><ele>807.381592</ele><time>2022-06-19T13:58:17Z</time><extensions><speed>0.798528</speed><course>17.571354</course><hAcc>3.418239</hAcc><vAcc>2.507063</vAcc></extensions></trkpt>
      <trkpt lon="-82.304564" lat="35.644463"><ele>807.712952</ele><time>2022-06-19T13:58:18Z</time><extensions><speed>0.599053</speed><course>357.684753</course><hAcc>3.272699</hAcc><vAcc>2.327182</vAcc></extensions></trkpt>
      <trkpt lon="-82.304564" lat="35.644464"><ele>807.956726</ele><time>2022-06-19T13:58:19Z</time><extensions><speed>0.606909</speed><course>348.363617</course><hAcc>3.209126</hAcc><vAcc>2.220815</vAcc></extensions></trkpt>
      <trkpt lon="-82.304565" lat="35.644468"><ele>808.186218</ele><time>2022-06-19T13:58:20Z</time><extensions><speed>0.469205</speed><course>356.477600</course><hAcc>3.125391</hAcc><vAcc>2.079748</vAcc></extensions></trkpt>
      <trkpt lon="-82.304563" lat="35.644469"><ele>808.369812</ele><time>2022-06-19T13:58:21Z</time><extensions><speed>0.300930</speed><course>90.646965</course><hAcc>3.057829</hAcc><vAcc>1.956937</vAcc></extensions></trkpt>
      <trkpt lon="-82.304557" lat="35.644466"><ele>808.545654</ele><time>2022-06-19T13:58:22Z</time><extensions><speed>0.950087</speed><course>129.024902</course><hAcc>3.016531</hAcc><vAcc>1.849792</vAcc></extensions></trkpt>
      <trkpt lon="-82.304546" lat="35.644457"><ele>808.695923</ele><time>2022-06-19T13:58:23Z</time><extensions><speed>1.744691</speed><course>137.089355</course><hAcc>2.978045</hAcc><vAcc>1.757637</vAcc></extensions></trkpt>
      <trkpt lon="-82.304532" lat="35.644441"><ele>808.864563</ele><time>2022-06-19T13:58:24Z</time><extensions><speed>2.541125</speed><course>143.692535</course><hAcc>2.950044</hAcc><vAcc>1.677965</vAcc></extensions></trkpt>
      <trkpt lon="-82.304514" lat="35.644420"><ele>809.025696</ele><time>2022-06-19T13:58:25Z</time><extensions><speed>3.166772</speed><course>148.267578</course><hAcc>2.925169</hAcc><vAcc>1.609818</vAcc></extensions></trkpt>
      <trkpt lon="-82.304496" lat="35.644395"><ele>809.181030</ele><time>2022-06-19T13:58:26Z</time><extensions><speed>3.258449</speed><course>151.118179</course><hAcc>2.907570</hAcc><vAcc>1.551900</vAcc></extensions></trkpt>
      <trkpt lon="-82.304481" lat="35.644371"><ele>809.324341</ele><time>2022-06-19T13:58:27Z</time><extensions><speed>2.769801</speed><course>153.731323</course><hAcc>2.892264</hAcc><vAcc>1.503655</vAcc></extensions></trkpt>
      <trkpt lon="-82.304470" lat="35.644352"><ele>809.490784</ele><time>2022-06-19T13:58:28Z</time><extensions><speed>1.758513</speed><course>156.559387</course><hAcc>2.854180</hAcc><vAcc>1.463383</vAcc></extensions></trkpt>
      <trkpt lon="-82.304464" lat="35.644339"><ele>809.667297</ele><time>2022-06-19T13:58:29Z</time><extensions><speed>1.254356</speed><course>159.652481</course><hAcc>2.753363</hAcc><vAcc>1.430247</vAcc></extensions></trkpt>
      <trkpt lon="-82.304460" lat="35.644330"><ele>809.862549</ele><time>2022-06-19T13:58:30Z</time><extensions><speed>0.977283</speed><course>160.979599</course><hAcc>2.584769</hAcc><vAcc>1.403301</vAcc></extensions></trkpt>
      <trkpt lon="-82.304456" lat="35.644323"><ele>810.045471</ele><time>2022-06-19T13:58:31Z</time><extensions><speed>0.739686</speed><course>161.943649</course><hAcc>2.367353</hAcc><vAcc>1.381589</vAcc></extensions></trkpt>
      <trkpt lon="-82.304454" lat="35.644317"><ele>810.170654</ele><time>2022-06-19T13:58:32Z</time><extensions><speed>0.521932</speed><course>165.618835</course><hAcc>2.134693</hAcc><vAcc>1.364254</vAcc></extensions></trkpt>
      <trkpt lon="-82.304453" lat="35.644314"><ele>810.287476</ele><time>2022-06-19T13:58:33Z</time><extensions><speed>0.286487</speed><course>168.361877</course><hAcc>1.961981</hAcc><vAcc>1.350514</vAcc></extensions></trkpt>
      <trkpt lon="-82.304453" lat="35.644312"><ele>810.430359</ele><time>2022-06-19T13:58:34Z</time><extensions><speed>0.153706</speed><course>170.919739</course><hAcc>1.853722</hAcc><vAcc>1.339653</vAcc></extensions></trkpt>
      <trkpt lon="-82.304453" lat="35.644311"><ele>810.587524</ele><time>2022-06-19T13:58:35Z</time><extensions><speed>0.053506</speed><course>172.685226</course><hAcc>1.844959</hAcc><vAcc>1.331300</vAcc></extensions></trkpt>
      <trkpt lon="-82.304453" lat="35.644311"><ele>810.691345</ele><time>2022-06-19T13:58:36Z</time><extensions><speed>0.010082</speed><course>168.996506</course><hAcc>1.871990</hAcc><vAcc>1.324839</vAcc></extensions></trkpt>
      <trkpt lon="-82.304453" lat="35.644311"><ele>810.749329</ele><time>2022-06-19T13:58:37Z</time><extensions><speed>0.005542</speed><course>128.613403</course><hAcc>1.852094</hAcc><vAcc>1.319933</vAcc></extensions></trkpt>
      <trkpt lon="-82.304453" lat="35.644311"><ele>810.798035</ele><time>2022-06-19T13:58:38Z</time><extensions><speed>0.018294</speed><course>23.459829</course><hAcc>1.863349</hAcc><vAcc>1.316187</vAcc></extensions></trkpt>
      <trkpt lon="-82.304453" lat="35.644311"><ele>810.818604</ele><time>2022-06-19T13:58:39Z</time><extensions><speed>0.039477</speed><course>8.014962</course><hAcc>1.942703</hAcc><vAcc>1.313263</vAcc></extensions></trkpt>
      <trkpt lon="-82.304453" lat="35.644312"><ele>810.775696</ele><time>2022-06-19T13:58:40Z</time><extensions><speed>0.043953</speed><course>0.446554</course><hAcc>2.036008</hAcc><vAcc>1.285931</vAcc></extensions></trkpt>
      <trkpt lon="-82.304453" lat="35.644312"><ele>810.756592</ele><time>2022-06-19T13:58:41Z</time><extensions><speed>0.055876</speed><course>238.426956</course><hAcc>2.096214</hAcc><vAcc>1.262635</vAcc></extensions></trkpt>
      <trkpt lon="-82.304454" lat="35.644311"><ele>810.750793</ele><time>2022-06-19T13:58:42Z</time><extensions><speed>0.189284</speed><course>219.930435</course><hAcc>2.116390</hAcc><vAcc>1.241210</vAcc></extensions></trkpt>
      <trkpt lon="-82.304456" lat="35.644310"><ele>810.747986</ele><time>2022-06-19T13:58:43Z</time><extensions><speed>0.273315</speed><course>221.669281</course><hAcc>2.086514</hAcc><vAcc>1.220507</vAcc></extensions></trkpt>
      <trkpt lon="-82.304458" lat="35.644309"><ele>810.745178</ele><time>2022-06-19T13:58:44Z</time><extensions><speed>0.194977</speed><course>276.853394</course><hAcc>2.023891</hAcc><vAcc>1.199824</vAcc></extensions></trkpt>
      <trkpt lon="-82.304460" lat="35.644311"><ele>810.717468</ele><time>2022-06-19T13:58:45Z</time><extensions><speed>0.460304</speed><course>336.235565</course><hAcc>1.958672</hAcc><vAcc>1.178749</vAcc></extensions></trkpt>
      <trkpt lon="-82.304462" lat="35.644317"><ele>810.681824</ele><time>2022-06-19T13:58:46Z</time><extensions><speed>0.957837</speed><course>349.884674</course><hAcc>1.923564</hAcc><vAcc>1.147880</vAcc></extensions></trkpt>
      <trkpt lon="-82.304463" lat="35.644327"><ele>810.645264</ele><time>2022-06-19T13:58:47Z</time><extensions><speed>1.378830</speed><course>356.695221</course><hAcc>1.905974</hAcc><vAcc>1.118064</vAcc></extensions></trkpt>
      <trkpt lon="-82.304464" lat="35.644341"><ele>810.606873</ele><time>2022-06-19T13:58:48Z</time><extensions><speed>1.709803</speed><course>0.013021</course><hAcc>1.869167</hAcc><vAcc>1.088181</vAcc></extensions></trkpt>
      <trkpt lon="-82.304463" lat="35.644357"><ele>810.567383</ele><time>2022-06-19T13:58:49Z</time><extensions><speed>1.844319</speed><course>4.426374</course><hAcc>1.824076</hAcc><vAcc>1.057677</vAcc></extensions></trkpt>
      <trkpt lon="-82.304461" lat="35.644374"><ele>810.528442</ele><time>2022-06-19T13:58:50Z</time><extensions><speed>1.797438</speed><course>5.915948</course><hAcc>1.754536</hAcc><vAcc>1.026733</vAcc></extensions></trkpt>
      <trkpt lon="-82.304460" lat="35.644388"><ele>810.489258</ele><time>2022-06-19T13:58:51Z</time><extensions><speed>1.372876</speed><course>3.535972</course><hAcc>1.651106</hAcc><vAcc>0.995812</vAcc></extensions></trkpt>
      <trkpt lon="-82.304459" lat="35.644398"><ele>810.462769</ele><time>2022-06-19T13:58:52Z</time><extensions><speed>0.724750</speed><course>1.050357</course><hAcc>1.557134</hAcc><vAcc>0.965237</vAcc></extensions></trkpt>
      <trkpt lon="-82.304460" lat="35.644402"><ele>810.460571</ele><time>2022-06-19T13:58:53Z</time><extensions><speed>0.162811</speed><course>356.134247</course><hAcc>1.532887</hAcc><vAcc>0.935594</vAcc></extensions></trkpt>
      <trkpt lon="-82.304460" lat="35.644404"><ele>810.465454</ele><time>2022-06-19T13:58:54Z</time><extensions><speed>0.107462</speed><course>346.939240</course><hAcc>1.442481</hAcc><vAcc>0.907324</vAcc></extensions></trkpt>
      <trkpt lon="-82.304461" lat="35.644405"><ele>810.478455</ele><time>2022-06-19T13:58:55Z</time><extensions><speed>0.016588</speed><course>340.299438</course><hAcc>1.437055</hAcc><vAcc>0.880767</vAcc></extensions></trkpt>
      <trkpt lon="-82.304461" lat="35.644406"><ele>810.500671</ele><time>2022-06-19T13:58:56Z</time><extensions><speed>0.040478</speed><course>336.855499</course><hAcc>1.385689</hAcc><vAcc>0.856495</vAcc></extensions></trkpt>
      <trkpt lon="-82.304461" lat="35.644406"><ele>810.532288</ele><time>2022-06-19T13:58:57Z</time><extensions><speed>0.033956</speed><course>336.350403</course><hAcc>1.365594</hAcc><vAcc>0.835031</vAcc></extensions></trkpt>
      <trkpt lon="-82.304461" lat="35.644406"><ele>810.573059</ele><time>2022-06-19T13:58:58Z</time><extensions><speed>0.008190</speed><course>336.014496</course><hAcc>1.374441</hAcc><vAcc>0.816694</vAcc></extensions></trkpt>
      <trkpt lon="-82.304462" lat="35.644407"><ele>810.624451</ele><time>2022-06-19T13:58:59Z</time><extensions><speed>0.016198</speed><course>335.740265</course><hAcc>1.365132</hAcc><vAcc>0.801530</vAcc></extensions></trkpt>
      <trkpt lon="-82.304462" lat="35.644407"><ele>810.677002</ele><time>2022-06-19T13:59:00Z</time><extensions><speed>0.025930</speed><course>335.414551</course><hAcc>1.362518</hAcc><vAcc>0.789392</vAcc></extensions></trkpt>
      <trkpt lon="-82.304462" lat="35.644407"><ele>810.743408</ele><time>2022-06-19T13:59:01Z</time><extensions><speed>0.030316</speed><course>335.667999</course><hAcc>1.367371</hAcc><vAcc>0.779952</vAcc></extensions></trkpt>
      <trkpt lon="-82.304462" lat="35.644408"><ele>810.790833</ele><time>2022-06-19T13:59:02Z</time><extensions><speed>0.269028</speed><course>334.546967</course><hAcc>1.289210</hAcc><vAcc>0.774296</vAcc></extensions></trkpt>
      <trkpt lon="-82.304464" lat="35.644411"><ele>810.823486</ele><time>2022-06-19T13:59:03Z</time><extensions><speed>0.302911</speed><course>329.740265</course><hAcc>1.268688</hAcc><vAcc>0.771660</vAcc></extensions></trkpt>
      <trkpt lon="-82.304465" lat="35.644413"><ele>810.849731</ele><time>2022-06-19T13:59:04Z</time><extensions><speed>0.232707</speed><course>335.046417</course><hAcc>1.315189</hAcc><vAcc>0.771895</vAcc></extensions></trkpt>
      <trkpt lon="-82.304466" lat="35.644414"><ele>810.860291</ele><time>2022-06-19T13:59:05Z</time><extensions><speed>0.010841</speed><course>339.260986</course><hAcc>1.411959</hAcc><vAcc>0.774854</vAcc></extensions></trkpt>
      <trkpt lon="-82.304465" lat="35.644413"><ele>810.834106</ele><time>2022-06-19T13:59:06Z</time><extensions><speed>0.003858</speed><course>350.432983</course><hAcc>1.409775</hAcc><vAcc>0.776942</vAcc></extensions></trkpt>
      <trkpt lon="-82.304465" lat="35.644413"><ele>810.750977</ele><time>2022-06-19T13:59:07Z</time><extensions><speed>0.000333</speed><course>7.240952</course><hAcc>1.411084</hAcc><vAcc>0.780082</vAcc></extensions></trkpt>
      <trkpt lon="-82.304465" lat="35.644413"><ele>810.660034</ele><time>2022-06-19T13:59:08Z</time><extensions><speed>0.001610</speed><course>57.853111</course><hAcc>1.407888</hAcc><vAcc>0.787071</vAcc></extensions></trkpt>
      <trkpt lon="-82.304465" lat="35.644413"><ele>810.541870</ele><time>2022-06-19T13:59:09Z</time><extensions><speed>0.007507</speed><course>115.220261</course><hAcc>1.408203</hAcc><vAcc>0.795647</vAcc></extensions></trkpt>
      <trkpt lon="-82.304465" lat="35.644413"><ele>810.413208</ele><time>2022-06-19T13:59:10Z</time><extensions><speed>0.097190</speed><course>126.483849</course><hAcc>1.383078</hAcc><vAcc>0.805509</vAcc></extensions></trkpt>
      <trkpt lon="-82.304463" lat="35.644412"><ele>810.276489</ele><time>2022-06-19T13:59:11Z</time><extensions><speed>0.213439</speed><course>129.612869</course><hAcc>1.432448</hAcc><vAcc>0.816247</vAcc></extensions></trkpt>
      <trkpt lon="-82.304462" lat="35.644410"><ele>810.136536</ele><time>2022-06-19T13:59:12Z</time><extensions><speed>0.284670</speed><course>157.338623</course><hAcc>1.544110</hAcc><vAcc>0.822632</vAcc></extensions></trkpt>
      <trkpt lon="-82.304460" lat="35.644407"><ele>809.989868</ele><time>2022-06-19T13:59:13Z</time><extensions><speed>0.489138</speed><course>145.178925</course><hAcc>1.635590</hAcc><vAcc>0.828021</vAcc></extensions></trkpt>
      <trkpt lon="-82.304455" lat="35.644403"><ele>809.849304</ele><time>2022-06-19T13:59:14Z</time><extensions><speed>0.806180</speed><course>139.529480</course><hAcc>1.697312</hAcc><vAcc>0.831972</vAcc></extensions></trkpt>
      <trkpt lon="-82.304448" lat="35.644397"><ele>809.721313</ele><time>2022-06-19T13:59:15Z</time><extensions><speed>1.057474</speed><course>132.670258</course><hAcc>1.740864</hAcc><vAcc>0.834282</vAcc></extensions></trkpt>
      <trkpt lon="-82.304438" lat="35.644390"><ele>809.573242</ele><time>2022-06-19T13:59:16Z</time><extensions><speed>1.172198</speed><course>129.286194</course><hAcc>1.789698</hAcc><vAcc>0.835004</vAcc></extensions></trkpt>
      <trkpt lon="-82.304428" lat="35.644384"><ele>809.413818</ele><time>2022-06-19T13:59:17Z</time><extensions><speed>1.133891</speed><course>117.742462</course><hAcc>1.851719</hAcc><vAcc>0.834265</vAcc></extensions></trkpt>
      <trkpt lon="-82.304416" lat="35.644381"><ele>809.248352</ele><time>2022-06-19T13:59:18Z</time><extensions><speed>1.124951</speed><course>97.477036</course><hAcc>1.905922</hAcc><vAcc>0.832022</vAcc></extensions></trkpt>
      <trkpt lon="-82.304403" lat="35.644382"><ele>809.084351</ele><time>2022-06-19T13:59:19Z</time><extensions><speed>1.145553</speed><course>82.457161</course><hAcc>2.008119</hAcc><vAcc>0.828065</vAcc></extensions></trkpt>
      <trkpt lon="-82.304391" lat="35.644384"><ele>808.943481</ele><time>2022-06-19T13:59:20Z</time><extensions><speed>1.217291</speed><course>73.928360</course><hAcc>2.105743</hAcc><vAcc>0.822447</vAcc></extensions></trkpt>
      <trkpt lon="-82.304377" lat="35.644388"><ele>808.794739</ele><time>2022-06-19T13:59:21Z</time><extensions><speed>1.432963</speed><course>70.185043</course><hAcc>2.216428</hAcc><vAcc>0.817100</vAcc></extensions></trkpt>
      <trkpt lon="-82.304362" lat="35.644393"><ele>808.651428</ele><time>2022-06-19T13:59:22Z</time><extensions><speed>1.470679</speed><course>68.253731</course><hAcc>2.325044</hAcc><vAcc>0.811800</vAcc></extensions></trkpt>
      <trkpt lon="-82.304347" lat="35.644398"><ele>808.505554</ele><time>2022-06-19T13:59:23Z</time><extensions><speed>1.394979</speed><course>64.707298</course><hAcc>2.419543</hAcc><vAcc>0.807506</vAcc></extensions></trkpt>
      <trkpt lon="-82.304334" lat="35.644404"><ele>808.363220</ele><time>2022-06-19T13:59:24Z</time><extensions><speed>1.364324</speed><course>60.700043</course><hAcc>2.486861</hAcc><vAcc>0.805004</vAcc></extensions></trkpt>
      <trkpt lon="-82.304321" lat="35.644411"><ele>808.227478</ele><time>2022-06-19T13:59:25Z</time><extensions><speed>1.437776</speed><course>55.962158</course><hAcc>2.536256</hAcc><vAcc>0.804833</vAcc></extensions></trkpt>
      <trkpt lon="-82.304307" lat="35.644419"><ele>808.106201</ele><time>2022-06-19T13:59:26Z</time><extensions><speed>1.661554</speed><course>50.077435</course><hAcc>2.586305</hAcc><vAcc>0.807340</vAcc></extensions></trkpt>
      <trkpt lon="-82.304292" lat="35.644431"><ele>807.999512</ele><time>2022-06-19T13:59:27Z</time><extensions><speed>2.198689</speed><course>43.840538</course><hAcc>2.643050</hAcc><vAcc>0.812458</vAcc></extensions></trkpt>
      <trkpt lon="-82.304277" lat="35.644447"><ele>807.897705</ele><time>2022-06-19T13:59:28Z</time><extensions><speed>2.346413</speed><course>30.083504</course><hAcc>2.658917</hAcc><vAcc>0.820343</vAcc></extensions></trkpt>
      <trkpt lon="-82.304265" lat="35.644466"><ele>807.797791</ele><time>2022-06-19T13:59:29Z</time><extensions><speed>2.285761</speed><course>26.053007</course><hAcc>2.639754</hAcc><vAcc>0.830504</vAcc></extensions></trkpt>
      <trkpt lon="-82.304256" lat="35.644482"><ele>807.710083</ele><time>2022-06-19T13:59:30Z</time><extensions><speed>1.777576</speed><course>26.146004</course><hAcc>2.625038</hAcc><vAcc>0.842403</vAcc></extensions></trkpt>
      <trkpt lon="-82.304247" lat="35.644494"><ele>807.624329</ele><time>2022-06-19T13:59:31Z</time><extensions><speed>1.480705</speed><course>34.540020</course><hAcc>2.613285</hAcc><vAcc>0.855203</vAcc></extensions></trkpt>
      <trkpt lon="-82.304237" lat="35.644504"><ele>807.548096</ele><time>2022-06-19T13:59:32Z</time><extensions><speed>1.415791</speed><course>44.131618</course><hAcc>2.599985</hAcc><vAcc>0.868162</vAcc></extensions></trkpt>
      <trkpt lon="-82.304225" lat="35.644512"><ele>807.480469</ele><time>2022-06-19T13:59:33Z</time><extensions><speed>1.432040</speed><course>53.204483</course><hAcc>2.610884</hAcc><vAcc>0.880553</vAcc></extensions></trkpt>
      <trkpt lon="-82.304212" lat="35.644519"><ele>807.418640</ele><time>2022-06-19T13:59:34Z</time><extensions><speed>1.534607</speed><course>57.399170</course><hAcc>2.650041</hAcc><vAcc>0.891891</vAcc></extensions></trkpt>
      <trkpt lon="-82.304198" lat="35.644525"><ele>807.380432</ele><time>2022-06-19T13:59:35Z</time><extensions><speed>1.427850</speed><course>55.949177</course><hAcc>2.648452</hAcc><vAcc>0.901988</vAcc></extensions></trkpt>
      <trkpt lon="-82.304186" lat="35.644531"><ele>807.336975</ele><time>2022-06-19T13:59:36Z</time><extensions><speed>1.127953</speed><course>50.582069</course><hAcc>2.630892</hAcc><vAcc>0.910708</vAcc></extensions></trkpt>
      <trkpt lon="-82.304178" lat="35.644537"><ele>807.303467</ele><time>2022-06-19T13:59:37Z</time><extensions><speed>0.977171</speed><course>47.052952</course><hAcc>2.627825</hAcc><vAcc>0.918050</vAcc></extensions></trkpt>
      <trkpt lon="-82.304170" lat="35.644542"><ele>807.265076</ele><time>2022-06-19T13:59:38Z</time><extensions><speed>0.893208</speed><course>49.531384</course><hAcc>2.657395</hAcc><vAcc>0.924062</vAcc></extensions></trkpt>
      <trkpt lon="-82.304162" lat="35.644547"><ele>807.224121</ele><time>2022-06-19T13:59:39Z</time><extensions><speed>0.915580</speed><course>59.636814</course><hAcc>2.703104</hAcc><vAcc>0.928891</vAcc></extensions></trkpt>
      <trkpt lon="-82.304152" lat="35.644549"><ele>807.177368</ele><time>2022-06-19T13:59:40Z</time><extensions><speed>0.953080</speed><course>82.828995</course><hAcc>2.702053</hAcc><vAcc>0.932719</vAcc></extensions></trkpt>
      <trkpt lon="-82.304141" lat="35.644548"><ele>807.111267</ele><time>2022-06-19T13:59:41Z</time><extensions><speed>1.093207</speed><course>101.435097</course><hAcc>2.685749</hAcc><vAcc>0.928990</vAcc></extensions></trkpt>
      <trkpt lon="-82.304129" lat="35.644545"><ele>807.063416</ele><time>2022-06-19T13:59:42Z</time><extensions><speed>1.210115</speed><course>111.385651</course><hAcc>2.668539</hAcc><vAcc>0.924513</vAcc></extensions></trkpt>
      <trkpt lon="-82.304116" lat="35.644541"><ele>807.011780</ele><time>2022-06-19T13:59:43Z</time><extensions><speed>1.272894</speed><course>114.557991</course><hAcc>2.655116</hAcc><vAcc>0.923304</vAcc></extensions></trkpt>
      <trkpt lon="-82.304104" lat="35.644536"><ele>806.955383</ele><time>2022-06-19T13:59:44Z</time><extensions><speed>1.308057</speed><course>114.441231</course><hAcc>2.643546</hAcc><vAcc>0.917025</vAcc></extensions></trkpt>
      <trkpt lon="-82.304091" lat="35.644532"><ele>806.897217</ele><time>2022-06-19T13:59:45Z</time><extensions><speed>1.329714</speed><course>114.174004</course><hAcc>2.653660</hAcc><vAcc>0.909581</vAcc></extensions></trkpt>
      <trkpt lon="-82.304077" lat="35.644528"><ele>806.844116</ele><time>2022-06-19T13:59:46Z</time><extensions><speed>1.315322</speed><course>112.655525</course><hAcc>2.686863</hAcc><vAcc>0.900858</vAcc></extensions></trkpt>
      <trkpt lon="-82.304064" lat="35.644523"><ele>806.791626</ele><time>2022-06-19T13:59:47Z</time><extensions><speed>1.334417</speed><course>118.611618</course><hAcc>2.686409</hAcc><vAcc>0.890859</vAcc></extensions></trkpt>
      <trkpt lon="-82.304051" lat="35.644517"><ele>806.737488</ele><time>2022-06-19T13:59:48Z</time><extensions><speed>1.386942</speed><course>117.701004</course><hAcc>2.657228</hAcc><vAcc>0.879653</vAcc></extensions></trkpt>
      <trkpt lon="-82.304038" lat="35.644512"><ele>806.684143</ele><time>2022-06-19T13:59:49Z</time><extensions><speed>1.324908</speed><course>116.675331</course><hAcc>2.640473</hAcc><vAcc>0.867413</vAcc></extensions></trkpt>
      <trkpt lon="-82.304025" lat="35.644508"><ele>806.629822</ele><time>2022-06-19T13:59:50Z</time><extensions><speed>1.284716</speed><course>109.251709</course><hAcc>2.614331</hAcc><vAcc>0.854458</vAcc></extensions></trkpt>
      <trkpt lon="-82.304012" lat="35.644505"><ele>806.581116</ele><time>2022-06-19T13:59:51Z</time><extensions><speed>1.263920</speed><course>99.989983</course><hAcc>2.597882</hAcc><vAcc>0.841293</vAcc></extensions></trkpt>
      <trkpt lon="-82.303998" lat="35.644505"><ele>806.532776</ele><time>2022-06-19T13:59:52Z</time><extensions><speed>1.331806</speed><course>85.452545</course><hAcc>2.603331</hAcc><vAcc>0.828396</vAcc></extensions></trkpt>
      <trkpt lon="-82.303983" lat="35.644508"><ele>806.487244</ele><time>2022-06-19T13:59:53Z</time><extensions><speed>1.600479</speed><course>69.394859</course><hAcc>2.631709</hAcc><vAcc>0.816184</vAcc></extensions></trkpt>
      <trkpt lon="-82.303966" lat="35.644515"><ele>806.448120</ele><time>2022-06-19T13:59:54Z</time><extensions><speed>1.736670</speed><course>60.542202</course><hAcc>2.667416</hAcc><vAcc>0.804917</vAcc></extensions></trkpt>
      <trkpt lon="-82.303950" lat="35.644523"><ele>806.417664</ele><time>2022-06-19T13:59:55Z</time><extensions><speed>1.671350</speed><course>56.871552</course><hAcc>2.677519</hAcc><vAcc>0.794844</vAcc></extensions></trkpt>
      <trkpt lon="-82.303936" lat="35.644530"><ele>806.386902</ele><time>2022-06-19T13:59:56Z</time><extensions><speed>1.421743</speed><course>60.686535</course><hAcc>2.673796</hAcc><vAcc>0.786085</vAcc></extensions></trkpt>
      <trkpt lon="-82.303923" lat="35.644536"><ele>806.358826</ele><time>2022-06-19T13:59:57Z</time><extensions><speed>1.265631</speed><course>63.512794</course><hAcc>2.667293</hAcc><vAcc>0.778819</vAcc></extensions></trkpt>
      <trkpt lon="-82.303911" lat="35.644541"><ele>806.337463</ele><time>2022-06-19T13:59:58Z</time><extensions><speed>1.194832</speed><course>65.836334</course><hAcc>2.665786</hAcc><vAcc>0.772947</vAcc></extensions></trkpt>
      <trkpt lon="-82.303899" lat="35.644545"><ele>806.321777</ele><time>2022-06-19T13:59:59Z</time><extensions><speed>1.162384</speed><course>65.175522</course><hAcc>2.674806</hAcc><vAcc>0.768317</vAcc></extensions></trkpt>
      <trkpt lon="-82.303887" lat="35.644550"><ele>806.305969</ele><time>2022-06-19T14:00:00Z</time><extensions><speed>1.137445</speed><course>64.774292</course><hAcc>2.697872</hAcc><vAcc>0.764795</vAcc></extensions></trkpt>
      <trkpt lon="-82.303876" lat="35.644553"><ele>806.289490</ele><time>2022-06-19T14:00:01Z</time><extensions><speed>1.115604</speed><course>69.828369</course><hAcc>2.730322</hAcc><vAcc>0.762202</vAcc></extensions></trkpt>
      <trkpt lon="-82.303864" lat="35.644556"><ele>806.281128</ele><time>2022-06-19T14:00:02Z</time><extensions><speed>1.083976</speed><course>77.717293</course><hAcc>2.746367</hAcc><vAcc>0.760342</vAcc></extensions></trkpt>
      <trkpt lon="-82.303852" lat="35.644557"><ele>806.273682</ele><time>2022-06-19T14:00:03Z</time><extensions><speed>1.050692</speed><course>84.285095</course><hAcc>2.758332</hAcc><vAcc>0.759050</vAcc></extensions></trkpt>
      <trkpt lon="-82.303840" lat="35.644559"><ele>806.272766</ele><time>2022-06-19T14:00:04Z</time><extensions><speed>1.064874</speed><course>82.014503</course><hAcc>2.741076</hAcc><vAcc>0.758198</vAcc></extensions></trkpt>
      <trkpt lon="-82.303828" lat="35.644561"><ele>806.275879</ele><time>2022-06-19T14:00:05Z</time><extensions><speed>1.109173</speed><course>77.602592</course><hAcc>2.715349</hAcc><vAcc>0.757657</vAcc></extensions></trkpt>
      <trkpt lon="-82.303816" lat="35.644564"><ele>806.280518</ele><time>2022-06-19T14:00:06Z</time><extensions><speed>1.194443</speed><course>74.592789</course><hAcc>2.687862</hAcc><vAcc>0.757305</vAcc></extensions></trkpt>
      <trkpt lon="-82.303803" lat="35.644568"><ele>806.289429</ele><time>2022-06-19T14:00:07Z</time><extensions><speed>1.288307</speed><course>74.953262</course><hAcc>2.675790</hAcc><vAcc>0.757126</vAcc></extensions></trkpt>
      <trkpt lon="-82.303789" lat="35.644572"><ele>806.301819</ele><time>2022-06-19T14:00:08Z</time><extensions><speed>1.420616</speed><course>79.147018</course><hAcc>2.683230</hAcc><vAcc>0.756991</vAcc></extensions></trkpt>
      <trkpt lon="-82.303773" lat="35.644575"><ele>806.320435</ele><time>2022-06-19T14:00:09Z</time><extensions><speed>1.524456</speed><course>93.217972</course><hAcc>2.678338</hAcc><vAcc>0.756886</vAcc></extensions></trkpt>
      <trkpt lon="-82.303757" lat="35.644573"><ele>806.351135</ele><time>2022-06-19T14:00:10Z</time><extensions><speed>1.546293</speed><course>106.851158</course><hAcc>2.668585</hAcc><vAcc>0.756862</vAcc></extensions></trkpt>
      <trkpt lon="-82.303741" lat="35.644570"><ele>806.384277</ele><time>2022-06-19T14:00:11Z</time><extensions><speed>1.538058</speed><course>110.695930</course><hAcc>2.656202</hAcc><vAcc>0.756901</vAcc></extensions></trkpt>
      <trkpt lon="-82.303725" lat="35.644567"><ele>806.415222</ele><time>2022-06-19T14:00:12Z</time><extensions><speed>1.500795</speed><course>103.060783</course><hAcc>2.645423</hAcc><vAcc>0.756959</vAcc></extensions></trkpt>
      <trkpt lon="-82.303710" lat="35.644567"><ele>806.445740</ele><time>2022-06-19T14:00:13Z</time><extensions><speed>1.372537</speed><course>88.626633</course><hAcc>2.615078</hAcc><vAcc>0.756908</vAcc></extensions></trkpt>
      <trkpt lon="-82.303695" lat="35.644570"><ele>806.474915</ele><time>2022-06-19T14:00:14Z</time><extensions><speed>1.345540</speed><course>74.243538</course><hAcc>2.595259</hAcc><vAcc>0.756789</vAcc></extensions></trkpt>
      <trkpt lon="-82.303682" lat="35.644575"><ele>806.504333</ele><time>2022-06-19T14:00:15Z</time><extensions><speed>1.339995</speed><course>63.244423</course><hAcc>2.599509</hAcc><vAcc>0.756771</vAcc></extensions></trkpt>
      <trkpt lon="-82.303670" lat="35.644584"><ele>806.530640</ele><time>2022-06-19T14:00:16Z</time><extensions><speed>1.443282</speed><course>48.068771</course><hAcc>2.564915</hAcc><vAcc>0.756772</vAcc></extensions></trkpt>
      <trkpt lon="-82.303658" lat="35.644595"><ele>806.558655</ele><time>2022-06-19T14:00:17Z</time><extensions><speed>1.559027</speed><course>41.611492</course><hAcc>2.533885</hAcc><vAcc>0.756754</vAcc></extensions></trkpt>
      <trkpt lon="-82.303647" lat="35.644606"><ele>806.589478</ele><time>2022-06-19T14:00:18Z</time><extensions><speed>1.611817</speed><course>42.387997</course><hAcc>2.528098</hAcc><vAcc>0.756773</vAcc></extensions></trkpt>
      <trkpt lon="-82.303635" lat="35.644617"><ele>806.621277</ele><time>2022-06-19T14:00:19Z</time><extensions><speed>1.529507</speed><course>50.447296</course><hAcc>2.547632</hAcc><vAcc>0.756838</vAcc></extensions></trkpt>
      <trkpt lon="-82.303622" lat="35.644626"><ele>806.647949</ele><time>2022-06-19T14:00:20Z</time><extensions><speed>1.433854</speed><course>58.515255</course><hAcc>2.547631</hAcc><vAcc>0.756814</vAcc></extensions></trkpt>
      <trkpt lon="-82.303610" lat="35.644634"><ele>806.671997</ele><time>2022-06-19T14:00:21Z</time><extensions><speed>1.305097</speed><course>62.147274</course><hAcc>2.532394</hAcc><vAcc>0.756797</vAcc></extensions></trkpt>
      <trkpt lon="-82.303598" lat="35.644640"><ele>806.693420</ele><time>2022-06-19T14:00:22Z</time><extensions><speed>1.262592</speed><course>64.048088</course><hAcc>2.508378</hAcc><vAcc>0.756855</vAcc></extensions></trkpt>
      <trkpt lon="-82.303585" lat="35.644646"><ele>806.709656</ele><time>2022-06-19T14:00:23Z</time><extensions><speed>1.313838</speed><course>64.676659</course><hAcc>2.491983</hAcc><vAcc>0.756847</vAcc></extensions></trkpt>
      <trkpt lon="-82.303573" lat="35.644652"><ele>806.727844</ele><time>2022-06-19T14:00:24Z</time><extensions><speed>1.328066</speed><course>65.947685</course><hAcc>2.509485</hAcc><vAcc>0.756819</vAcc></extensions></trkpt>
      <trkpt lon="-82.303559" lat="35.644659"><ele>806.748047</ele><time>2022-06-19T14:00:25Z</time><extensions><speed>1.382021</speed><course>60.757507</course><hAcc>2.521468</hAcc><vAcc>0.756816</vAcc></extensions></trkpt>
      <trkpt lon="-82.303546" lat="35.644667"><ele>806.772644</ele><time>2022-06-19T14:00:26Z</time><extensions><speed>1.510105</speed><course>49.972561</course><hAcc>2.515124</hAcc><vAcc>0.756765</vAcc></extensions></trkpt>
      <trkpt lon="-82.303534" lat="35.644678"><ele>806.798828</ele><time>2022-06-19T14:00:27Z</time><extensions><speed>1.581394</speed><course>42.424095</course><hAcc>2.516378</hAcc><vAcc>0.756673</vAcc></extensions></trkpt>
      <trkpt lon="-82.303524" lat="35.644689"><ele>806.820618</ele><time>2022-06-19T14:00:28Z</time><extensions><speed>1.605822</speed><course>35.729565</course><hAcc>2.543930</hAcc><vAcc>0.756659</vAcc></extensions></trkpt>
      <trkpt lon="-82.303514" lat="35.644701"><ele>806.846924</ele><time>2022-06-19T14:00:29Z</time><extensions><speed>1.592596</speed><course>27.946655</course><hAcc>2.574813</hAcc><vAcc>0.756612</vAcc></extensions></trkpt>
      <trkpt lon="-82.303507" lat="35.644715"><ele>806.868408</ele><time>2022-06-19T14:00:30Z</time><extensions><speed>1.715985</speed><course>20.589043</course><hAcc>2.582740</hAcc><vAcc>0.756675</vAcc></extensions></trkpt>
      <trkpt lon="-82.303500" lat="35.644731"><ele>806.891479</ele><time>2022-06-19T14:00:31Z</time><extensions><speed>2.039389</speed><course>16.709202</course><hAcc>2.587040</hAcc><vAcc>0.756771</vAcc></extensions></trkpt>
      <trkpt lon="-82.303493" lat="35.644750"><ele>806.912964</ele><time>2022-06-19T14:00:32Z</time><extensions><speed>2.557173</speed><course>17.795319</course><hAcc>2.596657</hAcc><vAcc>0.756824</vAcc></extensions></trkpt>
      <trkpt lon="-82.303484" lat="35.644772"><ele>806.935547</ele><time>2022-06-19T14:00:33Z</time><extensions><speed>2.625412</speed><course>17.550503</course><hAcc>2.604628</hAcc><vAcc>0.756821</vAcc></extensions></trkpt>
      <trkpt lon="-82.303475" lat="35.644793"><ele>806.952698</ele><time>2022-06-19T14:00:34Z</time><extensions><speed>2.392047</speed><course>18.828415</course><hAcc>2.621008</hAcc><vAcc>0.756779</vAcc></extensions></trkpt>
      <trkpt lon="-82.303468" lat="35.644810"><ele>806.970764</ele><time>2022-06-19T14:00:35Z</time><extensions><speed>1.721700</speed><course>22.652849</course><hAcc>2.635563</hAcc><vAcc>0.756752</vAcc></extensions></trkpt>
      <trkpt lon="-82.303460" lat="35.644822"><ele>806.984863</ele><time>2022-06-19T14:00:36Z</time><extensions><speed>1.460399</speed><course>32.448044</course><hAcc>2.620288</hAcc><vAcc>0.756750</vAcc></extensions></trkpt>
      <trkpt lon="-82.303450" lat="35.644831"><ele>806.994629</ele><time>2022-06-19T14:00:37Z</time><extensions><speed>1.327669</speed><course>48.985600</course><hAcc>2.614587</hAcc><vAcc>0.756752</vAcc></extensions></trkpt>
      <trkpt lon="-82.303439" lat="35.644837"><ele>806.999695</ele><time>2022-06-19T14:00:38Z</time><extensions><speed>1.297955</speed><course>63.664310</course><hAcc>2.637191</hAcc><vAcc>0.756732</vAcc></extensions></trkpt>
      <trkpt lon="-82.303426" lat="35.644841"><ele>807.006287</ele><time>2022-06-19T14:00:39Z</time><extensions><speed>1.246072</speed><course>74.363876</course><hAcc>2.629318</hAcc><vAcc>0.756711</vAcc></extensions></trkpt>
      <trkpt lon="-82.303413" lat="35.644843"><ele>807.014587</ele><time>2022-06-19T14:00:40Z</time><extensions><speed>1.157015</speed><course>80.371414</course><hAcc>2.596173</hAcc><vAcc>0.756775</vAcc></extensions></trkpt>
      <trkpt lon="-82.303401" lat="35.644844"><ele>807.019287</ele><time>2022-06-19T14:00:41Z</time><extensions><speed>1.136613</speed><course>81.763718</course><hAcc>2.569354</hAcc><vAcc>0.756830</vAcc></extensions></trkpt>
      <trkpt lon="-82.303389" lat="35.644845"><ele>807.026917</ele><time>2022-06-19T14:00:42Z</time><extensions><speed>1.113746</speed><course>81.147400</course><hAcc>2.565131</hAcc><vAcc>0.756819</vAcc></extensions></trkpt>
      <trkpt lon="-82.303377" lat="35.644846"><ele>807.035522</ele><time>2022-06-19T14:00:43Z</time><extensions><speed>1.129531</speed><course>79.129761</course><hAcc>2.584383</hAcc><vAcc>0.756817</vAcc></extensions></trkpt>
      <trkpt lon="-82.303364" lat="35.644848"><ele>807.049744</ele><time>2022-06-19T14:00:44Z</time><extensions><speed>1.172558</speed><course>82.007492</course><hAcc>2.592824</hAcc><vAcc>0.756789</vAcc></extensions></trkpt>
      <trkpt lon="-82.303351" lat="35.644848"><ele>807.061401</ele><time>2022-06-19T14:00:45Z</time><extensions><speed>1.198966</speed><course>87.492943</course><hAcc>2.602479</hAcc><vAcc>0.756767</vAcc></extensions></trkpt>
      <trkpt lon="-82.303338" lat="35.644847"><ele>807.080261</ele><time>2022-06-19T14:00:46Z</time><extensions><speed>1.254765</speed><course>95.701096</course><hAcc>2.623338</hAcc><vAcc>0.756791</vAcc></extensions></trkpt>
      <trkpt lon="-82.303324" lat="35.644845"><ele>807.100952</ele><time>2022-06-19T14:00:47Z</time><extensions><speed>1.290168</speed><course>103.620338</course><hAcc>2.625464</hAcc><vAcc>0.756797</vAcc></extensions></trkpt>
      <trkpt lon="-82.303310" lat="35.644842"><ele>807.123535</ele><time>2022-06-19T14:00:48Z</time><extensions><speed>1.271233</speed><course>107.595215</course><hAcc>2.629749</hAcc><vAcc>0.756796</vAcc></extensions></trkpt>
      <trkpt lon="-82.303298" lat="35.644838"><ele>807.144836</ele><time>2022-06-19T14:00:49Z</time><extensions><speed>1.112628</speed><course>114.110703</course><hAcc>2.609256</hAcc><vAcc>0.756801</vAcc></extensions></trkpt>
      <trkpt lon="-82.303287" lat="35.644834"><ele>807.165588</ele><time>2022-06-19T14:00:50Z</time><extensions><speed>1.167807</speed><course>116.074409</course><hAcc>2.596489</hAcc><vAcc>0.756824</vAcc></extensions></trkpt>
      <trkpt lon="-82.303275" lat="35.644829"><ele>807.188416</ele><time>2022-06-19T14:00:51Z</time><extensions><speed>1.212873</speed><course>117.559044</course><hAcc>2.603888</hAcc><vAcc>0.756837</vAcc></extensions></trkpt>
      <trkpt lon="-82.303263" lat="35.644825"><ele>807.207581</ele><time>2022-06-19T14:00:52Z</time><extensions><speed>1.251839</speed><course>116.328674</course><hAcc>2.644576</hAcc><vAcc>0.756821</vAcc></extensions></trkpt>
      <trkpt lon="-82.303251" lat="35.644820"><ele>807.220642</ele><time>2022-06-19T14:00:53Z</time><extensions><speed>1.312195</speed><course>114.201202</course><hAcc>2.697516</hAcc><vAcc>0.756838</vAcc></extensions></trkpt>
      <trkpt lon="-82.303237" lat="35.644816"><ele>807.227295</ele><time>2022-06-19T14:00:54Z</time><extensions><speed>1.308948</speed><course>111.526367</course><hAcc>2.692711</hAcc><vAcc>0.756894</vAcc></extensions></trkpt>
      <trkpt lon="-82.303223" lat="35.644812"><ele>807.233643</ele><time>2022-06-19T14:00:55Z</time><extensions><speed>1.282031</speed><course>105.765282</course><hAcc>2.681717</hAcc><vAcc>0.756948</vAcc></extensions></trkpt>
      <trkpt lon="-82.303209" lat="35.644810"><ele>807.238464</ele><time>2022-06-19T14:00:56Z</time><extensions><speed>1.247855</speed><course>97.155327</course><hAcc>2.686208</hAcc><vAcc>0.756876</vAcc></extensions></trkpt>
      <trkpt lon="-82.303196" lat="35.644810"><ele>807.237549</ele><time>2022-06-19T14:00:57Z</time><extensions><speed>1.200614</speed><course>87.250549</course><hAcc>2.697634</hAcc><vAcc>0.756661</vAcc></extensions></trkpt>
      <trkpt lon="-82.303183" lat="35.644812"><ele>807.237122</ele><time>2022-06-19T14:00:58Z</time><extensions><speed>1.135751</speed><course>74.929001</course><hAcc>2.714804</hAcc><vAcc>0.756714</vAcc></extensions></trkpt>
      <trkpt lon="-82.303171" lat="35.644816"><ele>807.237061</ele><time>2022-06-19T14:00:59Z</time><extensions><speed>1.153134</speed><course>64.307449</course><hAcc>2.731490</hAcc><vAcc>0.756772</vAcc></extensions></trkpt>
      <trkpt lon="-82.303160" lat="35.644822"><ele>807.230469</ele><time>2022-06-19T14:01:00Z</time><extensions><speed>1.217880</speed><course>58.823170</course><hAcc>2.727542</hAcc><vAcc>0.756776</vAcc></extensions></trkpt>
      <trkpt lon="-82.303147" lat="35.644828"><ele>807.220398</ele><time>2022-06-19T14:01:01Z</time><extensions><speed>1.357908</speed><course>60.604404</course><hAcc>2.719595</hAcc><vAcc>0.756766</vAcc></extensions></trkpt>
      <trkpt lon="-82.303133" lat="35.644835"><ele>807.216064</ele><time>2022-06-19T14:01:02Z</time><extensions><speed>1.618802</speed><course>66.483376</course><hAcc>2.708316</hAcc><vAcc>0.756791</vAcc></extensions></trkpt>
      <trkpt lon="-82.303116" lat="35.644840"><ele>807.216125</ele><time>2022-06-19T14:01:03Z</time><extensions><speed>1.705649</speed><course>71.559364</course><hAcc>2.683689</hAcc><vAcc>0.756875</vAcc></extensions></trkpt>
      <trkpt lon="-82.303098" lat="35.644845"><ele>807.219360</ele><time>2022-06-19T14:01:04Z</time><extensions><speed>1.689479</speed><course>74.906075</course><hAcc>2.669742</hAcc><vAcc>0.756774</vAcc></extensions></trkpt>
      <trkpt lon="-82.303081" lat="35.644849"><ele>807.224182</ele><time>2022-06-19T14:01:05Z</time><extensions><speed>1.625602</speed><course>76.402458</course><hAcc>2.680048</hAcc><vAcc>0.756483</vAcc></extensions></trkpt>
      <trkpt lon="-82.303064" lat="35.644852"><ele>807.232727</ele><time>2022-06-19T14:01:06Z</time><extensions><speed>1.441109</speed><course>74.841812</course><hAcc>2.686302</hAcc><vAcc>0.756537</vAcc></extensions></trkpt>
      <trkpt lon="-82.303049" lat="35.644855"><ele>807.246033</ele><time>2022-06-19T14:01:07Z</time><extensions><speed>1.374934</speed><course>73.029465</course><hAcc>2.657538</hAcc><vAcc>0.756572</vAcc></extensions></trkpt>
      <trkpt lon="-82.303035" lat="35.644858"><ele>807.269653</ele><time>2022-06-19T14:01:08Z</time><extensions><speed>1.299602</speed><course>71.434860</course><hAcc>2.609439</hAcc><vAcc>0.756613</vAcc></extensions></trkpt>
      <trkpt lon="-82.303022" lat="35.644862"><ele>807.297241</ele><time>2022-06-19T14:01:09Z</time><extensions><speed>1.240455</speed><course>71.238388</course><hAcc>2.586923</hAcc><vAcc>0.756626</vAcc></extensions></trkpt>
      <trkpt lon="-82.303009" lat="35.644865"><ele>807.321289</ele><time>2022-06-19T14:01:10Z</time><extensions><speed>1.261350</speed><course>72.653549</course><hAcc>2.600820</hAcc><vAcc>0.756635</vAcc></extensions></trkpt>
      <trkpt lon="-82.302996" lat="35.644868"><ele>807.348267</ele><time>2022-06-19T14:01:11Z</time><extensions><speed>1.304204</speed><course>77.616798</course><hAcc>2.649209</hAcc><vAcc>0.756696</vAcc></extensions></trkpt>
      <trkpt lon="-82.302981" lat="35.644869"><ele>807.377991</ele><time>2022-06-19T14:01:12Z</time><extensions><speed>1.276945</speed><course>88.681541</course><hAcc>2.650281</hAcc><vAcc>0.756725</vAcc></extensions></trkpt>
      <trkpt lon="-82.302968" lat="35.644867"><ele>807.413635</ele><time>2022-06-19T14:01:13Z</time><extensions><speed>1.211251</speed><course>102.544640</course><hAcc>2.620967</hAcc><vAcc>0.756731</vAcc></extensions></trkpt>
      <trkpt lon="-82.302955" lat="35.644863"><ele>807.453430</ele><time>2022-06-19T14:01:14Z</time><extensions><speed>1.322752</speed><course>114.382080</course><hAcc>2.597880</hAcc><vAcc>0.756742</vAcc></extensions></trkpt>
      <trkpt lon="-82.302940" lat="35.644857"><ele>807.494751</ele><time>2022-06-19T14:01:15Z</time><extensions><speed>1.570949</speed><course>121.220963</course><hAcc>2.597032</hAcc><vAcc>0.756765</vAcc></extensions></trkpt>
      <trkpt lon="-82.302925" lat="35.644849"><ele>807.544250</ele><time>2022-06-19T14:01:16Z</time><extensions><speed>1.716165</speed><course>126.438026</course><hAcc>2.609596</hAcc><vAcc>0.756752</vAcc></extensions></trkpt>
      <trkpt lon="-82.302910" lat="35.644839"><ele>807.590088</ele><time>2022-06-19T14:01:17Z</time><extensions><speed>1.668767</speed><course>129.937012</course><hAcc>2.638368</hAcc><vAcc>0.756779</vAcc></extensions></trkpt>
      <trkpt lon="-82.302897" lat="35.644829"><ele>807.632507</ele><time>2022-06-19T14:01:18Z</time><extensions><speed>1.530031</speed><course>132.296768</course><hAcc>2.670194</hAcc><vAcc>0.756749</vAcc></extensions></trkpt>
      <trkpt lon="-82.302885" lat="35.644821"><ele>807.680786</ele><time>2022-06-19T14:01:19Z</time><extensions><speed>1.452398</speed><course>132.458588</course><hAcc>2.670683</hAcc><vAcc>0.756705</vAcc></extensions></trkpt>
      <trkpt lon="-82.302873" lat="35.644812"><ele>807.720398</ele><time>2022-06-19T14:01:20Z</time><extensions><speed>1.418791</speed><course>133.119110</course><hAcc>2.629014</hAcc><vAcc>0.756749</vAcc></extensions></trkpt>
      <trkpt lon="-82.302861" lat="35.644803"><ele>807.757690</ele><time>2022-06-19T14:01:21Z</time><extensions><speed>1.453413</speed><course>131.025986</course><hAcc>2.599888</hAcc><vAcc>0.756731</vAcc></extensions></trkpt>
      <trkpt lon="-82.302848" lat="35.644795"><ele>807.787842</ele><time>2022-06-19T14:01:22Z</time><extensions><speed>1.427179</speed><course>124.673195</course><hAcc>2.603153</hAcc><vAcc>0.756723</vAcc></extensions></trkpt>
      <trkpt lon="-82.302834" lat="35.644789"><ele>807.809143</ele><time>2022-06-19T14:01:23Z</time><extensions><speed>1.410494</speed><course>118.036171</course><hAcc>2.589886</hAcc><vAcc>0.756663</vAcc></extensions></trkpt>
      <trkpt lon="-82.302820" lat="35.644783"><ele>807.833313</ele><time>2022-06-19T14:01:24Z</time><extensions><speed>1.370536</speed><course>115.803955</course><hAcc>2.585976</hAcc><vAcc>0.756559</vAcc></extensions></trkpt>
      <trkpt lon="-82.302807" lat="35.644778"><ele>807.850281</ele><time>2022-06-19T14:01:25Z</time><extensions><speed>1.307234</speed><course>120.808380</course><hAcc>2.556355</hAcc><vAcc>0.756593</vAcc></extensions></trkpt>
      <trkpt lon="-82.302796" lat="35.644771"><ele>807.865417</ele><time>2022-06-19T14:01:26Z</time><extensions><speed>1.249559</speed><course>126.789093</course><hAcc>2.542868</hAcc><vAcc>0.756694</vAcc></extensions></trkpt>
      <trkpt lon="-82.302786" lat="35.644764"><ele>807.875916</ele><time>2022-06-19T14:01:27Z</time><extensions><speed>1.157050</speed><course>132.866180</course><hAcc>2.521057</hAcc><vAcc>0.756700</vAcc></extensions></trkpt>
      <trkpt lon="-82.302777" lat="35.644756"><ele>807.877075</ele><time>2022-06-19T14:01:28Z</time><extensions><speed>1.255378</speed><course>138.676376</course><hAcc>2.524819</hAcc><vAcc>0.756644</vAcc></extensions></trkpt>
      <trkpt lon="-82.302767" lat="35.644746"><ele>807.870605</ele><time>2022-06-19T14:01:29Z</time><extensions><speed>1.576644</speed><course>139.365784</course><hAcc>2.558326</hAcc><vAcc>0.756604</vAcc></extensions></trkpt>
      <trkpt lon="-82.302755" lat="35.644736"><ele>807.861633</ele><time>2022-06-19T14:01:30Z</time><extensions><speed>1.664581</speed><course>129.914734</course><hAcc>2.563743</hAcc><vAcc>0.756593</vAcc></extensions></trkpt>
      <trkpt lon="-82.302740" lat="35.644727"><ele>807.851685</ele><time>2022-06-19T14:01:31Z</time><extensions><speed>1.682046</speed><course>118.509392</course><hAcc>2.553012</hAcc><vAcc>0.756612</vAcc></extensions></trkpt>
      <trkpt lon="-82.302724" lat="35.644719"><ele>807.843201</ele><time>2022-06-19T14:01:32Z</time><extensions><speed>1.681758</speed><course>114.322777</course><hAcc>2.535968</hAcc><vAcc>0.756711</vAcc></extensions></trkpt>
      <trkpt lon="-82.302708" lat="35.644712"><ele>807.833313</ele><time>2022-06-19T14:01:33Z</time><extensions><speed>1.776121</speed><course>115.915398</course><hAcc>2.536425</hAcc><vAcc>0.756772</vAcc></extensions></trkpt>
      <trkpt lon="-82.302692" lat="35.644704"><ele>807.818359</ele><time>2022-06-19T14:01:34Z</time><extensions><speed>1.776637</speed><course>123.747269</course><hAcc>2.552296</hAcc><vAcc>0.756751</vAcc></extensions></trkpt>
      <trkpt lon="-82.302677" lat="35.644694"><ele>807.800354</ele><time>2022-06-19T14:01:35Z</time><extensions><speed>1.731093</speed><course>132.310867</course><hAcc>2.584493</hAcc><vAcc>0.756741</vAcc></extensions></trkpt>
      <trkpt lon="-82.302665" lat="35.644683"><ele>807.783508</ele><time>2022-06-19T14:01:36Z</time><extensions><speed>1.618973</speed><course>138.768997</course><hAcc>2.594533</hAcc><vAcc>0.756726</vAcc></extensions></trkpt>
      <trkpt lon="-82.302654" lat="35.644671"><ele>807.758301</ele><time>2022-06-19T14:01:37Z</time><extensions><speed>1.570700</speed><course>140.346252</course><hAcc>2.610843</hAcc><vAcc>0.756769</vAcc></extensions></trkpt>
      <trkpt lon="-82.302644" lat="35.644660"><ele>807.724060</ele><time>2022-06-19T14:01:38Z</time><extensions><speed>1.559038</speed><course>143.029800</course><hAcc>2.608624</hAcc><vAcc>0.756863</vAcc></extensions></trkpt>
      <trkpt lon="-82.302635" lat="35.644648"><ele>807.685364</ele><time>2022-06-19T14:01:39Z</time><extensions><speed>1.585356</speed><course>151.848267</course><hAcc>2.622711</hAcc><vAcc>0.756903</vAcc></extensions></trkpt>
      <trkpt lon="-82.302629" lat="35.644634"><ele>807.641296</ele><time>2022-06-19T14:01:40Z</time><extensions><speed>1.638770</speed><course>163.316406</course><hAcc>2.647029</hAcc><vAcc>0.756877</vAcc></extensions></trkpt>
      <trkpt lon="-82.302626" lat="35.644620"><ele>807.597656</ele><time>2022-06-19T14:01:41Z</time><extensions><speed>1.692926</speed><course>173.716782</course><hAcc>2.660799</hAcc><vAcc>0.756849</vAcc></extensions></trkpt>
      <trkpt lon="-82.302624" lat="35.644604"><ele>807.552917</ele><time>2022-06-19T14:01:42Z</time><extensions><speed>1.739147</speed><course>176.329926</course><hAcc>2.679513</hAcc><vAcc>0.756828</vAcc></extensions></trkpt>
      <trkpt lon="-82.302624" lat="35.644589"><ele>807.508362</ele><time>2022-06-19T14:01:43Z</time><extensions><speed>1.756170</speed><course>178.735672</course><hAcc>2.675058</hAcc><vAcc>0.756856</vAcc></extensions></trkpt>
      <trkpt lon="-82.302624" lat="35.644573"><ele>807.452759</ele><time>2022-06-19T14:01:44Z</time><extensions><speed>1.731077</speed><course>179.290726</course><hAcc>2.664184</hAcc><vAcc>0.756859</vAcc></extensions></trkpt>
      <trkpt lon="-82.302624" lat="35.644558"><ele>807.395447</ele><time>2022-06-19T14:01:45Z</time><extensions><speed>1.694076</speed><course>176.901169</course><hAcc>2.669968</hAcc><vAcc>0.756846</vAcc></extensions></trkpt>
      <trkpt lon="-82.302622" lat="35.644544"><ele>807.333313</ele><time>2022-06-19T14:01:46Z</time><extensions><speed>1.689961</speed><course>172.072006</course><hAcc>2.700448</hAcc><vAcc>0.756818</vAcc></extensions></trkpt>
      <trkpt lon="-82.302619" lat="35.644530"><ele>807.259644</ele><time>2022-06-19T14:01:47Z</time><extensions><speed>1.678455</speed><course>167.370178</course><hAcc>2.725987</hAcc><vAcc>0.756789</vAcc></extensions></trkpt>
      <trkpt lon="-82.302615" lat="35.644516"><ele>807.177368</ele><time>2022-06-19T14:01:48Z</time><extensions><speed>1.660756</speed><course>169.790955</course><hAcc>2.705324</hAcc><vAcc>0.756763</vAcc></extensions></trkpt>
      <trkpt lon="-82.302612" lat="35.644502"><ele>807.092407</ele><time>2022-06-19T14:01:49Z</time><extensions><speed>1.636924</speed><course>169.022186</course><hAcc>2.686629</hAcc><vAcc>0.756758</vAcc></extensions></trkpt>
      <trkpt lon="-82.302608" lat="35.644489"><ele>807.006042</ele><time>2022-06-19T14:01:50Z</time><extensions><speed>1.598618</speed><course>166.373718</course><hAcc>2.675478</hAcc><vAcc>0.756780</vAcc></extensions></trkpt>
      <trkpt lon="-82.302603" lat="35.644476"><ele>806.912537</ele><time>2022-06-19T14:01:51Z</time><extensions><speed>1.537664</speed><course>165.177597</course><hAcc>2.675827</hAcc><vAcc>0.756770</vAcc></extensions></trkpt>
      <trkpt lon="-82.302599" lat="35.644464"><ele>806.801514</ele><time>2022-06-19T14:01:52Z</time><extensions><speed>1.559188</speed><course>169.901245</course><hAcc>2.703393</hAcc><vAcc>0.756759</vAcc></extensions></trkpt>
      <trkpt lon="-82.302598" lat="35.644451"><ele>806.682495</ele><time>2022-06-19T14:01:53Z</time><extensions><speed>1.332325</speed><course>182.257339</course><hAcc>2.683257</hAcc><vAcc>0.756752</vAcc></extensions></trkpt>
      <trkpt lon="-82.302599" lat="35.644442"><ele>806.567627</ele><time>2022-06-19T14:01:54Z</time><extensions><speed>0.943097</speed><course>191.215286</course><hAcc>2.640078</hAcc><vAcc>0.756769</vAcc></extensions></trkpt>
      <trkpt lon="-82.302600" lat="35.644435"><ele>806.442688</ele><time>2022-06-19T14:01:55Z</time><extensions><speed>0.750240</speed><course>188.994492</course><hAcc>2.619644</hAcc><vAcc>0.756799</vAcc></extensions></trkpt>
      <trkpt lon="-82.302600" lat="35.644428"><ele>806.307800</ele><time>2022-06-19T14:01:56Z</time><extensions><speed>0.810450</speed><course>177.624863</course><hAcc>2.630278</hAcc><vAcc>0.756782</vAcc></extensions></trkpt>
      <trkpt lon="-82.302599" lat="35.644421"><ele>806.161804</ele><time>2022-06-19T14:01:57Z</time><extensions><speed>0.934149</speed><course>165.474182</course><hAcc>2.638698</hAcc><vAcc>0.756695</vAcc></extensions></trkpt>
      <trkpt lon="-82.302596" lat="35.644413"><ele>806.009155</ele><time>2022-06-19T14:01:58Z</time><extensions><speed>0.935862</speed><course>160.842651</course><hAcc>2.628463</hAcc><vAcc>0.756696</vAcc></extensions></trkpt>
      <trkpt lon="-82.302593" lat="35.644406"><ele>805.850220</ele><time>2022-06-19T14:01:59Z</time><extensions><speed>0.860916</speed><course>162.704636</course><hAcc>2.612205</hAcc><vAcc>0.756708</vAcc></extensions></trkpt>
      <trkpt lon="-82.302591" lat="35.644400"><ele>805.685059</ele><time>2022-06-19T14:02:00Z</time><extensions><speed>0.613721</speed><course>169.974640</course><hAcc>2.588646</hAcc><vAcc>0.756706</vAcc></extensions></trkpt>
      <trkpt lon="-82.302591" lat="35.644395"><ele>805.516724</ele><time>2022-06-19T14:02:01Z</time><extensions><speed>0.618910</speed><course>181.251999</course><hAcc>2.577779</hAcc><vAcc>0.756699</vAcc></extensions></trkpt>
      <trkpt lon="-82.302592" lat="35.644389"><ele>805.346069</ele><time>2022-06-19T14:02:02Z</time><extensions><speed>0.735820</speed><course>187.364319</course><hAcc>2.597454</hAcc><vAcc>0.756701</vAcc></extensions></trkpt>
      <trkpt lon="-82.302594" lat="35.644382"><ele>805.169128</ele><time>2022-06-19T14:02:03Z</time><extensions><speed>0.798575</speed><course>194.327057</course><hAcc>2.588833</hAcc><vAcc>0.756704</vAcc></extensions></trkpt>
      <trkpt lon="-82.302597" lat="35.644375"><ele>804.991333</ele><time>2022-06-19T14:02:04Z</time><extensions><speed>0.889846</speed><course>200.876740</course><hAcc>2.565699</hAcc><vAcc>0.756713</vAcc></extensions></trkpt>
      <trkpt lon="-82.302601" lat="35.644367"><ele>804.815491</ele><time>2022-06-19T14:02:05Z</time><extensions><speed>1.123780</speed><course>203.493286</course><hAcc>2.572366</hAcc><vAcc>0.756711</vAcc></extensions></trkpt>
      <trkpt lon="-82.302607" lat="35.644357"><ele>804.643127</ele><time>2022-06-19T14:02:06Z</time><extensions><speed>1.245818</speed><course>205.889984</course><hAcc>2.546082</hAcc><vAcc>0.756683</vAcc></extensions></trkpt>
      <trkpt lon="-82.302613" lat="35.644348"><ele>804.477112</ele><time>2022-06-19T14:02:07Z</time><extensions><speed>1.175915</speed><course>209.708450</course><hAcc>2.537275</hAcc><vAcc>0.756671</vAcc></extensions></trkpt>
      <trkpt lon="-82.302620" lat="35.644339"><ele>804.319458</ele><time>2022-06-19T14:02:08Z</time><extensions><speed>1.134118</speed><course>217.490814</course><hAcc>2.519400</hAcc><vAcc>0.756676</vAcc></extensions></trkpt>
      <trkpt lon="-82.302628" lat="35.644332"><ele>804.167908</ele><time>2022-06-19T14:02:09Z</time><extensions><speed>1.052628</speed><course>225.268433</course><hAcc>2.526155</hAcc><vAcc>0.756646</vAcc></extensions></trkpt>
      <trkpt lon="-82.302636" lat="35.644326"><ele>804.023071</ele><time>2022-06-19T14:02:10Z</time><extensions><speed>0.984031</speed><course>223.645370</course><hAcc>2.553859</hAcc><vAcc>0.756606</vAcc></extensions></trkpt>
      <trkpt lon="-82.302643" lat="35.644319"><ele>803.890564</ele><time>2022-06-19T14:02:11Z</time><extensions><speed>0.896092</speed><course>207.506332</course><hAcc>2.578678</hAcc><vAcc>0.756554</vAcc></extensions></trkpt>
      <trkpt lon="-82.302645" lat="35.644312"><ele>803.775085</ele><time>2022-06-19T14:02:12Z</time><extensions><speed>0.739513</speed><course>182.525208</course><hAcc>2.570402</hAcc><vAcc>0.756544</vAcc></extensions></trkpt>
      <trkpt lon="-82.302644" lat="35.644306"><ele>803.670837</ele><time>2022-06-19T14:02:13Z</time><extensions><speed>0.650587</speed><course>165.058365</course><hAcc>2.584256</hAcc><vAcc>0.756565</vAcc></extensions></trkpt>
      <trkpt lon="-82.302643" lat="35.644300"><ele>803.572998</ele><time>2022-06-19T14:02:14Z</time><extensions><speed>0.548404</speed><course>177.667389</course><hAcc>2.604549</hAcc><vAcc>0.756610</vAcc></extensions></trkpt>
      <trkpt lon="-82.302646" lat="35.644297"><ele>803.487488</ele><time>2022-06-19T14:02:15Z</time><extensions><speed>0.548154</speed><course>251.960876</course><hAcc>2.578891</hAcc><vAcc>0.756729</vAcc></extensions></trkpt>
      <trkpt lon="-82.302653" lat="35.644296"><ele>803.415283</ele><time>2022-06-19T14:02:16Z</time><extensions><speed>0.569368</speed><course>267.914307</course><hAcc>2.557882</hAcc><vAcc>0.756802</vAcc></extensions></trkpt>
      <trkpt lon="-82.302658" lat="35.644295"><ele>803.356506</ele><time>2022-06-19T14:02:17Z</time><extensions><speed>0.407191</speed><course>260.378204</course><hAcc>2.573315</hAcc><vAcc>0.756856</vAcc></extensions></trkpt>
      <trkpt lon="-82.302663" lat="35.644294"><ele>803.310669</ele><time>2022-06-19T14:02:18Z</time><extensions><speed>0.418333</speed><course>247.907700</course><hAcc>2.611986</hAcc><vAcc>0.756837</vAcc></extensions></trkpt>
      <trkpt lon="-82.302667" lat="35.644291"><ele>803.274536</ele><time>2022-06-19T14:02:19Z</time><extensions><speed>0.503667</speed><course>217.562225</course><hAcc>2.618415</hAcc><vAcc>0.756819</vAcc></extensions></trkpt>
      <trkpt lon="-82.302669" lat="35.644287"><ele>803.246216</ele><time>2022-06-19T14:02:20Z</time><extensions><speed>0.589172</speed><course>201.916595</course><hAcc>2.596685</hAcc><vAcc>0.756813</vAcc></extensions></trkpt>
      <trkpt lon="-82.302672" lat="35.644281"><ele>803.218506</ele><time>2022-06-19T14:02:21Z</time><extensions><speed>0.714068</speed><course>193.846191</course><hAcc>2.584449</hAcc><vAcc>0.756766</vAcc></extensions></trkpt>
      <trkpt lon="-82.302674" lat="35.644273"><ele>803.192505</ele><time>2022-06-19T14:02:22Z</time><extensions><speed>0.998083</speed><course>193.039719</course><hAcc>2.570161</hAcc><vAcc>0.756722</vAcc></extensions></trkpt>
      <trkpt lon="-82.302678" lat="35.644264"><ele>803.170288</ele><time>2022-06-19T14:02:23Z</time><extensions><speed>1.119102</speed><course>204.593048</course><hAcc>2.584919</hAcc><vAcc>0.756686</vAcc></extensions></trkpt>
      <trkpt lon="-82.302685" lat="35.644255"><ele>803.154419</ele><time>2022-06-19T14:02:24Z</time><extensions><speed>1.082895</speed><course>220.237823</course><hAcc>2.591910</hAcc><vAcc>0.756701</vAcc></extensions></trkpt>
      <trkpt lon="-82.302693" lat="35.644248"><ele>803.135254</ele><time>2022-06-19T14:02:25Z</time><extensions><speed>1.028206</speed><course>227.859451</course><hAcc>2.584193</hAcc><vAcc>0.756807</vAcc></extensions></trkpt>
      <trkpt lon="-82.302701" lat="35.644242"><ele>803.113525</ele><time>2022-06-19T14:02:26Z</time><extensions><speed>0.908453</speed><course>222.483490</course><hAcc>2.607158</hAcc><vAcc>0.756839</vAcc></extensions></trkpt>
      <trkpt lon="-82.302707" lat="35.644235"><ele>803.090515</ele><time>2022-06-19T14:02:27Z</time><extensions><speed>0.870578</speed><course>211.908798</course><hAcc>2.616384</hAcc><vAcc>0.756732</vAcc></extensions></trkpt>
      <trkpt lon="-82.302712" lat="35.644228"><ele>803.065186</ele><time>2022-06-19T14:02:28Z</time><extensions><speed>0.892611</speed><course>200.214737</course><hAcc>2.594903</hAcc><vAcc>0.756728</vAcc></extensions></trkpt>
      <trkpt lon="-82.302715" lat="35.644220"><ele>803.038818</ele><time>2022-06-19T14:02:29Z</time><extensions><speed>0.930415</speed><course>195.719528</course><hAcc>2.576357</hAcc><vAcc>0.756778</vAcc></extensions></trkpt>
      <trkpt lon="-82.302718" lat="35.644211"><ele>803.005859</ele><time>2022-06-19T14:02:30Z</time><extensions><speed>0.964802</speed><course>196.670746</course><hAcc>2.573471</hAcc><vAcc>0.756773</vAcc></extensions></trkpt>
      <trkpt lon="-82.302722" lat="35.644202"><ele>802.971069</ele><time>2022-06-19T14:02:31Z</time><extensions><speed>0.984944</speed><course>199.653000</course><hAcc>2.596023</hAcc><vAcc>0.756733</vAcc></extensions></trkpt>
      <trkpt lon="-82.302726" lat="35.644193"><ele>802.924988</ele><time>2022-06-19T14:02:32Z</time><extensions><speed>1.115115</speed><course>202.671478</course><hAcc>2.637176</hAcc><vAcc>0.756724</vAcc></extensions></trkpt>
      <trkpt lon="-82.302731" lat="35.644183"><ele>802.876282</ele><time>2022-06-19T14:02:33Z</time><extensions><speed>1.145822</speed><course>197.399918</course><hAcc>2.645895</hAcc><vAcc>0.756773</vAcc></extensions></trkpt>
      <trkpt lon="-82.302734" lat="35.644172"><ele>802.824036</ele><time>2022-06-19T14:02:34Z</time><extensions><speed>1.119773</speed><course>188.847031</course><hAcc>2.623629</hAcc><vAcc>0.756770</vAcc></extensions></trkpt>
      <trkpt lon="-82.302735" lat="35.644162"><ele>802.767578</ele><time>2022-06-19T14:02:35Z</time><extensions><speed>1.016857</speed><course>180.845810</course><hAcc>2.583793</hAcc><vAcc>0.756686</vAcc></extensions></trkpt>
      <trkpt lon="-82.302736" lat="35.644153"><ele>802.706665</ele><time>2022-06-19T14:02:36Z</time><extensions><speed>0.826879</speed><course>178.790268</course><hAcc>2.579343</hAcc><vAcc>0.756647</vAcc></extensions></trkpt>
      <trkpt lon="-82.302736" lat="35.644145"><ele>802.644348</ele><time>2022-06-19T14:02:37Z</time><extensions><speed>1.002206</speed><course>171.259598</course><hAcc>2.601722</hAcc><vAcc>0.756711</vAcc></extensions></trkpt>
      <trkpt lon="-82.302734" lat="35.644135"><ele>802.584717</ele><time>2022-06-19T14:02:38Z</time><extensions><speed>1.115444</speed><course>169.649414</course><hAcc>2.590629</hAcc><vAcc>0.756770</vAcc></extensions></trkpt>
      <trkpt lon="-82.302732" lat="35.644124"><ele>802.523743</ele><time>2022-06-19T14:02:39Z</time><extensions><speed>1.233088</speed><course>168.892624</course><hAcc>2.586717</hAcc><vAcc>0.756849</vAcc></extensions></trkpt>
      <trkpt lon="-82.302729" lat="35.644112"><ele>802.464661</ele><time>2022-06-19T14:02:40Z</time><extensions><speed>1.329576</speed><course>166.688217</course><hAcc>2.612171</hAcc><vAcc>0.756863</vAcc></extensions></trkpt>
      <trkpt lon="-82.302726" lat="35.644100"><ele>802.405396</ele><time>2022-06-19T14:02:41Z</time><extensions><speed>1.360121</speed><course>168.976974</course><hAcc>2.613761</hAcc><vAcc>0.756858</vAcc></extensions></trkpt>
      <trkpt lon="-82.302724" lat="35.644087"><ele>802.347168</ele><time>2022-06-19T14:02:42Z</time><extensions><speed>1.373333</speed><course>174.729568</course><hAcc>2.587069</hAcc><vAcc>0.756831</vAcc></extensions></trkpt>
      <trkpt lon="-82.302723" lat="35.644074"><ele>802.287964</ele><time>2022-06-19T14:02:43Z</time><extensions><speed>1.423009</speed><course>182.026642</course><hAcc>2.567247</hAcc><vAcc>0.756804</vAcc></extensions></trkpt>
      <trkpt lon="-82.302724" lat="35.644060"><ele>802.233582</ele><time>2022-06-19T14:02:44Z</time><extensions><speed>1.489670</speed><course>187.029877</course><hAcc>2.558377</hAcc><vAcc>0.756796</vAcc></extensions></trkpt>
      <trkpt lon="-82.302726" lat="35.644046"><ele>802.187683</ele><time>2022-06-19T14:02:45Z</time><extensions><speed>1.538729</speed><course>189.330612</course><hAcc>2.559947</hAcc><vAcc>0.756761</vAcc></extensions></trkpt>
      <trkpt lon="-82.302727" lat="35.644032"><ele>802.151306</ele><time>2022-06-19T14:02:46Z</time><extensions><speed>1.540481</speed><course>187.377930</course><hAcc>2.582311</hAcc><vAcc>0.756767</vAcc></extensions></trkpt>
      <trkpt lon="-82.302728" lat="35.644018"><ele>802.117371</ele><time>2022-06-19T14:02:47Z</time><extensions><speed>1.477156</speed><course>183.615311</course><hAcc>2.627338</hAcc><vAcc>0.756810</vAcc></extensions></trkpt>
      <trkpt lon="-82.302730" lat="35.644005"><ele>802.081665</ele><time>2022-06-19T14:02:48Z</time><extensions><speed>1.419096</speed><course>189.778305</course><hAcc>2.632945</hAcc><vAcc>0.756821</vAcc></extensions></trkpt>
      <trkpt lon="-82.302731" lat="35.643992"><ele>802.050110</ele><time>2022-06-19T14:02:49Z</time><extensions><speed>1.315812</speed><course>183.161377</course><hAcc>2.610245</hAcc><vAcc>0.756824</vAcc></extensions></trkpt>
      <trkpt lon="-82.302729" lat="35.643981"><ele>802.024353</ele><time>2022-06-19T14:02:50Z</time><extensions><speed>1.310206</speed><course>168.530884</course><hAcc>2.585922</hAcc><vAcc>0.756784</vAcc></extensions></trkpt>
      <trkpt lon="-82.302725" lat="35.643969"><ele>801.994507</ele><time>2022-06-19T14:02:51Z</time><extensions><speed>1.322890</speed><course>157.065720</course><hAcc>2.576544</hAcc><vAcc>0.756767</vAcc></extensions></trkpt>
      <trkpt lon="-82.302718" lat="35.643958"><ele>801.960510</ele><time>2022-06-19T14:02:52Z</time><extensions><speed>1.423578</speed><course>152.793961</course><hAcc>2.575611</hAcc><vAcc>0.756756</vAcc></extensions></trkpt>
      <trkpt lon="-82.302710" lat="35.643946"><ele>801.915405</ele><time>2022-06-19T14:02:53Z</time><extensions><speed>1.568653</speed><course>150.149063</course><hAcc>2.601003</hAcc><vAcc>0.756750</vAcc></extensions></trkpt>
      <trkpt lon="-82.302701" lat="35.643934"><ele>801.858582</ele><time>2022-06-19T14:02:54Z</time><extensions><speed>1.614709</speed><course>150.952835</course><hAcc>2.641888</hAcc><vAcc>0.756760</vAcc></extensions></trkpt>
      <trkpt lon="-82.302693" lat="35.643921"><ele>801.795837</ele><time>2022-06-19T14:02:55Z</time><extensions><speed>1.639472</speed><course>152.209351</course><hAcc>2.655842</hAcc><vAcc>0.756781</vAcc></extensions></trkpt>
      <trkpt lon="-82.302685" lat="35.643907"><ele>801.726257</ele><time>2022-06-19T14:02:56Z</time><extensions><speed>1.646825</speed><course>152.810379</course><hAcc>2.664192</hAcc><vAcc>0.756758</vAcc></extensions></trkpt>
      <trkpt lon="-82.302676" lat="35.643894"><ele>801.649658</ele><time>2022-06-19T14:02:57Z</time><extensions><speed>1.639516</speed><course>153.506897</course><hAcc>2.691224</hAcc><vAcc>0.756689</vAcc></extensions></trkpt>
      <trkpt lon="-82.302669" lat="35.643882"><ele>801.565857</ele><time>2022-06-19T14:02:58Z</time><extensions><speed>1.536064</speed><course>156.112152</course><hAcc>2.738122</hAcc><vAcc>0.756709</vAcc></extensions></trkpt>
      <trkpt lon="-82.302663" lat="35.643870"><ele>801.474426</ele><time>2022-06-19T14:02:59Z</time><extensions><speed>1.249946</speed><course>159.907944</course><hAcc>2.737918</hAcc><vAcc>0.756734</vAcc></extensions></trkpt>
      <trkpt lon="-82.302658" lat="35.643861"><ele>801.375305</ele><time>2022-06-19T14:03:00Z</time><extensions><speed>1.079065</speed><course>162.555069</course><hAcc>2.726641</hAcc><vAcc>0.756738</vAcc></extensions></trkpt>
      <trkpt lon="-82.302655" lat="35.643852"><ele>801.269409</ele><time>2022-06-19T14:03:01Z</time><extensions><speed>0.923564</speed><course>165.493134</course><hAcc>2.723369</hAcc><vAcc>0.756718</vAcc></extensions></trkpt>
      <trkpt lon="-82.302652" lat="35.643845"><ele>801.161743</ele><time>2022-06-19T14:03:02Z</time><extensions><speed>0.847027</speed><course>169.663910</course><hAcc>2.726670</hAcc><vAcc>0.756717</vAcc></extensions></trkpt>
      <trkpt lon="-82.302650" lat="35.643838"><ele>801.048401</ele><time>2022-06-19T14:03:03Z</time><extensions><speed>0.834559</speed><course>174.048462</course><hAcc>2.729306</hAcc><vAcc>0.756742</vAcc></extensions></trkpt>
      <trkpt lon="-82.302649" lat="35.643831"><ele>800.944641</ele><time>2022-06-19T14:03:04Z</time><extensions><speed>0.903357</speed><course>172.854050</course><hAcc>2.727316</hAcc><vAcc>0.756741</vAcc></extensions></trkpt>
      <trkpt lon="-82.302647" lat="35.643824"><ele>800.842957</ele><time>2022-06-19T14:03:05Z</time><extensions><speed>0.984807</speed><course>165.304199</course><hAcc>2.747542</hAcc><vAcc>0.756715</vAcc></extensions></trkpt>
      <trkpt lon="-82.302643" lat="35.643816"><ele>800.752258</ele><time>2022-06-19T14:03:06Z</time><extensions><speed>1.118061</speed><course>157.704742</course><hAcc>2.788181</hAcc><vAcc>0.756705</vAcc></extensions></trkpt>
      <trkpt lon="-82.302637" lat="35.643807"><ele>800.673096</ele><time>2022-06-19T14:03:07Z</time><extensions><speed>1.273371</speed><course>149.479599</course><hAcc>2.792893</hAcc><vAcc>0.756721</vAcc></extensions></trkpt>
      <trkpt lon="-82.302630" lat="35.643799"><ele>800.601074</ele><time>2022-06-19T14:03:08Z</time><extensions><speed>1.187136</speed><course>144.940323</course><hAcc>2.766315</hAcc><vAcc>0.756716</vAcc></extensions></trkpt>
      <trkpt lon="-82.302623" lat="35.643792"><ele>800.536682</ele><time>2022-06-19T14:03:09Z</time><extensions><speed>0.824912</speed><course>134.764984</course><hAcc>2.720110</hAcc><vAcc>0.756715</vAcc></extensions></trkpt>
      <trkpt lon="-82.302616" lat="35.643789"><ele>800.476074</ele><time>2022-06-19T14:03:10Z</time><extensions><speed>0.649944</speed><course>118.126404</course><hAcc>2.680861</hAcc><vAcc>0.756728</vAcc></extensions></trkpt>
      <trkpt lon="-82.302610" lat="35.643788"><ele>800.422607</ele><time>2022-06-19T14:03:11Z</time><extensions><speed>0.592983</speed><course>102.061371</course><hAcc>2.666283</hAcc><vAcc>0.756731</vAcc></extensions></trkpt>
      <trkpt lon="-82.302603" lat="35.643789"><ele>800.382446</ele><time>2022-06-19T14:03:12Z</time><extensions><speed>0.534128</speed><course>81.910896</course><hAcc>2.659434</hAcc><vAcc>0.756727</vAcc></extensions></trkpt>
      <trkpt lon="-82.302598" lat="35.643791"><ele>800.369324</ele><time>2022-06-19T14:03:13Z</time><extensions><speed>0.503016</speed><course>51.418270</course><hAcc>2.652247</hAcc><vAcc>0.756725</vAcc></extensions></trkpt>
      <trkpt lon="-82.302595" lat="35.643797"><ele>800.358643</ele><time>2022-06-19T14:03:14Z</time><extensions><speed>0.735764</speed><course>14.623411</course><hAcc>2.633499</hAcc><vAcc>0.756723</vAcc></extensions></trkpt>
      <trkpt lon="-82.302593" lat="35.643805"><ele>800.372375</ele><time>2022-06-19T14:03:15Z</time><extensions><speed>0.897740</speed><course>3.076581</course><hAcc>2.628918</hAcc><vAcc>0.756723</vAcc></extensions></trkpt>
      <trkpt lon="-82.302593" lat="35.643814"><ele>800.392395</ele><time>2022-06-19T14:03:16Z</time><extensions><speed>1.012269</speed><course>3.431293</course><hAcc>2.644000</hAcc><vAcc>0.758366</vAcc></extensions></trkpt>
      <trkpt lon="-82.302591" lat="35.643823"><ele>800.427429</ele><time>2022-06-19T14:03:17Z</time><extensions><speed>1.032168</speed><course>12.506138</course><hAcc>2.626548</hAcc><vAcc>0.761070</vAcc></extensions></trkpt>
      <trkpt lon="-82.302588" lat="35.643832"><ele>800.471619</ele><time>2022-06-19T14:03:18Z</time><extensions><speed>0.932446</speed><course>26.242018</course><hAcc>2.620160</hAcc><vAcc>0.765068</vAcc></extensions></trkpt>
      <trkpt lon="-82.302583" lat="35.643839"><ele>800.533752</ele><time>2022-06-19T14:03:19Z</time><extensions><speed>0.782524</speed><course>33.074944</course><hAcc>2.604663</hAcc><vAcc>0.770584</vAcc></extensions></trkpt>
      <trkpt lon="-82.302578" lat="35.643845"><ele>800.607849</ele><time>2022-06-19T14:03:20Z</time><extensions><speed>0.691227</speed><course>43.896698</course><hAcc>2.590340</hAcc><vAcc>0.777694</vAcc></extensions></trkpt>
      <trkpt lon="-82.302573" lat="35.643849"><ele>800.700012</ele><time>2022-06-19T14:03:21Z</time><extensions><speed>0.625763</speed><course>45.714462</course><hAcc>2.565969</hAcc><vAcc>0.786525</vAcc></extensions></trkpt>
      <trkpt lon="-82.302569" lat="35.643853"><ele>800.802185</ele><time>2022-06-19T14:03:22Z</time><extensions><speed>0.538373</speed><course>50.606159</course><hAcc>2.557433</hAcc><vAcc>0.797043</vAcc></extensions></trkpt>
      <trkpt lon="-82.302565" lat="35.643856"><ele>800.893616</ele><time>2022-06-19T14:03:23Z</time><extensions><speed>0.425509</speed><course>50.076447</course><hAcc>2.553331</hAcc><vAcc>0.809136</vAcc></extensions></trkpt>
      <trkpt lon="-82.302562" lat="35.643859"><ele>800.982483</ele><time>2022-06-19T14:03:24Z</time><extensions><speed>0.291021</speed><course>50.597454</course><hAcc>2.569753</hAcc><vAcc>0.822577</vAcc></extensions></trkpt>
      <trkpt lon="-82.302560" lat="35.643860"><ele>801.076904</ele><time>2022-06-19T14:03:25Z</time><extensions><speed>0.207870</speed><course>46.695812</course><hAcc>2.584837</hAcc><vAcc>0.836904</vAcc></extensions></trkpt>
      <trkpt lon="-82.302558" lat="35.643862"><ele>801.180054</ele><time>2022-06-19T14:03:26Z</time><extensions><speed>0.247655</speed><course>70.781967</course><hAcc>2.583110</hAcc><vAcc>0.851589</vAcc></extensions></trkpt>
      <trkpt lon="-82.302556" lat="35.643863"><ele>801.281006</ele><time>2022-06-19T14:03:27Z</time><extensions><speed>0.174377</speed><course>46.852272</course><hAcc>2.570291</hAcc><vAcc>0.865677</vAcc></extensions></trkpt>
      <trkpt lon="-82.302554" lat="35.643864"><ele>801.378113</ele><time>2022-06-19T14:03:28Z</time><extensions><speed>0.133696</speed><course>17.232893</course><hAcc>2.573076</hAcc><vAcc>0.878946</vAcc></extensions></trkpt>
      <trkpt lon="-82.302554" lat="35.643864"><ele>801.469238</ele><time>2022-06-19T14:03:29Z</time><extensions><speed>0.110788</speed><course>0.475233</course><hAcc>2.583151</hAcc><vAcc>0.890893</vAcc></extensions></trkpt>
      <trkpt lon="-82.302553" lat="35.643865"><ele>801.551636</ele><time>2022-06-19T14:03:30Z</time><extensions><speed>0.146298</speed><course>351.613678</course><hAcc>2.558088</hAcc><vAcc>0.901397</vAcc></extensions></trkpt>
      <trkpt lon="-82.302554" lat="35.643867"><ele>801.623474</ele><time>2022-06-19T14:03:31Z</time><extensions><speed>0.235578</speed><course>346.808533</course><hAcc>2.524001</hAcc><vAcc>0.910327</vAcc></extensions></trkpt>
      <trkpt lon="-82.302554" lat="35.643868"><ele>801.682251</ele><time>2022-06-19T14:03:32Z</time><extensions><speed>0.114533</speed><course>353.179779</course><hAcc>2.512102</hAcc><vAcc>0.917797</vAcc></extensions></trkpt>
      <trkpt lon="-82.302554" lat="35.643868"><ele>801.727844</ele><time>2022-06-19T14:03:33Z</time><extensions><speed>0.042943</speed><course>5.815207</course><hAcc>2.538996</hAcc><vAcc>0.923934</vAcc></extensions></trkpt>
      <trkpt lon="-82.302554" lat="35.643867"><ele>801.763977</ele><time>2022-06-19T14:03:34Z</time><extensions><speed>0.005430</speed><course>94.753784</course><hAcc>2.580004</hAcc><vAcc>0.928712</vAcc></extensions></trkpt>
      <trkpt lon="-82.302554" lat="35.643867"><ele>801.787231</ele><time>2022-06-19T14:03:35Z</time><extensions><speed>0.034557</speed><course>148.984329</course><hAcc>2.529897</hAcc><vAcc>0.932548</vAcc></extensions></trkpt>
      <trkpt lon="-82.302554" lat="35.643866"><ele>801.805725</ele><time>2022-06-19T14:03:36Z</time><extensions><speed>0.058530</speed><course>165.261734</course><hAcc>2.486676</hAcc><vAcc>0.935500</vAcc></extensions></trkpt>
      <trkpt lon="-82.302554" lat="35.643865"><ele>801.818665</ele><time>2022-06-19T14:03:37Z</time><extensions><speed>0.053300</speed><course>203.657364</course><hAcc>2.484072</hAcc><vAcc>0.931055</vAcc></extensions></trkpt>
      <trkpt lon="-82.302555" lat="35.643864"><ele>801.824768</ele><time>2022-06-19T14:03:38Z</time><extensions><speed>0.136881</speed><course>292.861328</course><hAcc>2.512677</hAcc><vAcc>0.926039</vAcc></extensions></trkpt>
      <trkpt lon="-82.302558" lat="35.643864"><ele>801.836426</ele><time>2022-06-19T14:03:39Z</time><extensions><speed>0.314218</speed><course>267.309845</course><hAcc>2.520013</hAcc><vAcc>0.920087</vAcc></extensions></trkpt>
      <trkpt lon="-82.302563" lat="35.643863"><ele>801.821350</ele><time>2022-06-19T14:03:40Z</time><extensions><speed>0.537153</speed><course>253.172668</course><hAcc>2.528247</hAcc><vAcc>0.912944</vAcc></extensions></trkpt>
      <trkpt lon="-82.302570" lat="35.643860"><ele>801.796875</ele><time>2022-06-19T14:03:41Z</time><extensions><speed>0.856316</speed><course>239.524124</course><hAcc>2.519873</hAcc><vAcc>0.904495</vAcc></extensions></trkpt>
      <trkpt lon="-82.302579" lat="35.643854"><ele>801.763306</ele><time>2022-06-19T14:03:42Z</time><extensions><speed>1.069375</speed><course>230.486389</course><hAcc>2.510281</hAcc><vAcc>0.894657</vAcc></extensions></trkpt>
      <trkpt lon="-82.302589" lat="35.643847"><ele>801.729370</ele><time>2022-06-19T14:03:43Z</time><extensions><speed>1.222409</speed><course>226.942841</course><hAcc>2.527672</hAcc><vAcc>0.883412</vAcc></extensions></trkpt>
      <trkpt lon="-82.302600" lat="35.643838"><ele>801.692261</ele><time>2022-06-19T14:03:44Z</time><extensions><speed>1.311938</speed><course>225.609192</course><hAcc>2.537330</hAcc><vAcc>0.872720</vAcc></extensions></trkpt>
      <trkpt lon="-82.302611" lat="35.643830"><ele>801.652283</ele><time>2022-06-19T14:03:45Z</time><extensions><speed>1.273039</speed><course>225.175247</course><hAcc>2.567464</hAcc><vAcc>0.861928</vAcc></extensions></trkpt>
      <trkpt lon="-82.302620" lat="35.643822"><ele>801.608337</ele><time>2022-06-19T14:03:46Z</time><extensions><speed>1.169690</speed><course>220.669052</course><hAcc>2.568954</hAcc><vAcc>0.851733</vAcc></extensions></trkpt>
      <trkpt lon="-82.302629" lat="35.643813"><ele>801.558594</ele><time>2022-06-19T14:03:47Z</time><extensions><speed>1.162433</speed><course>219.414139</course><hAcc>2.548833</hAcc><vAcc>0.842976</vAcc></extensions></trkpt>
      <trkpt lon="-82.302637" lat="35.643805"><ele>801.503357</ele><time>2022-06-19T14:03:48Z</time><extensions><speed>1.221624</speed><course>219.799713</course><hAcc>2.533325</hAcc><vAcc>0.836546</vAcc></extensions></trkpt>
      <trkpt lon="-82.302646" lat="35.643796"><ele>801.444641</ele><time>2022-06-19T14:03:49Z</time><extensions><speed>1.198637</speed><course>218.845123</course><hAcc>2.550602</hAcc><vAcc>0.833122</vAcc></extensions></trkpt>
      <trkpt lon="-82.302654" lat="35.643788"><ele>801.383911</ele><time>2022-06-19T14:03:50Z</time><extensions><speed>1.168166</speed><course>218.876053</course><hAcc>2.553442</hAcc><vAcc>0.833054</vAcc></extensions></trkpt>
      <trkpt lon="-82.302661" lat="35.643780"><ele>801.323425</ele><time>2022-06-19T14:03:51Z</time><extensions><speed>1.124223</speed><course>221.507553</course><hAcc>2.568679</hAcc><vAcc>0.831598</vAcc></extensions></trkpt>
      <trkpt lon="-82.302669" lat="35.643773"><ele>801.271790</ele><time>2022-06-19T14:03:52Z</time><extensions><speed>1.024901</speed><course>229.694794</course><hAcc>2.601933</hAcc><vAcc>0.832142</vAcc></extensions></trkpt>
      <trkpt lon="-82.302677" lat="35.643767"><ele>801.220703</ele><time>2022-06-19T14:03:53Z</time><extensions><speed>0.896032</speed><course>233.601974</course><hAcc>2.605380</hAcc><vAcc>0.834054</vAcc></extensions></trkpt>
      <trkpt lon="-82.302684" lat="35.643762"><ele>801.169434</ele><time>2022-06-19T14:03:54Z</time><extensions><speed>0.790220</speed><course>234.908417</course><hAcc>2.614902</hAcc><vAcc>0.836468</vAcc></extensions></trkpt>
      <trkpt lon="-82.302690" lat="35.643758"><ele>801.109802</ele><time>2022-06-19T14:03:55Z</time><extensions><speed>0.742878</speed><course>224.883606</course><hAcc>2.601123</hAcc><vAcc>0.841374</vAcc></extensions></trkpt>
      <trkpt lon="-82.302695" lat="35.643753"><ele>801.042786</ele><time>2022-06-19T14:03:56Z</time><extensions><speed>0.706315</speed><course>214.548386</course><hAcc>2.596800</hAcc><vAcc>0.842627</vAcc></extensions></trkpt>
      <trkpt lon="-82.302699" lat="35.643748"><ele>800.990051</ele><time>2022-06-19T14:03:57Z</time><extensions><speed>0.688092</speed><course>204.890594</course><hAcc>2.632332</hAcc><vAcc>0.850346</vAcc></extensions></trkpt>
      <trkpt lon="-82.302701" lat="35.643742"><ele>800.938477</ele><time>2022-06-19T14:03:58Z</time><extensions><speed>0.664100</speed><course>188.122726</course><hAcc>2.688789</hAcc><vAcc>0.860262</vAcc></extensions></trkpt>
      <trkpt lon="-82.302700" lat="35.643736"><ele>800.888245</ele><time>2022-06-19T14:03:59Z</time><extensions><speed>0.699149</speed><course>161.356415</course><hAcc>2.742348</hAcc><vAcc>0.874412</vAcc></extensions></trkpt>
      <trkpt lon="-82.302697" lat="35.643730"><ele>800.839111</ele><time>2022-06-19T14:04:00Z</time><extensions><speed>0.724579</speed><course>153.254837</course><hAcc>2.796015</hAcc><vAcc>0.895889</vAcc></extensions></trkpt>
      <trkpt lon="-82.302693" lat="35.643724"><ele>800.791077</ele><time>2022-06-19T14:04:01Z</time><extensions><speed>0.698463</speed><course>145.095825</course><hAcc>2.837925</hAcc><vAcc>0.928633</vAcc></extensions></trkpt>
      <trkpt lon="-82.302689" lat="35.643720"><ele>800.743713</ele><time>2022-06-19T14:04:02Z</time><extensions><speed>0.581174</speed><course>139.482330</course><hAcc>2.897788</hAcc><vAcc>0.977142</vAcc></extensions></trkpt>
      <trkpt lon="-82.302685" lat="35.643717"><ele>800.696594</ele><time>2022-06-19T14:04:03Z</time><extensions><speed>0.360956</speed><course>141.778809</course><hAcc>3.022281</hAcc><vAcc>1.045653</vAcc></extensions></trkpt>
      <trkpt lon="-82.302683" lat="35.643714"><ele>800.649475</ele><time>2022-06-19T14:04:04Z</time><extensions><speed>0.311741</speed><course>155.241989</course><hAcc>3.217902</hAcc><vAcc>1.137786</vAcc></extensions></trkpt>
      <trkpt lon="-82.302683" lat="35.643711"><ele>800.602478</ele><time>2022-06-19T14:04:05Z</time><extensions><speed>0.335385</speed><course>185.940491</course><hAcc>3.464379</hAcc><vAcc>1.255306</vAcc></extensions></trkpt>
      <trkpt lon="-82.302684" lat="35.643707"><ele>800.555725</ele><time>2022-06-19T14:04:06Z</time><extensions><speed>0.540132</speed><course>203.143280</course><hAcc>3.742541</hAcc><vAcc>1.399114</vAcc></extensions></trkpt>
    </trkseg>
  </trk>
</gpx>