<?xml version="1.0" encoding="UTF-8"?>
<gpx version="1.1" creator="Apple Health Export" xmlns="http://www.topografix.com/GPX/1/1" xmlns:xsi="http://www.w3.org/2001/XMLSchema-instance" xsi:schemaLocation="http://www.topografix.com/GPX/1/1 http://www.topografix.com/GPX/1/1/gpx.xsd">
  <metadata>
    <time>2026-03-14T12:16:59Z</time>
  </metadata>
  <trk>
    <name>Route 2025-07-04 11:07am</name>
    <trkseg>
      <trkpt lon="-82.300170" lat="35.646238"><ele>801.519774</ele><time>2025-07-04T14:59:53Z</time><extensions><speed>0.849462</speed><course>106.549760</course><hAcc>2.041498</hAcc><vAcc>1.984767</vAcc></extensions></trkpt>
      <trkpt lon="-82.300160" lat="35.646235"><ele>801.508402</ele><time>2025-07-04T14:59:54Z</time><extensions><speed>1.095306</speed><course>110.148464</course><hAcc>1.796332</hAcc><vAcc>1.794303</vAcc></extensions></trkpt>
      <trkpt lon="-82.300148" lat="35.646231"><ele>801.478479</ele><time>2025-07-04T14:59:55Z</time><extensions><speed>1.143716</speed><course>115.777505</course><hAcc>1.640251</hAcc><vAcc>1.641241</vAcc></extensions></trkpt>
      <trkpt lon="-82.300137" lat="35.646226"><ele>801.438118</ele><time>2025-07-04T14:59:56Z</time><extensions><speed>1.076372</speed><course>118.689734</course><hAcc>1.555134</hAcc><vAcc>1.520913</vAcc></extensions></trkpt>
      <trkpt lon="-82.300126" lat="35.646222"><ele>801.379533</ele><time>2025-07-04T14:59:57Z</time><extensions><speed>1.121003</speed><course>115.798747</course><hAcc>1.501376</hAcc><vAcc>1.427736</vAcc></extensions></trkpt>
      <trkpt lon="-82.300115" lat="35.646218"><ele>801.298558</ele><time>2025-07-04T14:59:58Z</time><extensions><speed>1.138408</speed><course>110.698036</course><hAcc>1.485315</hAcc><vAcc>1.357486</vAcc></extensions></trkpt>
      <trkpt lon="-82.300102" lat="35.646214"><ele>801.183920</ele><time>2025-07-04T14:59:59Z</time><extensions><speed>1.287056</speed><course>107.937787</course><hAcc>1.465822</hAcc><vAcc>1.303472</vAcc></extensions></trkpt>
      <trkpt lon="-82.300087" lat="35.646210"><ele>801.051506</ele><time>2025-07-04T15:00:00Z</time><extensions><speed>1.439392</speed><course>103.534417</course><hAcc>1.434396</hAcc><vAcc>1.261230</vAcc></extensions></trkpt>
      <trkpt lon="-82.300072" lat="35.646207"><ele>800.935452</ele><time>2025-07-04T15:00:01Z</time><extensions><speed>1.348875</speed><course>100.443647</course><hAcc>1.433871</hAcc><vAcc>1.228763</vAcc></extensions></trkpt>
      <trkpt lon="-82.300058" lat="35.646205"><ele>800.797907</ele><time>2025-07-04T15:00:02Z</time><extensions><speed>1.103314</speed><course>97.105091</course><hAcc>1.457425</hAcc><vAcc>1.208200</vAcc></extensions></trkpt>
      <trkpt lon="-82.300046" lat="35.646203"><ele>800.624370</ele><time>2025-07-04T15:00:03Z</time><extensions><speed>1.185769</speed><course>102.352806</course><hAcc>1.430081</hAcc><vAcc>1.193153</vAcc></extensions></trkpt>
      <trkpt lon="-82.300033" lat="35.646201"><ele>800.436199</ele><time>2025-07-04T15:00:04Z</time><extensions><speed>1.189453</speed><course>106.194975</course><hAcc>1.436296</hAcc><vAcc>1.183674</vAcc></extensions></trkpt>
      <trkpt lon="-82.300019" lat="35.646197"><ele>800.213532</ele><time>2025-07-04T15:00:05Z</time><extensions><speed>1.376865</speed><course>112.523596</course><hAcc>1.422780</hAcc><vAcc>1.174001</vAcc></extensions></trkpt>
      <trkpt lon="-82.300006" lat="35.646191"><ele>800.010493</ele><time>2025-07-04T15:00:06Z</time><extensions><speed>1.290152</speed><course>116.954865</course><hAcc>1.436505</hAcc><vAcc>1.168145</vAcc></extensions></trkpt>
      <trkpt lon="-82.299993" lat="35.646186"><ele>799.776757</ele><time>2025-07-04T15:00:07Z</time><extensions><speed>1.239468</speed><course>121.850514</course><hAcc>1.436225</hAcc><vAcc>1.161695</vAcc></extensions></trkpt>
      <trkpt lon="-82.299982" lat="35.646180"><ele>799.587291</ele><time>2025-07-04T15:00:08Z</time><extensions><speed>1.144934</speed><course>121.692674</course><hAcc>1.454876</hAcc><vAcc>1.157897</vAcc></extensions></trkpt>
      <trkpt lon="-82.299970" lat="35.646174"><ele>799.399190</ele><time>2025-07-04T15:00:09Z</time><extensions><speed>1.409969</speed><course>126.077872</course><hAcc>1.435514</hAcc><vAcc>1.149862</vAcc></extensions></trkpt>
      <trkpt lon="-82.299957" lat="35.646166"><ele>799.201896</ele><time>2025-07-04T15:00:10Z</time><extensions><speed>1.550306</speed><course>128.892222</course><hAcc>1.432038</hAcc><vAcc>1.139673</vAcc></extensions></trkpt>
      <trkpt lon="-82.299944" lat="35.646157"><ele>799.032536</ele><time>2025-07-04T15:00:11Z</time><extensions><speed>1.457788</speed><course>128.866050</course><hAcc>1.453857</hAcc><vAcc>1.128592</vAcc></extensions></trkpt>
      <trkpt lon="-82.299933" lat="35.646150"><ele>798.884663</ele><time>2025-07-04T15:00:12Z</time><extensions><speed>1.060866</speed><course>125.961788</course><hAcc>1.494532</hAcc><vAcc>1.115236</vAcc></extensions></trkpt>
      <trkpt lon="-82.299922" lat="35.646144"><ele>798.784035</ele><time>2025-07-04T15:00:13Z</time><extensions><speed>1.297336</speed><course>120.762072</course><hAcc>1.451149</hAcc><vAcc>1.104780</vAcc></extensions></trkpt>
      <trkpt lon="-82.299910" lat="35.646139"><ele>798.732928</ele><time>2025-07-04T15:00:14Z</time><extensions><speed>1.321326</speed><course>117.184024</course><hAcc>1.456622</hAcc><vAcc>1.093849</vAcc></extensions></trkpt>
      <trkpt lon="-82.299896" lat="35.646133"><ele>798.704175</ele><time>2025-07-04T15:00:15Z</time><extensions><speed>1.337052</speed><course>115.299181</course><hAcc>1.455554</hAcc><vAcc>1.079424</vAcc></extensions></trkpt>
      <trkpt lon="-82.299884" lat="35.646129"><ele>798.685739</ele><time>2025-07-04T15:00:16Z</time><extensions><speed>1.215834</speed><course>112.819817</course><hAcc>1.471209</hAcc><vAcc>1.062491</vAcc></extensions></trkpt>
      <trkpt lon="-82.299871" lat="35.646125"><ele>798.687815</ele><time>2025-07-04T15:00:17Z</time><extensions><speed>1.145354</speed><course>108.214937</course><hAcc>1.467778</hAcc><vAcc>1.044400</vAcc></extensions></trkpt>
      <trkpt lon="-82.299860" lat="35.646122"><ele>798.723705</ele><time>2025-07-04T15:00:18Z</time><extensions><speed>1.018023</speed><course>102.419432</course><hAcc>1.464114</hAcc><vAcc>1.025832</vAcc></extensions></trkpt>
      <trkpt lon="-82.299849" lat="35.646121"><ele>798.801900</ele><time>2025-07-04T15:00:19Z</time><extensions><speed>0.913902</speed><course>98.736454</course><hAcc>1.443375</hAcc><vAcc>1.006423</vAcc></extensions></trkpt>
      <trkpt lon="-82.299839" lat="35.646120"><ele>798.887889</ele><time>2025-07-04T15:00:20Z</time><extensions><speed>0.913657</speed><course>93.392001</course><hAcc>1.424806</hAcc><vAcc>0.986574</vAcc></extensions></trkpt>
      <trkpt lon="-82.299829" lat="35.646120"><ele>798.969430</ele><time>2025-07-04T15:00:21Z</time><extensions><speed>0.938114</speed><course>86.370697</course><hAcc>1.414799</hAcc><vAcc>0.966713</vAcc></extensions></trkpt>
      <trkpt lon="-82.299819" lat="35.646121"><ele>799.074967</ele><time>2025-07-04T15:00:22Z</time><extensions><speed>0.999744</speed><course>81.219418</course><hAcc>1.407587</hAcc><vAcc>0.947286</vAcc></extensions></trkpt>
      <trkpt lon="-82.299807" lat="35.646123"><ele>799.196593</ele><time>2025-07-04T15:00:23Z</time><extensions><speed>1.068141</speed><course>72.007540</course><hAcc>1.389309</hAcc><vAcc>0.927538</vAcc></extensions></trkpt>
      <trkpt lon="-82.299796" lat="35.646127"><ele>799.337160</ele><time>2025-07-04T15:00:24Z</time><extensions><speed>1.067362</speed><course>68.389377</course><hAcc>1.392557</hAcc><vAcc>0.908170</vAcc></extensions></trkpt>
      <trkpt lon="-82.299786" lat="35.646130"><ele>799.462714</ele><time>2025-07-04T15:00:25Z</time><extensions><speed>0.953717</speed><course>63.165122</course><hAcc>1.381215</hAcc><vAcc>0.890554</vAcc></extensions></trkpt>
      <trkpt lon="-82.299778" lat="35.646134"><ele>799.609657</ele><time>2025-07-04T15:00:26Z</time><extensions><speed>0.807273</speed><course>52.896837</course><hAcc>1.364786</hAcc><vAcc>0.874377</vAcc></extensions></trkpt>
      <trkpt lon="-82.299772" lat="35.646139"><ele>799.765033</ele><time>2025-07-04T15:00:27Z</time><extensions><speed>0.763277</speed><course>41.011468</course><hAcc>1.362999</hAcc><vAcc>0.859912</vAcc></extensions></trkpt>
      <trkpt lon="-82.299766" lat="35.646145"><ele>799.951206</ele><time>2025-07-04T15:00:28Z</time><extensions><speed>0.906235</speed><course>32.310239</course><hAcc>1.348832</hAcc><vAcc>0.847498</vAcc></extensions></trkpt>
      <trkpt lon="-82.299761" lat="35.646152"><ele>800.121334</ele><time>2025-07-04T15:00:29Z</time><extensions><speed>0.937197</speed><course>24.794404</course><hAcc>1.344581</hAcc><vAcc>0.838473</vAcc></extensions></trkpt>
      <trkpt lon="-82.299757" lat="35.646160"><ele>800.308060</ele><time>2025-07-04T15:00:30Z</time><extensions><speed>0.942777</speed><course>24.841276</course><hAcc>1.322719</hAcc><vAcc>0.831922</vAcc></extensions></trkpt>
      <trkpt lon="-82.299752" lat="35.646168"><ele>800.510050</ele><time>2025-07-04T15:00:31Z</time><extensions><speed>0.964261</speed><course>29.766425</course><hAcc>1.326905</hAcc><vAcc>0.828839</vAcc></extensions></trkpt>
      <trkpt lon="-82.299746" lat="35.646175"><ele>800.725972</ele><time>2025-07-04T15:00:32Z</time><extensions><speed>0.953779</speed><course>34.944304</course><hAcc>1.359976</hAcc><vAcc>0.828833</vAcc></extensions></trkpt>
      <trkpt lon="-82.299740" lat="35.646182"><ele>800.933126</ele><time>2025-07-04T15:00:33Z</time><extensions><speed>0.983162</speed><course>41.485761</course><hAcc>1.329272</hAcc><vAcc>0.832638</vAcc></extensions></trkpt>
      <trkpt lon="-82.299732" lat="35.646188"><ele>801.135315</ele><time>2025-07-04T15:00:34Z</time><extensions><speed>1.001329</speed><course>47.600585</course><hAcc>1.326501</hAcc><vAcc>0.838508</vAcc></extensions></trkpt>
      <trkpt lon="-82.299724" lat="35.646194"><ele>801.323069</ele><time>2025-07-04T15:00:35Z</time><extensions><speed>0.965073</speed><course>52.055980</course><hAcc>1.345472</hAcc><vAcc>0.846913</vAcc></extensions></trkpt>
      <trkpt lon="-82.299715" lat="35.646200"><ele>801.485667</ele><time>2025-07-04T15:00:36Z</time><extensions><speed>1.083383</speed><course>50.475883</course><hAcc>1.372403</hAcc><vAcc>0.858348</vAcc></extensions></trkpt>
      <trkpt lon="-82.299706" lat="35.646207"><ele>801.632952</ele><time>2025-07-04T15:00:37Z</time><extensions><speed>1.216761</speed><course>47.262779</course><hAcc>1.417549</hAcc><vAcc>0.871844</vAcc></extensions></trkpt>
      <trkpt lon="-82.299696" lat="35.646215"><ele>801.779671</ele><time>2025-07-04T15:00:38Z</time><extensions><speed>1.184738</speed><course>40.872232</course><hAcc>1.435037</hAcc><vAcc>0.886269</vAcc></extensions></trkpt>
      <trkpt lon="-82.299689" lat="35.646223"><ele>801.927200</ele><time>2025-07-04T15:00:39Z</time><extensions><speed>1.025228</speed><course>28.860941</course><hAcc>1.441457</hAcc><vAcc>0.900147</vAcc></extensions></trkpt>
      <trkpt lon="-82.299685" lat="35.646231"><ele>802.076034</ele><time>2025-07-04T15:00:40Z</time><extensions><speed>0.953562</speed><course>17.979475</course><hAcc>1.449606</hAcc><vAcc>0.915243</vAcc></extensions></trkpt>
      <trkpt lon="-82.299682" lat="35.646239"><ele>802.219881</ele><time>2025-07-04T15:00:41Z</time><extensions><speed>1.038893</speed><course>14.556772</course><hAcc>1.453094</hAcc><vAcc>0.930465</vAcc></extensions></trkpt>
      <trkpt lon="-82.299679" lat="35.646249"><ele>802.351777</ele><time>2025-07-04T15:00:42Z</time><extensions><speed>1.097242</speed><course>13.076462</course><hAcc>1.464778</hAcc><vAcc>0.946811</vAcc></extensions></trkpt>
      <trkpt lon="-82.299676" lat="35.646259"><ele>802.480758</ele><time>2025-07-04T15:00:43Z</time><extensions><speed>1.194204</speed><course>14.767940</course><hAcc>1.494836</hAcc><vAcc>0.963469</vAcc></extensions></trkpt>
      <trkpt lon="-82.299672" lat="35.646269"><ele>802.597000</ele><time>2025-07-04T15:00:44Z</time><extensions><speed>1.246919</speed><course>16.396626</course><hAcc>1.504010</hAcc><vAcc>0.979218</vAcc></extensions></trkpt>
      <trkpt lon="-82.299668" lat="35.646280"><ele>802.717428</ele><time>2025-07-04T15:00:45Z</time><extensions><speed>1.186141</speed><course>18.126663</course><hAcc>1.507838</hAcc><vAcc>0.994042</vAcc></extensions></trkpt>
      <trkpt lon="-82.299664" lat="35.646290"><ele>802.828412</ele><time>2025-07-04T15:00:46Z</time><extensions><speed>1.065932</speed><course>19.649974</course><hAcc>1.502640</hAcc><vAcc>1.009884</vAcc></extensions></trkpt>
      <trkpt lon="-82.299660" lat="35.646299"><ele>802.930910</ele><time>2025-07-04T15:00:47Z</time><extensions><speed>1.049439</speed><course>21.229590</course><hAcc>1.501968</hAcc><vAcc>1.024291</vAcc></extensions></trkpt>
      <trkpt lon="-82.299656" lat="35.646308"><ele>803.026594</ele><time>2025-07-04T15:00:48Z</time><extensions><speed>1.073032</speed><course>22.206362</course><hAcc>1.514805</hAcc><vAcc>1.038259</vAcc></extensions></trkpt>
      <trkpt lon="-82.299651" lat="35.646317"><ele>803.117200</ele><time>2025-07-04T15:00:49Z</time><extensions><speed>1.074627</speed><course>22.593104</course><hAcc>1.530235</hAcc><vAcc>1.050906</vAcc></extensions></trkpt>
      <trkpt lon="-82.299647" lat="35.646326"><ele>803.207094</ele><time>2025-07-04T15:00:50Z</time><extensions><speed>1.102213</speed><course>22.756341</course><hAcc>1.553237</hAcc><vAcc>1.063811</vAcc></extensions></trkpt>
      <trkpt lon="-82.299642" lat="35.646335"><ele>803.282028</ele><time>2025-07-04T15:00:51Z</time><extensions><speed>1.096012</speed><course>22.806038</course><hAcc>1.558700</hAcc><vAcc>1.077715</vAcc></extensions></trkpt>
      <trkpt lon="-82.299637" lat="35.646344"><ele>803.340667</ele><time>2025-07-04T15:00:52Z</time><extensions><speed>1.065866</speed><course>22.820350</course><hAcc>1.550656</hAcc><vAcc>1.091328</vAcc></extensions></trkpt>
      <trkpt lon="-82.299632" lat="35.646353"><ele>803.372909</ele><time>2025-07-04T15:00:53Z</time><extensions><speed>1.180951</speed><course>22.783132</course><hAcc>1.543264</hAcc><vAcc>1.102735</vAcc></extensions></trkpt>
      <trkpt lon="-82.299627" lat="35.646363"><ele>803.386036</ele><time>2025-07-04T15:00:54Z</time><extensions><speed>1.177315</speed><course>22.732092</course><hAcc>1.553697</hAcc><vAcc>1.115127</vAcc></extensions></trkpt>
      <trkpt lon="-82.299622" lat="35.646373"><ele>803.398178</ele><time>2025-07-04T15:00:55Z</time><extensions><speed>1.200604</speed><course>22.704338</course><hAcc>1.554853</hAcc><vAcc>1.126548</vAcc></extensions></trkpt>
      <trkpt lon="-82.299617" lat="35.646383"><ele>803.406728</ele><time>2025-07-04T15:00:56Z</time><extensions><speed>1.226195</speed><course>22.675310</course><hAcc>1.558784</hAcc><vAcc>1.137061</vAcc></extensions></trkpt>
      <trkpt lon="-82.299612" lat="35.646393"><ele>803.387524</ele><time>2025-07-04T15:00:57Z</time><extensions><speed>1.219362</speed><course>22.647508</course><hAcc>1.574103</hAcc><vAcc>1.145997</vAcc></extensions></trkpt>
      <trkpt lon="-82.299607" lat="35.646403"><ele>803.372945</ele><time>2025-07-04T15:00:58Z</time><extensions><speed>1.214728</speed><course>22.585664</course><hAcc>1.569123</hAcc><vAcc>1.155747</vAcc></extensions></trkpt>
      <trkpt lon="-82.299602" lat="35.646414"><ele>803.347560</ele><time>2025-07-04T15:00:59Z</time><extensions><speed>1.218855</speed><course>22.475182</course><hAcc>1.551671</hAcc><vAcc>1.165210</vAcc></extensions></trkpt>
      <trkpt lon="-82.299596" lat="35.646424"><ele>803.324258</ele><time>2025-07-04T15:01:00Z</time><extensions><speed>1.209418</speed><course>22.407788</course><hAcc>1.568549</hAcc><vAcc>1.174740</vAcc></extensions></trkpt>
      <trkpt lon="-82.299592" lat="35.646433"><ele>803.317018</ele><time>2025-07-04T15:01:01Z</time><extensions><speed>1.114315</speed><course>22.252021</course><hAcc>1.584696</hAcc><vAcc>1.182884</vAcc></extensions></trkpt>
      <trkpt lon="-82.299587" lat="35.646442"><ele>803.305859</ele><time>2025-07-04T15:01:02Z</time><extensions><speed>1.009721</speed><course>22.175502</course><hAcc>1.592741</hAcc><vAcc>1.185527</vAcc></extensions></trkpt>
      <trkpt lon="-82.299583" lat="35.646450"><ele>803.282339</ele><time>2025-07-04T15:01:03Z</time><extensions><speed>0.939309</speed><course>22.297943</course><hAcc>1.587031</hAcc><vAcc>1.186161</vAcc></extensions></trkpt>
      <trkpt lon="-82.299579" lat="35.646458"><ele>803.257301</ele><time>2025-07-04T15:01:04Z</time><extensions><speed>0.898963</speed><course>22.568933</course><hAcc>1.596972</hAcc><vAcc>1.187176</vAcc></extensions></trkpt>
      <trkpt lon="-82.299575" lat="35.646465"><ele>803.233040</ele><time>2025-07-04T15:01:05Z</time><extensions><speed>0.826463</speed><course>23.365379</course><hAcc>1.614353</hAcc><vAcc>1.185249</vAcc></extensions></trkpt>
      <trkpt lon="-82.299572" lat="35.646472"><ele>803.206192</ele><time>2025-07-04T15:01:06Z</time><extensions><speed>0.754615</speed><course>24.631424</course><hAcc>1.624920</hAcc><vAcc>1.181116</vAcc></extensions></trkpt>
      <trkpt lon="-82.299568" lat="35.646478"><ele>803.165863</ele><time>2025-07-04T15:01:07Z</time><extensions><speed>0.701761</speed><course>26.417493</course><hAcc>1.635594</hAcc><vAcc>1.173419</vAcc></extensions></trkpt>
      <trkpt lon="-82.299565" lat="35.646483"><ele>803.128000</ele><time>2025-07-04T15:01:08Z</time><extensions><speed>0.728607</speed><course>28.605058</course><hAcc>1.638231</hAcc><vAcc>1.166780</vAcc></extensions></trkpt>
      <trkpt lon="-82.299560" lat="35.646489"><ele>803.087399</ele><time>2025-07-04T15:01:09Z</time><extensions><speed>0.794513</speed><course>31.461780</course><hAcc>1.630380</hAcc><vAcc>1.159963</vAcc></extensions></trkpt>
      <trkpt lon="-82.299555" lat="35.646495"><ele>803.078726</ele><time>2025-07-04T15:01:10Z</time><extensions><speed>0.864942</speed><course>35.097267</course><hAcc>1.619430</hAcc><vAcc>1.152797</vAcc></extensions></trkpt>
      <trkpt lon="-82.299549" lat="35.646502"><ele>803.072732</ele><time>2025-07-04T15:01:11Z</time><extensions><speed>0.923340</speed><course>38.935328</course><hAcc>1.622369</hAcc><vAcc>1.145669</vAcc></extensions></trkpt>
      <trkpt lon="-82.299542" lat="35.646508"><ele>803.066829</ele><time>2025-07-04T15:01:12Z</time><extensions><speed>0.963553</speed><course>42.739143</course><hAcc>1.642093</hAcc><vAcc>1.138617</vAcc></extensions></trkpt>
      <trkpt lon="-82.299535" lat="35.646515"><ele>803.080838</ele><time>2025-07-04T15:01:13Z</time><extensions><speed>0.946780</speed><course>42.177053</course><hAcc>1.645270</hAcc><vAcc>1.131918</vAcc></extensions></trkpt>
      <trkpt lon="-82.299529" lat="35.646521"><ele>803.098018</ele><time>2025-07-04T15:01:14Z</time><extensions><speed>0.859828</speed><course>42.219107</course><hAcc>1.631299</hAcc><vAcc>1.125790</vAcc></extensions></trkpt>
      <trkpt lon="-82.299522" lat="35.646526"><ele>803.118072</ele><time>2025-07-04T15:01:15Z</time><extensions><speed>0.798974</speed><course>43.006532</course><hAcc>1.635820</hAcc><vAcc>1.120039</vAcc></extensions></trkpt>
      <trkpt lon="-82.299517" lat="35.646531"><ele>803.141137</ele><time>2025-07-04T15:01:16Z</time><extensions><speed>0.717469</speed><course>44.353732</course><hAcc>1.652950</hAcc><vAcc>1.115513</vAcc></extensions></trkpt>
      <trkpt lon="-82.299511" lat="35.646536"><ele>803.167504</ele><time>2025-07-04T15:01:17Z</time><extensions><speed>0.660048</speed><course>44.126915</course><hAcc>1.668937</hAcc><vAcc>1.112318</vAcc></extensions></trkpt>
      <trkpt lon="-82.299507" lat="35.646540"><ele>803.197649</ele><time>2025-07-04T15:01:18Z</time><extensions><speed>0.561613</speed><course>40.471997</course><hAcc>1.686788</hAcc><vAcc>1.109807</vAcc></extensions></trkpt>
      <trkpt lon="-82.299504" lat="35.646543"><ele>803.230761</ele><time>2025-07-04T15:01:19Z</time><extensions><speed>0.417966</speed><course>33.225210</course><hAcc>1.687798</hAcc><vAcc>1.108475</vAcc></extensions></trkpt>
      <trkpt lon="-82.299502" lat="35.646546"><ele>803.266260</ele><time>2025-07-04T15:01:20Z</time><extensions><speed>0.301773</speed><course>27.000495</course><hAcc>1.691381</hAcc><vAcc>1.108347</vAcc></extensions></trkpt>
      <trkpt lon="-82.299501" lat="35.646548"><ele>803.303563</ele><time>2025-07-04T15:01:21Z</time><extensions><speed>0.130505</speed><course>15.129393</course><hAcc>1.706096</hAcc><vAcc>1.108912</vAcc></extensions></trkpt>
      <trkpt lon="-82.299501" lat="35.646548"><ele>803.336254</ele><time>2025-07-04T15:01:22Z</time><extensions><speed>0.040524</speed><course>321.808724</course><hAcc>1.716217</hAcc><vAcc>1.110463</vAcc></extensions></trkpt>
      <trkpt lon="-82.299501" lat="35.646549"><ele>803.368464</ele><time>2025-07-04T15:01:23Z</time><extensions><speed>0.050629</speed><course>260.600463</course><hAcc>1.718876</hAcc><vAcc>1.110359</vAcc></extensions></trkpt>
      <trkpt lon="-82.299502" lat="35.646548"><ele>803.389403</ele><time>2025-07-04T15:01:24Z</time><extensions><speed>0.070518</speed><course>246.172005</course><hAcc>1.718592</hAcc><vAcc>1.110344</vAcc></extensions></trkpt>
      <trkpt lon="-82.299502" lat="35.646548"><ele>803.405239</ele><time>2025-07-04T15:01:25Z</time><extensions><speed>0.068620</speed><course>243.699936</course><hAcc>1.716577</hAcc><vAcc>1.110260</vAcc></extensions></trkpt>
      <trkpt lon="-82.299503" lat="35.646548"><ele>803.458460</ele><time>2025-07-04T15:01:26Z</time><extensions><speed>0.059215</speed><course>239.629700</course><hAcc>1.715313</hAcc><vAcc>1.109470</vAcc></extensions></trkpt>
      <trkpt lon="-82.299503" lat="35.646548"><ele>803.501567</ele><time>2025-07-04T15:01:27Z</time><extensions><speed>0.047365</speed><course>234.483913</course><hAcc>1.712934</hAcc><vAcc>1.109305</vAcc></extensions></trkpt>
      <trkpt lon="-82.299504" lat="35.646547"><ele>803.538743</ele><time>2025-07-04T15:01:28Z</time><extensions><speed>0.038837</speed><course>226.988368</course><hAcc>1.708436</hAcc><vAcc>1.109842</vAcc></extensions></trkpt>
      <trkpt lon="-82.299504" lat="35.646547"><ele>803.584913</ele><time>2025-07-04T15:01:29Z</time><extensions><speed>0.033463</speed><course>219.339840</course><hAcc>1.707193</hAcc><vAcc>1.110162</vAcc></extensions></trkpt>
      <trkpt lon="-82.299504" lat="35.646547"><ele>803.630084</ele><time>2025-07-04T15:01:30Z</time><extensions><speed>0.030154</speed><course>212.518514</course><hAcc>1.709387</hAcc><vAcc>1.109446</vAcc></extensions></trkpt>
      <trkpt lon="-82.299505" lat="35.646547"><ele>803.690131</ele><time>2025-07-04T15:01:31Z</time><extensions><speed>0.024648</speed><course>210.804248</course><hAcc>1.711909</hAcc><vAcc>1.106422</vAcc></extensions></trkpt>
      <trkpt lon="-82.299505" lat="35.646547"><ele>803.752564</ele><time>2025-07-04T15:01:32Z</time><extensions><speed>0.009649</speed><course>235.701276</course><hAcc>1.711796</hAcc><vAcc>1.103344</vAcc></extensions></trkpt>
      <trkpt lon="-82.299505" lat="35.646547"><ele>803.820845</ele><time>2025-07-04T15:01:33Z</time><extensions><speed>0.027442</speed><course>5.779009</course><hAcc>1.696161</hAcc><vAcc>1.099572</vAcc></extensions></trkpt>
      <trkpt lon="-82.299504" lat="35.646547"><ele>803.901652</ele><time>2025-07-04T15:01:34Z</time><extensions><speed>0.093698</speed><course>18.350650</course><hAcc>1.674970</hAcc><vAcc>1.095412</vAcc></extensions></trkpt>
      <trkpt lon="-82.299504" lat="35.646548"><ele>803.968239</ele><time>2025-07-04T15:01:35Z</time><extensions><speed>0.123024</speed><course>12.987142</course><hAcc>1.650499</hAcc><vAcc>1.090814</vAcc></extensions></trkpt>
      <trkpt lon="-82.299504" lat="35.646550"><ele>804.044110</ele><time>2025-07-04T15:01:36Z</time><extensions><speed>0.174697</speed><course>14.108912</course><hAcc>1.623921</hAcc><vAcc>1.086295</vAcc></extensions></trkpt>
      <trkpt lon="-82.299503" lat="35.646551"><ele>804.116422</ele><time>2025-07-04T15:01:37Z</time><extensions><speed>0.117567</speed><course>2.742630</course><hAcc>1.615347</hAcc><vAcc>1.081986</vAcc></extensions></trkpt>
      <trkpt lon="-82.299504" lat="35.646552"><ele>804.187899</ele><time>2025-07-04T15:01:38Z</time><extensions><speed>0.064020</speed><course>350.213780</course><hAcc>1.632601</hAcc><vAcc>1.077914</vAcc></extensions></trkpt>
      <trkpt lon="-82.299504" lat="35.646552"><ele>804.258316</ele><time>2025-07-04T15:01:39Z</time><extensions><speed>0.052233</speed><course>349.905334</course><hAcc>1.640828</hAcc><vAcc>1.073633</vAcc></extensions></trkpt>
      <trkpt lon="-82.299504" lat="35.646553"><ele>804.327102</ele><time>2025-07-04T15:01:40Z</time><extensions><speed>0.067488</speed><course>355.564605</course><hAcc>1.616069</hAcc><vAcc>1.069501</vAcc></extensions></trkpt>
      <trkpt lon="-82.299504" lat="35.646554"><ele>804.393716</ele><time>2025-07-04T15:01:41Z</time><extensions><speed>0.108158</speed><course>1.574555</course><hAcc>1.578040</hAcc><vAcc>1.065761</vAcc></extensions></trkpt>
      <trkpt lon="-82.299504" lat="35.646554"><ele>804.457556</ele><time>2025-07-04T15:01:42Z</time><extensions><speed>0.096145</speed><course>4.714799</course><hAcc>1.596708</hAcc><vAcc>1.062330</vAcc></extensions></trkpt>
      <trkpt lon="-82.299504" lat="35.646555"><ele>804.518087</ele><time>2025-07-04T15:01:43Z</time><extensions><speed>0.081648</speed><course>7.535156</course><hAcc>1.619403</hAcc><vAcc>1.059556</vAcc></extensions></trkpt>
      <trkpt lon="-82.299503" lat="35.646556"><ele>804.574833</ele><time>2025-07-04T15:01:44Z</time><extensions><speed>0.067139</speed><course>11.615162</course><hAcc>1.627132</hAcc><vAcc>1.057583</vAcc></extensions></trkpt>
      <trkpt lon="-82.299503" lat="35.646556"><ele>804.640571</ele><time>2025-07-04T15:01:45Z</time><extensions><speed>0.061507</speed><course>17.464996</course><hAcc>1.605157</hAcc><vAcc>1.056239</vAcc></extensions></trkpt>
      <trkpt lon="-82.299503" lat="35.646557"><ele>804.711103</ele><time>2025-07-04T15:01:46Z</time><extensions><speed>0.061417</speed><course>21.417495</course><hAcc>1.582885</hAcc><vAcc>1.053864</vAcc></extensions></trkpt>
      <trkpt lon="-82.299503" lat="35.646557"><ele>804.779473</ele><time>2025-07-04T15:01:47Z</time><extensions><speed>0.010171</speed><course>37.748054</course><hAcc>1.599105</hAcc><vAcc>1.053582</vAcc></extensions></trkpt>
      <trkpt lon="-82.299503" lat="35.646557"><ele>804.853483</ele><time>2025-07-04T15:01:48Z</time><extensions><speed>0.013342</speed><course>186.279209</course><hAcc>1.591566</hAcc><vAcc>1.052561</vAcc></extensions></trkpt>
      <trkpt lon="-82.299503" lat="35.646557"><ele>804.918744</ele><time>2025-07-04T15:01:49Z</time><extensions><speed>0.027248</speed><course>194.994986</course><hAcc>1.571912</hAcc><vAcc>1.052834</vAcc></extensions></trkpt>
      <trkpt lon="-82.299503" lat="35.646556"><ele>804.983902</ele><time>2025-07-04T15:01:50Z</time><extensions><speed>0.039522</speed><course>198.076025</course><hAcc>1.554853</hAcc><vAcc>1.054107</vAcc></extensions></trkpt>
      <trkpt lon="-82.299503" lat="35.646556"><ele>805.039554</ele><time>2025-07-04T15:01:51Z</time><extensions><speed>0.052680</speed><course>199.521119</course><hAcc>1.542850</hAcc><vAcc>1.055039</vAcc></extensions></trkpt>
      <trkpt lon="-82.299504" lat="35.646555"><ele>805.069805</ele><time>2025-07-04T15:01:52Z</time><extensions><speed>0.067637</speed><course>199.681219</course><hAcc>1.535248</hAcc><vAcc>1.055780</vAcc></extensions></trkpt>
      <trkpt lon="-82.299504" lat="35.646555"><ele>805.081881</ele><time>2025-07-04T15:01:53Z</time><extensions><speed>0.081231</speed><course>199.975436</course><hAcc>1.536314</hAcc><vAcc>1.056100</vAcc></extensions></trkpt>
      <trkpt lon="-82.299504" lat="35.646554"><ele>805.084916</ele><time>2025-07-04T15:01:54Z</time><extensions><speed>0.092142</speed><course>199.584852</course><hAcc>1.543200</hAcc><vAcc>1.056886</vAcc></extensions></trkpt>
      <trkpt lon="-82.299504" lat="35.646553"><ele>805.081484</ele><time>2025-07-04T15:01:55Z</time><extensions><speed>0.096347</speed><course>197.871216</course><hAcc>1.547455</hAcc><vAcc>1.057652</vAcc></extensions></trkpt>
      <trkpt lon="-82.299505" lat="35.646552"><ele>805.072272</ele><time>2025-07-04T15:01:56Z</time><extensions><speed>0.093611</speed><course>194.376056</course><hAcc>1.558240</hAcc><vAcc>1.058292</vAcc></extensions></trkpt>
      <trkpt lon="-82.299505" lat="35.646552"><ele>805.057418</ele><time>2025-07-04T15:01:57Z</time><extensions><speed>0.057607</speed><course>188.258441</course><hAcc>1.594996</hAcc><vAcc>1.058992</vAcc></extensions></trkpt>
      <trkpt lon="-82.299505" lat="35.646551"><ele>805.036549</ele><time>2025-07-04T15:01:58Z</time><extensions><speed>0.052950</speed><course>176.566447</course><hAcc>1.574645</hAcc><vAcc>1.059511</vAcc></extensions></trkpt>
      <trkpt lon="-82.299505" lat="35.646551"><ele>805.009970</ele><time>2025-07-04T15:01:59Z</time><extensions><speed>0.046796</speed><course>172.748889</course><hAcc>1.600574</hAcc><vAcc>1.059871</vAcc></extensions></trkpt>
      <trkpt lon="-82.299505" lat="35.646550"><ele>804.978556</ele><time>2025-07-04T15:02:00Z</time><extensions><speed>0.044458</speed><course>164.070214</course><hAcc>1.614209</hAcc><vAcc>1.060586</vAcc></extensions></trkpt>
      <trkpt lon="-82.299505" lat="35.646550"><ele>804.909225</ele><time>2025-07-04T15:02:01Z</time><extensions><speed>0.035427</speed><course>151.394744</course><hAcc>1.634970</hAcc><vAcc>1.059602</vAcc></extensions></trkpt>
      <trkpt lon="-82.299504" lat="35.646550"><ele>804.833405</ele><time>2025-07-04T15:02:02Z</time><extensions><speed>0.024210</speed><course>130.125678</course><hAcc>1.643163</hAcc><vAcc>1.058205</vAcc></extensions></trkpt>
      <trkpt lon="-82.299504" lat="35.646550"><ele>804.762014</ele><time>2025-07-04T15:02:03Z</time><extensions><speed>0.021518</speed><course>96.683490</course><hAcc>1.615731</hAcc><vAcc>1.056448</vAcc></extensions></trkpt>
      <trkpt lon="-82.299504" lat="35.646550"><ele>804.681330</ele><time>2025-07-04T15:02:04Z</time><extensions><speed>0.019456</speed><course>81.347500</course><hAcc>1.602050</hAcc><vAcc>1.054279</vAcc></extensions></trkpt>
      <trkpt lon="-82.299504" lat="35.646550"><ele>804.611690</ele><time>2025-07-04T15:02:05Z</time><extensions><speed>0.010475</speed><course>112.405322</course><hAcc>1.610835</hAcc><vAcc>1.051837</vAcc></extensions></trkpt>
      <trkpt lon="-82.299504" lat="35.646550"><ele>804.542648</ele><time>2025-07-04T15:02:06Z</time><extensions><speed>0.006372</speed><course>117.295223</course><hAcc>1.601227</hAcc><vAcc>1.049141</vAcc></extensions></trkpt>
      <trkpt lon="-82.299504" lat="35.646550"><ele>804.480637</ele><time>2025-07-04T15:02:07Z</time><extensions><speed>0.003833</speed><course>81.645551</course><hAcc>1.589575</hAcc><vAcc>1.046285</vAcc></extensions></trkpt>
      <trkpt lon="-82.299504" lat="35.646550"><ele>804.419243</ele><time>2025-07-04T15:02:08Z</time><extensions><speed>0.005658</speed><course>30.505489</course><hAcc>1.585590</hAcc><vAcc>1.044398</vAcc></extensions></trkpt>
      <trkpt lon="-82.299504" lat="35.646550"><ele>804.360929</ele><time>2025-07-04T15:02:09Z</time><extensions><speed>0.009915</speed><course>14.120144</course><hAcc>1.594698</hAcc><vAcc>1.041354</vAcc></extensions></trkpt>
      <trkpt lon="-82.299504" lat="35.646550"><ele>804.305733</ele><time>2025-07-04T15:02:10Z</time><extensions><speed>0.014784</speed><course>8.837328</course><hAcc>1.614229</hAcc><vAcc>1.038205</vAcc></extensions></trkpt>
      <trkpt lon="-82.299504" lat="35.646550"><ele>804.254430</ele><time>2025-07-04T15:02:11Z</time><extensions><speed>0.023382</speed><course>7.542650</course><hAcc>1.617808</hAcc><vAcc>1.034975</vAcc></extensions></trkpt>
      <trkpt lon="-82.299504" lat="35.646550"><ele>804.207050</ele><time>2025-07-04T15:02:12Z</time><extensions><speed>0.030897</speed><course>5.202785</course><hAcc>1.613239</hAcc><vAcc>1.033127</vAcc></extensions></trkpt>
      <trkpt lon="-82.299504" lat="35.646551"><ele>804.165498</ele><time>2025-07-04T15:02:13Z</time><extensions><speed>0.032395</speed><course>359.615051</course><hAcc>1.619788</hAcc><vAcc>1.030179</vAcc></extensions></trkpt>
      <trkpt lon="-82.299504" lat="35.646551"><ele>804.129113</ele><time>2025-07-04T15:02:14Z</time><extensions><speed>0.022874</speed><course>341.614560</course><hAcc>1.637484</hAcc><vAcc>1.027528</vAcc></extensions></trkpt>
      <trkpt lon="-82.299504" lat="35.646551"><ele>804.109671</ele><time>2025-07-04T15:02:15Z</time><extensions><speed>0.019566</speed><course>315.343889</course><hAcc>1.634322</hAcc><vAcc>1.025205</vAcc></extensions></trkpt>
      <trkpt lon="-82.299504" lat="35.646551"><ele>804.095850</ele><time>2025-07-04T15:02:16Z</time><extensions><speed>0.014155</speed><course>272.217873</course><hAcc>1.639749</hAcc><vAcc>1.023157</vAcc></extensions></trkpt>
      <trkpt lon="-82.299504" lat="35.646551"><ele>804.087177</ele><time>2025-07-04T15:02:17Z</time><extensions><speed>0.012579</speed><course>273.777852</course><hAcc>1.608244</hAcc><vAcc>1.021441</vAcc></extensions></trkpt>
      <trkpt lon="-82.299504" lat="35.646551"><ele>804.100173</ele><time>2025-07-04T15:02:18Z</time><extensions><speed>0.013243</speed><course>229.628553</course><hAcc>1.611090</hAcc><vAcc>1.020144</vAcc></extensions></trkpt>
      <trkpt lon="-82.299504" lat="35.646551"><ele>804.121561</ele><time>2025-07-04T15:02:19Z</time><extensions><speed>0.012644</speed><course>223.371666</course><hAcc>1.587405</hAcc><vAcc>1.018523</vAcc></extensions></trkpt>
      <trkpt lon="-82.299504" lat="35.646551"><ele>804.149859</ele><time>2025-07-04T15:02:20Z</time><extensions><speed>0.009098</speed><course>228.305413</course><hAcc>1.564619</hAcc><vAcc>1.017270</vAcc></extensions></trkpt>
      <trkpt lon="-82.299504" lat="35.646551"><ele>804.182515</ele><time>2025-07-04T15:02:21Z</time><extensions><speed>0.005250</speed><course>248.433187</course><hAcc>1.557120</hAcc><vAcc>1.016446</vAcc></extensions></trkpt>
      <trkpt lon="-82.299505" lat="35.646551"><ele>804.227944</ele><time>2025-07-04T15:02:22Z</time><extensions><speed>0.003606</speed><course>298.500399</course><hAcc>1.565201</hAcc><vAcc>1.015759</vAcc></extensions></trkpt>
      <trkpt lon="-82.299505" lat="35.646551"><ele>804.278337</ele><time>2025-07-04T15:02:23Z</time><extensions><speed>0.006501</speed><course>335.714962</course><hAcc>1.552757</hAcc><vAcc>1.015103</vAcc></extensions></trkpt>
      <trkpt lon="-82.299505" lat="35.646551"><ele>804.335307</ele><time>2025-07-04T15:02:24Z</time><extensions><speed>0.009579</speed><course>347.544652</course><hAcc>1.553780</hAcc><vAcc>1.014698</vAcc></extensions></trkpt>
      <trkpt lon="-82.299505" lat="35.646551"><ele>804.391190</ele><time>2025-07-04T15:02:25Z</time><extensions><speed>0.012245</speed><course>350.949178</course><hAcc>1.566104</hAcc><vAcc>1.013933</vAcc></extensions></trkpt>
      <trkpt lon="-82.299505" lat="35.646551"><ele>804.440941</ele><time>2025-07-04T15:02:26Z</time><extensions><speed>0.014240</speed><course>349.110594</course><hAcc>1.581104</hAcc><vAcc>1.013524</vAcc></extensions></trkpt>
      <trkpt lon="-82.299505" lat="35.646551"><ele>804.495954</ele><time>2025-07-04T15:02:27Z</time><extensions><speed>0.015812</speed><course>347.102717</course><hAcc>1.589063</hAcc><vAcc>1.015345</vAcc></extensions></trkpt>
      <trkpt lon="-82.299505" lat="35.646551"><ele>804.562249</ele><time>2025-07-04T15:02:28Z</time><extensions><speed>0.017896</speed><course>344.449884</course><hAcc>1.583019</hAcc><vAcc>1.017852</vAcc></extensions></trkpt>
      <trkpt lon="-82.299505" lat="35.646551"><ele>804.618473</ele><time>2025-07-04T15:02:29Z</time><extensions><speed>0.009798</speed><course>313.879265</course><hAcc>1.607589</hAcc><vAcc>1.020537</vAcc></extensions></trkpt>
      <trkpt lon="-82.299505" lat="35.646551"><ele>804.668538</ele><time>2025-07-04T15:02:30Z</time><extensions><speed>0.012001</speed><course>225.087345</course><hAcc>1.651756</hAcc><vAcc>1.024174</vAcc></extensions></trkpt>
      <trkpt lon="-82.299505" lat="35.646551"><ele>804.716545</ele><time>2025-07-04T15:02:31Z</time><extensions><speed>0.021924</speed><course>205.393995</course><hAcc>1.675732</hAcc><vAcc>1.028575</vAcc></extensions></trkpt>
      <trkpt lon="-82.299505" lat="35.646551"><ele>804.760358</ele><time>2025-07-04T15:02:32Z</time><extensions><speed>0.027851</speed><course>198.895150</course><hAcc>1.677626</hAcc><vAcc>1.033069</vAcc></extensions></trkpt>
      <trkpt lon="-82.299505" lat="35.646551"><ele>804.789394</ele><time>2025-07-04T15:02:33Z</time><extensions><speed>0.030996</speed><course>195.356939</course><hAcc>1.671713</hAcc><vAcc>1.037690</vAcc></extensions></trkpt>
      <trkpt lon="-82.299505" lat="35.646551"><ele>804.817771</ele><time>2025-07-04T15:02:34Z</time><extensions><speed>0.020144</speed><course>198.743754</course><hAcc>1.696403</hAcc><vAcc>1.044137</vAcc></extensions></trkpt>
      <trkpt lon="-82.299505" lat="35.646550"><ele>804.846375</ele><time>2025-07-04T15:02:35Z</time><extensions><speed>0.008080</speed><course>351.340952</course><hAcc>1.730548</hAcc><vAcc>1.049232</vAcc></extensions></trkpt>
      <trkpt lon="-82.299505" lat="35.646551"><ele>804.871045</ele><time>2025-07-04T15:02:36Z</time><extensions><speed>0.031761</speed><course>8.587466</course><hAcc>1.753389</hAcc><vAcc>1.055208</vAcc></extensions></trkpt>
      <trkpt lon="-82.299505" lat="35.646551"><ele>804.891318</ele><time>2025-07-04T15:02:37Z</time><extensions><speed>0.073766</speed><course>11.144787</course><hAcc>1.753371</hAcc><vAcc>1.060077</vAcc></extensions></trkpt>
      <trkpt lon="-82.299505" lat="35.646552"><ele>804.907904</ele><time>2025-07-04T15:02:38Z</time><extensions><speed>0.110789</speed><course>11.746195</course><hAcc>1.758265</hAcc><vAcc>1.065270</vAcc></extensions></trkpt>
      <trkpt lon="-82.299505" lat="35.646553"><ele>804.920925</ele><time>2025-07-04T15:02:39Z</time><extensions><speed>0.053210</speed><course>26.518951</course><hAcc>1.760134</hAcc><vAcc>1.070150</vAcc></extensions></trkpt>
      <trkpt lon="-82.299504" lat="35.646553"><ele>804.930743</ele><time>2025-07-04T15:02:40Z</time><extensions><speed>0.041820</speed><course>148.915405</course><hAcc>1.758291</hAcc><vAcc>1.074451</vAcc></extensions></trkpt>
      <trkpt lon="-82.299504" lat="35.646552"><ele>804.937816</ele><time>2025-07-04T15:02:41Z</time><extensions><speed>0.063748</speed><course>147.410382</course><hAcc>1.749784</hAcc><vAcc>1.078014</vAcc></extensions></trkpt>
      <trkpt lon="-82.299504" lat="35.646552"><ele>804.980053</ele><time>2025-07-04T15:02:42Z</time><extensions><speed>0.087064</speed><course>152.321359</course><hAcc>1.745754</hAcc><vAcc>1.079430</vAcc></extensions></trkpt>
      <trkpt lon="-82.299503" lat="35.646551"><ele>805.029677</ele><time>2025-07-04T15:02:43Z</time><extensions><speed>0.088788</speed><course>151.838847</course><hAcc>1.745036</hAcc><vAcc>1.080040</vAcc></extensions></trkpt>
      <trkpt lon="-82.299503" lat="35.646550"><ele>805.078326</ele><time>2025-07-04T15:02:44Z</time><extensions><speed>0.069534</speed><course>146.841057</course><hAcc>1.745820</hAcc><vAcc>1.080680</vAcc></extensions></trkpt>
      <trkpt lon="-82.299502" lat="35.646550"><ele>805.127155</ele><time>2025-07-04T15:02:45Z</time><extensions><speed>0.050424</speed><course>131.146915</course><hAcc>1.731892</hAcc><vAcc>1.081182</vAcc></extensions></trkpt>
      <trkpt lon="-82.299502" lat="35.646550"><ele>805.177368</ele><time>2025-07-04T15:02:46Z</time><extensions><speed>0.044056</speed><course>144.415160</course><hAcc>1.726776</hAcc><vAcc>1.081056</vAcc></extensions></trkpt>
      <trkpt lon="-82.299502" lat="35.646549"><ele>805.236593</ele><time>2025-07-04T15:02:47Z</time><extensions><speed>0.031824</speed><course>143.675103</course><hAcc>1.722282</hAcc><vAcc>1.079082</vAcc></extensions></trkpt>
      <trkpt lon="-82.299502" lat="35.646549"><ele>805.296851</ele><time>2025-07-04T15:02:48Z</time><extensions><speed>0.018233</speed><course>123.526568</course><hAcc>1.722080</hAcc><vAcc>1.076745</vAcc></extensions></trkpt>
      <trkpt lon="-82.299501" lat="35.646549"><ele>805.358247</ele><time>2025-07-04T15:02:49Z</time><extensions><speed>0.016250</speed><course>62.813256</course><hAcc>1.724338</hAcc><vAcc>1.074060</vAcc></extensions></trkpt>
      <trkpt lon="-82.299501" lat="35.646549"><ele>805.420557</ele><time>2025-07-04T15:02:50Z</time><extensions><speed>0.031669</speed><course>31.751731</course><hAcc>1.724751</hAcc><vAcc>1.071186</vAcc></extensions></trkpt>
      <trkpt lon="-82.299501" lat="35.646550"><ele>805.483487</ele><time>2025-07-04T15:02:51Z</time><extensions><speed>0.054426</speed><course>23.744107</course><hAcc>1.720432</hAcc><vAcc>1.067969</vAcc></extensions></trkpt>
      <trkpt lon="-82.299501" lat="35.646550"><ele>805.546235</ele><time>2025-07-04T15:02:52Z</time><extensions><speed>0.083130</speed><course>21.680444</course><hAcc>1.709776</hAcc><vAcc>1.064959</vAcc></extensions></trkpt>
      <trkpt lon="-82.299500" lat="35.646551"><ele>805.618318</ele><time>2025-07-04T15:02:53Z</time><extensions><speed>0.080060</speed><course>23.242947</course><hAcc>1.708500</hAcc><vAcc>1.061977</vAcc></extensions></trkpt>
      <trkpt lon="-82.299500" lat="35.646552"><ele>805.692604</ele><time>2025-07-04T15:02:54Z</time><extensions><speed>0.066324</speed><course>25.272404</course><hAcc>1.716559</hAcc><vAcc>1.058448</vAcc></extensions></trkpt>
      <trkpt lon="-82.299500" lat="35.646552"><ele>805.763251</ele><time>2025-07-04T15:02:55Z</time><extensions><speed>0.060187</speed><course>25.945893</course><hAcc>1.726557</hAcc><vAcc>1.053063</vAcc></extensions></trkpt>
      <trkpt lon="-82.299499" lat="35.646553"><ele>805.839226</ele><time>2025-07-04T15:02:56Z</time><extensions><speed>0.061852</speed><course>26.053179</course><hAcc>1.726342</hAcc><vAcc>1.044745</vAcc></extensions></trkpt>
      <trkpt lon="-82.299499" lat="35.646553"><ele>805.908994</ele><time>2025-07-04T15:02:57Z</time><extensions><speed>0.062666</speed><course>25.865946</course><hAcc>1.717977</hAcc><vAcc>1.039093</vAcc></extensions></trkpt>
      <trkpt lon="-82.299499" lat="35.646554"><ele>805.973537</ele><time>2025-07-04T15:02:58Z</time><extensions><speed>0.053512</speed><course>25.762233</course><hAcc>1.718348</hAcc><vAcc>1.033665</vAcc></extensions></trkpt>
      <trkpt lon="-82.299499" lat="35.646554"><ele>806.027682</ele><time>2025-07-04T15:02:59Z</time><extensions><speed>0.042982</speed><course>25.481687</course><hAcc>1.724081</hAcc><vAcc>1.029068</vAcc></extensions></trkpt>
      <trkpt lon="-82.299499" lat="35.646554"><ele>806.071061</ele><time>2025-07-04T15:03:00Z</time><extensions><speed>0.034563</speed><course>24.319687</course><hAcc>1.730021</hAcc><vAcc>1.024796</vAcc></extensions></trkpt>
      <trkpt lon="-82.299498" lat="35.646555"><ele>806.117224</ele><time>2025-07-04T15:03:01Z</time><extensions><speed>0.028765</speed><course>21.823681</course><hAcc>1.735532</hAcc><vAcc>1.020348</vAcc></extensions></trkpt>
      <trkpt lon="-82.299498" lat="35.646555"><ele>806.161199</ele><time>2025-07-04T15:03:02Z</time><extensions><speed>0.024694</speed><course>14.997786</course><hAcc>1.741716</hAcc><vAcc>1.016979</vAcc></extensions></trkpt>
      <trkpt lon="-82.299498" lat="35.646555"><ele>806.204463</ele><time>2025-07-04T15:03:03Z</time><extensions><speed>0.020626</speed><course>357.669441</course><hAcc>1.746022</hAcc><vAcc>1.013880</vAcc></extensions></trkpt>
      <trkpt lon="-82.299498" lat="35.646555"><ele>806.240693</ele><time>2025-07-04T15:03:04Z</time><extensions><speed>0.014584</speed><course>318.983205</course><hAcc>1.747494</hAcc><vAcc>1.011490</vAcc></extensions></trkpt>
      <trkpt lon="-82.299498" lat="35.646555"><ele>806.272095</ele><time>2025-07-04T15:03:05Z</time><extensions><speed>0.015648</speed><course>245.496472</course><hAcc>1.748224</hAcc><vAcc>1.009708</vAcc></extensions></trkpt>
      <trkpt lon="-82.299499" lat="35.646555"><ele>806.304972</ele><time>2025-07-04T15:03:06Z</time><extensions><speed>0.038563</speed><course>208.052504</course><hAcc>1.750883</hAcc><vAcc>1.008854</vAcc></extensions></trkpt>
      <trkpt lon="-82.299499" lat="35.646554"><ele>806.339133</ele><time>2025-07-04T15:03:07Z</time><extensions><speed>0.057047</speed><course>202.032298</course><hAcc>1.753968</hAcc><vAcc>1.008899</vAcc></extensions></trkpt>
      <trkpt lon="-82.299499" lat="35.646554"><ele>806.368605</ele><time>2025-07-04T15:03:08Z</time><extensions><speed>0.048569</speed><course>205.116152</course><hAcc>1.750537</hAcc><vAcc>1.011113</vAcc></extensions></trkpt>
      <trkpt lon="-82.299499" lat="35.646554"><ele>806.391335</ele><time>2025-07-04T15:03:09Z</time><extensions><speed>0.053412</speed><course>208.202098</course><hAcc>1.747223</hAcc><vAcc>1.012968</vAcc></extensions></trkpt>
      <trkpt lon="-82.299500" lat="35.646553"><ele>806.411502</ele><time>2025-07-04T15:03:10Z</time><extensions><speed>0.061023</speed><course>210.362720</course><hAcc>1.744309</hAcc><vAcc>1.015549</vAcc></extensions></trkpt>
      <trkpt lon="-82.299500" lat="35.646553"><ele>806.429505</ele><time>2025-07-04T15:03:11Z</time><extensions><speed>0.075305</speed><course>210.978650</course><hAcc>1.745971</hAcc><vAcc>1.018473</vAcc></extensions></trkpt>
      <trkpt lon="-82.299501" lat="35.646552"><ele>806.445140</ele><time>2025-07-04T15:03:12Z</time><extensions><speed>0.079696</speed><course>212.102045</course><hAcc>1.749900</hAcc><vAcc>1.021484</vAcc></extensions></trkpt>
      <trkpt lon="-82.299501" lat="35.646551"><ele>806.465059</ele><time>2025-07-04T15:03:13Z</time><extensions><speed>0.073968</speed><course>216.463853</course><hAcc>1.736906</hAcc><vAcc>1.023993</vAcc></extensions></trkpt>
      <trkpt lon="-82.299501" lat="35.646551"><ele>806.484963</ele><time>2025-07-04T15:03:14Z</time><extensions><speed>0.068263</speed><course>219.306390</course><hAcc>1.727166</hAcc><vAcc>1.026653</vAcc></extensions></trkpt>
      <trkpt lon="-82.299502" lat="35.646550"><ele>806.510008</ele><time>2025-07-04T15:03:15Z</time><extensions><speed>0.059598</speed><course>222.434087</course><hAcc>1.720870</hAcc><vAcc>1.028812</vAcc></extensions></trkpt>
      <trkpt lon="-82.299502" lat="35.646550"><ele>806.536030</ele><time>2025-07-04T15:03:16Z</time><extensions><speed>0.032582</speed><course>245.041967</course><hAcc>1.713261</hAcc><vAcc>1.030496</vAcc></extensions></trkpt>
      <trkpt lon="-82.299503" lat="35.646550"><ele>806.562098</ele><time>2025-07-04T15:03:17Z</time><extensions><speed>0.026319</speed><course>232.010628</course><hAcc>1.723843</hAcc><vAcc>1.031579</vAcc></extensions></trkpt>
      <trkpt lon="-82.299503" lat="35.646550"><ele>806.586092</ele><time>2025-07-04T15:03:18Z</time><extensions><speed>0.027184</speed><course>199.789586</course><hAcc>1.746617</hAcc><vAcc>1.033539</vAcc></extensions></trkpt>
      <trkpt lon="-82.299503" lat="35.646550"><ele>806.609700</ele><time>2025-07-04T15:03:19Z</time><extensions><speed>0.024001</speed><course>168.541164</course><hAcc>1.730061</hAcc><vAcc>1.035092</vAcc></extensions></trkpt>
      <trkpt lon="-82.299503" lat="35.646549"><ele>806.626508</ele><time>2025-07-04T15:03:20Z</time><extensions><speed>0.024722</speed><course>128.769072</course><hAcc>1.727662</hAcc><vAcc>1.034779</vAcc></extensions></trkpt>
      <trkpt lon="-82.299502" lat="35.646550"><ele>806.638454</ele><time>2025-07-04T15:03:21Z</time><extensions><speed>0.042700</speed><course>64.622612</course><hAcc>1.735411</hAcc><vAcc>1.035191</vAcc></extensions></trkpt>
      <trkpt lon="-82.299502" lat="35.646550"><ele>806.648664</ele><time>2025-07-04T15:03:22Z</time><extensions><speed>0.112727</speed><course>33.469228</course><hAcc>1.737497</hAcc><vAcc>1.034101</vAcc></extensions></trkpt>
      <trkpt lon="-82.299501" lat="35.646551"><ele>806.657803</ele><time>2025-07-04T15:03:23Z</time><extensions><speed>0.193208</speed><course>24.192099</course><hAcc>1.734589</hAcc><vAcc>1.032742</vAcc></extensions></trkpt>
      <trkpt lon="-82.299500" lat="35.646553"><ele>806.657483</ele><time>2025-07-04T15:03:24Z</time><extensions><speed>0.168011</speed><course>20.068739</course><hAcc>1.736257</hAcc><vAcc>1.031078</vAcc></extensions></trkpt>
      <trkpt lon="-82.299500" lat="35.646554"><ele>806.647525</ele><time>2025-07-04T15:03:25Z</time><extensions><speed>0.109095</speed><course>18.459983</course><hAcc>1.734941</hAcc><vAcc>1.029128</vAcc></extensions></trkpt>
      <trkpt lon="-82.299499" lat="35.646555"><ele>806.624951</ele><time>2025-07-04T15:03:26Z</time><extensions><speed>0.106285</speed><course>11.844958</course><hAcc>1.719993</hAcc><vAcc>1.026925</vAcc></extensions></trkpt>
      <trkpt lon="-82.299499" lat="35.646556"><ele>806.600644</ele><time>2025-07-04T15:03:27Z</time><extensions><speed>0.083003</speed><course>6.986034</course><hAcc>1.712665</hAcc><vAcc>1.024624</vAcc></extensions></trkpt>
      <trkpt lon="-82.299499" lat="35.646556"><ele>806.573686</ele><time>2025-07-04T15:03:28Z</time><extensions><speed>0.043020</speed><course>0.133027</course><hAcc>1.723760</hAcc><vAcc>1.022241</vAcc></extensions></trkpt>
      <trkpt lon="-82.299499" lat="35.646557"><ele>806.548856</ele><time>2025-07-04T15:03:29Z</time><extensions><speed>0.030680</speed><course>350.574895</course><hAcc>1.718976</hAcc><vAcc>1.021465</vAcc></extensions></trkpt>
      <trkpt lon="-82.299499" lat="35.646557"><ele>806.515575</ele><time>2025-07-04T15:03:30Z</time><extensions><speed>0.029798</speed><course>343.432219</course><hAcc>1.703140</hAcc><vAcc>1.019646</vAcc></extensions></trkpt>
      <trkpt lon="-82.299499" lat="35.646557"><ele>806.484732</ele><time>2025-07-04T15:03:31Z</time><extensions><speed>0.023222</speed><course>333.659291</course><hAcc>1.706968</hAcc><vAcc>1.018110</vAcc></extensions></trkpt>
      <trkpt lon="-82.299500" lat="35.646557"><ele>806.452082</ele><time>2025-07-04T15:03:32Z</time><extensions><speed>0.018929</speed><course>318.138962</course><hAcc>1.707339</hAcc><vAcc>1.017483</vAcc></extensions></trkpt>
      <trkpt lon="-82.299500" lat="35.646557"><ele>806.414421</ele><time>2025-07-04T15:03:33Z</time><extensions><speed>0.015583</speed><course>293.789684</course><hAcc>1.712250</hAcc><vAcc>1.017302</vAcc></extensions></trkpt>
      <trkpt lon="-82.299500" lat="35.646557"><ele>806.383611</ele><time>2025-07-04T15:03:34Z</time><extensions><speed>0.014713</speed><course>259.996974</course><hAcc>1.718398</hAcc><vAcc>1.016757</vAcc></extensions></trkpt>
      <trkpt lon="-82.299500" lat="35.646557"><ele>806.350789</ele><time>2025-07-04T15:03:35Z</time><extensions><speed>0.019157</speed><course>223.461762</course><hAcc>1.721305</hAcc><vAcc>1.016206</vAcc></extensions></trkpt>
      <trkpt lon="-82.299500" lat="35.646557"><ele>806.315217</ele><time>2025-07-04T15:03:36Z</time><extensions><speed>0.018740</speed><course>219.843989</course><hAcc>1.716920</hAcc><vAcc>1.015842</vAcc></extensions></trkpt>
      <trkpt lon="-82.299500" lat="35.646557"><ele>806.280200</ele><time>2025-07-04T15:03:37Z</time><extensions><speed>0.023317</speed><course>214.025479</course><hAcc>1.713651</hAcc><vAcc>1.016838</vAcc></extensions></trkpt>
      <trkpt lon="-82.299500" lat="35.646557"><ele>806.241051</ele><time>2025-07-04T15:03:38Z</time><extensions><speed>0.021433</speed><course>222.770811</course><hAcc>1.723187</hAcc><vAcc>1.018153</vAcc></extensions></trkpt>
      <trkpt lon="-82.299501" lat="35.646557"><ele>806.201092</ele><time>2025-07-04T15:03:39Z</time><extensions><speed>0.014336</speed><course>275.372200</course><hAcc>1.742199</hAcc><vAcc>1.018432</vAcc></extensions></trkpt>
      <trkpt lon="-82.299501" lat="35.646556"><ele>806.156000</ele><time>2025-07-04T15:03:40Z</time><extensions><speed>0.037706</speed><course>211.905008</course><hAcc>1.729891</hAcc><vAcc>1.018578</vAcc></extensions></trkpt>
      <trkpt lon="-82.299501" lat="35.646556"><ele>806.107572</ele><time>2025-07-04T15:03:41Z</time><extensions><speed>0.037254</speed><course>205.263086</course><hAcc>1.727724</hAcc><vAcc>1.019258</vAcc></extensions></trkpt>
      <trkpt lon="-82.299501" lat="35.646556"><ele>806.054786</ele><time>2025-07-04T15:03:42Z</time><extensions><speed>0.030275</speed><course>190.223180</course><hAcc>1.737781</hAcc><vAcc>1.019226</vAcc></extensions></trkpt>
      <trkpt lon="-82.299501" lat="35.646556"><ele>806.007215</ele><time>2025-07-04T15:03:43Z</time><extensions><speed>0.012303</speed><course>48.190690</course><hAcc>1.736691</hAcc><vAcc>1.018939</vAcc></extensions></trkpt>
      <trkpt lon="-82.299501" lat="35.646556"><ele>805.960624</ele><time>2025-07-04T15:03:44Z</time><extensions><speed>0.067099</speed><course>20.622209</course><hAcc>1.732743</hAcc><vAcc>1.018529</vAcc></extensions></trkpt>
      <trkpt lon="-82.299501" lat="35.646557"><ele>805.910762</ele><time>2025-07-04T15:03:45Z</time><extensions><speed>0.055265</speed><course>31.136825</course><hAcc>1.734010</hAcc><vAcc>1.017948</vAcc></extensions></trkpt>
      <trkpt lon="-82.299500" lat="35.646557"><ele>805.865369</ele><time>2025-07-04T15:03:46Z</time><extensions><speed>0.042720</speed><course>144.746006</course><hAcc>1.743715</hAcc><vAcc>1.017156</vAcc></extensions></trkpt>
      <trkpt lon="-82.299500" lat="35.646556"><ele>805.821612</ele><time>2025-07-04T15:03:47Z</time><extensions><speed>0.070308</speed><course>158.117924</course><hAcc>1.748607</hAcc><vAcc>1.017374</vAcc></extensions></trkpt>
      <trkpt lon="-82.299500" lat="35.646556"><ele>805.775311</ele><time>2025-07-04T15:03:48Z</time><extensions><speed>0.072256</speed><course>155.652125</course><hAcc>1.745417</hAcc><vAcc>1.017652</vAcc></extensions></trkpt>
      <trkpt lon="-82.299499" lat="35.646555"><ele>805.734703</ele><time>2025-07-04T15:03:49Z</time><extensions><speed>0.071697</speed><course>153.496020</course><hAcc>1.736537</hAcc><vAcc>1.018118</vAcc></extensions></trkpt>
      <trkpt lon="-82.299499" lat="35.646554"><ele>805.697705</ele><time>2025-07-04T15:03:50Z</time><extensions><speed>0.062622</speed><course>148.437014</course><hAcc>1.731824</hAcc><vAcc>1.017376</vAcc></extensions></trkpt>
      <trkpt lon="-82.299499" lat="35.646554"><ele>805.659457</ele><time>2025-07-04T15:03:51Z</time><extensions><speed>0.055302</speed><course>147.043139</course><hAcc>1.733394</hAcc><vAcc>1.018141</vAcc></extensions></trkpt>
      <trkpt lon="-82.299498" lat="35.646554"><ele>805.623743</ele><time>2025-07-04T15:03:52Z</time><extensions><speed>0.047442</speed><course>149.066592</course><hAcc>1.730027</hAcc><vAcc>1.019226</vAcc></extensions></trkpt>
      <trkpt lon="-82.299498" lat="35.646553"><ele>805.590805</ele><time>2025-07-04T15:03:53Z</time><extensions><speed>0.043981</speed><course>159.823097</course><hAcc>1.725266</hAcc><vAcc>1.020584</vAcc></extensions></trkpt>
      <trkpt lon="-82.299498" lat="35.646553"><ele>805.560770</ele><time>2025-07-04T15:03:54Z</time><extensions><speed>0.035163</speed><course>164.390350</course><hAcc>1.709357</hAcc><vAcc>1.022090</vAcc></extensions></trkpt>
      <trkpt lon="-82.299498" lat="35.646553"><ele>805.545388</ele><time>2025-07-04T15:03:55Z</time><extensions><speed>0.029167</speed><course>170.843443</course><hAcc>1.686348</hAcc><vAcc>1.022465</vAcc></extensions></trkpt>
      <trkpt lon="-82.299498" lat="35.646552"><ele>805.533247</ele><time>2025-07-04T15:03:56Z</time><extensions><speed>0.024068</speed><course>181.099629</course><hAcc>1.669374</hAcc><vAcc>1.022998</vAcc></extensions></trkpt>
      <trkpt lon="-82.299498" lat="35.646552"><ele>805.524472</ele><time>2025-07-04T15:03:57Z</time><extensions><speed>0.037702</speed><course>189.287069</course><hAcc>1.672263</hAcc><vAcc>1.023359</vAcc></extensions></trkpt>
      <trkpt lon="-82.299498" lat="35.646552"><ele>805.518851</ele><time>2025-07-04T15:03:58Z</time><extensions><speed>0.037334</speed><course>191.706101</course><hAcc>1.669047</hAcc><vAcc>1.023524</vAcc></extensions></trkpt>
      <trkpt lon="-82.299498" lat="35.646551"><ele>805.516282</ele><time>2025-07-04T15:03:59Z</time><extensions><speed>0.034538</speed><course>192.471023</course><hAcc>1.646676</hAcc><vAcc>1.023259</vAcc></extensions></trkpt>
      <trkpt lon="-82.299498" lat="35.646551"><ele>805.526957</ele><time>2025-07-04T15:04:00Z</time><extensions><speed>0.031177</speed><course>195.540439</course><hAcc>1.614346</hAcc><vAcc>1.022914</vAcc></extensions></trkpt>
      <trkpt lon="-82.299498" lat="35.646551"><ele>805.540805</ele><time>2025-07-04T15:04:01Z</time><extensions><speed>0.022884</speed><course>200.995125</course><hAcc>1.627044</hAcc><vAcc>1.022199</vAcc></extensions></trkpt>
      <trkpt lon="-82.299498" lat="35.646551"><ele>805.569447</ele><time>2025-07-04T15:04:02Z</time><extensions><speed>0.015970</speed><course>218.675228</course><hAcc>1.639304</hAcc><vAcc>1.020751</vAcc></extensions></trkpt>
      <trkpt lon="-82.299499" lat="35.646551"><ele>805.600463</ele><time>2025-07-04T15:04:03Z</time><extensions><speed>0.013527</speed><course>254.440063</course><hAcc>1.649762</hAcc><vAcc>1.019156</vAcc></extensions></trkpt>
      <trkpt lon="-82.299499" lat="35.646551"><ele>805.636755</ele><time>2025-07-04T15:04:04Z</time><extensions><speed>0.017937</speed><course>287.904960</course><hAcc>1.656389</hAcc><vAcc>1.017234</vAcc></extensions></trkpt>
      <trkpt lon="-82.299499" lat="35.646551"><ele>805.674494</ele><time>2025-07-04T15:04:05Z</time><extensions><speed>0.027416</speed><course>306.847031</course><hAcc>1.650148</hAcc><vAcc>1.015976</vAcc></extensions></trkpt>
      <trkpt lon="-82.299499" lat="35.646551"><ele>805.715223</ele><time>2025-07-04T15:04:06Z</time><extensions><speed>0.033566</speed><course>320.943716</course><hAcc>1.665472</hAcc><vAcc>1.014436</vAcc></extensions></trkpt>
      <trkpt lon="-82.299499" lat="35.646551"><ele>805.757119</ele><time>2025-07-04T15:04:07Z</time><extensions><speed>0.041444</speed><course>332.859626</course><hAcc>1.689315</hAcc><vAcc>1.013069</vAcc></extensions></trkpt>
      <trkpt lon="-82.299500" lat="35.646552"><ele>805.801853</ele><time>2025-07-04T15:04:08Z</time><extensions><speed>0.052737</speed><course>341.554235</course><hAcc>1.708494</hAcc><vAcc>1.010909</vAcc></extensions></trkpt>
      <trkpt lon="-82.299500" lat="35.646552"><ele>805.853192</ele><time>2025-07-04T15:04:09Z</time><extensions><speed>0.065431</speed><course>347.265570</course><hAcc>1.721048</hAcc><vAcc>1.009136</vAcc></extensions></trkpt>
      <trkpt lon="-82.299500" lat="35.646553"><ele>805.910264</ele><time>2025-07-04T15:04:10Z</time><extensions><speed>0.074078</speed><course>351.496285</course><hAcc>1.728455</hAcc><vAcc>1.007889</vAcc></extensions></trkpt>
      <trkpt lon="-82.299500" lat="35.646554"><ele>805.964826</ele><time>2025-07-04T15:04:11Z</time><extensions><speed>0.081401</speed><course>356.221155</course><hAcc>1.728786</hAcc><vAcc>1.007084</vAcc></extensions></trkpt>
      <trkpt lon="-82.299500" lat="35.646554"><ele>806.017870</ele><time>2025-07-04T15:04:12Z</time><extensions><speed>0.099672</speed><course>1.690529</course><hAcc>1.723297</hAcc><vAcc>1.006626</vAcc></extensions></trkpt>
      <trkpt lon="-82.299500" lat="35.646555"><ele>806.069717</ele><time>2025-07-04T15:04:13Z</time><extensions><speed>0.058912</speed><course>7.824126</course><hAcc>1.725692</hAcc><vAcc>1.006676</vAcc></extensions></trkpt>
      <trkpt lon="-82.299500" lat="35.646555"><ele>806.106607</ele><time>2025-07-04T15:04:14Z</time><extensions><speed>0.035426</speed><course>21.961211</course><hAcc>1.728985</hAcc><vAcc>1.006995</vAcc></extensions></trkpt>
      <trkpt lon="-82.299500" lat="35.646556"><ele>806.130272</ele><time>2025-07-04T15:04:15Z</time><extensions><speed>0.023164</speed><course>45.649826</course><hAcc>1.735040</hAcc><vAcc>1.007248</vAcc></extensions></trkpt>
      <trkpt lon="-82.299499" lat="35.646556"><ele>806.145931</ele><time>2025-07-04T15:04:16Z</time><extensions><speed>0.030577</speed><course>46.977454</course><hAcc>1.735640</hAcc><vAcc>1.007215</vAcc></extensions></trkpt>
      <trkpt lon="-82.299499" lat="35.646556"><ele>806.152459</ele><time>2025-07-04T15:04:17Z</time><extensions><speed>0.044980</speed><course>40.239076</course><hAcc>1.735044</hAcc><vAcc>1.007528</vAcc></extensions></trkpt>
      <trkpt lon="-82.299499" lat="35.646557"><ele>806.145513</ele><time>2025-07-04T15:04:18Z</time><extensions><speed>0.074632</speed><course>29.880371</course><hAcc>1.726206</hAcc><vAcc>1.007834</vAcc></extensions></trkpt>
      <trkpt lon="-82.299498" lat="35.646557"><ele>806.133028</ele><time>2025-07-04T15:04:19Z</time><extensions><speed>0.070696</speed><course>30.112538</course><hAcc>1.728894</hAcc><vAcc>1.009286</vAcc></extensions></trkpt>
      <trkpt lon="-82.299498" lat="35.646557"><ele>806.103337</ele><time>2025-07-04T15:04:20Z</time><extensions><speed>0.034210</speed><course>48.285660</course><hAcc>1.738687</hAcc><vAcc>1.009702</vAcc></extensions></trkpt>
      <trkpt lon="-82.299498" lat="35.646558"><ele>806.063342</ele><time>2025-07-04T15:04:21Z</time><extensions><speed>0.017714</speed><course>64.542645</course><hAcc>1.743385</hAcc><vAcc>1.010316</vAcc></extensions></trkpt>
      <trkpt lon="-82.299498" lat="35.646558"><ele>806.010124</ele><time>2025-07-04T15:04:22Z</time><extensions><speed>0.007773</speed><course>131.394117</course><hAcc>1.746416</hAcc><vAcc>1.012109</vAcc></extensions></trkpt>
      <trkpt lon="-82.299498" lat="35.646557"><ele>805.950030</ele><time>2025-07-04T15:04:23Z</time><extensions><speed>0.007796</speed><course>199.471935</course><hAcc>1.744614</hAcc><vAcc>1.014122</vAcc></extensions></trkpt>
      <trkpt lon="-82.299498" lat="35.646557"><ele>805.883777</ele><time>2025-07-04T15:04:24Z</time><extensions><speed>0.011953</speed><course>310.362473</course><hAcc>1.734599</hAcc><vAcc>1.016235</vAcc></extensions></trkpt>
      <trkpt lon="-82.299498" lat="35.646558"><ele>805.792006</ele><time>2025-07-04T15:04:25Z</time><extensions><speed>0.023594</speed><course>325.630452</course><hAcc>1.730239</hAcc><vAcc>1.016899</vAcc></extensions></trkpt>
      <trkpt lon="-82.299498" lat="35.646558"><ele>805.694209</ele><time>2025-07-04T15:04:26Z</time><extensions><speed>0.035965</speed><course>212.904810</course><hAcc>1.732751</hAcc><vAcc>1.017463</vAcc></extensions></trkpt>
      <trkpt lon="-82.299498" lat="35.646557"><ele>805.597341</ele><time>2025-07-04T15:04:27Z</time><extensions><speed>0.058946</speed><course>203.122849</course><hAcc>1.727847</hAcc><vAcc>1.018308</vAcc></extensions></trkpt>
      <trkpt lon="-82.299499" lat="35.646557"><ele>805.500023</ele><time>2025-07-04T15:04:28Z</time><extensions><speed>0.065901</speed><course>201.037268</course><hAcc>1.720511</hAcc><vAcc>1.019134</vAcc></extensions></trkpt>
      <trkpt lon="-82.299499" lat="35.646556"><ele>805.407402</ele><time>2025-07-04T15:04:29Z</time><extensions><speed>0.065211</speed><course>198.725167</course><hAcc>1.714646</hAcc><vAcc>1.019850</vAcc></extensions></trkpt>
      <trkpt lon="-82.299499" lat="35.646556"><ele>805.322537</ele><time>2025-07-04T15:04:30Z</time><extensions><speed>0.060738</speed><course>198.041969</course><hAcc>1.692062</hAcc><vAcc>1.020207</vAcc></extensions></trkpt>
      <trkpt lon="-82.299499" lat="35.646555"><ele>805.239516</ele><time>2025-07-04T15:04:31Z</time><extensions><speed>0.043034</speed><course>200.759349</course><hAcc>1.678612</hAcc><vAcc>1.021197</vAcc></extensions></trkpt>
      <trkpt lon="-82.299499" lat="35.646555"><ele>805.167902</ele><time>2025-07-04T15:04:32Z</time><extensions><speed>0.044349</speed><course>196.361945</course><hAcc>1.693507</hAcc><vAcc>1.020999</vAcc></extensions></trkpt>
      <trkpt lon="-82.299500" lat="35.646554"><ele>805.100072</ele><time>2025-07-04T15:04:33Z</time><extensions><speed>0.040662</speed><course>195.663943</course><hAcc>1.703893</hAcc><vAcc>1.021195</vAcc></extensions></trkpt>
      <trkpt lon="-82.299500" lat="35.646554"><ele>805.043938</ele><time>2025-07-04T15:04:34Z</time><extensions><speed>0.033732</speed><course>197.274891</course><hAcc>1.709475</hAcc><vAcc>1.020362</vAcc></extensions></trkpt>
      <trkpt lon="-82.299500" lat="35.646554"><ele>804.996135</ele><time>2025-07-04T15:04:35Z</time><extensions><speed>0.026272</speed><course>202.147687</course><hAcc>1.692185</hAcc><vAcc>1.019384</vAcc></extensions></trkpt>
      <trkpt lon="-82.299500" lat="35.646554"><ele>804.951550</ele><time>2025-07-04T15:04:36Z</time><extensions><speed>0.009355</speed><course>225.211342</course><hAcc>1.693559</hAcc><vAcc>1.018166</vAcc></extensions></trkpt>
      <trkpt lon="-82.299500" lat="35.646554"><ele>804.915238</ele><time>2025-07-04T15:04:37Z</time><extensions><speed>0.020083</speed><course>357.773505</course><hAcc>1.704456</hAcc><vAcc>1.016676</vAcc></extensions></trkpt>
      <trkpt lon="-82.299500" lat="35.646554"><ele>804.891097</ele><time>2025-07-04T15:04:38Z</time><extensions><speed>0.036348</speed><course>9.145837</course><hAcc>1.715017</hAcc><vAcc>1.014896</vAcc></extensions></trkpt>
      <trkpt lon="-82.299500" lat="35.646554"><ele>804.879777</ele><time>2025-07-04T15:04:39Z</time><extensions><speed>0.021413</speed><course>20.204241</course><hAcc>1.725063</hAcc><vAcc>1.012947</vAcc></extensions></trkpt>
      <trkpt lon="-82.299500" lat="35.646554"><ele>804.874561</ele><time>2025-07-04T15:04:40Z</time><extensions><speed>0.004203</speed><course>80.330006</course><hAcc>1.732930</hAcc><vAcc>1.010823</vAcc></extensions></trkpt>
      <trkpt lon="-82.299500" lat="35.646554"><ele>804.876656</ele><time>2025-07-04T15:04:40Z</time><extensions><speed>0.009914</speed><course>183.900852</course><hAcc>1.737311</hAcc><vAcc>1.008608</vAcc></extensions></trkpt>
      <trkpt lon="-82.299500" lat="35.646554"><ele>804.886312</ele><time>2025-07-04T15:04:41Z</time><extensions><speed>0.013507</speed><course>207.614492</course><hAcc>1.732345</hAcc><vAcc>1.006291</vAcc></extensions></trkpt>
      <trkpt lon="-82.299500" lat="35.646554"><ele>804.903648</ele><time>2025-07-04T15:04:42Z</time><extensions><speed>0.023444</speed><course>212.867395</course><hAcc>1.734150</hAcc><vAcc>1.003941</vAcc></extensions></trkpt>
      <trkpt lon="-82.299500" lat="35.646554"><ele>804.928083</ele><time>2025-07-04T15:04:43Z</time><extensions><speed>0.018990</speed><course>233.629671</course><hAcc>1.732034</hAcc><vAcc>1.001580</vAcc></extensions></trkpt>
      <trkpt lon="-82.299500" lat="35.646554"><ele>804.955588</ele><time>2025-07-04T15:04:44Z</time><extensions><speed>0.015599</speed><course>259.538667</course><hAcc>1.732733</hAcc><vAcc>0.999253</vAcc></extensions></trkpt>
      <trkpt lon="-82.299500" lat="35.646554"><ele>804.987637</ele><time>2025-07-04T15:04:45Z</time><extensions><speed>0.018033</speed><course>249.985553</course><hAcc>1.736959</hAcc><vAcc>0.996988</vAcc></extensions></trkpt>
      <trkpt lon="-82.299501" lat="35.646554"><ele>805.019334</ele><time>2025-07-04T15:04:46Z</time><extensions><speed>0.017975</speed><course>270.237285</course><hAcc>1.738038</hAcc><vAcc>0.994871</vAcc></extensions></trkpt>
      <trkpt lon="-82.299501" lat="35.646554"><ele>805.052631</ele><time>2025-07-04T15:04:47Z</time><extensions><speed>0.020587</speed><course>303.843676</course><hAcc>1.736247</hAcc><vAcc>0.992895</vAcc></extensions></trkpt>
      <trkpt lon="-82.299501" lat="35.646554"><ele>805.084813</ele><time>2025-07-04T15:04:48Z</time><extensions><speed>0.015945</speed><course>299.255136</course><hAcc>1.740164</hAcc><vAcc>0.991093</vAcc></extensions></trkpt>
      <trkpt lon="-82.299501" lat="35.646554"><ele>805.117262</ele><time>2025-07-04T15:04:49Z</time><extensions><speed>0.014368</speed><course>322.043184</course><hAcc>1.741161</hAcc><vAcc>0.989666</vAcc></extensions></trkpt>
      <trkpt lon="-82.299501" lat="35.646554"><ele>805.150393</ele><time>2025-07-04T15:04:50Z</time><extensions><speed>0.019588</speed><course>346.655949</course><hAcc>1.738827</hAcc><vAcc>0.988293</vAcc></extensions></trkpt>
      <trkpt lon="-82.299501" lat="35.646554"><ele>805.188775</ele><time>2025-07-04T15:04:51Z</time><extensions><speed>0.015264</speed><course>352.488325</course><hAcc>1.738903</hAcc><vAcc>0.987099</vAcc></extensions></trkpt>
      <trkpt lon="-82.299501" lat="35.646554"><ele>805.222163</ele><time>2025-07-04T15:04:52Z</time><extensions><speed>0.005531</speed><course>355.192512</course><hAcc>1.738874</hAcc><vAcc>0.986059</vAcc></extensions></trkpt>
      <trkpt lon="-82.299501" lat="35.646554"><ele>805.253669</ele><time>2025-07-04T15:04:53Z</time><extensions><speed>0.000998</speed><course>101.941073</course><hAcc>1.735507</hAcc><vAcc>0.985618</vAcc></extensions></trkpt>
      <trkpt lon="-82.299501" lat="35.646554"><ele>805.283244</ele><time>2025-07-04T15:04:54Z</time><extensions><speed>0.017669</speed><course>177.487423</course><hAcc>1.738619</hAcc><vAcc>0.985356</vAcc></extensions></trkpt>
      <trkpt lon="-82.299501" lat="35.646554"><ele>805.310706</ele><time>2025-07-04T15:04:55Z</time><extensions><speed>0.028843</speed><course>179.758317</course><hAcc>1.739987</hAcc><vAcc>0.985287</vAcc></extensions></trkpt>
      <trkpt lon="-82.299501" lat="35.646554"><ele>805.332774</ele><time>2025-07-04T15:04:56Z</time><extensions><speed>0.031797</speed><course>181.804191</course><hAcc>1.738839</hAcc><vAcc>0.984919</vAcc></extensions></trkpt>
      <trkpt lon="-82.299501" lat="35.646553"><ele>805.352624</ele><time>2025-07-04T15:04:57Z</time><extensions><speed>0.032410</speed><course>185.546249</course><hAcc>1.737887</hAcc><vAcc>0.985497</vAcc></extensions></trkpt>
      <trkpt lon="-82.299501" lat="35.646553"><ele>805.370818</ele><time>2025-07-04T15:04:58Z</time><extensions><speed>0.031687</speed><course>189.502756</course><hAcc>1.738640</hAcc><vAcc>0.985432</vAcc></extensions></trkpt>
      <trkpt lon="-82.299501" lat="35.646553"><ele>805.385712</ele><time>2025-07-04T15:04:59Z</time><extensions><speed>0.027959</speed><course>192.118531</course><hAcc>1.739651</hAcc><vAcc>0.985418</vAcc></extensions></trkpt>
      <trkpt lon="-82.299501" lat="35.646553"><ele>805.400097</ele><time>2025-07-04T15:05:00Z</time><extensions><speed>0.010295</speed><course>196.965135</course><hAcc>1.735264</hAcc><vAcc>0.985380</vAcc></extensions></trkpt>
      <trkpt lon="-82.299501" lat="35.646553"><ele>805.412330</ele><time>2025-07-04T15:05:01Z</time><extensions><speed>0.009279</speed><course>4.004419</course><hAcc>1.731387</hAcc><vAcc>0.985901</vAcc></extensions></trkpt>
      <trkpt lon="-82.299501" lat="35.646553"><ele>805.425354</ele><time>2025-07-04T15:05:02Z</time><extensions><speed>0.004624</speed><course>12.815565</course><hAcc>1.733211</hAcc><vAcc>0.986505</vAcc></extensions></trkpt>
      <trkpt lon="-82.299501" lat="35.646553"><ele>805.441342</ele><time>2025-07-04T15:05:03Z</time><extensions><speed>0.003499</speed><course>165.638975</course><hAcc>1.735480</hAcc><vAcc>0.986481</vAcc></extensions></trkpt>
      <trkpt lon="-82.299501" lat="35.646553"><ele>805.455756</ele><time>2025-07-04T15:05:04Z</time><extensions><speed>0.002057</speed><course>124.031924</course><hAcc>1.734456</hAcc><vAcc>0.986953</vAcc></extensions></trkpt>
      <trkpt lon="-82.299501" lat="35.646553"><ele>805.469259</ele><time>2025-07-04T15:05:05Z</time><extensions><speed>0.006630</speed><course>27.297425</course><hAcc>1.732468</hAcc><vAcc>0.987365</vAcc></extensions></trkpt>
      <trkpt lon="-82.299501" lat="35.646553"><ele>805.482060</ele><time>2025-07-04T15:05:06Z</time><extensions><speed>0.016291</speed><course>16.213277</course><hAcc>1.732218</hAcc><vAcc>0.987653</vAcc></extensions></trkpt>
      <trkpt lon="-82.299501" lat="35.646553"><ele>805.494349</ele><time>2025-07-04T15:05:07Z</time><extensions><speed>0.019889</speed><course>16.102271</course><hAcc>1.735078</hAcc><vAcc>0.987756</vAcc></extensions></trkpt>
      <trkpt lon="-82.299501" lat="35.646553"><ele>805.491118</ele><time>2025-07-04T15:05:08Z</time><extensions><speed>0.033616</speed><course>14.506160</course><hAcc>1.726865</hAcc><vAcc>0.987310</vAcc></extensions></trkpt>
      <trkpt lon="-82.299501" lat="35.646554"><ele>805.488591</ele><time>2025-07-04T15:05:09Z</time><extensions><speed>0.031453</speed><course>18.765412</course><hAcc>1.728314</hAcc><vAcc>0.986835</vAcc></extensions></trkpt>
      <trkpt lon="-82.299501" lat="35.646554"><ele>805.484463</ele><time>2025-07-04T15:05:10Z</time><extensions><speed>0.036882</speed><course>19.131099</course><hAcc>1.730897</hAcc><vAcc>0.986167</vAcc></extensions></trkpt>
      <trkpt lon="-82.299501" lat="35.646554"><ele>805.482690</ele><time>2025-07-04T15:05:11Z</time><extensions><speed>0.028857</speed><course>24.097437</course><hAcc>1.734598</hAcc><vAcc>0.985594</vAcc></extensions></trkpt>
      <trkpt lon="-82.299501" lat="35.646554"><ele>805.482402</ele><time>2025-07-04T15:05:12Z</time><extensions><speed>0.031551</speed><course>22.179701</course><hAcc>1.732858</hAcc><vAcc>0.984877</vAcc></extensions></trkpt>
      <trkpt lon="-82.299500" lat="35.646555"><ele>805.479720</ele><time>2025-07-04T15:05:13Z</time><extensions><speed>0.032054</speed><course>22.490142</course><hAcc>1.726776</hAcc><vAcc>0.984246</vAcc></extensions></trkpt>
      <trkpt lon="-82.299500" lat="35.646555"><ele>805.476122</ele><time>2025-07-04T15:05:14Z</time><extensions><speed>0.016030</speed><course>47.566803</course><hAcc>1.729861</hAcc><vAcc>0.983338</vAcc></extensions></trkpt>
      <trkpt lon="-82.299500" lat="35.646555"><ele>805.475516</ele><time>2025-07-04T15:05:15Z</time><extensions><speed>0.013418</speed><course>92.834303</course><hAcc>1.733420</hAcc><vAcc>0.982409</vAcc></extensions></trkpt>
      <trkpt lon="-82.299500" lat="35.646555"><ele>805.470435</ele><time>2025-07-04T15:05:16Z</time><extensions><speed>0.018214</speed><course>112.203480</course><hAcc>1.736140</hAcc><vAcc>0.981521</vAcc></extensions></trkpt>
      <trkpt lon="-82.299500" lat="35.646555"><ele>805.464143</ele><time>2025-07-04T15:05:17Z</time><extensions><speed>0.022658</speed><course>108.123614</course><hAcc>1.738028</hAcc><vAcc>0.980681</vAcc></extensions></trkpt>
      <trkpt lon="-82.299500" lat="35.646555"><ele>805.455934</ele><time>2025-07-04T15:05:18Z</time><extensions><speed>0.027241</speed><course>80.072458</course><hAcc>1.735909</hAcc><vAcc>0.980193</vAcc></extensions></trkpt>
      <trkpt lon="-82.299499" lat="35.646555"><ele>805.450155</ele><time>2025-07-04T15:05:19Z</time><extensions><speed>0.036451</speed><course>51.280145</course><hAcc>1.733909</hAcc><vAcc>0.980095</vAcc></extensions></trkpt>
      <trkpt lon="-82.299499" lat="35.646555"><ele>805.443241</ele><time>2025-07-04T15:05:20Z</time><extensions><speed>0.031282</speed><course>40.169831</course><hAcc>1.744173</hAcc><vAcc>0.979830</vAcc></extensions></trkpt>
      <trkpt lon="-82.299499" lat="35.646555"><ele>805.440402</ele><time>2025-07-04T15:05:21Z</time><extensions><speed>0.037941</speed><course>17.593436</course><hAcc>1.747641</hAcc><vAcc>0.980113</vAcc></extensions></trkpt>
      <trkpt lon="-82.299499" lat="35.646556"><ele>805.438587</ele><time>2025-07-04T15:05:22Z</time><extensions><speed>0.051277</speed><course>9.468051</course><hAcc>1.744119</hAcc><vAcc>0.980634</vAcc></extensions></trkpt>
      <trkpt lon="-82.299499" lat="35.646556"><ele>805.430877</ele><time>2025-07-04T15:05:23Z</time><extensions><speed>0.038009</speed><course>15.838923</course><hAcc>1.746163</hAcc><vAcc>0.981458</vAcc></extensions></trkpt>
      <trkpt lon="-82.299498" lat="35.646556"><ele>805.423841</ele><time>2025-07-04T15:05:24Z</time><extensions><speed>0.018279</speed><course>47.911121</course><hAcc>1.748329</hAcc><vAcc>0.983674</vAcc></extensions></trkpt>
      <trkpt lon="-82.299498" lat="35.646556"><ele>805.416898</ele><time>2025-07-04T15:05:25Z</time><extensions><speed>0.018610</speed><course>84.641289</course><hAcc>1.746874</hAcc><vAcc>0.986356</vAcc></extensions></trkpt>
      <trkpt lon="-82.299498" lat="35.646556"><ele>805.410065</ele><time>2025-07-04T15:05:26Z</time><extensions><speed>0.027177</speed><course>112.886858</course><hAcc>1.746995</hAcc><vAcc>0.989640</vAcc></extensions></trkpt>
      <trkpt lon="-82.299498" lat="35.646556"><ele>805.403346</ele><time>2025-07-04T15:05:27Z</time><extensions><speed>0.037054</speed><course>112.335546</course><hAcc>1.745482</hAcc><vAcc>0.993466</vAcc></extensions></trkpt>
      <trkpt lon="-82.299497" lat="35.646556"><ele>805.406331</ele><time>2025-07-04T15:05:28Z</time><extensions><speed>0.042130</speed><course>91.227040</course><hAcc>1.743278</hAcc><vAcc>0.996406</vAcc></extensions></trkpt>
      <trkpt lon="-82.299497" lat="35.646556"><ele>805.409795</ele><time>2025-07-04T15:05:29Z</time><extensions><speed>0.043114</speed><course>81.224826</course><hAcc>1.740639</hAcc><vAcc>1.000177</vAcc></extensions></trkpt>
      <trkpt lon="-82.299496" lat="35.646556"><ele>805.414027</ele><time>2025-07-04T15:05:30Z</time><extensions><speed>0.038785</speed><course>74.316554</course><hAcc>1.734124</hAcc><vAcc>1.004394</vAcc></extensions></trkpt>
      <trkpt lon="-82.299496" lat="35.646556"><ele>805.418953</ele><time>2025-07-04T15:05:31Z</time><extensions><speed>0.045454</speed><course>44.791599</course><hAcc>1.717079</hAcc><vAcc>1.009222</vAcc></extensions></trkpt>
      <trkpt lon="-82.299496" lat="35.646557"><ele>805.424719</ele><time>2025-07-04T15:05:32Z</time><extensions><speed>0.046663</speed><course>30.693574</course><hAcc>1.699458</hAcc><vAcc>1.014157</vAcc></extensions></trkpt>
      <trkpt lon="-82.299495" lat="35.646557"><ele>805.431212</ele><time>2025-07-04T15:05:33Z</time><extensions><speed>0.027084</speed><course>28.453605</course><hAcc>1.691606</hAcc><vAcc>1.019482</vAcc></extensions></trkpt>
      <trkpt lon="-82.299495" lat="35.646557"><ele>805.438800</ele><time>2025-07-04T15:05:34Z</time><extensions><speed>0.018470</speed><course>13.661360</course><hAcc>1.692589</hAcc><vAcc>1.023173</vAcc></extensions></trkpt>
      <trkpt lon="-82.299495" lat="35.646557"><ele>805.447083</ele><time>2025-07-04T15:05:35Z</time><extensions><speed>0.019892</speed><course>357.012824</course><hAcc>1.685659</hAcc><vAcc>1.026592</vAcc></extensions></trkpt>
      <trkpt lon="-82.299495" lat="35.646558"><ele>805.455999</ele><time>2025-07-04T15:05:36Z</time><extensions><speed>0.023634</speed><course>348.186634</course><hAcc>1.690565</hAcc><vAcc>1.029641</vAcc></extensions></trkpt>
      <trkpt lon="-82.299495" lat="35.646558"><ele>805.465306</ele><time>2025-07-04T15:05:37Z</time><extensions><speed>0.033473</speed><course>345.142661</course><hAcc>1.677335</hAcc><vAcc>1.033972</vAcc></extensions></trkpt>
      <trkpt lon="-82.299496" lat="35.646558"><ele>805.475045</ele><time>2025-07-04T15:05:39Z</time><extensions><speed>0.042497</speed><course>345.307897</course><hAcc>1.657226</hAcc><vAcc>1.036263</vAcc></extensions></trkpt>
      <trkpt lon="-82.299496" lat="35.646559"><ele>805.484865</ele><time>2025-07-04T15:05:40Z</time><extensions><speed>0.033107</speed><course>342.444689</course><hAcc>1.657200</hAcc><vAcc>1.038165</vAcc></extensions></trkpt>
      <trkpt lon="-82.299496" lat="35.646559"><ele>805.494562</ele><time>2025-07-04T15:05:41Z</time><extensions><speed>0.023689</speed><course>340.776780</course><hAcc>1.665112</hAcc><vAcc>1.039641</vAcc></extensions></trkpt>
      <trkpt lon="-82.299496" lat="35.646559"><ele>805.551329</ele><time>2025-07-04T15:05:42Z</time><extensions><speed>0.019030</speed><course>345.002972</course><hAcc>1.673133</hAcc><vAcc>1.040671</vAcc></extensions></trkpt>
      <trkpt lon="-82.299496" lat="35.646559"><ele>805.610519</ele><time>2025-07-04T15:05:43Z</time><extensions><speed>0.017067</speed><course>351.703755</course><hAcc>1.681879</hAcc><vAcc>1.041092</vAcc></extensions></trkpt>
      <trkpt lon="-82.299496" lat="35.646559"><ele>805.673167</ele><time>2025-07-04T15:05:44Z</time><extensions><speed>0.016922</speed><course>358.779364</course><hAcc>1.691792</hAcc><vAcc>1.041022</vAcc></extensions></trkpt>
      <trkpt lon="-82.299496" lat="35.646560"><ele>805.736847</ele><time>2025-07-04T15:05:45Z</time><extensions><speed>0.025110</speed><course>4.207202</course><hAcc>1.670614</hAcc><vAcc>1.040657</vAcc></extensions></trkpt>
      <trkpt lon="-82.299496" lat="35.646560"><ele>805.801953</ele><time>2025-07-04T15:05:46Z</time><extensions><speed>0.034214</speed><course>7.197632</course><hAcc>1.665887</hAcc><vAcc>1.040242</vAcc></extensions></trkpt>
      <trkpt lon="-82.299496" lat="35.646560"><ele>805.868726</ele><time>2025-07-04T15:05:47Z</time><extensions><speed>0.044671</speed><course>8.903871</course><hAcc>1.684628</hAcc><vAcc>1.039995</vAcc></extensions></trkpt>
      <trkpt lon="-82.299496" lat="35.646561"><ele>805.937572</ele><time>2025-07-04T15:05:48Z</time><extensions><speed>0.054956</speed><course>9.879150</course><hAcc>1.713895</hAcc><vAcc>1.039386</vAcc></extensions></trkpt>
      <trkpt lon="-82.299496" lat="35.646561"><ele>806.007724</ele><time>2025-07-04T15:05:49Z</time><extensions><speed>0.091336</speed><course>10.296995</course><hAcc>1.703821</hAcc><vAcc>1.038922</vAcc></extensions></trkpt>
      <trkpt lon="-82.299495" lat="35.646562"><ele>806.078783</ele><time>2025-07-04T15:05:50Z</time><extensions><speed>0.127040</speed><course>10.405451</course><hAcc>1.703944</hAcc><vAcc>1.038509</vAcc></extensions></trkpt>
      <trkpt lon="-82.299495" lat="35.646564"><ele>806.150007</ele><time>2025-07-04T15:05:51Z</time><extensions><speed>0.158271</speed><course>10.339323</course><hAcc>1.714377</hAcc><vAcc>1.038235</vAcc></extensions></trkpt>
      <trkpt lon="-82.299495" lat="35.646565"><ele>806.231055</ele><time>2025-07-04T15:05:52Z</time><extensions><speed>0.167186</speed><course>10.107263</course><hAcc>1.722648</hAcc><vAcc>1.037676</vAcc></extensions></trkpt>
      <trkpt lon="-82.299494" lat="35.646566"><ele>806.310564</ele><time>2025-07-04T15:05:53Z</time><extensions><speed>0.149004</speed><course>9.664470</course><hAcc>1.726248</hAcc><vAcc>1.037465</vAcc></extensions></trkpt>
      <trkpt lon="-82.299494" lat="35.646568"><ele>806.387810</ele><time>2025-07-04T15:05:54Z</time><extensions><speed>0.126509</speed><course>9.329806</course><hAcc>1.728070</hAcc><vAcc>1.037442</vAcc></extensions></trkpt>
      <trkpt lon="-82.299494" lat="35.646569"><ele>806.462033</ele><time>2025-07-04T15:05:55Z</time><extensions><speed>0.081947</speed><course>10.511053</course><hAcc>1.731328</hAcc><vAcc>1.037861</vAcc></extensions></trkpt>
      <trkpt lon="-82.299494" lat="35.646569"><ele>806.507906</ele><time>2025-07-04T15:05:56Z</time><extensions><speed>0.037064</speed><course>15.131443</course><hAcc>1.733109</hAcc><vAcc>1.038500</vAcc></extensions></trkpt>
      <trkpt lon="-82.299494" lat="35.646569"><ele>806.548485</ele><time>2025-07-04T15:05:57Z</time><extensions><speed>0.012046</speed><course>34.544040</course><hAcc>1.731665</hAcc><vAcc>1.039545</vAcc></extensions></trkpt>
      <trkpt lon="-82.299494" lat="35.646569"><ele>806.583190</ele><time>2025-07-04T15:05:58Z</time><extensions><speed>0.008726</speed><course>139.997969</course><hAcc>1.728419</hAcc><vAcc>1.040697</vAcc></extensions></trkpt>
      <trkpt lon="-82.299494" lat="35.646569"><ele>806.612280</ele><time>2025-07-04T15:05:59Z</time><extensions><speed>0.020269</speed><course>164.724163</course><hAcc>1.726755</hAcc><vAcc>1.042197</vAcc></extensions></trkpt>
      <trkpt lon="-82.299494" lat="35.646569"><ele>806.635391</ele><time>2025-07-04T15:06:00Z</time><extensions><speed>0.031970</speed><course>169.972419</course><hAcc>1.725787</hAcc><vAcc>1.043749</vAcc></extensions></trkpt>
      <trkpt lon="-82.299493" lat="35.646569"><ele>806.625331</ele><time>2025-07-04T15:06:01Z</time><extensions><speed>0.044892</speed><course>172.832790</course><hAcc>1.724061</hAcc><vAcc>1.044176</vAcc></extensions></trkpt>
      <trkpt lon="-82.299493" lat="35.646568"><ele>806.613322</ele><time>2025-07-04T15:06:02Z</time><extensions><speed>0.054996</speed><course>175.714600</course><hAcc>1.721018</hAcc><vAcc>1.046240</vAcc></extensions></trkpt>
      <trkpt lon="-82.299493" lat="35.646567"><ele>806.594218</ele><time>2025-07-04T15:06:03Z</time><extensions><speed>0.071131</speed><course>180.019422</course><hAcc>1.721114</hAcc><vAcc>1.048557</vAcc></extensions></trkpt>
      <trkpt lon="-82.299493" lat="35.646567"><ele>806.571119</ele><time>2025-07-04T15:06:04Z</time><extensions><speed>0.086885</speed><course>182.772790</course><hAcc>1.720156</hAcc><vAcc>1.050952</vAcc></extensions></trkpt>
      <trkpt lon="-82.299493" lat="35.646566"><ele>806.540343</ele><time>2025-07-04T15:06:05Z</time><extensions><speed>0.100458</speed><course>184.293208</course><hAcc>1.716993</hAcc><vAcc>1.051495</vAcc></extensions></trkpt>
      <trkpt lon="-82.299494" lat="35.646565"><ele>806.506410</ele><time>2025-07-04T15:06:06Z</time><extensions><speed>0.102175</speed><course>184.584837</course><hAcc>1.711553</hAcc><vAcc>1.053933</vAcc></extensions></trkpt>
      <trkpt lon="-82.299494" lat="35.646564"><ele>806.467353</ele><time>2025-07-04T15:06:07Z</time><extensions><speed>0.097944</speed><course>183.917505</course><hAcc>1.707585</hAcc><vAcc>1.054493</vAcc></extensions></trkpt>
      <trkpt lon="-82.299494" lat="35.646563"><ele>806.425511</ele><time>2025-07-04T15:06:08Z</time><extensions><speed>0.093667</speed><course>182.691193</course><hAcc>1.700697</hAcc><vAcc>1.054797</vAcc></extensions></trkpt>
      <trkpt lon="-82.299494" lat="35.646562"><ele>806.381813</ele><time>2025-07-04T15:06:09Z</time><extensions><speed>0.091094</speed><course>181.223274</course><hAcc>1.691659</hAcc><vAcc>1.054911</vAcc></extensions></trkpt>
      <trkpt lon="-82.299494" lat="35.646562"><ele>806.329321</ele><time>2025-07-04T15:06:10Z</time><extensions><speed>0.089457</speed><course>179.603011</course><hAcc>1.676242</hAcc><vAcc>1.054761</vAcc></extensions></trkpt>
      <trkpt lon="-82.299494" lat="35.646561"><ele>806.276470</ele><time>2025-07-04T15:06:11Z</time><extensions><speed>0.076871</speed><course>177.722093</course><hAcc>1.662521</hAcc><vAcc>1.054499</vAcc></extensions></trkpt>
      <trkpt lon="-82.299494" lat="35.646560"><ele>806.222916</ele><time>2025-07-04T15:06:12Z</time><extensions><speed>0.052967</speed><course>175.460386</course><hAcc>1.672322</hAcc><vAcc>1.053918</vAcc></extensions></trkpt>
      <trkpt lon="-82.299494" lat="35.646560"><ele>806.178216</ele><time>2025-07-04T15:06:13Z</time><extensions><speed>0.033103</speed><course>171.148185</course><hAcc>1.679674</hAcc><vAcc>1.052865</vAcc></extensions></trkpt>
      <trkpt lon="-82.299494" lat="35.646560"><ele>806.131524</ele><time>2025-07-04T15:06:14Z</time><extensions><speed>0.023907</speed><course>165.607580</course><hAcc>1.666984</hAcc><vAcc>1.051442</vAcc></extensions></trkpt>
      <trkpt lon="-82.299494" lat="35.646559"><ele>806.095628</ele><time>2025-07-04T15:06:15Z</time><extensions><speed>0.018107</speed><course>160.560183</course><hAcc>1.661793</hAcc><vAcc>1.050414</vAcc></extensions></trkpt>
      <trkpt lon="-82.299493" lat="35.646559"><ele>806.049592</ele><time>2025-07-04T15:06:16Z</time><extensions><speed>0.011251</speed><course>153.874003</course><hAcc>1.686152</hAcc><vAcc>1.050124</vAcc></extensions></trkpt>
      <trkpt lon="-82.299493" lat="35.646559"><ele>806.007924</ele><time>2025-07-04T15:06:17Z</time><extensions><speed>0.010107</speed><course>153.574836</course><hAcc>1.681287</hAcc><vAcc>1.050361</vAcc></extensions></trkpt>
      <trkpt lon="-82.299493" lat="35.646559"><ele>805.978052</ele><time>2025-07-04T15:06:18Z</time><extensions><speed>0.010821</speed><course>167.479096</course><hAcc>1.687294</hAcc><vAcc>1.050962</vAcc></extensions></trkpt>
      <trkpt lon="-82.299493" lat="35.646559"><ele>805.961436</ele><time>2025-07-04T15:06:19Z</time><extensions><speed>0.018377</speed><course>186.114631</course><hAcc>1.702276</hAcc><vAcc>1.051847</vAcc></extensions></trkpt>
      <trkpt lon="-82.299494" lat="35.646559"><ele>805.950764</ele><time>2025-07-04T15:06:20Z</time><extensions><speed>0.038399</speed><course>197.074277</course><hAcc>1.716129</hAcc><vAcc>1.052709</vAcc></extensions></trkpt>
      <trkpt lon="-82.299494" lat="35.646558"><ele>805.942963</ele><time>2025-07-04T15:06:21Z</time><extensions><speed>0.070757</speed><course>201.389293</course><hAcc>1.726037</hAcc><vAcc>1.055323</vAcc></extensions></trkpt>
      <trkpt lon="-82.299494" lat="35.646557"><ele>805.929065</ele><time>2025-07-04T15:06:22Z</time><extensions><speed>0.111912</speed><course>203.593482</course><hAcc>1.731891</hAcc><vAcc>1.057647</vAcc></extensions></trkpt>
      <trkpt lon="-82.299495" lat="35.646556"><ele>805.905528</ele><time>2025-07-04T15:06:23Z</time><extensions><speed>0.163823</speed><course>204.242923</course><hAcc>1.736053</hAcc><vAcc>1.058663</vAcc></extensions></trkpt>
      <trkpt lon="-82.299496" lat="35.646554"><ele>805.881489</ele><time>2025-07-04T15:06:24Z</time><extensions><speed>0.222801</speed><course>204.557768</course><hAcc>1.741561</hAcc><vAcc>1.060475</vAcc></extensions></trkpt>
      <trkpt lon="-82.299497" lat="35.646552"><ele>805.837553</ele><time>2025-07-04T15:06:25Z</time><extensions><speed>0.275041</speed><course>206.867553</course><hAcc>1.746155</hAcc><vAcc>1.061788</vAcc></extensions></trkpt>
      <trkpt lon="-82.299499" lat="35.646550"><ele>805.776101</ele><time>2025-07-04T15:06:26Z</time><extensions><speed>0.324138</speed><course>210.839991</course><hAcc>1.747831</hAcc><vAcc>1.062649</vAcc></extensions></trkpt>
      <trkpt lon="-82.299501" lat="35.646547"><ele>805.721307</ele><time>2025-07-04T15:06:27Z</time><extensions><speed>0.368111</speed><course>214.586445</course><hAcc>1.750358</hAcc><vAcc>1.063425</vAcc></extensions></trkpt>
      <trkpt lon="-82.299503" lat="35.646544"><ele>805.666237</ele><time>2025-07-04T15:06:28Z</time><extensions><speed>0.418651</speed><course>214.811552</course><hAcc>1.758319</hAcc><vAcc>1.063632</vAcc></extensions></trkpt>
      <trkpt lon="-82.299506" lat="35.646541"><ele>805.596256</ele><time>2025-07-04T15:06:29Z</time><extensions><speed>0.452463</speed><course>217.360656</course><hAcc>1.758209</hAcc><vAcc>1.062623</vAcc></extensions></trkpt>
      <trkpt lon="-82.299509" lat="35.646538"><ele>805.530345</ele><time>2025-07-04T15:06:30Z</time><extensions><speed>0.473759</speed><course>219.590807</course><hAcc>1.758098</hAcc><vAcc>1.061803</vAcc></extensions></trkpt>
      <trkpt lon="-82.299512" lat="35.646534"><ele>805.473791</ele><time>2025-07-04T15:06:31Z</time><extensions><speed>0.541944</speed><course>211.511273</course><hAcc>1.760771</hAcc><vAcc>1.060741</vAcc></extensions></trkpt>
      <trkpt lon="-82.299516" lat="35.646529"><ele>805.421440</ele><time>2025-07-04T15:06:32Z</time><extensions><speed>0.621885</speed><course>204.963720</course><hAcc>1.763687</hAcc><vAcc>1.059854</vAcc></extensions></trkpt>
      <trkpt lon="-82.299518" lat="35.646524"><ele>805.347551</ele><time>2025-07-04T15:06:33Z</time><extensions><speed>0.698521</speed><course>201.027330</course><hAcc>1.763643</hAcc><vAcc>1.057835</vAcc></extensions></trkpt>
      <trkpt lon="-82.299521" lat="35.646517"><ele>805.253906</ele><time>2025-07-04T15:06:34Z</time><extensions><speed>0.747612</speed><course>198.759172</course><hAcc>1.762751</hAcc><vAcc>1.055279</vAcc></extensions></trkpt>
      <trkpt lon="-82.299524" lat="35.646511"><ele>805.165071</ele><time>2025-07-04T15:06:35Z</time><extensions><speed>0.760830</speed><course>197.424599</course><hAcc>1.762805</hAcc><vAcc>1.053741</vAcc></extensions></trkpt>
      <trkpt lon="-82.299526" lat="35.646504"><ele>805.083549</ele><time>2025-07-04T15:06:36Z</time><extensions><speed>0.741596</speed><course>196.924222</course><hAcc>1.763774</hAcc><vAcc>1.053755</vAcc></extensions></trkpt>
      <trkpt lon="-82.299529" lat="35.646498"><ele>805.004437</ele><time>2025-07-04T15:06:37Z</time><extensions><speed>0.729316</speed><course>197.401384</course><hAcc>1.761966</hAcc><vAcc>1.054502</vAcc></extensions></trkpt>
      <trkpt lon="-82.299531" lat="35.646492"><ele>804.927421</ele><time>2025-07-04T15:06:38Z</time><extensions><speed>0.701502</speed><course>199.908394</course><hAcc>1.757065</hAcc><vAcc>1.054930</vAcc></extensions></trkpt>
      <trkpt lon="-82.299534" lat="35.646486"><ele>804.830215</ele><time>2025-07-04T15:06:39Z</time><extensions><speed>0.678181</speed><course>202.962756</course><hAcc>1.754502</hAcc><vAcc>1.054828</vAcc></extensions></trkpt>
      <trkpt lon="-82.299537" lat="35.646480"><ele>804.726948</ele><time>2025-07-04T15:06:40Z</time><extensions><speed>0.725751</speed><course>199.885307</course><hAcc>1.762198</hAcc><vAcc>1.056791</vAcc></extensions></trkpt>
      <trkpt lon="-82.299539" lat="35.646473"><ele>804.616125</ele><time>2025-07-04T15:06:41Z</time><extensions><speed>0.766514</speed><course>197.806395</course><hAcc>1.763479</hAcc><vAcc>1.059731</vAcc></extensions></trkpt>
      <trkpt lon="-82.299542" lat="35.646467"><ele>804.497866</ele><time>2025-07-04T15:06:42Z</time><extensions><speed>0.794087</speed><course>197.127689</course><hAcc>1.759896</hAcc><vAcc>1.062078</vAcc></extensions></trkpt>
      <trkpt lon="-82.299545" lat="35.646460"><ele>804.378814</ele><time>2025-07-04T15:06:43Z</time><extensions><speed>0.804441</speed><course>196.721748</course><hAcc>1.756751</hAcc><vAcc>1.066408</vAcc></extensions></trkpt>
      <trkpt lon="-82.299547" lat="35.646453"><ele>804.272682</ele><time>2025-07-04T15:06:44Z</time><extensions><speed>0.824332</speed><course>196.759988</course><hAcc>1.752724</hAcc><vAcc>1.072723</vAcc></extensions></trkpt>
      <trkpt lon="-82.299550" lat="35.646445"><ele>804.166628</ele><time>2025-07-04T15:06:45Z</time><extensions><speed>0.836432</speed><course>197.012135</course><hAcc>1.757003</hAcc><vAcc>1.080705</vAcc></extensions></trkpt>
      <trkpt lon="-82.299553" lat="35.646438"><ele>804.050231</ele><time>2025-07-04T15:06:46Z</time><extensions><speed>0.794071</speed><course>198.850190</course><hAcc>1.759260</hAcc><vAcc>1.089359</vAcc></extensions></trkpt>
      <trkpt lon="-82.299556" lat="35.646432"><ele>803.935206</ele><time>2025-07-04T15:06:46Z</time><extensions><speed>0.708796</speed><course>202.315050</course><hAcc>1.762293</hAcc><vAcc>1.098309</vAcc></extensions></trkpt>
      <trkpt lon="-82.299558" lat="35.646426"><ele>803.832529</ele><time>2025-07-04T15:06:47Z</time><extensions><speed>0.740180</speed><course>201.039201</course><hAcc>1.754231</hAcc><vAcc>1.109792</vAcc></extensions></trkpt>
      <trkpt lon="-82.299561" lat="35.646420"><ele>803.737948</ele><time>2025-07-04T15:06:48Z</time><extensions><speed>0.726404</speed><course>202.569656</course><hAcc>1.745773</hAcc><vAcc>1.122571</vAcc></extensions></trkpt>
      <trkpt lon="-82.299565" lat="35.646414"><ele>803.645569</ele><time>2025-07-04T15:06:49Z</time><extensions><speed>0.706293</speed><course>205.910178</course><hAcc>1.746165</hAcc><vAcc>1.136526</vAcc></extensions></trkpt>
      <trkpt lon="-82.299568" lat="35.646408"><ele>803.547281</ele><time>2025-07-04T15:06:50Z</time><extensions><speed>0.711998</speed><course>209.588359</course><hAcc>1.738278</hAcc><vAcc>1.151383</vAcc></extensions></trkpt>
      <trkpt lon="-82.299572" lat="35.646402"><ele>803.430615</ele><time>2025-07-04T15:06:51Z</time><extensions><speed>0.742114</speed><course>208.003918</course><hAcc>1.724379</hAcc><vAcc>1.167425</vAcc></extensions></trkpt>
      <trkpt lon="-82.299577" lat="35.646396"><ele>803.313841</ele><time>2025-07-04T15:06:52Z</time><extensions><speed>0.850221</speed><course>211.189656</course><hAcc>1.718814</hAcc><vAcc>1.184814</vAcc></extensions></trkpt>
      <trkpt lon="-82.299582" lat="35.646389"><ele>803.204427</ele><time>2025-07-04T15:06:53Z</time><extensions><speed>0.878174</speed><course>209.857611</course><hAcc>1.717780</hAcc><vAcc>1.202855</vAcc></extensions></trkpt>
      <trkpt lon="-82.299587" lat="35.646383"><ele>803.109010</ele><time>2025-07-04T15:06:54Z</time><extensions><speed>0.892047</speed><course>210.488551</course><hAcc>1.702009</hAcc><vAcc>1.221196</vAcc></extensions></trkpt>
      <trkpt lon="-82.299591" lat="35.646376"><ele>803.000044</ele><time>2025-07-04T15:06:55Z</time><extensions><speed>0.882862</speed><course>208.971213</course><hAcc>1.680148</hAcc><vAcc>1.236046</vAcc></extensions></trkpt>
      <trkpt lon="-82.299596" lat="35.646369"><ele>802.878332</ele><time>2025-07-04T15:06:56Z</time><extensions><speed>0.895585</speed><course>209.121259</course><hAcc>1.678457</hAcc><vAcc>1.248936</vAcc></extensions></trkpt>
      <trkpt lon="-82.299602" lat="35.646362"><ele>802.773488</ele><time>2025-07-04T15:06:57Z</time><extensions><speed>0.890760</speed><course>214.315138</course><hAcc>1.691266</hAcc><vAcc>1.258341</vAcc></extensions></trkpt>
      <trkpt lon="-82.299607" lat="35.646356"><ele>802.630382</ele><time>2025-07-04T15:06:58Z</time><extensions><speed>0.800552</speed><course>217.438385</course><hAcc>1.668273</hAcc><vAcc>1.266470</vAcc></extensions></trkpt>
      <trkpt lon="-82.299613" lat="35.646350"><ele>802.489219</ele><time>2025-07-04T15:06:59Z</time><extensions><speed>0.762268</speed><course>217.250175</course><hAcc>1.642392</hAcc><vAcc>1.275770</vAcc></extensions></trkpt>
      <trkpt lon="-82.299618" lat="35.646344"><ele>802.349772</ele><time>2025-07-04T15:07:00Z</time><extensions><speed>0.792460</speed><course>213.869248</course><hAcc>1.621301</hAcc><vAcc>1.282232</vAcc></extensions></trkpt>
      <trkpt lon="-82.299623" lat="35.646338"><ele>802.247002</ele><time>2025-07-04T15:07:01Z</time><extensions><speed>0.920553</speed><course>212.261527</course><hAcc>1.611052</hAcc><vAcc>1.315853</vAcc></extensions></trkpt>
      <trkpt lon="-82.299628" lat="35.646330"><ele>802.145098</ele><time>2025-07-04T15:07:02Z</time><extensions><speed>1.083105</speed><course>209.358313</course><hAcc>1.633046</hAcc><vAcc>1.355833</vAcc></extensions></trkpt>
      <trkpt lon="-82.299634" lat="35.646321"><ele>802.044194</ele><time>2025-07-04T15:07:03Z</time><extensions><speed>1.086468</speed><course>209.586790</course><hAcc>1.630974</hAcc><vAcc>1.403866</vAcc></extensions></trkpt>
      <trkpt lon="-82.299640" lat="35.646313"><ele>801.944354</ele><time>2025-07-04T15:07:04Z</time><extensions><speed>1.070310</speed><course>210.003288</course><hAcc>1.627122</hAcc><vAcc>1.461867</vAcc></extensions></trkpt>
      <trkpt lon="-82.299646" lat="35.646305"><ele>801.845621</ele><time>2025-07-04T15:07:05Z</time><extensions><speed>1.015572</speed><course>210.875213</course><hAcc>1.634188</hAcc><vAcc>1.531907</vAcc></extensions></trkpt>
      <trkpt lon="-82.299652" lat="35.646297"><ele>801.748053</ele><time>2025-07-04T15:07:06Z</time><extensions><speed>0.983915</speed><course>210.866535</course><hAcc>1.665832</hAcc><vAcc>1.616115</vAcc></extensions></trkpt>
      <trkpt lon="-82.299657" lat="35.646290"><ele>801.651691</ele><time>2025-07-04T15:07:07Z</time><extensions><speed>0.975580</speed><course>209.809454</course><hAcc>1.727214</hAcc><vAcc>1.716541</vAcc></extensions></trkpt>
      <trkpt lon="-82.299662" lat="35.646282"><ele>801.556519</ele><time>2025-07-04T15:07:08Z</time><extensions><speed>0.951913</speed><course>208.894988</course><hAcc>1.828373</hAcc><vAcc>1.835033</vAcc></extensions></trkpt>
      <trkpt lon="-82.299667" lat="35.646275"><ele>801.462443</ele><time>2025-07-04T15:07:09Z</time><extensions><speed>0.856620</speed><course>207.455700</course><hAcc>2.013014</hAcc><vAcc>1.973138</vAcc></extensions></trkpt>
      <trkpt lon="-82.299671" lat="35.646268"><ele>801.369189</ele><time>2025-07-04T15:07:10Z</time><extensions><speed>0.772450</speed><course>206.487864</course><hAcc>2.339782</hAcc><vAcc>2.132062</vAcc></extensions></trkpt>
    </trkseg>
  </trk>
</gpx>