<?xml version="1.0" encoding="UTF-8"?>
<gpx version="1.1" creator="Apple Health Export" xmlns="http://www.topografix.com/GPX/1/1" xmlns:xsi="http://www.w3.org/2001/XMLSchema-instance" xsi:schemaLocation="http://www.topografix.com/GPX/1/1 http://www.topografix.com/GPX/1/1/gpx.xsd">
  <metadata>
    <time>2026-03-14T12:17:04Z</time>
  </metadata>
  <trk>
    <name>Route 2025-09-16 11:11am</name>
    <trkseg>
      <trkpt lon="-82.146941" lat="33.556330"><ele>89.372599</ele><time>2025-09-16T15:10:17Z</time><extensions><speed>0.849218</speed><course>103.962941</course><hAcc>2.308813</hAcc><vAcc>1.796375</vAcc></extensions></trkpt>
      <trkpt lon="-82.146930" lat="33.556328"><ele>89.412242</ele><time>2025-09-16T15:10:18Z</time><extensions><speed>1.112987</speed><course>103.772366</course><hAcc>1.886810</hAcc><vAcc>1.588245</vAcc></extensions></trkpt>
      <trkpt lon="-82.146917" lat="33.556325"><ele>89.441599</ele><time>2025-09-16T15:10:19Z</time><extensions><speed>1.408341</speed><course>105.821559</course><hAcc>1.716343</hAcc><vAcc>1.420082</vAcc></extensions></trkpt>
      <trkpt lon="-82.146902" lat="33.556322"><ele>89.458981</ele><time>2025-09-16T15:10:20Z</time><extensions><speed>1.519193</speed><course>103.216542</course><hAcc>1.628526</hAcc><vAcc>1.286315</vAcc></extensions></trkpt>
      <trkpt lon="-82.146886" lat="33.556320"><ele>89.469262</ele><time>2025-09-16T15:10:21Z</time><extensions><speed>1.491306</speed><course>97.238782</course><hAcc>1.573778</hAcc><vAcc>1.181835</vAcc></extensions></trkpt>
      <trkpt lon="-82.146871" lat="33.556319"><ele>89.483530</ele><time>2025-09-16T15:10:22Z</time><extensions><speed>1.310057</speed><course>88.841858</course><hAcc>1.539158</hAcc><vAcc>1.101432</vAcc></extensions></trkpt>
      <trkpt lon="-82.146857" lat="33.556321"><ele>89.514540</ele><time>2025-09-16T15:10:23Z</time><extensions><speed>1.222224</speed><course>77.171293</course><hAcc>1.512137</hAcc><vAcc>1.040585</vAcc></extensions></trkpt>
      <trkpt lon="-82.146845" lat="33.556324"><ele>89.550213</ele><time>2025-09-16T15:10:24Z</time><extensions><speed>1.266184</speed><course>66.427987</course><hAcc>1.481776</hAcc><vAcc>0.995510</vAcc></extensions></trkpt>
      <trkpt lon="-82.146832" lat="33.556329"><ele>89.575108</ele><time>2025-09-16T15:10:25Z</time><extensions><speed>1.321069</speed><course>64.387909</course><hAcc>1.476557</hAcc><vAcc>0.962169</vAcc></extensions></trkpt>
      <trkpt lon="-82.146819" lat="33.556335"><ele>89.614845</ele><time>2025-09-16T15:10:26Z</time><extensions><speed>1.395998</speed><course>63.514072</course><hAcc>1.463872</hAcc><vAcc>0.936808</vAcc></extensions></trkpt>
      <trkpt lon="-82.146805" lat="33.556340"><ele>89.647741</ele><time>2025-09-16T15:10:27Z</time><extensions><speed>1.440404</speed><course>62.005425</course><hAcc>1.448941</hAcc><vAcc>0.917140</vAcc></extensions></trkpt>
      <trkpt lon="-82.146791" lat="33.556347"><ele>89.661320</ele><time>2025-09-16T15:10:28Z</time><extensions><speed>1.475863</speed><course>60.561775</course><hAcc>1.428279</hAcc><vAcc>0.900684</vAcc></extensions></trkpt>
      <trkpt lon="-82.146777" lat="33.556354"><ele>89.680493</ele><time>2025-09-16T15:10:29Z</time><extensions><speed>1.532441</speed><course>58.659012</course><hAcc>1.406981</hAcc><vAcc>0.886536</vAcc></extensions></trkpt>
      <trkpt lon="-82.146763" lat="33.556361"><ele>89.698299</ele><time>2025-09-16T15:10:30Z</time><extensions><speed>1.528812</speed><course>57.278659</course><hAcc>1.389175</hAcc><vAcc>0.873902</vAcc></extensions></trkpt>
      <trkpt lon="-82.146750" lat="33.556369"><ele>89.696875</ele><time>2025-09-16T15:10:31Z</time><extensions><speed>1.489084</speed><course>53.402835</course><hAcc>1.372674</hAcc><vAcc>0.862377</vAcc></extensions></trkpt>
      <trkpt lon="-82.146738" lat="33.556377"><ele>89.670793</ele><time>2025-09-16T15:10:32Z</time><extensions><speed>1.444808</speed><course>50.196451</course><hAcc>1.360079</hAcc><vAcc>0.851799</vAcc></extensions></trkpt>
      <trkpt lon="-82.146726" lat="33.556385"><ele>89.630473</ele><time>2025-09-16T15:10:33Z</time><extensions><speed>1.348807</speed><course>46.084731</course><hAcc>1.356086</hAcc><vAcc>0.841393</vAcc></extensions></trkpt>
      <trkpt lon="-82.146716" lat="33.556394"><ele>89.585858</ele><time>2025-09-16T15:10:34Z</time><extensions><speed>1.330314</speed><course>41.467656</course><hAcc>1.353670</hAcc><vAcc>0.831349</vAcc></extensions></trkpt>
      <trkpt lon="-82.146706" lat="33.556403"><ele>89.539942</ele><time>2025-09-16T15:10:35Z</time><extensions><speed>1.397226</speed><course>43.109561</course><hAcc>1.342970</hAcc><vAcc>0.821937</vAcc></extensions></trkpt>
      <trkpt lon="-82.146696" lat="33.556412"><ele>89.490158</ele><time>2025-09-16T15:10:36Z</time><extensions><speed>1.389780</speed><course>47.590384</course><hAcc>1.339917</hAcc><vAcc>0.813470</vAcc></extensions></trkpt>
      <trkpt lon="-82.146684" lat="33.556420"><ele>89.443225</ele><time>2025-09-16T15:10:37Z</time><extensions><speed>1.385362</speed><course>54.155919</course><hAcc>1.331430</hAcc><vAcc>0.806033</vAcc></extensions></trkpt>
      <trkpt lon="-82.146671" lat="33.556427"><ele>89.392516</ele><time>2025-09-16T15:10:38Z</time><extensions><speed>1.466827</speed><course>59.621732</course><hAcc>1.316040</hAcc><vAcc>0.799578</vAcc></extensions></trkpt>
      <trkpt lon="-82.146657" lat="33.556434"><ele>89.338095</ele><time>2025-09-16T15:10:39Z</time><extensions><speed>1.528669</speed><course>62.161306</course><hAcc>1.314894</hAcc><vAcc>0.794378</vAcc></extensions></trkpt>
      <trkpt lon="-82.146642" lat="33.556440"><ele>89.277722</ele><time>2025-09-16T15:10:40Z</time><extensions><speed>1.552428</speed><course>65.349938</course><hAcc>1.313214</hAcc><vAcc>0.790128</vAcc></extensions></trkpt>
      <trkpt lon="-82.146627" lat="33.556445"><ele>89.223565</ele><time>2025-09-16T15:10:41Z</time><extensions><speed>1.468572</speed><course>67.321420</course><hAcc>1.305754</hAcc><vAcc>0.786926</vAcc></extensions></trkpt>
      <trkpt lon="-82.146613" lat="33.556451"><ele>89.147454</ele><time>2025-09-16T15:10:42Z</time><extensions><speed>1.434613</speed><course>63.951017</course><hAcc>1.298451</hAcc><vAcc>0.784694</vAcc></extensions></trkpt>
      <trkpt lon="-82.146599" lat="33.556457"><ele>89.077763</ele><time>2025-09-16T15:10:43Z</time><extensions><speed>1.457004</speed><course>61.082896</course><hAcc>1.300457</hAcc><vAcc>0.782941</vAcc></extensions></trkpt>
      <trkpt lon="-82.146585" lat="33.556463"><ele>89.007975</ele><time>2025-09-16T15:10:44Z</time><extensions><speed>1.457353</speed><course>60.425288</course><hAcc>1.302570</hAcc><vAcc>0.781669</vAcc></extensions></trkpt>
      <trkpt lon="-82.146572" lat="33.556469"><ele>88.914835</ele><time>2025-09-16T15:10:45Z</time><extensions><speed>1.430209</speed><course>62.473119</course><hAcc>1.298617</hAcc><vAcc>0.780689</vAcc></extensions></trkpt>
      <trkpt lon="-82.146558" lat="33.556475"><ele>88.807042</ele><time>2025-09-16T15:10:46Z</time><extensions><speed>1.450407</speed><course>65.209638</course><hAcc>1.294132</hAcc><vAcc>0.779768</vAcc></extensions></trkpt>
      <trkpt lon="-82.146544" lat="33.556480"><ele>88.692047</ele><time>2025-09-16T15:10:47Z</time><extensions><speed>1.378015</speed><course>66.880616</course><hAcc>1.290399</hAcc><vAcc>0.778687</vAcc></extensions></trkpt>
      <trkpt lon="-82.146531" lat="33.556485"><ele>88.572263</ele><time>2025-09-16T15:10:48Z</time><extensions><speed>1.295352</speed><course>68.310754</course><hAcc>1.283508</hAcc><vAcc>0.777307</vAcc></extensions></trkpt>
      <trkpt lon="-82.146518" lat="33.556489"><ele>88.451706</ele><time>2025-09-16T15:10:49Z</time><extensions><speed>1.216271</speed><course>67.700385</course><hAcc>1.271943</hAcc><vAcc>0.775599</vAcc></extensions></trkpt>
      <trkpt lon="-82.146506" lat="33.556494"><ele>88.322789</ele><time>2025-09-16T15:10:50Z</time><extensions><speed>1.274129</speed><course>65.461995</course><hAcc>1.260154</hAcc><vAcc>0.773616</vAcc></extensions></trkpt>
      <trkpt lon="-82.146493" lat="33.556499"><ele>88.183069</ele><time>2025-09-16T15:10:51Z</time><extensions><speed>1.352269</speed><course>61.318054</course><hAcc>1.257139</hAcc><vAcc>0.771461</vAcc></extensions></trkpt>
      <trkpt lon="-82.146481" lat="33.556505"><ele>88.052375</ele><time>2025-09-16T15:10:52Z</time><extensions><speed>1.406487</speed><course>55.731854</course><hAcc>1.252969</hAcc><vAcc>0.769249</vAcc></extensions></trkpt>
      <trkpt lon="-82.146468" lat="33.556513"><ele>87.939126</ele><time>2025-09-16T15:10:53Z</time><extensions><speed>1.392230</speed><course>51.892078</course><hAcc>1.257168</hAcc><vAcc>0.767086</vAcc></extensions></trkpt>
      <trkpt lon="-82.146457" lat="33.556520"><ele>87.820462</ele><time>2025-09-16T15:10:54Z</time><extensions><speed>1.360789</speed><course>51.396151</course><hAcc>1.258205</hAcc><vAcc>0.765073</vAcc></extensions></trkpt>
      <trkpt lon="-82.146445" lat="33.556528"><ele>87.717593</ele><time>2025-09-16T15:10:55Z</time><extensions><speed>1.352641</speed><course>50.625921</course><hAcc>1.251779</hAcc><vAcc>0.763280</vAcc></extensions></trkpt>
      <trkpt lon="-82.146434" lat="33.556535"><ele>87.623743</ele><time>2025-09-16T15:10:56Z</time><extensions><speed>1.303394</speed><course>54.857292</course><hAcc>1.251425</hAcc><vAcc>0.761745</vAcc></extensions></trkpt>
      <trkpt lon="-82.146423" lat="33.556542"><ele>87.543482</ele><time>2025-09-16T15:10:57Z</time><extensions><speed>1.217996</speed><course>59.597400</course><hAcc>1.251106</hAcc><vAcc>0.760475</vAcc></extensions></trkpt>
      <trkpt lon="-82.146411" lat="33.556547"><ele>87.471992</ele><time>2025-09-16T15:10:58Z</time><extensions><speed>1.150853</speed><course>64.924903</course><hAcc>1.243865</hAcc><vAcc>0.759457</vAcc></extensions></trkpt>
      <trkpt lon="-82.146400" lat="33.556551"><ele>87.393010</ele><time>2025-09-16T15:10:59Z</time><extensions><speed>1.121997</speed><course>69.900534</course><hAcc>1.237639</hAcc><vAcc>0.758665</vAcc></extensions></trkpt>
      <trkpt lon="-82.146388" lat="33.556554"><ele>87.312242</ele><time>2025-09-16T15:11:00Z</time><extensions><speed>1.199785</speed><course>70.101549</course><hAcc>1.228750</hAcc><vAcc>0.758067</vAcc></extensions></trkpt>
      <trkpt lon="-82.146377" lat="33.556558"><ele>87.235837</ele><time>2025-09-16T15:11:01Z</time><extensions><speed>1.144976</speed><course>67.558368</course><hAcc>1.221501</hAcc><vAcc>0.757629</vAcc></extensions></trkpt>
      <trkpt lon="-82.146365" lat="33.556562"><ele>87.152677</ele><time>2025-09-16T15:11:02Z</time><extensions><speed>1.134001</speed><course>62.489893</course><hAcc>1.218999</hAcc><vAcc>0.757318</vAcc></extensions></trkpt>
      <trkpt lon="-82.146355" lat="33.556567"><ele>87.059955</ele><time>2025-09-16T15:11:03Z</time><extensions><speed>1.172040</speed><course>57.317167</course><hAcc>1.213292</hAcc><vAcc>0.757104</vAcc></extensions></trkpt>
      <trkpt lon="-82.146344" lat="33.556573"><ele>86.965811</ele><time>2025-09-16T15:11:04Z</time><extensions><speed>1.186777</speed><course>57.950613</course><hAcc>1.216673</hAcc><vAcc>0.756962</vAcc></extensions></trkpt>
      <trkpt lon="-82.146333" lat="33.556579"><ele>86.853747</ele><time>2025-09-16T15:11:05Z</time><extensions><speed>1.146830</speed><course>60.543099</course><hAcc>1.236968</hAcc><vAcc>0.756872</vAcc></extensions></trkpt>
      <trkpt lon="-82.146323" lat="33.556583"><ele>86.725516</ele><time>2025-09-16T15:11:06Z</time><extensions><speed>0.993557</speed><course>62.829806</course><hAcc>1.250589</hAcc><vAcc>0.756817</vAcc></extensions></trkpt>
      <trkpt lon="-82.146314" lat="33.556587"><ele>86.608275</ele><time>2025-09-16T15:11:07Z</time><extensions><speed>0.951920</speed><course>59.271713</course><hAcc>1.253280</hAcc><vAcc>0.756787</vAcc></extensions></trkpt>
      <trkpt lon="-82.146305" lat="33.556592"><ele>86.500613</ele><time>2025-09-16T15:11:08Z</time><extensions><speed>0.991486</speed><course>55.232613</course><hAcc>1.271516</hAcc><vAcc>0.756770</vAcc></extensions></trkpt>
      <trkpt lon="-82.146296" lat="33.556598"><ele>86.379035</ele><time>2025-09-16T15:11:09Z</time><extensions><speed>1.089122</speed><course>51.742849</course><hAcc>1.279834</hAcc><vAcc>0.756763</vAcc></extensions></trkpt>
      <trkpt lon="-82.146286" lat="33.556604"><ele>86.259378</ele><time>2025-09-16T15:11:10Z</time><extensions><speed>1.198042</speed><course>49.964499</course><hAcc>1.279825</hAcc><vAcc>0.756760</vAcc></extensions></trkpt>
      <trkpt lon="-82.146276" lat="33.556611"><ele>86.139557</ele><time>2025-09-16T15:11:11Z</time><extensions><speed>1.258230</speed><course>49.690201</course><hAcc>1.278676</hAcc><vAcc>0.756759</vAcc></extensions></trkpt>
      <trkpt lon="-82.146266" lat="33.556619"><ele>86.024235</ele><time>2025-09-16T15:11:12Z</time><extensions><speed>1.280922</speed><course>51.433658</course><hAcc>1.270500</hAcc><vAcc>0.756759</vAcc></extensions></trkpt>
      <trkpt lon="-82.146255" lat="33.556626"><ele>85.915151</ele><time>2025-09-16T15:11:13Z</time><extensions><speed>1.332277</speed><course>52.119605</course><hAcc>1.264768</hAcc><vAcc>0.756759</vAcc></extensions></trkpt>
      <trkpt lon="-82.146243" lat="33.556634"><ele>85.809161</ele><time>2025-09-16T15:11:14Z</time><extensions><speed>1.420638</speed><course>53.075354</course><hAcc>1.271366</hAcc><vAcc>0.756758</vAcc></extensions></trkpt>
      <trkpt lon="-82.146230" lat="33.556642"><ele>85.690771</ele><time>2025-09-16T15:11:15Z</time><extensions><speed>1.538037</speed><course>51.063139</course><hAcc>1.267402</hAcc><vAcc>0.756757</vAcc></extensions></trkpt>
      <trkpt lon="-82.146217" lat="33.556651"><ele>85.578794</ele><time>2025-09-16T15:11:16Z</time><extensions><speed>1.611923</speed><course>49.681078</course><hAcc>1.265791</hAcc><vAcc>0.756756</vAcc></extensions></trkpt>
      <trkpt lon="-82.146204" lat="33.556660"><ele>85.470578</ele><time>2025-09-16T15:11:17Z</time><extensions><speed>1.547695</speed><course>49.007186</course><hAcc>1.264011</hAcc><vAcc>0.756754</vAcc></extensions></trkpt>
      <trkpt lon="-82.146192" lat="33.556669"><ele>85.359273</ele><time>2025-09-16T15:11:18Z</time><extensions><speed>1.524568</speed><course>48.991231</course><hAcc>1.252967</hAcc><vAcc>0.756752</vAcc></extensions></trkpt>
      <trkpt lon="-82.146180" lat="33.556678"><ele>85.242462</ele><time>2025-09-16T15:11:19Z</time><extensions><speed>1.434344</speed><course>49.862507</course><hAcc>1.238857</hAcc><vAcc>0.756750</vAcc></extensions></trkpt>
      <trkpt lon="-82.146168" lat="33.556686"><ele>85.111873</ele><time>2025-09-16T15:11:20Z</time><extensions><speed>1.374619</speed><course>49.659936</course><hAcc>1.229280</hAcc><vAcc>0.756748</vAcc></extensions></trkpt>
      <trkpt lon="-82.146157" lat="33.556694"><ele>84.972994</ele><time>2025-09-16T15:11:21Z</time><extensions><speed>1.346026</speed><course>45.090745</course><hAcc>1.217137</hAcc><vAcc>0.756747</vAcc></extensions></trkpt>
      <trkpt lon="-82.146148" lat="33.556703"><ele>84.812892</ele><time>2025-09-16T15:11:22Z</time><extensions><speed>1.296846</speed><course>40.291998</course><hAcc>1.211264</hAcc><vAcc>0.756745</vAcc></extensions></trkpt>
      <trkpt lon="-82.146139" lat="33.556712"><ele>84.627970</ele><time>2025-09-16T15:11:23Z</time><extensions><speed>1.230174</speed><course>38.253767</course><hAcc>1.209082</hAcc><vAcc>0.757919</vAcc></extensions></trkpt>
      <trkpt lon="-82.146131" lat="33.556720"><ele>84.431654</ele><time>2025-09-16T15:11:24Z</time><extensions><speed>1.146560</speed><course>43.155718</course><hAcc>1.212573</hAcc><vAcc>0.760823</vAcc></extensions></trkpt>
      <trkpt lon="-82.146122" lat="33.556727"><ele>84.221657</ele><time>2025-09-16T15:11:25Z</time><extensions><speed>1.101433</speed><course>54.276719</course><hAcc>1.222138</hAcc><vAcc>0.765572</vAcc></extensions></trkpt>
      <trkpt lon="-82.146112" lat="33.556732"><ele>83.999769</ele><time>2025-09-16T15:11:26Z</time><extensions><speed>1.027972</speed><course>65.242783</course><hAcc>1.236053</hAcc><vAcc>0.772767</vAcc></extensions></trkpt>
      <trkpt lon="-82.146102" lat="33.556734"><ele>83.729675</ele><time>2025-09-16T15:11:27Z</time><extensions><speed>1.024571</speed><course>77.826244</course><hAcc>1.246669</hAcc><vAcc>0.782352</vAcc></extensions></trkpt>
      <trkpt lon="-82.146091" lat="33.556736"><ele>83.429011</ele><time>2025-09-16T15:11:28Z</time><extensions><speed>1.011962</speed><course>87.550626</course><hAcc>1.280937</hAcc><vAcc>0.795244</vAcc></extensions></trkpt>
      <trkpt lon="-82.146080" lat="33.556735"><ele>83.098002</ele><time>2025-09-16T15:11:29Z</time><extensions><speed>0.914281</speed><course>99.011783</course><hAcc>1.304806</hAcc><vAcc>0.809957</vAcc></extensions></trkpt>
      <trkpt lon="-82.146072" lat="33.556734"><ele>82.724674</ele><time>2025-09-16T15:11:30Z</time><extensions><speed>0.732901</speed><course>103.908805</course><hAcc>1.351128</hAcc><vAcc>0.826261</vAcc></extensions></trkpt>
      <trkpt lon="-82.146065" lat="33.556733"><ele>82.322106</ele><time>2025-09-16T15:11:31Z</time><extensions><speed>0.535052</speed><course>99.652884</course><hAcc>1.403493</hAcc><vAcc>0.839578</vAcc></extensions></trkpt>
      <trkpt lon="-82.146060" lat="33.556732"><ele>81.914502</ele><time>2025-09-16T15:11:32Z</time><extensions><speed>0.362912</speed><course>93.632448</course><hAcc>1.470162</hAcc><vAcc>0.856083</vAcc></extensions></trkpt>
      <trkpt lon="-82.146057" lat="33.556732"><ele>81.499154</ele><time>2025-09-16T15:11:33Z</time><extensions><speed>0.185928</speed><course>97.067354</course><hAcc>1.547238</hAcc><vAcc>0.872817</vAcc></extensions></trkpt>
      <trkpt lon="-82.146056" lat="33.556731"><ele>81.092989</ele><time>2025-09-16T15:11:34Z</time><extensions><speed>0.094763</speed><course>139.244648</course><hAcc>1.612720</hAcc><vAcc>0.887925</vAcc></extensions></trkpt>
      <trkpt lon="-82.146056" lat="33.556730"><ele>80.703311</ele><time>2025-09-16T15:11:35Z</time><extensions><speed>0.147262</speed><course>177.456728</course><hAcc>1.655269</hAcc><vAcc>0.901999</vAcc></extensions></trkpt>
      <trkpt lon="-82.146055" lat="33.556729"><ele>80.390771</ele><time>2025-09-16T15:11:36Z</time><extensions><speed>0.229589</speed><course>178.411202</course><hAcc>1.677577</hAcc><vAcc>0.913630</vAcc></extensions></trkpt>
      <trkpt lon="-82.146055" lat="33.556726"><ele>80.030633</ele><time>2025-09-16T15:11:37Z</time><extensions><speed>0.282803</speed><course>172.385939</course><hAcc>1.694486</hAcc><vAcc>0.935455</vAcc></extensions></trkpt>
      <trkpt lon="-82.146055" lat="33.556724"><ele>79.678585</ele><time>2025-09-16T15:11:38Z</time><extensions><speed>0.254936</speed><course>166.765955</course><hAcc>1.717396</hAcc><vAcc>0.960062</vAcc></extensions></trkpt>
      <trkpt lon="-82.146054" lat="33.556722"><ele>79.336962</ele><time>2025-09-16T15:11:39Z</time><extensions><speed>0.280745</speed><course>145.931612</course><hAcc>1.718015</hAcc><vAcc>0.989632</vAcc></extensions></trkpt>
      <trkpt lon="-82.146051" lat="33.556720"><ele>79.007428</ele><time>2025-09-16T15:11:40Z</time><extensions><speed>0.414361</speed><course>123.855276</course><hAcc>1.716038</hAcc><vAcc>1.027042</vAcc></extensions></trkpt>
      <trkpt lon="-82.146046" lat="33.556718"><ele>78.690898</ele><time>2025-09-16T15:11:41Z</time><extensions><speed>0.551738</speed><course>114.093666</course><hAcc>1.730752</hAcc><vAcc>1.075687</vAcc></extensions></trkpt>
      <trkpt lon="-82.146040" lat="33.556716"><ele>78.387378</ele><time>2025-09-16T15:11:42Z</time><extensions><speed>0.713805</speed><course>107.225393</course><hAcc>1.765949</hAcc><vAcc>1.139130</vAcc></extensions></trkpt>
      <trkpt lon="-82.146032" lat="33.556714"><ele>78.095889</ele><time>2025-09-16T15:11:43Z</time><extensions><speed>0.734556</speed><course>100.625458</course><hAcc>1.825073</hAcc><vAcc>1.220675</vAcc></extensions></trkpt>
      <trkpt lon="-82.146024" lat="33.556713"><ele>77.814552</ele><time>2025-09-16T15:11:44Z</time><extensions><speed>0.776751</speed><course>92.682049</course><hAcc>1.921048</hAcc><vAcc>1.323095</vAcc></extensions></trkpt>
      <trkpt lon="-82.146016" lat="33.556713"><ele>77.540740</ele><time>2025-09-16T15:11:45Z</time><extensions><speed>0.777338</speed><course>85.689001</course><hAcc>2.106708</hAcc><vAcc>1.448450</vAcc></extensions></trkpt>
      <trkpt lon="-82.146007" lat="33.556714"><ele>77.271326</ele><time>2025-09-16T15:11:46Z</time><extensions><speed>0.827921</speed><course>82.107779</course><hAcc>2.492517</hAcc><vAcc>1.597979</vAcc></extensions></trkpt>
    </trkseg>
  </trk>
</gpx>