<?xml version="1.0" encoding="UTF-8"?>
<gpx version="1.1" creator="Apple Health Export" xmlns="http://www.topografix.com/GPX/1/1" xmlns:xsi="http://www.w3.org/2001/XMLSchema-instance" xsi:schemaLocation="http://www.topografix.com/GPX/1/1 http://www.topografix.com/GPX/1/1/gpx.xsd">
  <metadata>
    <time>2026-03-14T12:16:00Z</time>
  </metadata>
  <trk>
    <name>Route 2022-06-09 8:21am</name>
    <trkseg>
      <trkpt lon="-82.146053" lat="33.556670"><ele>86.176521</ele><time>2022-06-09T12:16:55Z</time><extensions><speed>0.815596</speed><course>235.811188</course><hAcc>3.833630</hAcc><vAcc>4.358774</vAcc></extensions></trkpt>
      <trkpt lon="-82.146060" lat="33.556666"><ele>86.578636</ele><time>2022-06-09T12:16:56Z</time><extensions><speed>0.979235</speed><course>248.789490</course><hAcc>3.452617</hAcc><vAcc>4.084939</vAcc></extensions></trkpt>
      <trkpt lon="-82.146069" lat="33.556664"><ele>87.025673</ele><time>2022-06-09T12:16:57Z</time><extensions><speed>1.181901</speed><course>263.600220</course><hAcc>3.166644</hAcc><vAcc>3.728381</vAcc></extensions></trkpt>
      <trkpt lon="-82.146079" lat="33.556662"><ele>87.416519</ele><time>2022-06-09T12:16:58Z</time><extensions><speed>0.944110</speed><course>256.254456</course><hAcc>2.935483</hAcc><vAcc>3.529682</vAcc></extensions></trkpt>
      <trkpt lon="-82.146087" lat="33.556658"><ele>87.779503</ele><time>2022-06-09T12:16:59Z</time><extensions><speed>1.030304</speed><course>226.846634</course><hAcc>2.756365</hAcc><vAcc>3.358119</vAcc></extensions></trkpt>
      <trkpt lon="-82.146094" lat="33.556650"><ele>88.048477</ele><time>2022-06-09T12:17:00Z</time><extensions><speed>1.019369</speed><course>215.248932</course><hAcc>2.659735</hAcc><vAcc>3.131815</vAcc></extensions></trkpt>
      <trkpt lon="-82.146100" lat="33.556642"><ele>87.970520</ele><time>2022-06-09T12:17:01Z</time><extensions><speed>1.032246</speed><course>221.209549</course><hAcc>2.626776</hAcc><vAcc>2.940430</vAcc></extensions></trkpt>
      <trkpt lon="-82.146107" lat="33.556635"><ele>88.027298</ele><time>2022-06-09T12:17:02Z</time><extensions><speed>1.011996</speed><course>227.210419</course><hAcc>2.592641</hAcc><vAcc>2.826687</vAcc></extensions></trkpt>
      <trkpt lon="-82.146117" lat="33.556626"><ele>88.046089</ele><time>2022-06-09T12:17:03Z</time><extensions><speed>0.991620</speed><course>230.991455</course><hAcc>2.505672</hAcc><vAcc>2.678268</vAcc></extensions></trkpt>
      <trkpt lon="-82.146127" lat="33.556618"><ele>87.293831</ele><time>2022-06-09T12:17:04Z</time><extensions><speed>1.022498</speed><course>231.739029</course><hAcc>2.458233</hAcc><vAcc>2.498172</vAcc></extensions></trkpt>
      <trkpt lon="-82.146135" lat="33.556612"><ele>86.953606</ele><time>2022-06-09T12:17:05Z</time><extensions><speed>1.036115</speed><course>223.985001</course><hAcc>2.428041</hAcc><vAcc>2.386762</vAcc></extensions></trkpt>
      <trkpt lon="-82.146143" lat="33.556604"><ele>86.931572</ele><time>2022-06-09T12:17:06Z</time><extensions><speed>1.030679</speed><course>222.228195</course><hAcc>2.423210</hAcc><vAcc>2.315543</vAcc></extensions></trkpt>
      <trkpt lon="-82.146151" lat="33.556597"><ele>87.081680</ele><time>2022-06-09T12:17:07Z</time><extensions><speed>1.011235</speed><course>222.337799</course><hAcc>2.398505</hAcc><vAcc>2.255967</vAcc></extensions></trkpt>
      <trkpt lon="-82.146159" lat="33.556590"><ele>87.204079</ele><time>2022-06-09T12:17:08Z</time><extensions><speed>0.993057</speed><course>225.109909</course><hAcc>2.380513</hAcc><vAcc>2.207101</vAcc></extensions></trkpt>
      <trkpt lon="-82.146167" lat="33.556584"><ele>87.322639</ele><time>2022-06-09T12:17:09Z</time><extensions><speed>0.988672</speed><course>238.572968</course><hAcc>2.323685</hAcc><vAcc>2.179882</vAcc></extensions></trkpt>
      <trkpt lon="-82.146177" lat="33.556579"><ele>87.588066</ele><time>2022-06-09T12:17:10Z</time><extensions><speed>0.972055</speed><course>253.399918</course><hAcc>2.287928</hAcc><vAcc>2.150222</vAcc></extensions></trkpt>
      <trkpt lon="-82.146187" lat="33.556576"><ele>87.715118</ele><time>2022-06-09T12:17:11Z</time><extensions><speed>1.000995</speed><course>256.510620</course><hAcc>2.243267</hAcc><vAcc>2.128456</vAcc></extensions></trkpt>
      <trkpt lon="-82.146200" lat="33.556572"><ele>87.619659</ele><time>2022-06-09T12:17:12Z</time><extensions><speed>1.079615</speed><course>249.062469</course><hAcc>2.171140</hAcc><vAcc>2.029428</vAcc></extensions></trkpt>
      <trkpt lon="-82.146212" lat="33.556567"><ele>87.242393</ele><time>2022-06-09T12:17:13Z</time><extensions><speed>1.274552</speed><course>240.821213</course><hAcc>2.088903</hAcc><vAcc>1.870819</vAcc></extensions></trkpt>
      <trkpt lon="-82.146225" lat="33.556561"><ele>87.239548</ele><time>2022-06-09T12:17:14Z</time><extensions><speed>1.303126</speed><course>239.392746</course><hAcc>2.078368</hAcc><vAcc>1.810557</vAcc></extensions></trkpt>
      <trkpt lon="-82.146237" lat="33.556555"><ele>87.050049</ele><time>2022-06-09T12:17:15Z</time><extensions><speed>1.312746</speed><course>238.293274</course><hAcc>2.117448</hAcc><vAcc>1.756385</vAcc></extensions></trkpt>
      <trkpt lon="-82.146249" lat="33.556549"><ele>86.841652</ele><time>2022-06-09T12:17:16Z</time><extensions><speed>1.292122</speed><course>238.716156</course><hAcc>2.162111</hAcc><vAcc>1.707083</vAcc></extensions></trkpt>
      <trkpt lon="-82.146261" lat="33.556543"><ele>86.805878</ele><time>2022-06-09T12:17:17Z</time><extensions><speed>1.288378</speed><course>237.638412</course><hAcc>2.184042</hAcc><vAcc>1.687479</vAcc></extensions></trkpt>
      <trkpt lon="-82.146273" lat="33.556537"><ele>86.811295</ele><time>2022-06-09T12:17:18Z</time><extensions><speed>1.253419</speed><course>240.138321</course><hAcc>2.191981</hAcc><vAcc>1.660756</vAcc></extensions></trkpt>
      <trkpt lon="-82.146284" lat="33.556531"><ele>86.804382</ele><time>2022-06-09T12:17:19Z</time><extensions><speed>1.247735</speed><course>231.387604</course><hAcc>2.194552</hAcc><vAcc>1.636897</vAcc></extensions></trkpt>
      <trkpt lon="-82.146294" lat="33.556524"><ele>86.764862</ele><time>2022-06-09T12:17:20Z</time><extensions><speed>1.159882</speed><course>223.906631</course><hAcc>2.201426</hAcc><vAcc>1.639513</vAcc></extensions></trkpt>
      <trkpt lon="-82.146302" lat="33.556517"><ele>86.727509</ele><time>2022-06-09T12:17:21Z</time><extensions><speed>1.015743</speed><course>227.020523</course><hAcc>2.167925</hAcc><vAcc>1.650454</vAcc></extensions></trkpt>
      <trkpt lon="-82.146312" lat="33.556512"><ele>86.714821</ele><time>2022-06-09T12:17:22Z</time><extensions><speed>0.971835</speed><course>249.216965</course><hAcc>2.147077</hAcc><vAcc>1.671484</vAcc></extensions></trkpt>
      <trkpt lon="-82.146322" lat="33.556511"><ele>86.721184</ele><time>2022-06-09T12:17:23Z</time><extensions><speed>0.980567</speed><course>274.526184</course><hAcc>2.189138</hAcc><vAcc>1.704053</vAcc></extensions></trkpt>
      <trkpt lon="-82.146334" lat="33.556513"><ele>86.724716</ele><time>2022-06-09T12:17:24Z</time><extensions><speed>1.091862</speed><course>287.437164</course><hAcc>2.272568</hAcc><vAcc>1.747737</vAcc></extensions></trkpt>
      <trkpt lon="-82.146347" lat="33.556516"><ele>86.715332</ele><time>2022-06-09T12:17:25Z</time><extensions><speed>1.182751</speed><course>288.915222</course><hAcc>2.394723</hAcc><vAcc>1.802401</vAcc></extensions></trkpt>
      <trkpt lon="-82.146358" lat="33.556519"><ele>86.727585</ele><time>2022-06-09T12:17:26Z</time><extensions><speed>1.146776</speed><course>289.140930</course><hAcc>2.561015</hAcc><vAcc>1.866936</vAcc></extensions></trkpt>
      <trkpt lon="-82.146371" lat="33.556523"><ele>86.774239</ele><time>2022-06-09T12:17:27Z</time><extensions><speed>1.146847</speed><course>298.374115</course><hAcc>2.631761</hAcc><vAcc>1.939995</vAcc></extensions></trkpt>
      <trkpt lon="-82.146382" lat="33.556527"><ele>86.933304</ele><time>2022-06-09T12:17:28Z</time><extensions><speed>1.089051</speed><course>301.361664</course><hAcc>2.707405</hAcc><vAcc>1.981800</vAcc></extensions></trkpt>
      <trkpt lon="-82.146394" lat="33.556530"><ele>87.064117</ele><time>2022-06-09T12:17:29Z</time><extensions><speed>1.063434</speed><course>291.702576</course><hAcc>2.729004</hAcc><vAcc>2.023665</vAcc></extensions></trkpt>
      <trkpt lon="-82.146406" lat="33.556531"><ele>87.274330</ele><time>2022-06-09T12:17:30Z</time><extensions><speed>1.036128</speed><course>275.279510</course><hAcc>2.753443</hAcc><vAcc>2.064241</vAcc></extensions></trkpt>
      <trkpt lon="-82.146419" lat="33.556531"><ele>87.347549</ele><time>2022-06-09T12:17:31Z</time><extensions><speed>1.087430</speed><course>278.462616</course><hAcc>2.765924</hAcc><vAcc>2.102460</vAcc></extensions></trkpt>
      <trkpt lon="-82.146437" lat="33.556527"><ele>87.268890</ele><time>2022-06-09T12:17:32Z</time><extensions><speed>1.136191</speed><course>275.559631</course><hAcc>2.706911</hAcc><vAcc>2.137414</vAcc></extensions></trkpt>
      <trkpt lon="-82.146451" lat="33.556527"><ele>87.123924</ele><time>2022-06-09T12:17:33Z</time><extensions><speed>1.312093</speed><course>271.644440</course><hAcc>2.691173</hAcc><vAcc>2.169800</vAcc></extensions></trkpt>
      <trkpt lon="-82.146466" lat="33.556526"><ele>87.212418</ele><time>2022-06-09T12:17:34Z</time><extensions><speed>1.389483</speed><course>263.972321</course><hAcc>2.668859</hAcc><vAcc>2.222127</vAcc></extensions></trkpt>
      <trkpt lon="-82.146482" lat="33.556524"><ele>87.339882</ele><time>2022-06-09T12:17:35Z</time><extensions><speed>1.494454</speed><course>259.949707</course><hAcc>2.634137</hAcc><vAcc>2.291283</vAcc></extensions></trkpt>
      <trkpt lon="-82.146498" lat="33.556521"><ele>87.511467</ele><time>2022-06-09T12:17:36Z</time><extensions><speed>1.586801</speed><course>255.943283</course><hAcc>2.592954</hAcc><vAcc>2.359862</vAcc></extensions></trkpt>
      <trkpt lon="-82.146514" lat="33.556516"><ele>87.453323</ele><time>2022-06-09T12:17:37Z</time><extensions><speed>1.629115</speed><course>249.573700</course><hAcc>2.573316</hAcc><vAcc>2.372610</vAcc></extensions></trkpt>
      <trkpt lon="-82.146530" lat="33.556509"><ele>87.380257</ele><time>2022-06-09T12:17:38Z</time><extensions><speed>1.607623</speed><course>244.658157</course><hAcc>2.544707</hAcc><vAcc>2.384302</vAcc></extensions></trkpt>
      <trkpt lon="-82.146546" lat="33.556502"><ele>87.263741</ele><time>2022-06-09T12:17:39Z</time><extensions><speed>1.629511</speed><course>237.536362</course><hAcc>2.506800</hAcc><vAcc>2.392899</vAcc></extensions></trkpt>
      <trkpt lon="-82.146562" lat="33.556494"><ele>87.117638</ele><time>2022-06-09T12:17:40Z</time><extensions><speed>1.632384</speed><course>229.903809</course><hAcc>2.466036</hAcc><vAcc>2.399018</vAcc></extensions></trkpt>
      <trkpt lon="-82.146576" lat="33.556484"><ele>86.993362</ele><time>2022-06-09T12:17:41Z</time><extensions><speed>1.523840</speed><course>223.055573</course><hAcc>2.449239</hAcc><vAcc>2.403199</vAcc></extensions></trkpt>
      <trkpt lon="-82.146591" lat="33.556475"><ele>86.890862</ele><time>2022-06-09T12:17:42Z</time><extensions><speed>1.576000</speed><course>230.498840</course><hAcc>2.426865</hAcc><vAcc>2.404876</vAcc></extensions></trkpt>
      <trkpt lon="-82.146606" lat="33.556466"><ele>86.746780</ele><time>2022-06-09T12:17:43Z</time><extensions><speed>1.596248</speed><course>237.697433</course><hAcc>2.449100</hAcc><vAcc>2.405672</vAcc></extensions></trkpt>
      <trkpt lon="-82.146624" lat="33.556458"><ele>86.599434</ele><time>2022-06-09T12:17:44Z</time><extensions><speed>1.718922</speed><course>238.958633</course><hAcc>2.483155</hAcc><vAcc>2.404615</vAcc></extensions></trkpt>
      <trkpt lon="-82.146642" lat="33.556449"><ele>86.444603</ele><time>2022-06-09T12:17:45Z</time><extensions><speed>1.800231</speed><course>242.841080</course><hAcc>2.530035</hAcc><vAcc>2.402071</vAcc></extensions></trkpt>
      <trkpt lon="-82.146660" lat="33.556442"><ele>86.237549</ele><time>2022-06-09T12:17:46Z</time><extensions><speed>1.709442</speed><course>246.277496</course><hAcc>2.597842</hAcc><vAcc>2.397934</vAcc></extensions></trkpt>
      <trkpt lon="-82.146678" lat="33.556434"><ele>86.114189</ele><time>2022-06-09T12:17:47Z</time><extensions><speed>1.619724</speed><course>244.680435</course><hAcc>2.609074</hAcc><vAcc>2.393354</vAcc></extensions></trkpt>
      <trkpt lon="-82.146689" lat="33.556428"><ele>85.912071</ele><time>2022-06-09T12:17:48Z</time><extensions><speed>1.631999</speed><course>245.175980</course><hAcc>2.532384</hAcc><vAcc>2.301311</vAcc></extensions></trkpt>
      <trkpt lon="-82.146706" lat="33.556421"><ele>85.832733</ele><time>2022-06-09T12:17:49Z</time><extensions><speed>1.703383</speed><course>252.418137</course><hAcc>2.479810</hAcc><vAcc>2.243107</vAcc></extensions></trkpt>
      <trkpt lon="-82.146725" lat="33.556415"><ele>85.712700</ele><time>2022-06-09T12:17:50Z</time><extensions><speed>1.731935</speed><course>257.996155</course><hAcc>2.434019</hAcc><vAcc>2.192760</vAcc></extensions></trkpt>
      <trkpt lon="-82.146744" lat="33.556411"><ele>85.594841</ele><time>2022-06-09T12:17:51Z</time><extensions><speed>1.782197</speed><course>262.603271</course><hAcc>2.390565</hAcc><vAcc>2.145679</vAcc></extensions></trkpt>
      <trkpt lon="-82.146764" lat="33.556408"><ele>85.522690</ele><time>2022-06-09T12:17:52Z</time><extensions><speed>1.936343</speed><course>260.605377</course><hAcc>2.341964</hAcc><vAcc>2.101915</vAcc></extensions></trkpt>
      <trkpt lon="-82.146786" lat="33.556402"><ele>85.413139</ele><time>2022-06-09T12:17:53Z</time><extensions><speed>2.400471</speed><course>251.992905</course><hAcc>2.275168</hAcc><vAcc>2.060476</vAcc></extensions></trkpt>
      <trkpt lon="-82.146810" lat="33.556393"><ele>85.270813</ele><time>2022-06-09T12:17:54Z</time><extensions><speed>2.506283</speed><course>243.522766</course><hAcc>2.176909</hAcc><vAcc>1.982924</vAcc></extensions></trkpt>
      <trkpt lon="-82.146833" lat="33.556382"><ele>85.143661</ele><time>2022-06-09T12:17:55Z</time><extensions><speed>2.289626</speed><course>239.038651</course><hAcc>2.086349</hAcc><vAcc>1.916044</vAcc></extensions></trkpt>
      <trkpt lon="-82.146851" lat="33.556373"><ele>85.124039</ele><time>2022-06-09T12:17:56Z</time><extensions><speed>1.539870</speed><course>239.196014</course><hAcc>2.025617</hAcc><vAcc>1.855773</vAcc></extensions></trkpt>
      <trkpt lon="-82.146864" lat="33.556368"><ele>84.986176</ele><time>2022-06-09T12:17:57Z</time><extensions><speed>1.177719</speed><course>257.372070</course><hAcc>1.960081</hAcc><vAcc>1.800193</vAcc></extensions></trkpt>
      <trkpt lon="-82.146877" lat="33.556365"><ele>84.896523</ele><time>2022-06-09T12:17:58Z</time><extensions><speed>1.188575</speed><course>259.892395</course><hAcc>1.849992</hAcc><vAcc>1.766859</vAcc></extensions></trkpt>
      <trkpt lon="-82.146889" lat="33.556363"><ele>84.820908</ele><time>2022-06-09T12:17:59Z</time><extensions><speed>1.177348</speed><course>255.182007</course><hAcc>1.750831</hAcc><vAcc>1.735762</vAcc></extensions></trkpt>
      <trkpt lon="-82.146901" lat="33.556359"><ele>84.749214</ele><time>2022-06-09T12:18:00Z</time><extensions><speed>1.250119</speed><course>241.918976</course><hAcc>1.698125</hAcc><vAcc>1.707230</vAcc></extensions></trkpt>
      <trkpt lon="-82.146913" lat="33.556353"><ele>84.693810</ele><time>2022-06-09T12:18:01Z</time><extensions><speed>1.264490</speed><course>233.446075</course><hAcc>1.654961</hAcc><vAcc>1.681453</vAcc></extensions></trkpt>
      <trkpt lon="-82.146924" lat="33.556346"><ele>84.633766</ele><time>2022-06-09T12:18:02Z</time><extensions><speed>1.280183</speed><course>235.814316</course><hAcc>1.633091</hAcc><vAcc>1.658720</vAcc></extensions></trkpt>
      <trkpt lon="-82.146937" lat="33.556340"><ele>84.608299</ele><time>2022-06-09T12:18:03Z</time><extensions><speed>1.372813</speed><course>247.349731</course><hAcc>1.628494</hAcc><vAcc>1.639486</vAcc></extensions></trkpt>
      <trkpt lon="-82.146953" lat="33.556336"><ele>84.573288</ele><time>2022-06-09T12:18:04Z</time><extensions><speed>1.866998</speed><course>256.608429</course><hAcc>1.629874</hAcc><vAcc>1.623723</vAcc></extensions></trkpt>
      <trkpt lon="-82.146974" lat="33.556332"><ele>84.555321</ele><time>2022-06-09T12:18:05Z</time><extensions><speed>2.112598</speed><course>256.224335</course><hAcc>1.645897</hAcc><vAcc>1.611924</vAcc></extensions></trkpt>
      <trkpt lon="-82.146997" lat="33.556327"><ele>84.534592</ele><time>2022-06-09T12:18:06Z</time><extensions><speed>2.359323</speed><course>253.007339</course><hAcc>1.642670</hAcc><vAcc>1.603251</vAcc></extensions></trkpt>
      <trkpt lon="-82.147021" lat="33.556320"><ele>84.531639</ele><time>2022-06-09T12:18:07Z</time><extensions><speed>2.340879</speed><course>248.177032</course><hAcc>1.614751</hAcc><vAcc>1.598473</vAcc></extensions></trkpt>
      <trkpt lon="-82.147043" lat="33.556311"><ele>84.534637</ele><time>2022-06-09T12:18:08Z</time><extensions><speed>2.135658</speed><course>242.782944</course><hAcc>1.618971</hAcc><vAcc>1.596043</vAcc></extensions></trkpt>
      <trkpt lon="-82.147059" lat="33.556303"><ele>84.521240</ele><time>2022-06-09T12:18:09Z</time><extensions><speed>1.552910</speed><course>233.808670</course><hAcc>1.654876</hAcc><vAcc>1.573117</vAcc></extensions></trkpt>
      <trkpt lon="-82.147070" lat="33.556295"><ele>84.493423</ele><time>2022-06-09T12:18:10Z</time><extensions><speed>1.304379</speed><course>220.563599</course><hAcc>1.679788</hAcc><vAcc>1.553264</vAcc></extensions></trkpt>
      <trkpt lon="-82.147078" lat="33.556286"><ele>84.511688</ele><time>2022-06-09T12:18:11Z</time><extensions><speed>1.127791</speed><course>215.381470</course><hAcc>1.653221</hAcc><vAcc>1.535271</vAcc></extensions></trkpt>
      <trkpt lon="-82.147084" lat="33.556279"><ele>84.515511</ele><time>2022-06-09T12:18:12Z</time><extensions><speed>0.869457</speed><course>216.714005</course><hAcc>1.649486</hAcc><vAcc>1.518463</vAcc></extensions></trkpt>
      <trkpt lon="-82.147089" lat="33.556273"><ele>84.553474</ele><time>2022-06-09T12:18:13Z</time><extensions><speed>0.728834</speed><course>212.886642</course><hAcc>1.636437</hAcc><vAcc>1.502537</vAcc></extensions></trkpt>
      <trkpt lon="-82.147092" lat="33.556268"><ele>84.579590</ele><time>2022-06-09T12:18:14Z</time><extensions><speed>0.599017</speed><course>202.173767</course><hAcc>1.628040</hAcc><vAcc>1.487089</vAcc></extensions></trkpt>
      <trkpt lon="-82.147093" lat="33.556263"><ele>84.620422</ele><time>2022-06-09T12:18:15Z</time><extensions><speed>0.583646</speed><course>182.366714</course><hAcc>1.630656</hAcc><vAcc>1.471693</vAcc></extensions></trkpt>
      <trkpt lon="-82.147092" lat="33.556257"><ele>84.694710</ele><time>2022-06-09T12:18:16Z</time><extensions><speed>0.721317</speed><course>171.051010</course><hAcc>1.607098</hAcc><vAcc>1.456209</vAcc></extensions></trkpt>
      <trkpt lon="-82.147091" lat="33.556249"><ele>84.750237</ele><time>2022-06-09T12:18:17Z</time><extensions><speed>1.052253</speed><course>177.773102</course><hAcc>1.597913</hAcc><vAcc>1.440793</vAcc></extensions></trkpt>
      <trkpt lon="-82.147091" lat="33.556239"><ele>84.831367</ele><time>2022-06-09T12:18:18Z</time><extensions><speed>1.192786</speed><course>187.064133</course><hAcc>1.599669</hAcc><vAcc>1.425539</vAcc></extensions></trkpt>
      <trkpt lon="-82.147093" lat="33.556228"><ele>84.940506</ele><time>2022-06-09T12:18:19Z</time><extensions><speed>1.226385</speed><course>190.402451</course><hAcc>1.589200</hAcc><vAcc>1.410556</vAcc></extensions></trkpt>
      <trkpt lon="-82.147095" lat="33.556217"><ele>85.051422</ele><time>2022-06-09T12:18:20Z</time><extensions><speed>1.236478</speed><course>192.447083</course><hAcc>1.576230</hAcc><vAcc>1.396130</vAcc></extensions></trkpt>
      <trkpt lon="-82.147097" lat="33.556206"><ele>85.151581</ele><time>2022-06-09T12:18:21Z</time><extensions><speed>1.243583</speed><course>189.790710</course><hAcc>1.571916</hAcc><vAcc>1.382901</vAcc></extensions></trkpt>
      <trkpt lon="-82.147099" lat="33.556195"><ele>85.265900</ele><time>2022-06-09T12:18:22Z</time><extensions><speed>1.134160</speed><course>192.931793</course><hAcc>1.562097</hAcc><vAcc>1.370760</vAcc></extensions></trkpt>
      <trkpt lon="-82.147102" lat="33.556185"><ele>85.401283</ele><time>2022-06-09T12:18:23Z</time><extensions><speed>1.206088</speed><course>195.844269</course><hAcc>1.549682</hAcc><vAcc>1.359895</vAcc></extensions></trkpt>
      <trkpt lon="-82.147104" lat="33.556174"><ele>85.551369</ele><time>2022-06-09T12:18:24Z</time><extensions><speed>1.267665</speed><course>188.552490</course><hAcc>1.548301</hAcc><vAcc>1.349986</vAcc></extensions></trkpt>
      <trkpt lon="-82.147105" lat="33.556162"><ele>85.720535</ele><time>2022-06-09T12:18:25Z</time><extensions><speed>1.320419</speed><course>179.187332</course><hAcc>1.559362</hAcc><vAcc>1.341260</vAcc></extensions></trkpt>
      <trkpt lon="-82.147104" lat="33.556151"><ele>85.906830</ele><time>2022-06-09T12:18:26Z</time><extensions><speed>1.263181</speed><course>175.632263</course><hAcc>1.565401</hAcc><vAcc>1.333808</vAcc></extensions></trkpt>
      <trkpt lon="-82.147102" lat="33.556138"><ele>86.108200</ele><time>2022-06-09T12:18:27Z</time><extensions><speed>1.646325</speed><course>168.404053</course><hAcc>1.566196</hAcc><vAcc>1.327714</vAcc></extensions></trkpt>
      <trkpt lon="-82.147097" lat="33.556123"><ele>86.303009</ele><time>2022-06-09T12:18:28Z</time><extensions><speed>1.521074</speed><course>163.941895</course><hAcc>1.589046</hAcc><vAcc>1.322624</vAcc></extensions></trkpt>
      <trkpt lon="-82.147092" lat="33.556111"><ele>86.511185</ele><time>2022-06-09T12:18:29Z</time><extensions><speed>1.544223</speed><course>156.943466</course><hAcc>1.580564</hAcc><vAcc>1.318139</vAcc></extensions></trkpt>
      <trkpt lon="-82.147085" lat="33.556098"><ele>86.794868</ele><time>2022-06-09T12:18:30Z</time><extensions><speed>1.518639</speed><course>156.049149</course><hAcc>1.569815</hAcc><vAcc>1.289797</vAcc></extensions></trkpt>
      <trkpt lon="-82.147079" lat="33.556085"><ele>87.017441</ele><time>2022-06-09T12:18:31Z</time><extensions><speed>1.520494</speed><course>161.073349</course><hAcc>1.584257</hAcc><vAcc>1.265569</vAcc></extensions></trkpt>
      <trkpt lon="-82.147074" lat="33.556072"><ele>87.246414</ele><time>2022-06-09T12:18:32Z</time><extensions><speed>1.504893</speed><course>165.464142</course><hAcc>1.600708</hAcc><vAcc>1.243199</vAcc></extensions></trkpt>
      <trkpt lon="-82.147071" lat="33.556059"><ele>87.451851</ele><time>2022-06-09T12:18:33Z</time><extensions><speed>1.427557</speed><course>172.801300</course><hAcc>1.645975</hAcc><vAcc>1.221807</vAcc></extensions></trkpt>
      <trkpt lon="-82.147068" lat="33.556046"><ele>87.675171</ele><time>2022-06-09T12:18:34Z</time><extensions><speed>1.320200</speed><course>170.397705</course><hAcc>1.626629</hAcc><vAcc>1.200582</vAcc></extensions></trkpt>
      <trkpt lon="-82.147065" lat="33.556035"><ele>87.906219</ele><time>2022-06-09T12:18:35Z</time><extensions><speed>1.275321</speed><course>168.280548</course><hAcc>1.598352</hAcc><vAcc>1.179192</vAcc></extensions></trkpt>
      <trkpt lon="-82.147062" lat="33.556024"><ele>88.149071</ele><time>2022-06-09T12:18:36Z</time><extensions><speed>1.184614</speed><course>169.907211</course><hAcc>1.596460</hAcc><vAcc>1.157230</vAcc></extensions></trkpt>
      <trkpt lon="-82.147060" lat="33.556014"><ele>88.384163</ele><time>2022-06-09T12:18:37Z</time><extensions><speed>1.107139</speed><course>174.658310</course><hAcc>1.627351</hAcc><vAcc>1.134756</vAcc></extensions></trkpt>
      <trkpt lon="-82.147059" lat="33.556004"><ele>88.635811</ele><time>2022-06-09T12:18:38Z</time><extensions><speed>1.118200</speed><course>171.809860</course><hAcc>1.634853</hAcc><vAcc>1.112346</vAcc></extensions></trkpt>
      <trkpt lon="-82.147056" lat="33.555994"><ele>88.893112</ele><time>2022-06-09T12:18:39Z</time><extensions><speed>1.123054</speed><course>163.372726</course><hAcc>1.628270</hAcc><vAcc>1.089593</vAcc></extensions></trkpt>
      <trkpt lon="-82.147051" lat="33.555983"><ele>89.156456</ele><time>2022-06-09T12:18:40Z</time><extensions><speed>1.367243</speed><course>157.184814</course><hAcc>1.611724</hAcc><vAcc>1.067453</vAcc></extensions></trkpt>
      <trkpt lon="-82.147045" lat="33.555972"><ele>89.419090</ele><time>2022-06-09T12:18:41Z</time><extensions><speed>1.400859</speed><course>154.442673</course><hAcc>1.627771</hAcc><vAcc>1.046755</vAcc></extensions></trkpt>
      <trkpt lon="-82.147037" lat="33.555960"><ele>89.676498</ele><time>2022-06-09T12:18:42Z</time><extensions><speed>1.534701</speed><course>148.418869</course><hAcc>1.631657</hAcc><vAcc>1.027999</vAcc></extensions></trkpt>
      <trkpt lon="-82.147029" lat="33.555949"><ele>89.938789</ele><time>2022-06-09T12:18:43Z</time><extensions><speed>1.513374</speed><course>147.385010</course><hAcc>1.663300</hAcc><vAcc>1.011243</vAcc></extensions></trkpt>
      <trkpt lon="-82.147020" lat="33.555938"><ele>90.180962</ele><time>2022-06-09T12:18:44Z</time><extensions><speed>1.399739</speed><course>148.095154</course><hAcc>1.687000</hAcc><vAcc>0.996736</vAcc></extensions></trkpt>
      <trkpt lon="-82.147013" lat="33.555927"><ele>90.428131</ele><time>2022-06-09T12:18:45Z</time><extensions><speed>1.385516</speed><course>153.207733</course><hAcc>1.699799</hAcc><vAcc>0.984455</vAcc></extensions></trkpt>
      <trkpt lon="-82.147007" lat="33.555916"><ele>90.645096</ele><time>2022-06-09T12:18:46Z</time><extensions><speed>1.273746</speed><course>158.961960</course><hAcc>1.743604</hAcc><vAcc>0.974355</vAcc></extensions></trkpt>
      <trkpt lon="-82.147004" lat="33.555905"><ele>90.859741</ele><time>2022-06-09T12:18:47Z</time><extensions><speed>1.118876</speed><course>174.351349</course><hAcc>1.847093</hAcc><vAcc>0.966308</vAcc></extensions></trkpt>
      <trkpt lon="-82.147003" lat="33.555895"><ele>91.081032</ele><time>2022-06-09T12:18:48Z</time><extensions><speed>1.003337</speed><course>178.170319</course><hAcc>1.941181</hAcc><vAcc>0.960021</vAcc></extensions></trkpt>
      <trkpt lon="-82.147001" lat="33.555886"><ele>91.296234</ele><time>2022-06-09T12:18:49Z</time><extensions><speed>0.983005</speed><course>169.546783</course><hAcc>2.033789</hAcc><vAcc>0.955167</vAcc></extensions></trkpt>
      <trkpt lon="-82.146998" lat="33.555876"><ele>91.488190</ele><time>2022-06-09T12:18:50Z</time><extensions><speed>1.178041</speed><course>157.948975</course><hAcc>2.161884</hAcc><vAcc>0.951442</vAcc></extensions></trkpt>
      <trkpt lon="-82.146993" lat="33.555866"><ele>91.683922</ele><time>2022-06-09T12:18:51Z</time><extensions><speed>1.277303</speed><course>157.847824</course><hAcc>2.287144</hAcc><vAcc>0.948888</vAcc></extensions></trkpt>
      <trkpt lon="-82.146988" lat="33.555854"><ele>91.875534</ele><time>2022-06-09T12:18:52Z</time><extensions><speed>1.335174</speed><course>162.738892</course><hAcc>2.325119</hAcc><vAcc>0.946958</vAcc></extensions></trkpt>
      <trkpt lon="-82.146985" lat="33.555841"><ele>92.068687</ele><time>2022-06-09T12:18:53Z</time><extensions><speed>1.386797</speed><course>173.679596</course><hAcc>2.349258</hAcc><vAcc>0.945535</vAcc></extensions></trkpt>
      <trkpt lon="-82.146983" lat="33.555828"><ele>92.256706</ele><time>2022-06-09T12:18:54Z</time><extensions><speed>1.468853</speed><course>177.920273</course><hAcc>2.373879</hAcc><vAcc>0.938326</vAcc></extensions></trkpt>
      <trkpt lon="-82.146982" lat="33.555812"><ele>92.450882</ele><time>2022-06-09T12:18:55Z</time><extensions><speed>1.733961</speed><course>175.560364</course><hAcc>2.387374</hAcc><vAcc>0.936488</vAcc></extensions></trkpt>
      <trkpt lon="-82.146980" lat="33.555797"><ele>92.638641</ele><time>2022-06-09T12:18:56Z</time><extensions><speed>1.598646</speed><course>170.189011</course><hAcc>2.414482</hAcc><vAcc>0.934543</vAcc></extensions></trkpt>
      <trkpt lon="-82.146976" lat="33.555782"><ele>92.816132</ele><time>2022-06-09T12:18:57Z</time><extensions><speed>1.560881</speed><course>166.822266</course><hAcc>2.415664</hAcc><vAcc>0.932724</vAcc></extensions></trkpt>
      <trkpt lon="-82.146972" lat="33.555768"><ele>92.982903</ele><time>2022-06-09T12:18:58Z</time><extensions><speed>1.444644</speed><course>167.727646</course><hAcc>2.428843</hAcc><vAcc>0.930788</vAcc></extensions></trkpt>
      <trkpt lon="-82.146969" lat="33.555755"><ele>93.142494</ele><time>2022-06-09T12:18:59Z</time><extensions><speed>1.408060</speed><course>169.673950</course><hAcc>2.467615</hAcc><vAcc>0.928863</vAcc></extensions></trkpt>
      <trkpt lon="-82.146968" lat="33.555742"><ele>93.285583</ele><time>2022-06-09T12:19:00Z</time><extensions><speed>1.297547</speed><course>174.218430</course><hAcc>2.474332</hAcc><vAcc>0.921545</vAcc></extensions></trkpt>
      <trkpt lon="-82.146967" lat="33.555728"><ele>93.444473</ele><time>2022-06-09T12:19:01Z</time><extensions><speed>1.509193</speed><course>176.955521</course><hAcc>2.449131</hAcc><vAcc>0.913874</vAcc></extensions></trkpt>
      <trkpt lon="-82.146966" lat="33.555713"><ele>93.600616</ele><time>2022-06-09T12:19:02Z</time><extensions><speed>1.636331</speed><course>176.168381</course><hAcc>2.435797</hAcc><vAcc>0.905870</vAcc></extensions></trkpt>
      <trkpt lon="-82.146965" lat="33.555697"><ele>93.764656</ele><time>2022-06-09T12:19:03Z</time><extensions><speed>1.649855</speed><course>173.046967</course><hAcc>2.440885</hAcc><vAcc>0.897364</vAcc></extensions></trkpt>
      <trkpt lon="-82.146963" lat="33.555682"><ele>93.912010</ele><time>2022-06-09T12:19:04Z</time><extensions><speed>1.559669</speed><course>169.061279</course><hAcc>2.462114</hAcc><vAcc>0.891074</vAcc></extensions></trkpt>
      <trkpt lon="-82.146960" lat="33.555667"><ele>94.053902</ele><time>2022-06-09T12:19:05Z</time><extensions><speed>1.570134</speed><course>167.894531</course><hAcc>2.452633</hAcc><vAcc>0.885143</vAcc></extensions></trkpt>
      <trkpt lon="-82.146957" lat="33.555653"><ele>94.192673</ele><time>2022-06-09T12:19:06Z</time><extensions><speed>1.470279</speed><course>166.648499</course><hAcc>2.462990</hAcc><vAcc>0.879597</vAcc></extensions></trkpt>
      <trkpt lon="-82.146953" lat="33.555641"><ele>94.325699</ele><time>2022-06-09T12:19:07Z</time><extensions><speed>1.341350</speed><course>166.256317</course><hAcc>2.473823</hAcc><vAcc>0.874552</vAcc></extensions></trkpt>
      <trkpt lon="-82.146951" lat="33.555628"><ele>94.453651</ele><time>2022-06-09T12:19:08Z</time><extensions><speed>1.415013</speed><course>170.966156</course><hAcc>2.480052</hAcc><vAcc>0.870186</vAcc></extensions></trkpt>
      <trkpt lon="-82.146947" lat="33.555616"><ele>94.577957</ele><time>2022-06-09T12:19:09Z</time><extensions><speed>1.394979</speed><course>155.514755</course><hAcc>2.499899</hAcc><vAcc>0.867004</vAcc></extensions></trkpt>
      <trkpt lon="-82.146943" lat="33.555603"><ele>94.710526</ele><time>2022-06-09T12:19:10Z</time><extensions><speed>1.465872</speed><course>166.328781</course><hAcc>2.470961</hAcc><vAcc>0.865416</vAcc></extensions></trkpt>
      <trkpt lon="-82.146941" lat="33.555590"><ele>94.819450</ele><time>2022-06-09T12:19:11Z</time><extensions><speed>1.472463</speed><course>175.834015</course><hAcc>2.465771</hAcc><vAcc>0.865284</vAcc></extensions></trkpt>
      <trkpt lon="-82.146940" lat="33.555576"><ele>94.925301</ele><time>2022-06-09T12:19:12Z</time><extensions><speed>1.422414</speed><course>180.500748</course><hAcc>2.494371</hAcc><vAcc>0.868195</vAcc></extensions></trkpt>
      <trkpt lon="-82.146942" lat="33.555564"><ele>95.016769</ele><time>2022-06-09T12:19:13Z</time><extensions><speed>1.299139</speed><course>187.638992</course><hAcc>2.533867</hAcc><vAcc>0.873093</vAcc></extensions></trkpt>
      <trkpt lon="-82.146945" lat="33.555552"><ele>95.103775</ele><time>2022-06-09T12:19:14Z</time><extensions><speed>1.305200</speed><course>194.764221</course><hAcc>2.550503</hAcc><vAcc>0.879602</vAcc></extensions></trkpt>
      <trkpt lon="-82.146949" lat="33.555540"><ele>95.181068</ele><time>2022-06-09T12:19:15Z</time><extensions><speed>1.335777</speed><course>199.835724</course><hAcc>2.567222</hAcc><vAcc>0.887295</vAcc></extensions></trkpt>
      <trkpt lon="-82.146954" lat="33.555528"><ele>95.243782</ele><time>2022-06-09T12:19:16Z</time><extensions><speed>1.391641</speed><course>202.867416</course><hAcc>2.591435</hAcc><vAcc>0.895122</vAcc></extensions></trkpt>
      <trkpt lon="-82.146961" lat="33.555514"><ele>95.310158</ele><time>2022-06-09T12:19:17Z</time><extensions><speed>1.510128</speed><course>203.786301</course><hAcc>2.607378</hAcc><vAcc>0.902972</vAcc></extensions></trkpt>
      <trkpt lon="-82.146968" lat="33.555501"><ele>95.370110</ele><time>2022-06-09T12:19:18Z</time><extensions><speed>1.610966</speed><course>201.926880</course><hAcc>2.592492</hAcc><vAcc>0.909870</vAcc></extensions></trkpt>
      <trkpt lon="-82.146974" lat="33.555486"><ele>95.414505</ele><time>2022-06-09T12:19:19Z</time><extensions><speed>1.651736</speed><course>198.674652</course><hAcc>2.569603</hAcc><vAcc>0.916325</vAcc></extensions></trkpt>
      <trkpt lon="-82.146980" lat="33.555471"><ele>95.459503</ele><time>2022-06-09T12:19:20Z</time><extensions><speed>1.641131</speed><course>193.036667</course><hAcc>2.559858</hAcc><vAcc>0.921953</vAcc></extensions></trkpt>
      <trkpt lon="-82.146983" lat="33.555455"><ele>95.497513</ele><time>2022-06-09T12:19:21Z</time><extensions><speed>1.632153</speed><course>183.708618</course><hAcc>2.547487</hAcc><vAcc>0.926744</vAcc></extensions></trkpt>
      <trkpt lon="-82.146983" lat="33.555440"><ele>95.524689</ele><time>2022-06-09T12:19:22Z</time><extensions><speed>1.631545</speed><course>173.631165</course><hAcc>2.540123</hAcc><vAcc>0.930790</vAcc></extensions></trkpt>
      <trkpt lon="-82.146981" lat="33.555425"><ele>95.552902</ele><time>2022-06-09T12:19:23Z</time><extensions><speed>1.731593</speed><course>167.893509</course><hAcc>2.535769</hAcc><vAcc>0.933909</vAcc></extensions></trkpt>
      <trkpt lon="-82.146979" lat="33.555410"><ele>95.569481</ele><time>2022-06-09T12:19:24Z</time><extensions><speed>1.475245</speed><course>169.958099</course><hAcc>2.526395</hAcc><vAcc>0.936339</vAcc></extensions></trkpt>
      <trkpt lon="-82.146978" lat="33.555398"><ele>95.584267</ele><time>2022-06-09T12:19:25Z</time><extensions><speed>1.175921</speed><course>178.742477</course><hAcc>2.514439</hAcc><vAcc>0.938051</vAcc></extensions></trkpt>
      <trkpt lon="-82.146979" lat="33.555387"><ele>95.614777</ele><time>2022-06-09T12:19:26Z</time><extensions><speed>1.222249</speed><course>186.273453</course><hAcc>2.495265</hAcc><vAcc>0.939540</vAcc></extensions></trkpt>
      <trkpt lon="-82.146982" lat="33.555374"><ele>95.654579</ele><time>2022-06-09T12:19:27Z</time><extensions><speed>1.608106</speed><course>189.902695</course><hAcc>2.475346</hAcc><vAcc>0.940725</vAcc></extensions></trkpt>
      <trkpt lon="-82.146986" lat="33.555358"><ele>95.698845</ele><time>2022-06-09T12:19:28Z</time><extensions><speed>1.687146</speed><course>193.364197</course><hAcc>2.489536</hAcc><vAcc>0.941630</vAcc></extensions></trkpt>
      <trkpt lon="-82.146991" lat="33.555344"><ele>95.744453</ele><time>2022-06-09T12:19:29Z</time><extensions><speed>1.557602</speed><course>199.263168</course><hAcc>2.497699</hAcc><vAcc>0.942221</vAcc></extensions></trkpt>
      <trkpt lon="-82.146998" lat="33.555330"><ele>95.789841</ele><time>2022-06-09T12:19:30Z</time><extensions><speed>1.586386</speed><course>202.454437</course><hAcc>2.490112</hAcc><vAcc>0.942665</vAcc></extensions></trkpt>
      <trkpt lon="-82.147006" lat="33.555315"><ele>95.833832</ele><time>2022-06-09T12:19:31Z</time><extensions><speed>1.897190</speed><course>201.077286</course><hAcc>2.457481</hAcc><vAcc>0.942852</vAcc></extensions></trkpt>
      <trkpt lon="-82.147013" lat="33.555298"><ele>95.887199</ele><time>2022-06-09T12:19:32Z</time><extensions><speed>1.902495</speed><course>198.897186</course><hAcc>2.446497</hAcc><vAcc>0.942896</vAcc></extensions></trkpt>
      <trkpt lon="-82.147019" lat="33.555282"><ele>95.936768</ele><time>2022-06-09T12:19:33Z</time><extensions><speed>1.580786</speed><course>193.397232</course><hAcc>2.469753</hAcc><vAcc>0.943018</vAcc></extensions></trkpt>
      <trkpt lon="-82.147022" lat="33.555268"><ele>95.983627</ele><time>2022-06-09T12:19:34Z</time><extensions><speed>1.417754</speed><course>190.406097</course><hAcc>2.479121</hAcc><vAcc>0.943037</vAcc></extensions></trkpt>
      <trkpt lon="-82.147025" lat="33.555255"><ele>96.032921</ele><time>2022-06-09T12:19:35Z</time><extensions><speed>1.476054</speed><course>186.479919</course><hAcc>2.476610</hAcc><vAcc>0.943180</vAcc></extensions></trkpt>
      <trkpt lon="-82.147027" lat="33.555241"><ele>96.080849</ele><time>2022-06-09T12:19:36Z</time><extensions><speed>1.477191</speed><course>188.636505</course><hAcc>2.461997</hAcc><vAcc>0.943029</vAcc></extensions></trkpt>
      <trkpt lon="-82.147030" lat="33.555228"><ele>96.137337</ele><time>2022-06-09T12:19:37Z</time><extensions><speed>1.367712</speed><course>187.796951</course><hAcc>2.452617</hAcc><vAcc>0.942869</vAcc></extensions></trkpt>
      <trkpt lon="-82.147033" lat="33.555215"><ele>96.196167</ele><time>2022-06-09T12:19:38Z</time><extensions><speed>1.357964</speed><course>192.709564</course><hAcc>2.451322</hAcc><vAcc>0.942930</vAcc></extensions></trkpt>
      <trkpt lon="-82.147036" lat="33.555203"><ele>96.249077</ele><time>2022-06-09T12:19:39Z</time><extensions><speed>1.395417</speed><course>196.954163</course><hAcc>2.452666</hAcc><vAcc>0.943043</vAcc></extensions></trkpt>
      <trkpt lon="-82.147042" lat="33.555190"><ele>96.300049</ele><time>2022-06-09T12:19:40Z</time><extensions><speed>1.548863</speed><course>200.164902</course><hAcc>2.448886</hAcc><vAcc>0.943158</vAcc></extensions></trkpt>
      <trkpt lon="-82.147048" lat="33.555176"><ele>96.351677</ele><time>2022-06-09T12:19:41Z</time><extensions><speed>1.594528</speed><course>199.059769</course><hAcc>2.453468</hAcc><vAcc>0.943059</vAcc></extensions></trkpt>
      <trkpt lon="-82.147053" lat="33.555162"><ele>96.402710</ele><time>2022-06-09T12:19:42Z</time><extensions><speed>1.503090</speed><course>196.496368</course><hAcc>2.474138</hAcc><vAcc>0.942931</vAcc></extensions></trkpt>
      <trkpt lon="-82.147058" lat="33.555150"><ele>96.456192</ele><time>2022-06-09T12:19:43Z</time><extensions><speed>1.279561</speed><course>193.909485</course><hAcc>2.487255</hAcc><vAcc>0.943121</vAcc></extensions></trkpt>
      <trkpt lon="-82.147061" lat="33.555139"><ele>96.499695</ele><time>2022-06-09T12:19:44Z</time><extensions><speed>1.128297</speed><course>193.666367</course><hAcc>2.493499</hAcc><vAcc>0.943107</vAcc></extensions></trkpt>
      <trkpt lon="-82.147064" lat="33.555129"><ele>96.535767</ele><time>2022-06-09T12:19:45Z</time><extensions><speed>1.193892</speed><course>190.968002</course><hAcc>2.492456</hAcc><vAcc>0.943007</vAcc></extensions></trkpt>
      <trkpt lon="-82.147065" lat="33.555119"><ele>96.575531</ele><time>2022-06-09T12:19:46Z</time><extensions><speed>1.153442</speed><course>184.448837</course><hAcc>2.511727</hAcc><vAcc>0.943028</vAcc></extensions></trkpt>
      <trkpt lon="-82.147066" lat="33.555109"><ele>96.613785</ele><time>2022-06-09T12:19:47Z</time><extensions><speed>1.049846</speed><course>180.380173</course><hAcc>2.518929</hAcc><vAcc>0.948767</vAcc></extensions></trkpt>
      <trkpt lon="-82.147065" lat="33.555100"><ele>96.647331</ele><time>2022-06-09T12:19:48Z</time><extensions><speed>0.789516</speed><course>178.202744</course><hAcc>2.547713</hAcc><vAcc>0.956791</vAcc></extensions></trkpt>
      <trkpt lon="-82.147065" lat="33.555093"><ele>96.673592</ele><time>2022-06-09T12:19:49Z</time><extensions><speed>0.802888</speed><course>185.584045</course><hAcc>2.556436</hAcc><vAcc>0.966900</vAcc></extensions></trkpt>
      <trkpt lon="-82.147067" lat="33.555086"><ele>96.693810</ele><time>2022-06-09T12:19:50Z</time><extensions><speed>0.865197</speed><course>199.332993</course><hAcc>2.535118</hAcc><vAcc>0.979555</vAcc></extensions></trkpt>
      <trkpt lon="-82.147071" lat="33.555078"><ele>96.714256</ele><time>2022-06-09T12:19:51Z</time><extensions><speed>0.965252</speed><course>208.056198</course><hAcc>2.525455</hAcc><vAcc>0.994382</vAcc></extensions></trkpt>
      <trkpt lon="-82.147076" lat="33.555070"><ele>96.733955</ele><time>2022-06-09T12:19:52Z</time><extensions><speed>1.126033</speed><course>209.529907</course><hAcc>2.556126</hAcc><vAcc>1.011953</vAcc></extensions></trkpt>
      <trkpt lon="-82.147082" lat="33.555059"><ele>96.748695</ele><time>2022-06-09T12:19:53Z</time><extensions><speed>1.292582</speed><course>205.305206</course><hAcc>2.611285</hAcc><vAcc>1.031970</vAcc></extensions></trkpt>
      <trkpt lon="-82.147086" lat="33.555049"><ele>96.761703</ele><time>2022-06-09T12:19:54Z</time><extensions><speed>1.127987</speed><course>199.128494</course><hAcc>2.618473</hAcc><vAcc>1.053471</vAcc></extensions></trkpt>
      <trkpt lon="-82.147088" lat="33.555041"><ele>96.773994</ele><time>2022-06-09T12:19:55Z</time><extensions><speed>0.484043</speed><course>189.663147</course><hAcc>2.609960</hAcc><vAcc>1.076563</vAcc></extensions></trkpt>
      <trkpt lon="-82.147088" lat="33.555036"><ele>96.784157</ele><time>2022-06-09T12:19:56Z</time><extensions><speed>0.460261</speed><course>175.786819</course><hAcc>2.592803</hAcc><vAcc>1.100256</vAcc></extensions></trkpt>
      <trkpt lon="-82.147087" lat="33.555032"><ele>96.810364</ele><time>2022-06-09T12:19:57Z</time><extensions><speed>0.427056</speed><course>164.961533</course><hAcc>2.559439</hAcc><vAcc>1.102280</vAcc></extensions></trkpt>
      <trkpt lon="-82.147086" lat="33.555027"><ele>96.856834</ele><time>2022-06-09T12:19:58Z</time><extensions><speed>0.552397</speed><course>175.881622</course><hAcc>2.536338</hAcc><vAcc>1.105383</vAcc></extensions></trkpt>
      <trkpt lon="-82.147087" lat="33.555020"><ele>96.898972</ele><time>2022-06-09T12:19:59Z</time><extensions><speed>0.833109</speed><course>195.189590</course><hAcc>2.544521</hAcc><vAcc>1.107356</vAcc></extensions></trkpt>
      <trkpt lon="-82.147089" lat="33.555012"><ele>96.943054</ele><time>2022-06-09T12:20:00Z</time><extensions><speed>0.867192</speed><course>202.618637</course><hAcc>2.574523</hAcc><vAcc>1.108104</vAcc></extensions></trkpt>
      <trkpt lon="-82.147094" lat="33.555003"><ele>96.985367</ele><time>2022-06-09T12:20:01Z</time><extensions><speed>1.096112</speed><course>201.961990</course><hAcc>2.579703</hAcc><vAcc>1.106308</vAcc></extensions></trkpt>
      <trkpt lon="-82.147098" lat="33.554991"><ele>97.030800</ele><time>2022-06-09T12:20:02Z</time><extensions><speed>1.307660</speed><course>197.619614</course><hAcc>2.569832</hAcc><vAcc>1.102039</vAcc></extensions></trkpt>
      <trkpt lon="-82.147103" lat="33.554978"><ele>97.093872</ele><time>2022-06-09T12:20:03Z</time><extensions><speed>1.551072</speed><course>197.561951</course><hAcc>2.581691</hAcc><vAcc>1.095166</vAcc></extensions></trkpt>
      <trkpt lon="-82.147108" lat="33.554963"><ele>97.166672</ele><time>2022-06-09T12:20:04Z</time><extensions><speed>1.600272</speed><course>198.423782</course><hAcc>2.545323</hAcc><vAcc>1.085520</vAcc></extensions></trkpt>
      <trkpt lon="-82.147113" lat="33.554948"><ele>97.251503</ele><time>2022-06-09T12:20:05Z</time><extensions><speed>1.508398</speed><course>196.810333</course><hAcc>2.499473</hAcc><vAcc>1.073437</vAcc></extensions></trkpt>
      <trkpt lon="-82.147117" lat="33.554934"><ele>97.337799</ele><time>2022-06-09T12:20:06Z</time><extensions><speed>1.464008</speed><course>196.055923</course><hAcc>2.482109</hAcc><vAcc>1.059751</vAcc></extensions></trkpt>
      <trkpt lon="-82.147122" lat="33.554921"><ele>97.436470</ele><time>2022-06-09T12:20:07Z</time><extensions><speed>1.319293</speed><course>200.777206</course><hAcc>2.506178</hAcc><vAcc>1.045136</vAcc></extensions></trkpt>
      <trkpt lon="-82.147128" lat="33.554909"><ele>97.528061</ele><time>2022-06-09T12:20:08Z</time><extensions><speed>1.254116</speed><course>208.716797</course><hAcc>2.513974</hAcc><vAcc>1.030299</vAcc></extensions></trkpt>
      <trkpt lon="-82.147135" lat="33.554898"><ele>97.625366</ele><time>2022-06-09T12:20:09Z</time><extensions><speed>1.200214</speed><course>215.427155</course><hAcc>2.509896</hAcc><vAcc>1.016066</vAcc></extensions></trkpt>
      <trkpt lon="-82.147142" lat="33.554888"><ele>97.730705</ele><time>2022-06-09T12:20:10Z</time><extensions><speed>1.176977</speed><course>208.295090</course><hAcc>2.491669</hAcc><vAcc>1.002816</vAcc></extensions></trkpt>
      <trkpt lon="-82.147148" lat="33.554877"><ele>97.842941</ele><time>2022-06-09T12:20:11Z</time><extensions><speed>1.135434</speed><course>202.217041</course><hAcc>2.476742</hAcc><vAcc>0.990896</vAcc></extensions></trkpt>
      <trkpt lon="-82.147153" lat="33.554866"><ele>97.952858</ele><time>2022-06-09T12:20:12Z</time><extensions><speed>1.186361</speed><course>206.106506</course><hAcc>2.467875</hAcc><vAcc>0.980616</vAcc></extensions></trkpt>
      <trkpt lon="-82.147158" lat="33.554854"><ele>98.064377</ele><time>2022-06-09T12:20:13Z</time><extensions><speed>1.277119</speed><course>198.056702</course><hAcc>2.460577</hAcc><vAcc>0.971986</vAcc></extensions></trkpt>
      <trkpt lon="-82.147163" lat="33.554841"><ele>98.173546</ele><time>2022-06-09T12:20:14Z</time><extensions><speed>1.461550</speed><course>201.462173</course><hAcc>2.442556</hAcc><vAcc>0.964825</vAcc></extensions></trkpt>
      <trkpt lon="-82.147171" lat="33.554828"><ele>98.272041</ele><time>2022-06-09T12:20:15Z</time><extensions><speed>1.464692</speed><course>217.125305</course><hAcc>2.454300</hAcc><vAcc>0.959068</vAcc></extensions></trkpt>
      <trkpt lon="-82.147181" lat="33.554816"><ele>98.368645</ele><time>2022-06-09T12:20:16Z</time><extensions><speed>1.707555</speed><course>215.444916</course><hAcc>2.464027</hAcc><vAcc>0.960120</vAcc></extensions></trkpt>
      <trkpt lon="-82.147193" lat="33.554802"><ele>98.443321</ele><time>2022-06-09T12:20:17Z</time><extensions><speed>1.799401</speed><course>219.419617</course><hAcc>2.447617</hAcc><vAcc>0.957555</vAcc></extensions></trkpt>
      <trkpt lon="-82.147206" lat="33.554788"><ele>98.512238</ele><time>2022-06-09T12:20:18Z</time><extensions><speed>1.807671</speed><course>221.554642</course><hAcc>2.436486</hAcc><vAcc>0.962741</vAcc></extensions></trkpt>
      <trkpt lon="-82.147219" lat="33.554775"><ele>98.575813</ele><time>2022-06-09T12:20:19Z</time><extensions><speed>1.771351</speed><course>225.615738</course><hAcc>2.427772</hAcc><vAcc>0.971184</vAcc></extensions></trkpt>
      <trkpt lon="-82.147233" lat="33.554763"><ele>98.629997</ele><time>2022-06-09T12:20:20Z</time><extensions><speed>1.761306</speed><course>226.312393</course><hAcc>2.422646</hAcc><vAcc>0.982199</vAcc></extensions></trkpt>
      <trkpt lon="-82.147247" lat="33.554751"><ele>98.679619</ele><time>2022-06-09T12:20:21Z</time><extensions><speed>1.745731</speed><course>223.818390</course><hAcc>2.423170</hAcc><vAcc>0.996376</vAcc></extensions></trkpt>
      <trkpt lon="-82.147260" lat="33.554739"><ele>98.716400</ele><time>2022-06-09T12:20:22Z</time><extensions><speed>1.769003</speed><course>221.318466</course><hAcc>2.407148</hAcc><vAcc>1.013047</vAcc></extensions></trkpt>
      <trkpt lon="-82.147273" lat="33.554726"><ele>98.743546</ele><time>2022-06-09T12:20:23Z</time><extensions><speed>1.678173</speed><course>220.839035</course><hAcc>2.403351</hAcc><vAcc>1.032083</vAcc></extensions></trkpt>
      <trkpt lon="-82.147285" lat="33.554714"><ele>98.734756</ele><time>2022-06-09T12:20:24Z</time><extensions><speed>1.559042</speed><course>223.060242</course><hAcc>2.406012</hAcc><vAcc>1.036553</vAcc></extensions></trkpt>
      <trkpt lon="-82.147295" lat="33.554703"><ele>98.731567</ele><time>2022-06-09T12:20:25Z</time><extensions><speed>1.342390</speed><course>217.179688</course><hAcc>2.401763</hAcc><vAcc>1.042001</vAcc></extensions></trkpt>
      <trkpt lon="-82.147304" lat="33.554693"><ele>98.722580</ele><time>2022-06-09T12:20:26Z</time><extensions><speed>1.413313</speed><course>213.192078</course><hAcc>2.405666</hAcc><vAcc>1.046855</vAcc></extensions></trkpt>
      <trkpt lon="-82.147312" lat="33.554681"><ele>98.716873</ele><time>2022-06-09T12:20:27Z</time><extensions><speed>1.366482</speed><course>208.510864</course><hAcc>2.409286</hAcc><vAcc>1.051188</vAcc></extensions></trkpt>
      <trkpt lon="-82.147321" lat="33.554669"><ele>98.718689</ele><time>2022-06-09T12:20:28Z</time><extensions><speed>1.484699</speed><course>211.789825</course><hAcc>2.406792</hAcc><vAcc>1.054050</vAcc></extensions></trkpt>
      <trkpt lon="-82.147331" lat="33.554657"><ele>98.722511</ele><time>2022-06-09T12:20:29Z</time><extensions><speed>1.602721</speed><course>217.104614</course><hAcc>2.401176</hAcc><vAcc>1.055057</vAcc></extensions></trkpt>
      <trkpt lon="-82.147341" lat="33.554646"><ele>98.698853</ele><time>2022-06-09T12:20:30Z</time><extensions><speed>1.504820</speed><course>222.158554</course><hAcc>2.405099</hAcc><vAcc>1.053433</vAcc></extensions></trkpt>
      <trkpt lon="-82.147353" lat="33.554636"><ele>98.678238</ele><time>2022-06-09T12:20:31Z</time><extensions><speed>1.454034</speed><course>225.234192</course><hAcc>2.407386</hAcc><vAcc>1.057268</vAcc></extensions></trkpt>
      <trkpt lon="-82.147364" lat="33.554627"><ele>98.654869</ele><time>2022-06-09T12:20:32Z</time><extensions><speed>1.382577</speed><course>228.617096</course><hAcc>2.409855</hAcc><vAcc>1.059893</vAcc></extensions></trkpt>
      <trkpt lon="-82.147376" lat="33.554618"><ele>98.623848</ele><time>2022-06-09T12:20:33Z</time><extensions><speed>1.387664</speed><course>231.290192</course><hAcc>2.408143</hAcc><vAcc>1.062232</vAcc></extensions></trkpt>
      <trkpt lon="-82.147389" lat="33.554609"><ele>98.594925</ele><time>2022-06-09T12:20:34Z</time><extensions><speed>1.613705</speed><course>234.182541</course><hAcc>2.409235</hAcc><vAcc>1.065338</vAcc></extensions></trkpt>
      <trkpt lon="-82.147403" lat="33.554600"><ele>98.567421</ele><time>2022-06-09T12:20:35Z</time><extensions><speed>1.703922</speed><course>236.732056</course><hAcc>2.396433</hAcc><vAcc>1.069765</vAcc></extensions></trkpt>
      <trkpt lon="-82.147419" lat="33.554591"><ele>98.547089</ele><time>2022-06-09T12:20:36Z</time><extensions><speed>1.715949</speed><course>238.462997</course><hAcc>2.390412</hAcc><vAcc>1.076355</vAcc></extensions></trkpt>
      <trkpt lon="-82.147435" lat="33.554583"><ele>98.537537</ele><time>2022-06-09T12:20:37Z</time><extensions><speed>1.680034</speed><course>241.961609</course><hAcc>2.392133</hAcc><vAcc>1.085625</vAcc></extensions></trkpt>
      <trkpt lon="-82.147450" lat="33.554576"><ele>98.525024</ele><time>2022-06-09T12:20:38Z</time><extensions><speed>1.612414</speed><course>239.047852</course><hAcc>2.395508</hAcc><vAcc>1.097720</vAcc></extensions></trkpt>
      <trkpt lon="-82.147464" lat="33.554567"><ele>98.515717</ele><time>2022-06-09T12:20:39Z</time><extensions><speed>1.597012</speed><course>234.988968</course><hAcc>2.404988</hAcc><vAcc>1.112389</vAcc></extensions></trkpt>
      <trkpt lon="-82.147478" lat="33.554558"><ele>98.504158</ele><time>2022-06-09T12:20:40Z</time><extensions><speed>1.559678</speed><course>227.984589</course><hAcc>2.394588</hAcc><vAcc>1.128781</vAcc></extensions></trkpt>
      <trkpt lon="-82.147489" lat="33.554547"><ele>98.493988</ele><time>2022-06-09T12:20:41Z</time><extensions><speed>1.392827</speed><course>223.376144</course><hAcc>2.393561</hAcc><vAcc>1.146500</vAcc></extensions></trkpt>
      <trkpt lon="-82.147499" lat="33.554538"><ele>98.485268</ele><time>2022-06-09T12:20:42Z</time><extensions><speed>1.301929</speed><course>223.443802</course><hAcc>2.402207</hAcc><vAcc>1.164625</vAcc></extensions></trkpt>
      <trkpt lon="-82.147509" lat="33.554529"><ele>98.490097</ele><time>2022-06-09T12:20:43Z</time><extensions><speed>1.187556</speed><course>229.283844</course><hAcc>2.404709</hAcc><vAcc>1.182693</vAcc></extensions></trkpt>
      <trkpt lon="-82.147521" lat="33.554522"><ele>98.496536</ele><time>2022-06-09T12:20:44Z</time><extensions><speed>1.459657</speed><course>240.436844</course><hAcc>2.408604</hAcc><vAcc>1.199522</vAcc></extensions></trkpt>
      <trkpt lon="-82.147535" lat="33.554516"><ele>98.514740</ele><time>2022-06-09T12:20:45Z</time><extensions><speed>1.455652</speed><course>247.743988</course><hAcc>2.412987</hAcc><vAcc>1.215041</vAcc></extensions></trkpt>
      <trkpt lon="-82.147549" lat="33.554510"><ele>98.541016</ele><time>2022-06-09T12:20:46Z</time><extensions><speed>1.202457</speed><course>245.692596</course><hAcc>2.411573</hAcc><vAcc>1.229263</vAcc></extensions></trkpt>
      <trkpt lon="-82.147560" lat="33.554506"><ele>98.561691</ele><time>2022-06-09T12:20:47Z</time><extensions><speed>1.023671</speed><course>238.767990</course><hAcc>2.409146</hAcc><vAcc>1.242112</vAcc></extensions></trkpt>
      <trkpt lon="-82.147569" lat="33.554501"><ele>98.600555</ele><time>2022-06-09T12:20:48Z</time><extensions><speed>0.825197</speed><course>233.324432</course><hAcc>2.434838</hAcc><vAcc>1.227255</vAcc></extensions></trkpt>
      <trkpt lon="-82.147576" lat="33.554496"><ele>98.625404</ele><time>2022-06-09T12:20:49Z</time><extensions><speed>0.785609</speed><course>227.759979</course><hAcc>2.447209</hAcc><vAcc>1.214709</vAcc></extensions></trkpt>
      <trkpt lon="-82.147583" lat="33.554492"><ele>98.639786</ele><time>2022-06-09T12:20:50Z</time><extensions><speed>0.793342</speed><course>229.044022</course><hAcc>2.454445</hAcc><vAcc>1.202637</vAcc></extensions></trkpt>
      <trkpt lon="-82.147590" lat="33.554487"><ele>98.654594</ele><time>2022-06-09T12:20:51Z</time><extensions><speed>0.880328</speed><course>235.495239</course><hAcc>2.459686</hAcc><vAcc>1.189898</vAcc></extensions></trkpt>
      <trkpt lon="-82.147599" lat="33.554483"><ele>98.673470</ele><time>2022-06-09T12:20:52Z</time><extensions><speed>1.006801</speed><course>242.566544</course><hAcc>2.462415</hAcc><vAcc>1.175787</vAcc></extensions></trkpt>
      <trkpt lon="-82.147609" lat="33.554480"><ele>98.691864</ele><time>2022-06-09T12:20:53Z</time><extensions><speed>0.826366</speed><course>253.179932</course><hAcc>2.460195</hAcc><vAcc>1.160093</vAcc></extensions></trkpt>
      <trkpt lon="-82.147617" lat="33.554479"><ele>98.707619</ele><time>2022-06-09T12:20:54Z</time><extensions><speed>0.736456</speed><course>268.199524</course><hAcc>2.457193</hAcc><vAcc>1.142806</vAcc></extensions></trkpt>
      <trkpt lon="-82.147624" lat="33.554480"><ele>98.717804</ele><time>2022-06-09T12:20:55Z</time><extensions><speed>0.662948</speed><course>296.421936</course><hAcc>2.477922</hAcc><vAcc>1.124250</vAcc></extensions></trkpt>
      <trkpt lon="-82.147629" lat="33.554484"><ele>98.739136</ele><time>2022-06-09T12:20:56Z</time><extensions><speed>0.628715</speed><course>320.324036</course><hAcc>2.488584</hAcc><vAcc>1.104469</vAcc></extensions></trkpt>
      <trkpt lon="-82.147632" lat="33.554489"><ele>98.754875</ele><time>2022-06-09T12:20:57Z</time><extensions><speed>0.650829</speed><course>347.966553</course><hAcc>2.517710</hAcc><vAcc>1.084095</vAcc></extensions></trkpt>
      <trkpt lon="-82.147632" lat="33.554495"><ele>98.776733</ele><time>2022-06-09T12:20:58Z</time><extensions><speed>0.645655</speed><course>358.137329</course><hAcc>2.529408</hAcc><vAcc>1.064011</vAcc></extensions></trkpt>
      <trkpt lon="-82.147632" lat="33.554502"><ele>98.799660</ele><time>2022-06-09T12:20:59Z</time><extensions><speed>0.811196</speed><course>353.173828</course><hAcc>2.540046</hAcc><vAcc>1.044422</vAcc></extensions></trkpt>
      <trkpt lon="-82.147633" lat="33.554508"><ele>98.831863</ele><time>2022-06-09T12:21:00Z</time><extensions><speed>0.596437</speed><course>337.568085</course><hAcc>2.526747</hAcc><vAcc>1.026240</vAcc></extensions></trkpt>
      <trkpt lon="-82.147634" lat="33.554513"><ele>98.868164</ele><time>2022-06-09T12:21:01Z</time><extensions><speed>0.525604</speed><course>348.888794</course><hAcc>2.530278</hAcc><vAcc>1.010038</vAcc></extensions></trkpt>
      <trkpt lon="-82.147633" lat="33.554519"><ele>98.902809</ele><time>2022-06-09T12:21:02Z</time><extensions><speed>0.692993</speed><course>3.501414</course><hAcc>2.564800</hAcc><vAcc>0.996065</vAcc></extensions></trkpt>
      <trkpt lon="-82.147630" lat="33.554527"><ele>98.953499</ele><time>2022-06-09T12:21:03Z</time><extensions><speed>1.059799</speed><course>22.294821</course><hAcc>2.604997</hAcc><vAcc>0.984192</vAcc></extensions></trkpt>
      <trkpt lon="-82.147622" lat="33.554536"><ele>99.004967</ele><time>2022-06-09T12:21:04Z</time><extensions><speed>1.233681</speed><course>42.345303</course><hAcc>2.611413</hAcc><vAcc>0.974359</vAcc></extensions></trkpt>
      <trkpt lon="-82.147611" lat="33.554544"><ele>99.057533</ele><time>2022-06-09T12:21:05Z</time><extensions><speed>1.370861</speed><course>57.033997</course><hAcc>2.592783</hAcc><vAcc>0.966425</vAcc></extensions></trkpt>
      <trkpt lon="-82.147596" lat="33.554551"><ele>99.107536</ele><time>2022-06-09T12:21:06Z</time><extensions><speed>1.511395</speed><course>68.746597</course><hAcc>2.581893</hAcc><vAcc>0.960192</vAcc></extensions></trkpt>
      <trkpt lon="-82.147579" lat="33.554557"><ele>99.151978</ele><time>2022-06-09T12:21:07Z</time><extensions><speed>1.738348</speed><course>71.471970</course><hAcc>2.566205</hAcc><vAcc>0.955309</vAcc></extensions></trkpt>
      <trkpt lon="-82.147559" lat="33.554563"><ele>99.199844</ele><time>2022-06-09T12:21:08Z</time><extensions><speed>1.926730</speed><course>71.726791</course><hAcc>2.556772</hAcc><vAcc>0.951501</vAcc></extensions></trkpt>
      <trkpt lon="-82.147539" lat="33.554570"><ele>99.251678</ele><time>2022-06-09T12:21:09Z</time><extensions><speed>1.988504</speed><course>68.847931</course><hAcc>2.567203</hAcc><vAcc>0.948686</vAcc></extensions></trkpt>
      <trkpt lon="-82.147519" lat="33.554578"><ele>99.307365</ele><time>2022-06-09T12:21:10Z</time><extensions><speed>1.863901</speed><course>66.972244</course><hAcc>2.602715</hAcc><vAcc>0.946695</vAcc></extensions></trkpt>
      <trkpt lon="-82.147500" lat="33.554586"><ele>99.353058</ele><time>2022-06-09T12:21:11Z</time><extensions><speed>1.800246</speed><course>63.229950</course><hAcc>2.595424</hAcc><vAcc>0.945363</vAcc></extensions></trkpt>
      <trkpt lon="-82.147483" lat="33.554594"><ele>99.398857</ele><time>2022-06-09T12:21:12Z</time><extensions><speed>1.677751</speed><course>59.508015</course><hAcc>2.584761</hAcc><vAcc>0.944351</vAcc></extensions></trkpt>
      <trkpt lon="-82.147467" lat="33.554604"><ele>99.447639</ele><time>2022-06-09T12:21:13Z</time><extensions><speed>1.834125</speed><course>55.025826</course><hAcc>2.550282</hAcc><vAcc>0.943659</vAcc></extensions></trkpt>
      <trkpt lon="-82.147450" lat="33.554616"><ele>99.486977</ele><time>2022-06-09T12:21:14Z</time><extensions><speed>1.920782</speed><course>50.540497</course><hAcc>2.522702</hAcc><vAcc>0.943459</vAcc></extensions></trkpt>
      <trkpt lon="-82.147434" lat="33.554628"><ele>99.524040</ele><time>2022-06-09T12:21:15Z</time><extensions><speed>1.866710</speed><course>46.810169</course><hAcc>2.522990</hAcc><vAcc>0.943205</vAcc></extensions></trkpt>
      <trkpt lon="-82.147420" lat="33.554641"><ele>99.560387</ele><time>2022-06-09T12:21:16Z</time><extensions><speed>1.780666</speed><course>43.025440</course><hAcc>2.513901</hAcc><vAcc>0.943084</vAcc></extensions></trkpt>
      <trkpt lon="-82.147407" lat="33.554653"><ele>99.594887</ele><time>2022-06-09T12:21:17Z</time><extensions><speed>1.435733</speed><course>42.687740</course><hAcc>2.515273</hAcc><vAcc>0.942881</vAcc></extensions></trkpt>
      <trkpt lon="-82.147396" lat="33.554663"><ele>99.629913</ele><time>2022-06-09T12:21:18Z</time><extensions><speed>1.563778</speed><course>44.874172</course><hAcc>2.499093</hAcc><vAcc>0.942815</vAcc></extensions></trkpt>
      <trkpt lon="-82.147383" lat="33.554674"><ele>99.679245</ele><time>2022-06-09T12:21:19Z</time><extensions><speed>1.550999</speed><course>48.795597</course><hAcc>2.507081</hAcc><vAcc>0.942900</vAcc></extensions></trkpt>
      <trkpt lon="-82.147370" lat="33.554684"><ele>99.725204</ele><time>2022-06-09T12:21:20Z</time><extensions><speed>1.634045</speed><course>48.335785</course><hAcc>2.506839</hAcc><vAcc>0.942944</vAcc></extensions></trkpt>
      <trkpt lon="-82.147357" lat="33.554696"><ele>99.755440</ele><time>2022-06-09T12:21:21Z</time><extensions><speed>1.754506</speed><course>44.695557</course><hAcc>2.484656</hAcc><vAcc>0.943117</vAcc></extensions></trkpt>
      <trkpt lon="-82.147344" lat="33.554708"><ele>99.777100</ele><time>2022-06-09T12:21:22Z</time><extensions><speed>1.827117</speed><course>40.819954</course><hAcc>2.466653</hAcc><vAcc>0.942986</vAcc></extensions></trkpt>
      <trkpt lon="-82.147331" lat="33.554721"><ele>99.798042</ele><time>2022-06-09T12:21:23Z</time><extensions><speed>1.733452</speed><course>38.746639</course><hAcc>2.485872</hAcc><vAcc>0.943072</vAcc></extensions></trkpt>
      <trkpt lon="-82.147319" lat="33.554734"><ele>99.828712</ele><time>2022-06-09T12:21:24Z</time><extensions><speed>1.704653</speed><course>37.783035</course><hAcc>2.481607</hAcc><vAcc>0.943023</vAcc></extensions></trkpt>
      <trkpt lon="-82.147308" lat="33.554747"><ele>99.851776</ele><time>2022-06-09T12:21:25Z</time><extensions><speed>1.664444</speed><course>38.856522</course><hAcc>2.476861</hAcc><vAcc>0.943084</vAcc></extensions></trkpt>
      <trkpt lon="-82.147298" lat="33.554759"><ele>99.871948</ele><time>2022-06-09T12:21:26Z</time><extensions><speed>1.414949</speed><course>37.255062</course><hAcc>2.471306</hAcc><vAcc>0.943101</vAcc></extensions></trkpt>
      <trkpt lon="-82.147288" lat="33.554770"><ele>99.887314</ele><time>2022-06-09T12:21:27Z</time><extensions><speed>1.480036</speed><course>34.222946</course><hAcc>2.464416</hAcc><vAcc>0.943221</vAcc></extensions></trkpt>
      <trkpt lon="-82.147280" lat="33.554782"><ele>99.895050</ele><time>2022-06-09T12:21:28Z</time><extensions><speed>1.402164</speed><course>29.063015</course><hAcc>2.487048</hAcc><vAcc>0.943228</vAcc></extensions></trkpt>
      <trkpt lon="-82.147273" lat="33.554793"><ele>99.892906</ele><time>2022-06-09T12:21:29Z</time><extensions><speed>1.293067</speed><course>26.278145</course><hAcc>2.478333</hAcc><vAcc>0.943180</vAcc></extensions></trkpt>
      <trkpt lon="-82.147268" lat="33.554803"><ele>99.882881</ele><time>2022-06-09T12:21:30Z</time><extensions><speed>0.879444</speed><course>25.727543</course><hAcc>2.478715</hAcc><vAcc>0.943198</vAcc></extensions></trkpt>
      <trkpt lon="-82.147264" lat="33.554810"><ele>99.874237</ele><time>2022-06-09T12:21:31Z</time><extensions><speed>0.849689</speed><course>29.870302</course><hAcc>2.470452</hAcc><vAcc>0.943324</vAcc></extensions></trkpt>
      <trkpt lon="-82.147259" lat="33.554817"><ele>99.860535</ele><time>2022-06-09T12:21:32Z</time><extensions><speed>0.891175</speed><course>35.375740</course><hAcc>2.484067</hAcc><vAcc>0.942844</vAcc></extensions></trkpt>
      <trkpt lon="-82.147252" lat="33.554826"><ele>99.844574</ele><time>2022-06-09T12:21:33Z</time><extensions><speed>1.329434</speed><course>33.509552</course><hAcc>2.490338</hAcc><vAcc>0.942954</vAcc></extensions></trkpt>
      <trkpt lon="-82.147244" lat="33.554838"><ele>99.821503</ele><time>2022-06-09T12:21:34Z</time><extensions><speed>1.739774</speed><course>30.914597</course><hAcc>2.477507</hAcc><vAcc>0.943089</vAcc></extensions></trkpt>
      <trkpt lon="-82.147234" lat="33.554852"><ele>99.803192</ele><time>2022-06-09T12:21:35Z</time><extensions><speed>1.913535</speed><course>28.281799</course><hAcc>2.484939</hAcc><vAcc>0.954981</vAcc></extensions></trkpt>
      <trkpt lon="-82.147224" lat="33.554867"><ele>99.782310</ele><time>2022-06-09T12:21:36Z</time><extensions><speed>1.850445</speed><course>28.970900</course><hAcc>2.533084</hAcc><vAcc>0.972629</vAcc></extensions></trkpt>
      <trkpt lon="-82.147215" lat="33.554881"><ele>99.759102</ele><time>2022-06-09T12:21:37Z</time><extensions><speed>1.736458</speed><course>28.771658</course><hAcc>2.585212</hAcc><vAcc>0.998415</vAcc></extensions></trkpt>
      <trkpt lon="-82.147205" lat="33.554895"><ele>99.734146</ele><time>2022-06-09T12:21:38Z</time><extensions><speed>1.742396</speed><course>29.897825</course><hAcc>2.643511</hAcc><vAcc>1.034983</vAcc></extensions></trkpt>
      <trkpt lon="-82.147196" lat="33.554908"><ele>99.708618</ele><time>2022-06-09T12:21:39Z</time><extensions><speed>1.692246</speed><course>32.117443</course><hAcc>2.718185</hAcc><vAcc>1.084258</vAcc></extensions></trkpt>
      <trkpt lon="-82.147187" lat="33.554921"><ele>99.682495</ele><time>2022-06-09T12:21:40Z</time><extensions><speed>1.603845</speed><course>30.634518</course><hAcc>2.758098</hAcc><vAcc>1.149949</vAcc></extensions></trkpt>
      <trkpt lon="-82.147178" lat="33.554933"><ele>99.656013</ele><time>2022-06-09T12:21:41Z</time><extensions><speed>1.560692</speed><course>32.004223</course><hAcc>2.834128</hAcc><vAcc>1.235252</vAcc></extensions></trkpt>
      <trkpt lon="-82.147169" lat="33.554945"><ele>99.629768</ele><time>2022-06-09T12:21:42Z</time><extensions><speed>1.540509</speed><course>33.189220</course><hAcc>2.937792</hAcc><vAcc>1.341169</vAcc></extensions></trkpt>
      <trkpt lon="-82.147160" lat="33.554956"><ele>99.603447</ele><time>2022-06-09T12:21:43Z</time><extensions><speed>1.492842</speed><course>35.209740</course><hAcc>3.085325</hAcc><vAcc>1.471034</vAcc></extensions></trkpt>
      <trkpt lon="-82.147150" lat="33.554968"><ele>99.577171</ele><time>2022-06-09T12:21:44Z</time><extensions><speed>1.557324</speed><course>36.756992</course><hAcc>3.301092</hAcc><vAcc>1.625830</vAcc></extensions></trkpt>
    </trkseg>
  </trk>
</gpx>