<?xml version="1.0" encoding="UTF-8"?>
<gpx version="1.1" creator="Apple Health Export" xmlns="http://www.topografix.com/GPX/1/1" xmlns:xsi="http://www.w3.org/2001/XMLSchema-instance" xsi:schemaLocation="http://www.topografix.com/GPX/1/1 http://www.topografix.com/GPX/1/1/gpx.xsd">
  <metadata>
    <time>2026-03-14T12:16:00Z</time>
  </metadata>
  <trk>
    <name>Route 2022-06-23 9:13am</name>
    <trkseg>
      <trkpt lon="-82.310724" lat="35.643048"><ele>814.489868</ele><time>2022-06-23T13:13:02Z</time><extensions><speed>0.000000</speed><course>239.414062</course><hAcc>10.000000</hAcc><vAcc>3.000000</vAcc></extensions></trkpt>
      <trkpt lon="-82.310724" lat="35.643048"><ele>814.531860</ele><time>2022-06-23T13:13:02Z</time><extensions><speed>0.000000</speed><course>259.453125</course><hAcc>10.000000</hAcc><vAcc>3.000000</vAcc></extensions></trkpt>
    </trkseg>
  </trk>
</gpx>