<?xml version="1.0" encoding="UTF-8"?>
<gpx version="1.1" creator="Apple Health Export" xmlns="http://www.topografix.com/GPX/1/1" xmlns:xsi="http://www.w3.org/2001/XMLSchema-instance" xsi:schemaLocation="http://www.topografix.com/GPX/1/1 http://www.topografix.com/GPX/1/1/gpx.xsd">
  <metadata>
    <time>2026-03-14T12:15:45Z</time>
  </metadata>
  <trk>
    <name>Route 2021-10-24 9:14am</name>
    <trkseg>
      <trkpt lon="-82.146169" lat="33.556636"><ele>83.394081</ele><time>2021-10-24T13:13:09Z</time><extensions><speed>1.437458</speed><course>-1.000000</course><hAcc>8.268628</hAcc><vAcc>7.272593</vAcc></extensions></trkpt>
      <trkpt lon="-82.146197" lat="33.556624"><ele>83.537544</ele><time>2021-10-24T13:13:11Z</time><extensions><speed>1.436820</speed><course>-1.000000</course><hAcc>7.283220</hAcc><vAcc>6.487922</vAcc></extensions></trkpt>
      <trkpt lon="-82.146210" lat="33.556618"><ele>83.609337</ele><time>2021-10-24T13:13:12Z</time><extensions><speed>1.436343</speed><course>-1.000000</course><hAcc>6.817245</hAcc><vAcc>6.112155</vAcc></extensions></trkpt>
      <trkpt lon="-82.146224" lat="33.556612"><ele>83.681221</ele><time>2021-10-24T13:13:13Z</time><extensions><speed>1.435409</speed><course>-1.000000</course><hAcc>6.369316</hAcc><vAcc>5.747572</vAcc></extensions></trkpt>
      <trkpt lon="-82.146237" lat="33.556606"><ele>83.753258</ele><time>2021-10-24T13:13:14Z</time><extensions><speed>1.433803</speed><course>-1.000000</course><hAcc>5.940022</hAcc><vAcc>5.394552</vAcc></extensions></trkpt>
      <trkpt lon="-82.146251" lat="33.556600"><ele>83.825562</ele><time>2021-10-24T13:13:15Z</time><extensions><speed>1.431371</speed><course>-1.000000</course><hAcc>5.529954</hAcc><vAcc>5.053483</vAcc></extensions></trkpt>
      <trkpt lon="-82.146265" lat="33.556594"><ele>83.898285</ele><time>2021-10-24T13:13:16Z</time><extensions><speed>1.427817</speed><course>-1.000000</course><hAcc>5.139688</hAcc><vAcc>4.724761</vAcc></extensions></trkpt>
      <trkpt lon="-82.146278" lat="33.556588"><ele>83.971626</ele><time>2021-10-24T13:13:17Z</time><extensions><speed>1.422733</speed><course>-1.000000</course><hAcc>4.769743</hAcc><vAcc>4.408774</vAcc></extensions></trkpt>
      <trkpt lon="-82.146292" lat="33.556581"><ele>84.045860</ele><time>2021-10-24T13:13:18Z</time><extensions><speed>1.415819</speed><course>-1.000000</course><hAcc>4.420589</hAcc><vAcc>4.105913</vAcc></extensions></trkpt>
      <trkpt lon="-82.146305" lat="33.556575"><ele>84.121315</ele><time>2021-10-24T13:13:19Z</time><extensions><speed>1.406605</speed><course>-1.000000</course><hAcc>4.092659</hAcc><vAcc>3.816581</vAcc></extensions></trkpt>
      <trkpt lon="-82.146318" lat="33.556569"><ele>84.198425</ele><time>2021-10-24T13:13:20Z</time><extensions><speed>1.394485</speed><course>-1.000000</course><hAcc>3.786294</hAcc><vAcc>3.541183</vAcc></extensions></trkpt>
      <trkpt lon="-82.146331" lat="33.556563"><ele>84.277710</ele><time>2021-10-24T13:13:21Z</time><extensions><speed>1.379071</speed><course>-1.000000</course><hAcc>3.501742</hAcc><vAcc>3.280138</vAcc></extensions></trkpt>
      <trkpt lon="-82.146344" lat="33.556557"><ele>84.359726</ele><time>2021-10-24T13:13:22Z</time><extensions><speed>1.360183</speed><course>-1.000000</course><hAcc>3.239188</hAcc><vAcc>3.033890</vAcc></extensions></trkpt>
      <trkpt lon="-82.146357" lat="33.556551"><ele>84.445061</ele><time>2021-10-24T13:13:23Z</time><extensions><speed>1.338008</speed><course>-1.000000</course><hAcc>2.998734</hAcc><vAcc>2.802896</vAcc></extensions></trkpt>
      <trkpt lon="-82.146369" lat="33.556545"><ele>84.534241</ele><time>2021-10-24T13:13:24Z</time><extensions><speed>1.313209</speed><course>-1.000000</course><hAcc>2.780339</hAcc><vAcc>2.587610</vAcc></extensions></trkpt>
      <trkpt lon="-82.146381" lat="33.556539"><ele>84.627686</ele><time>2021-10-24T13:13:25Z</time><extensions><speed>1.286645</speed><course>-1.000000</course><hAcc>2.583871</hAcc><vAcc>2.388516</vAcc></extensions></trkpt>
      <trkpt lon="-82.146393" lat="33.556533"><ele>84.725662</ele><time>2021-10-24T13:13:26Z</time><extensions><speed>1.260173</speed><course>-1.000000</course><hAcc>2.409219</hAcc><vAcc>2.206208</vAcc></extensions></trkpt>
      <trkpt lon="-82.146404" lat="33.556527"><ele>84.828133</ele><time>2021-10-24T13:13:27Z</time><extensions><speed>1.236031</speed><course>-1.000000</course><hAcc>2.256284</hAcc><vAcc>2.041417</vAcc></extensions></trkpt>
      <trkpt lon="-82.146421" lat="33.556518"><ele>85.000549</ele><time>2021-10-24T13:13:28Z</time><extensions><speed>1.188664</speed><course>-1.000000</course><hAcc>2.044444</hAcc><vAcc>1.812256</vAcc></extensions></trkpt>
      <trkpt lon="-82.146432" lat="33.556512"><ele>85.115791</ele><time>2021-10-24T13:13:29Z</time><extensions><speed>1.175596</speed><course>218.241837</course><hAcc>1.923047</hAcc><vAcc>1.683529</vAcc></extensions></trkpt>
      <trkpt lon="-82.146443" lat="33.556506"><ele>85.233368</ele><time>2021-10-24T13:13:30Z</time><extensions><speed>1.167586</speed><course>208.909668</course><hAcc>1.816016</hAcc><vAcc>1.569755</vAcc></extensions></trkpt>
      <trkpt lon="-82.146453" lat="33.556500"><ele>85.352272</ele><time>2021-10-24T13:13:31Z</time><extensions><speed>1.164956</speed><course>215.883789</course><hAcc>1.722264</hAcc><vAcc>1.470538</vAcc></extensions></trkpt>
      <trkpt lon="-82.146463" lat="33.556494"><ele>85.471359</ele><time>2021-10-24T13:13:32Z</time><extensions><speed>1.167852</speed><course>227.065887</course><hAcc>1.640776</hAcc><vAcc>1.385242</vAcc></extensions></trkpt>
      <trkpt lon="-82.146474" lat="33.556489"><ele>85.589439</ele><time>2021-10-24T13:13:33Z</time><extensions><speed>1.176166</speed><course>236.148193</course><hAcc>1.570691</hAcc><vAcc>1.313014</vAcc></extensions></trkpt>
      <trkpt lon="-82.146485" lat="33.556483"><ele>85.705307</ele><time>2021-10-24T13:13:34Z</time><extensions><speed>1.189261</speed><course>234.840836</course><hAcc>1.511250</hAcc><vAcc>1.252798</vAcc></extensions></trkpt>
      <trkpt lon="-82.146496" lat="33.556477"><ele>85.817856</ele><time>2021-10-24T13:13:35Z</time><extensions><speed>1.206061</speed><course>238.915924</course><hAcc>1.461610</hAcc><vAcc>1.203347</vAcc></extensions></trkpt>
      <trkpt lon="-82.146507" lat="33.556471"><ele>85.926056</ele><time>2021-10-24T13:13:36Z</time><extensions><speed>1.225224</speed><course>249.088669</course><hAcc>1.420775</hAcc><vAcc>1.163277</vAcc></extensions></trkpt>
      <trkpt lon="-82.146518" lat="33.556466"><ele>86.029060</ele><time>2021-10-24T13:13:37Z</time><extensions><speed>1.245163</speed><course>246.353806</course><hAcc>1.387654</hAcc><vAcc>1.131166</vAcc></extensions></trkpt>
      <trkpt lon="-82.146530" lat="33.556460"><ele>86.126312</ele><time>2021-10-24T13:13:38Z</time><extensions><speed>1.264181</speed><course>241.957535</course><hAcc>1.361129</hAcc><vAcc>1.105642</vAcc></extensions></trkpt>
      <trkpt lon="-82.146542" lat="33.556454"><ele>86.217613</ele><time>2021-10-24T13:13:39Z</time><extensions><speed>1.280904</speed><course>246.705917</course><hAcc>1.340116</hAcc><vAcc>1.085451</vAcc></extensions></trkpt>
      <trkpt lon="-82.146554" lat="33.556448"><ele>86.303131</ele><time>2021-10-24T13:13:40Z</time><extensions><speed>1.294634</speed><course>248.477585</course><hAcc>1.323616</hAcc><vAcc>1.069499</vAcc></extensions></trkpt>
      <trkpt lon="-82.146566" lat="33.556442"><ele>86.383278</ele><time>2021-10-24T13:13:41Z</time><extensions><speed>1.305328</speed><course>242.712280</course><hAcc>1.310744</hAcc><vAcc>1.056872</vAcc></extensions></trkpt>
      <trkpt lon="-82.146578" lat="33.556437"><ele>86.458580</ele><time>2021-10-24T13:13:42Z</time><extensions><speed>1.313527</speed><course>241.065796</course><hAcc>1.300744</hAcc><vAcc>1.046827</vAcc></extensions></trkpt>
      <trkpt lon="-82.146590" lat="33.556431"><ele>86.529549</ele><time>2021-10-24T13:13:43Z</time><extensions><speed>1.320144</speed><course>237.423660</course><hAcc>1.292985</hAcc><vAcc>1.038779</vAcc></extensions></trkpt>
      <trkpt lon="-82.146603" lat="33.556425"><ele>86.596725</ele><time>2021-10-24T13:13:44Z</time><extensions><speed>1.326221</speed><course>233.794937</course><hAcc>1.286956</hAcc><vAcc>1.032269</vAcc></extensions></trkpt>
      <trkpt lon="-82.146615" lat="33.556419"><ele>86.660637</ele><time>2021-10-24T13:13:45Z</time><extensions><speed>1.332350</speed><course>231.660126</course><hAcc>1.282245</hAcc><vAcc>1.026942</vAcc></extensions></trkpt>
      <trkpt lon="-82.146628" lat="33.556414"><ele>86.721848</ele><time>2021-10-24T13:13:46Z</time><extensions><speed>1.338411</speed><course>219.869186</course><hAcc>1.278526</hAcc><vAcc>1.022519</vAcc></extensions></trkpt>
      <trkpt lon="-82.146641" lat="33.556408"><ele>86.780968</ele><time>2021-10-24T13:13:47Z</time><extensions><speed>1.343768</speed><course>225.149780</course><hAcc>1.275545</hAcc><vAcc>1.018784</vAcc></extensions></trkpt>
      <trkpt lon="-82.146654" lat="33.556403"><ele>86.838654</ele><time>2021-10-24T13:13:48Z</time><extensions><speed>1.347441</speed><course>232.537750</course><hAcc>1.273103</hAcc><vAcc>1.015565</vAcc></extensions></trkpt>
      <trkpt lon="-82.146667" lat="33.556397"><ele>86.895599</ele><time>2021-10-24T13:13:49Z</time><extensions><speed>1.348481</speed><course>236.885223</course><hAcc>1.271051</hAcc><vAcc>1.012727</vAcc></extensions></trkpt>
      <trkpt lon="-82.146680" lat="33.556392"><ele>86.952408</ele><time>2021-10-24T13:13:50Z</time><extensions><speed>1.346344</speed><course>243.876053</course><hAcc>1.269271</hAcc><vAcc>1.010156</vAcc></extensions></trkpt>
      <trkpt lon="-82.146693" lat="33.556387"><ele>87.009598</ele><time>2021-10-24T13:13:51Z</time><extensions><speed>1.340912</speed><course>250.135727</course><hAcc>1.267676</hAcc><vAcc>1.007756</vAcc></extensions></trkpt>
      <trkpt lon="-82.146707" lat="33.556383"><ele>87.067497</ele><time>2021-10-24T13:13:52Z</time><extensions><speed>1.332131</speed><course>263.515320</course><hAcc>1.266195</hAcc><vAcc>1.005443</vAcc></extensions></trkpt>
      <trkpt lon="-82.146720" lat="33.556378"><ele>87.126320</ele><time>2021-10-24T13:13:53Z</time><extensions><speed>1.319911</speed><course>266.315063</course><hAcc>1.264777</hAcc><vAcc>1.003142</vAcc></extensions></trkpt>
      <trkpt lon="-82.146733" lat="33.556374"><ele>87.186165</ele><time>2021-10-24T13:13:54Z</time><extensions><speed>1.304551</speed><course>265.128876</course><hAcc>1.263383</hAcc><vAcc>1.000784</vAcc></extensions></trkpt>
      <trkpt lon="-82.146747" lat="33.556371"><ele>87.246964</ele><time>2021-10-24T13:13:55Z</time><extensions><speed>1.286752</speed><course>261.419952</course><hAcc>1.261983</hAcc><vAcc>0.998307</vAcc></extensions></trkpt>
      <trkpt lon="-82.146760" lat="33.556367"><ele>87.308510</ele><time>2021-10-24T13:13:56Z</time><extensions><speed>1.267324</speed><course>282.250336</course><hAcc>1.260556</hAcc><vAcc>0.995653</vAcc></extensions></trkpt>
      <trkpt lon="-82.146773" lat="33.556365"><ele>87.370445</ele><time>2021-10-24T13:13:57Z</time><extensions><speed>1.247081</speed><course>288.877502</course><hAcc>1.259092</hAcc><vAcc>0.992772</vAcc></extensions></trkpt>
      <trkpt lon="-82.146786" lat="33.556362"><ele>87.432335</ele><time>2021-10-24T13:13:58Z</time><extensions><speed>1.226635</speed><course>288.059845</course><hAcc>1.257583</hAcc><vAcc>0.989618</vAcc></extensions></trkpt>
      <trkpt lon="-82.146799" lat="33.556360"><ele>87.493721</ele><time>2021-10-24T13:13:59Z</time><extensions><speed>1.206462</speed><course>288.604309</course><hAcc>1.256033</hAcc><vAcc>0.986156</vAcc></extensions></trkpt>
      <trkpt lon="-82.146811" lat="33.556358"><ele>87.554123</ele><time>2021-10-24T13:14:00Z</time><extensions><speed>1.187071</speed><course>287.327271</course><hAcc>1.254448</hAcc><vAcc>0.982362</vAcc></extensions></trkpt>
      <trkpt lon="-82.146824" lat="33.556357"><ele>87.613075</ele><time>2021-10-24T13:14:01Z</time><extensions><speed>1.168917</speed><course>287.545319</course><hAcc>1.252842</hAcc><vAcc>0.978226</vAcc></extensions></trkpt>
      <trkpt lon="-82.146836" lat="33.556356"><ele>87.670143</ele><time>2021-10-24T13:14:02Z</time><extensions><speed>1.152435</speed><course>287.690948</course><hAcc>1.251228</hAcc><vAcc>0.973755</vAcc></extensions></trkpt>
      <trkpt lon="-82.146849" lat="33.556356"><ele>87.724907</ele><time>2021-10-24T13:14:03Z</time><extensions><speed>1.138174</speed><course>288.421173</course><hAcc>1.249622</hAcc><vAcc>0.968973</vAcc></extensions></trkpt>
      <trkpt lon="-82.146861" lat="33.556356"><ele>87.776978</ele><time>2021-10-24T13:14:04Z</time><extensions><speed>1.126884</speed><course>288.976929</course><hAcc>1.248038</hAcc><vAcc>0.963930</vAcc></extensions></trkpt>
      <trkpt lon="-82.146873" lat="33.556357"><ele>87.825935</ele><time>2021-10-24T13:14:05Z</time><extensions><speed>1.119225</speed><course>286.779846</course><hAcc>1.246492</hAcc><vAcc>0.958706</vAcc></extensions></trkpt>
      <trkpt lon="-82.146885" lat="33.556358"><ele>87.871399</ele><time>2021-10-24T13:14:06Z</time><extensions><speed>1.115435</speed><course>284.926025</course><hAcc>1.245006</hAcc><vAcc>0.953426</vAcc></extensions></trkpt>
      <trkpt lon="-82.146897" lat="33.556359"><ele>87.912971</ele><time>2021-10-24T13:14:07Z</time><extensions><speed>1.115451</speed><course>286.631683</course><hAcc>1.243628</hAcc><vAcc>0.948270</vAcc></extensions></trkpt>
      <trkpt lon="-82.146909" lat="33.556362"><ele>87.950249</ele><time>2021-10-24T13:14:08Z</time><extensions><speed>1.118655</speed><course>286.462128</course><hAcc>1.242431</hAcc><vAcc>0.943476</vAcc></extensions></trkpt>
      <trkpt lon="-82.146920" lat="33.556364"><ele>87.982880</ele><time>2021-10-24T13:14:09Z</time><extensions><speed>1.123615</speed><course>291.931641</course><hAcc>1.241523</hAcc><vAcc>0.939309</vAcc></extensions></trkpt>
      <trkpt lon="-82.146932" lat="33.556367"><ele>88.010582</ele><time>2021-10-24T13:14:10Z</time><extensions><speed>1.128317</speed><course>324.205688</course><hAcc>1.241080</hAcc><vAcc>0.936065</vAcc></extensions></trkpt>
      <trkpt lon="-82.146943" lat="33.556370"><ele>88.033157</ele><time>2021-10-24T13:14:11Z</time><extensions><speed>1.130767</speed><course>339.457825</course><hAcc>1.241436</hAcc><vAcc>0.934124</vAcc></extensions></trkpt>
      <trkpt lon="-82.146955" lat="33.556374"><ele>88.050484</ele><time>2021-10-24T13:14:12Z</time><extensions><speed>1.129498</speed><course>337.870575</course><hAcc>1.243215</hAcc><vAcc>0.934030</vAcc></extensions></trkpt>
      <trkpt lon="-82.146966" lat="33.556378"><ele>88.062531</ele><time>2021-10-24T13:14:13Z</time><extensions><speed>1.123506</speed><course>335.242065</course><hAcc>1.247514</hAcc><vAcc>0.936620</vAcc></extensions></trkpt>
      <trkpt lon="-82.146977" lat="33.556382"><ele>88.069450</ele><time>2021-10-24T13:14:14Z</time><extensions><speed>1.112371</speed><course>337.336853</course><hAcc>1.256131</hAcc><vAcc>0.943182</vAcc></extensions></trkpt>
      <trkpt lon="-82.146988" lat="33.556386"><ele>88.071571</ele><time>2021-10-24T13:14:15Z</time><extensions><speed>1.096441</speed><course>334.932129</course><hAcc>1.271806</hAcc><vAcc>0.955612</vAcc></extensions></trkpt>
      <trkpt lon="-82.146998" lat="33.556390"><ele>88.069435</ele><time>2021-10-24T13:14:16Z</time><extensions><speed>1.077444</speed><course>338.120270</course><hAcc>1.298403</hAcc><vAcc>0.976537</vAcc></extensions></trkpt>
      <trkpt lon="-82.147009" lat="33.556394"><ele>88.063698</ele><time>2021-10-24T13:14:17Z</time><extensions><speed>1.057193</speed><course>338.814209</course><hAcc>1.341051</hAcc><vAcc>1.009363</vAcc></extensions></trkpt>
      <trkpt lon="-82.147019" lat="33.556399"><ele>88.055061</ele><time>2021-10-24T13:14:18Z</time><extensions><speed>1.037077</speed><course>338.306549</course><hAcc>1.405961</hAcc><vAcc>1.058125</vAcc></extensions></trkpt>
      <trkpt lon="-82.147029" lat="33.556403"><ele>88.044250</ele><time>2021-10-24T13:14:19Z</time><extensions><speed>1.018976</speed><course>337.708710</course><hAcc>1.499597</hAcc><vAcc>1.127023</vAcc></extensions></trkpt>
      <trkpt lon="-82.147038" lat="33.556407"><ele>88.031937</ele><time>2021-10-24T13:14:20Z</time><extensions><speed>1.004570</speed><course>335.659760</course><hAcc>1.627611</hAcc><vAcc>1.219820</vAcc></extensions></trkpt>
      <trkpt lon="-82.147048" lat="33.556411"><ele>88.018700</ele><time>2021-10-24T13:14:21Z</time><extensions><speed>0.994941</speed><course>339.087738</course><hAcc>1.793976</hAcc><vAcc>1.339275</vAcc></extensions></trkpt>
      <trkpt lon="-82.147057" lat="33.556415"><ele>88.004990</ele><time>2021-10-24T13:14:22Z</time><extensions><speed>0.990064</speed><course>339.580902</course><hAcc>2.000465</hAcc><vAcc>1.486710</vAcc></extensions></trkpt>
      <trkpt lon="-82.147067" lat="33.556419"><ele>87.991104</ele><time>2021-10-24T13:14:23Z</time><extensions><speed>0.988717</speed><course>329.962097</course><hAcc>2.246610</hAcc><vAcc>1.661915</vAcc></extensions></trkpt>
    </trkseg>
  </trk>
</gpx>