<?xml version="1.0" encoding="UTF-8"?>
<gpx version="1.1" creator="Apple Health Export" xmlns="http://www.topografix.com/GPX/1/1" xmlns:xsi="http://www.w3.org/2001/XMLSchema-instance" xsi:schemaLocation="http://www.topografix.com/GPX/1/1 http://www.topografix.com/GPX/1/1/gpx.xsd">
  <metadata>
    <time>2026-03-14T12:15:45Z</time>
  </metadata>
  <trk>
    <name>Route 2021-10-22 10:24am</name>
    <trkseg>
      <trkpt lon="-82.146108" lat="33.556524"><ele>89.794708</ele><time>2021-10-22T14:19:09Z</time><extensions><speed>1.720690</speed><course>-1.000000</course><hAcc>2.939718</hAcc><vAcc>2.734838</vAcc></extensions></trkpt>
      <trkpt lon="-82.146126" lat="33.556520"><ele>90.005104</ele><time>2021-10-22T14:19:10Z</time><extensions><speed>1.719583</speed><course>256.992188</course><hAcc>2.650180</hAcc><vAcc>2.500160</vAcc></extensions></trkpt>
      <trkpt lon="-82.146144" lat="33.556517"><ele>90.214561</ele><time>2021-10-22T14:19:11Z</time><extensions><speed>1.714678</speed><course>208.125000</course><hAcc>2.392007</hAcc><vAcc>2.285723</vAcc></extensions></trkpt>
      <trkpt lon="-82.146162" lat="33.556514"><ele>90.423698</ele><time>2021-10-22T14:19:12Z</time><extensions><speed>1.702374</speed><course>214.101562</course><hAcc>2.164532</hAcc><vAcc>2.091125</vAcc></extensions></trkpt>
      <trkpt lon="-82.146181" lat="33.556511"><ele>90.637917</ele><time>2021-10-22T14:19:13Z</time><extensions><speed>1.677399</speed><course>240.468750</course><hAcc>1.963257</hAcc><vAcc>1.912784</vAcc></extensions></trkpt>
      <trkpt lon="-82.146198" lat="33.556507"><ele>90.848412</ele><time>2021-10-22T14:19:14Z</time><extensions><speed>1.639778</speed><course>240.820312</course><hAcc>1.796704</hAcc><vAcc>1.759265</vAcc></extensions></trkpt>
      <trkpt lon="-82.146215" lat="33.556503"><ele>91.060226</ele><time>2021-10-22T14:19:15Z</time><extensions><speed>1.592045</speed><course>279.492188</course><hAcc>1.658840</hAcc><vAcc>1.626656</vAcc></extensions></trkpt>
      <trkpt lon="-82.146231" lat="33.556499"><ele>91.274979</ele><time>2021-10-22T14:19:16Z</time><extensions><speed>1.537436</speed><course>283.359375</course><hAcc>1.545920</hAcc><vAcc>1.513051</vAcc></extensions></trkpt>
      <trkpt lon="-82.146247" lat="33.556495"><ele>91.492676</ele><time>2021-10-22T14:19:17Z</time><extensions><speed>1.478105</speed><course>261.210938</course><hAcc>1.454594</hAcc><vAcc>1.416835</vAcc></extensions></trkpt>
      <trkpt lon="-82.146261" lat="33.556491"><ele>91.712868</ele><time>2021-10-22T14:19:18Z</time><extensions><speed>1.416627</speed><course>275.625000</course><hAcc>1.381340</hAcc><vAcc>1.336054</vAcc></extensions></trkpt>
      <trkpt lon="-82.146275" lat="33.556487"><ele>91.934563</ele><time>2021-10-22T14:19:19Z</time><extensions><speed>1.354487</speed><course>276.328125</course><hAcc>1.322667</hAcc><vAcc>1.268564</vAcc></extensions></trkpt>
      <trkpt lon="-82.146289" lat="33.556482"><ele>92.156357</ele><time>2021-10-22T14:19:20Z</time><extensions><speed>1.293144</speed><course>268.242188</course><hAcc>1.275407</hAcc><vAcc>1.212203</vAcc></extensions></trkpt>
      <trkpt lon="-82.146301" lat="33.556478"><ele>92.376671</ele><time>2021-10-22T14:19:21Z</time><extensions><speed>1.234136</speed><course>257.695312</course><hAcc>1.236851</hAcc><vAcc>1.164900</vAcc></extensions></trkpt>
      <trkpt lon="-82.146313" lat="33.556473"><ele>92.594223</ele><time>2021-10-22T14:19:23Z</time><extensions><speed>1.178397</speed><course>252.421875</course><hAcc>1.204667</hAcc><vAcc>1.124651</vAcc></extensions></trkpt>
      <trkpt lon="-82.146324" lat="33.556468"><ele>92.807434</ele><time>2021-10-22T14:19:24Z</time><extensions><speed>1.126666</speed><course>259.453125</course><hAcc>1.177022</hAcc><vAcc>1.089745</vAcc></extensions></trkpt>
      <trkpt lon="-82.146334" lat="33.556463"><ele>93.015495</ele><time>2021-10-22T14:19:25Z</time><extensions><speed>1.079205</speed><course>259.101562</course><hAcc>1.152407</hAcc><vAcc>1.058615</vAcc></extensions></trkpt>
      <trkpt lon="-82.146344" lat="33.556459"><ele>93.217026</ele><time>2021-10-22T14:19:26Z</time><extensions><speed>1.036584</speed><course>258.750000</course><hAcc>1.129723</hAcc><vAcc>1.030048</vAcc></extensions></trkpt>
      <trkpt lon="-82.146353" lat="33.556454"><ele>93.410187</ele><time>2021-10-22T14:19:27Z</time><extensions><speed>0.999680</speed><course>264.726562</course><hAcc>1.108243</hAcc><vAcc>1.003184</vAcc></extensions></trkpt>
      <trkpt lon="-82.146362" lat="33.556449"><ele>93.592865</ele><time>2021-10-22T14:19:28Z</time><extensions><speed>0.969249</speed><course>274.921875</course><hAcc>1.087602</hAcc><vAcc>0.977536</vAcc></extensions></trkpt>
      <trkpt lon="-82.146371" lat="33.556445"><ele>93.762894</ele><time>2021-10-22T14:19:29Z</time><extensions><speed>0.945873</speed><course>279.140625</course><hAcc>1.067778</hAcc><vAcc>0.952995</vAcc></extensions></trkpt>
      <trkpt lon="-82.146380" lat="33.556441"><ele>93.918045</ele><time>2021-10-22T14:19:30Z</time><extensions><speed>0.930411</speed><course>258.750000</course><hAcc>1.049073</hAcc><vAcc>0.929822</vAcc></extensions></trkpt>
      <trkpt lon="-82.146389" lat="33.556436"><ele>94.056290</ele><time>2021-10-22T14:19:31Z</time><extensions><speed>0.923948</speed><course>221.835938</course><hAcc>1.031967</hAcc><vAcc>0.908494</vAcc></extensions></trkpt>
      <trkpt lon="-82.146397" lat="33.556433"><ele>94.176498</ele><time>2021-10-22T14:19:32Z</time><extensions><speed>0.927103</speed><course>191.953125</course><hAcc>1.016865</hAcc><vAcc>0.889446</vAcc></extensions></trkpt>
      <trkpt lon="-82.146407" lat="33.556429"><ele>94.278763</ele><time>2021-10-22T14:19:33Z</time><extensions><speed>0.939458</speed><course>214.453125</course><hAcc>1.003971</hAcc><vAcc>0.872925</vAcc></extensions></trkpt>
      <trkpt lon="-82.146416" lat="33.556426"><ele>94.363960</ele><time>2021-10-22T14:19:34Z</time><extensions><speed>0.959465</speed><course>248.203125</course><hAcc>0.993306</hAcc><vAcc>0.858998</vAcc></extensions></trkpt>
      <trkpt lon="-82.146426" lat="33.556423"><ele>94.433426</ele><time>2021-10-22T14:19:35Z</time><extensions><speed>0.984598</speed><course>256.640625</course><hAcc>0.984750</hAcc><vAcc>0.847575</vAcc></extensions></trkpt>
      <trkpt lon="-82.146436" lat="33.556420"><ele>94.489113</ele><time>2021-10-22T14:19:36Z</time><extensions><speed>1.011636</speed><course>254.179688</course><hAcc>0.978083</hAcc><vAcc>0.838449</vAcc></extensions></trkpt>
      <trkpt lon="-82.146447" lat="33.556418"><ele>94.533508</ele><time>2021-10-22T14:19:37Z</time><extensions><speed>1.037387</speed><course>249.609375</course><hAcc>0.973029</hAcc><vAcc>0.831333</vAcc></extensions></trkpt>
      <trkpt lon="-82.146458" lat="33.556416"><ele>94.569298</ele><time>2021-10-22T14:19:38Z</time><extensions><speed>1.058922</speed><course>240.117188</course><hAcc>0.969288</hAcc><vAcc>0.825894</vAcc></extensions></trkpt>
      <trkpt lon="-82.146469" lat="33.556415"><ele>94.598961</ele><time>2021-10-22T14:19:39Z</time><extensions><speed>1.073587</speed><course>246.796875</course><hAcc>0.966568</hAcc><vAcc>0.821792</vAcc></extensions></trkpt>
      <trkpt lon="-82.146481" lat="33.556414"><ele>94.624474</ele><time>2021-10-22T14:19:40Z</time><extensions><speed>1.079471</speed><course>253.476562</course><hAcc>0.964596</hAcc><vAcc>0.818688</vAcc></extensions></trkpt>
      <trkpt lon="-82.146492" lat="33.556413"><ele>94.647331</ele><time>2021-10-22T14:19:41Z</time><extensions><speed>1.075504</speed><course>263.320312</course><hAcc>0.963124</hAcc><vAcc>0.816269</vAcc></extensions></trkpt>
      <trkpt lon="-82.146504" lat="33.556413"><ele>94.668777</ele><time>2021-10-22T14:19:42Z</time><extensions><speed>1.061362</speed><course>254.179688</course><hAcc>0.961937</hAcc><vAcc>0.814247</vAcc></extensions></trkpt>
      <trkpt lon="-82.146515" lat="33.556413"><ele>94.689720</ele><time>2021-10-22T14:19:43Z</time><extensions><speed>1.037858</speed><course>251.367188</course><hAcc>0.960844</hAcc><vAcc>0.812360</vAcc></extensions></trkpt>
      <trkpt lon="-82.146526" lat="33.556413"><ele>94.710579</ele><time>2021-10-22T14:19:44Z</time><extensions><speed>1.007018</speed><course>260.156250</course><hAcc>0.959678</hAcc><vAcc>0.810376</vAcc></extensions></trkpt>
      <trkpt lon="-82.146537" lat="33.556414"><ele>94.731232</ele><time>2021-10-22T14:19:45Z</time><extensions><speed>0.971552</speed><course>254.531250</course><hAcc>0.958292</hAcc><vAcc>0.808088</vAcc></extensions></trkpt>
      <trkpt lon="-82.146547" lat="33.556416"><ele>94.751228</ele><time>2021-10-22T14:19:46Z</time><extensions><speed>0.934537</speed><course>244.335938</course><hAcc>0.956560</hAcc><vAcc>0.805319</vAcc></extensions></trkpt>
      <trkpt lon="-82.146557" lat="33.556418"><ele>94.770042</ele><time>2021-10-22T14:19:47Z</time><extensions><speed>0.899062</speed><course>217.265625</course><hAcc>0.954372</hAcc><vAcc>0.801924</vAcc></extensions></trkpt>
      <trkpt lon="-82.146566" lat="33.556420"><ele>94.787186</ele><time>2021-10-22T14:19:48Z</time><extensions><speed>0.867012</speed><course>250.664062</course><hAcc>0.951652</hAcc><vAcc>0.797801</vAcc></extensions></trkpt>
      <trkpt lon="-82.146574" lat="33.556422"><ele>94.802216</ele><time>2021-10-22T14:19:49Z</time><extensions><speed>0.838527</speed><course>338.203125</course><hAcc>0.948361</hAcc><vAcc>0.792908</vAcc></extensions></trkpt>
      <trkpt lon="-82.146583" lat="33.556424"><ele>94.814743</ele><time>2021-10-22T14:19:50Z</time><extensions><speed>0.812512</speed><course>338.906250</course><hAcc>0.944518</hAcc><vAcc>0.787284</vAcc></extensions></trkpt>
      <trkpt lon="-82.146591" lat="33.556427"><ele>94.824326</ele><time>2021-10-22T14:19:51Z</time><extensions><speed>0.787621</speed><course>349.453125</course><hAcc>0.940220</hAcc><vAcc>0.781074</vAcc></extensions></trkpt>
      <trkpt lon="-82.146599" lat="33.556430"><ele>94.830299</ele><time>2021-10-22T14:19:52Z</time><extensions><speed>0.763017</speed><course>349.101562</course><hAcc>0.935668</hAcc><vAcc>0.774560</vAcc></extensions></trkpt>
      <trkpt lon="-82.146606" lat="33.556432"><ele>94.831886</ele><time>2021-10-22T14:19:53Z</time><extensions><speed>0.738034</speed><course>347.343750</course><hAcc>0.931180</hAcc><vAcc>0.768181</vAcc></extensions></trkpt>
      <trkpt lon="-82.146613" lat="33.556434"><ele>94.828346</ele><time>2021-10-22T14:19:54Z</time><extensions><speed>0.711876</speed><course>312.890625</course><hAcc>0.927200</hAcc><vAcc>0.762538</vAcc></extensions></trkpt>
      <trkpt lon="-82.146621" lat="33.556436"><ele>94.818871</ele><time>2021-10-22T14:19:55Z</time><extensions><speed>0.683885</speed><course>303.398438</course><hAcc>0.924207</hAcc><vAcc>0.758276</vAcc></extensions></trkpt>
      <trkpt lon="-82.146628" lat="33.556438"><ele>94.802620</ele><time>2021-10-22T14:19:56Z</time><extensions><speed>0.654167</speed><course>299.179688</course><hAcc>0.922521</hAcc><vAcc>0.755844</vAcc></extensions></trkpt>
      <trkpt lon="-82.146634" lat="33.556439"><ele>94.779007</ele><time>2021-10-22T14:19:57Z</time><extensions><speed>0.623838</speed><course>288.984375</course><hAcc>0.922304</hAcc><vAcc>0.755471</vAcc></extensions></trkpt>
      <trkpt lon="-82.146641" lat="33.556439"><ele>94.747841</ele><time>2021-10-22T14:19:58Z</time><extensions><speed>0.594811</speed><course>283.007812</course><hAcc>0.923638</hAcc><vAcc>0.757273</vAcc></extensions></trkpt>
      <trkpt lon="-82.146647" lat="33.556439"><ele>94.709564</ele><time>2021-10-22T14:19:59Z</time><extensions><speed>0.568716</speed><course>285.820312</course><hAcc>0.926435</hAcc><vAcc>0.761130</vAcc></extensions></trkpt>
      <trkpt lon="-82.146653" lat="33.556438"><ele>94.665634</ele><time>2021-10-22T14:20:00Z</time><extensions><speed>0.545468</speed><course>317.812500</course><hAcc>0.930355</hAcc><vAcc>0.766586</vAcc></extensions></trkpt>
      <trkpt lon="-82.146659" lat="33.556437"><ele>94.618332</ele><time>2021-10-22T14:20:01Z</time><extensions><speed>0.524138</speed><course>316.054688</course><hAcc>0.934908</hAcc><vAcc>0.772979</vAcc></extensions></trkpt>
      <trkpt lon="-82.146664" lat="33.556436"><ele>94.570168</ele><time>2021-10-22T14:20:02Z</time><extensions><speed>0.504362</speed><course>304.101562</course><hAcc>0.939657</hAcc><vAcc>0.779697</vAcc></extensions></trkpt>
      <trkpt lon="-82.146669" lat="33.556433"><ele>94.523590</ele><time>2021-10-22T14:20:03Z</time><extensions><speed>0.486375</speed><course>304.101562</course><hAcc>0.944330</hAcc><vAcc>0.786311</vAcc></extensions></trkpt>
      <trkpt lon="-82.146673" lat="33.556431"><ele>94.480736</ele><time>2021-10-22T14:20:04Z</time><extensions><speed>0.470935</speed><course>304.101562</course><hAcc>0.948815</hAcc><vAcc>0.792568</vAcc></extensions></trkpt>
      <trkpt lon="-82.146676" lat="33.556428"><ele>94.443329</ele><time>2021-10-22T14:20:05Z</time><extensions><speed>0.458257</speed><course>211.992188</course><hAcc>0.953180</hAcc><vAcc>0.798368</vAcc></extensions></trkpt>
      <trkpt lon="-82.146679" lat="33.556425"><ele>94.412308</ele><time>2021-10-22T14:20:06Z</time><extensions><speed>0.447663</speed><course>211.992188</course><hAcc>0.957689</hAcc><vAcc>0.803776</vAcc></extensions></trkpt>
      <trkpt lon="-82.146682" lat="33.556421"><ele>94.387939</ele><time>2021-10-22T14:20:07Z</time><extensions><speed>0.438599</speed><course>211.992188</course><hAcc>0.962746</hAcc><vAcc>0.808941</vAcc></extensions></trkpt>
      <trkpt lon="-82.146684" lat="33.556418"><ele>94.369667</ele><time>2021-10-22T14:20:08Z</time><extensions><speed>0.430214</speed><course>211.992188</course><hAcc>0.968900</hAcc><vAcc>0.814081</vAcc></extensions></trkpt>
      <trkpt lon="-82.146685" lat="33.556414"><ele>94.356232</ele><time>2021-10-22T14:20:09Z</time><extensions><speed>0.421240</speed><course>155.390625</course><hAcc>0.976824</hAcc><vAcc>0.819460</vAcc></extensions></trkpt>
      <trkpt lon="-82.146687" lat="33.556411"><ele>94.345779</ele><time>2021-10-22T14:20:10Z</time><extensions><speed>0.410282</speed><course>155.742188</course><hAcc>0.987267</hAcc><vAcc>0.825351</vAcc></extensions></trkpt>
      <trkpt lon="-82.146688" lat="33.556407"><ele>94.336037</ele><time>2021-10-22T14:20:11Z</time><extensions><speed>0.396120</speed><course>156.796875</course><hAcc>1.000980</hAcc><vAcc>0.832007</vAcc></extensions></trkpt>
      <trkpt lon="-82.146688" lat="33.556404"><ele>94.324600</ele><time>2021-10-22T14:20:12Z</time><extensions><speed>0.377742</speed><course>158.203125</course><hAcc>1.018598</hAcc><vAcc>0.839619</vAcc></extensions></trkpt>
      <trkpt lon="-82.146689" lat="33.556400"><ele>94.309120</ele><time>2021-10-22T14:20:13Z</time><extensions><speed>0.354352</speed><course>181.757812</course><hAcc>1.040490</hAcc><vAcc>0.848286</vAcc></extensions></trkpt>
      <trkpt lon="-82.146689" lat="33.556397"><ele>94.287521</ele><time>2021-10-22T14:20:14Z</time><extensions><speed>0.325501</speed><course>195.820312</course><hAcc>1.066596</hAcc><vAcc>0.857970</vAcc></extensions></trkpt>
      <trkpt lon="-82.146689" lat="33.556395"><ele>94.258148</ele><time>2021-10-22T14:20:15Z</time><extensions><speed>0.290884</speed><course>231.679688</course><hAcc>1.096263</hAcc><vAcc>0.868464</vAcc></extensions></trkpt>
      <trkpt lon="-82.146689" lat="33.556392"><ele>94.219910</ele><time>2021-10-22T14:20:16Z</time><extensions><speed>0.250061</speed><course>17.226562</course><hAcc>1.128134</hAcc><vAcc>0.879371</vAcc></extensions></trkpt>
      <trkpt lon="-82.146689" lat="33.556390"><ele>94.172165</ele><time>2021-10-22T14:20:17Z</time><extensions><speed>0.203205</speed><course>55.195312</course><hAcc>1.160405</hAcc><vAcc>0.890179</vAcc></extensions></trkpt>
      <trkpt lon="-82.146689" lat="33.556388"><ele>94.114571</ele><time>2021-10-22T14:20:18Z</time><extensions><speed>0.151575</speed><course>91.757812</course><hAcc>1.191458</hAcc><vAcc>0.900427</vAcc></extensions></trkpt>
      <trkpt lon="-82.146688" lat="33.556387"><ele>94.047012</ele><time>2021-10-22T14:20:19Z</time><extensions><speed>0.099627</speed><course>128.320312</course><hAcc>1.220161</hAcc><vAcc>0.909791</vAcc></extensions></trkpt>
      <trkpt lon="-82.146688" lat="33.556387"><ele>93.969673</ele><time>2021-10-22T14:20:20Z</time><extensions><speed>0.070030</speed><course>111.093750</course><hAcc>1.245826</hAcc><vAcc>0.918072</vAcc></extensions></trkpt>
      <trkpt lon="-82.146687" lat="33.556387"><ele>93.883118</ele><time>2021-10-22T14:20:21Z</time><extensions><speed>0.105158</speed><course>189.492188</course><hAcc>1.268124</hAcc><vAcc>0.925171</vAcc></extensions></trkpt>
      <trkpt lon="-82.146686" lat="33.556388"><ele>93.788376</ele><time>2021-10-22T14:20:22Z</time><extensions><speed>0.178423</speed><course>125.156250</course><hAcc>1.286993</hAcc><vAcc>0.931068</vAcc></extensions></trkpt>
      <trkpt lon="-82.146685" lat="33.556390"><ele>93.686592</ele><time>2021-10-22T14:20:23Z</time><extensions><speed>0.266124</speed><course>152.578125</course><hAcc>1.302561</hAcc><vAcc>0.935793</vAcc></extensions></trkpt>
      <trkpt lon="-82.146683" lat="33.556392"><ele>93.578918</ele><time>2021-10-22T14:20:24Z</time><extensions><speed>0.362642</speed><course>169.804688</course><hAcc>1.315077</hAcc><vAcc>0.939406</vAcc></extensions></trkpt>
      <trkpt lon="-82.146681" lat="33.556396"><ele>93.466537</ele><time>2021-10-22T14:20:25Z</time><extensions><speed>0.465698</speed><course>171.562500</course><hAcc>1.324853</hAcc><vAcc>0.941979</vAcc></extensions></trkpt>
      <trkpt lon="-82.146679" lat="33.556400"><ele>93.350723</ele><time>2021-10-22T14:20:26Z</time><extensions><speed>0.573478</speed><course>164.882812</course><hAcc>1.332231</hAcc><vAcc>0.943583</vAcc></extensions></trkpt>
      <trkpt lon="-82.146676" lat="33.556405"><ele>93.232788</ele><time>2021-10-22T14:20:27Z</time><extensions><speed>0.683898</speed><course>157.851562</course><hAcc>1.337544</hAcc><vAcc>0.944274</vAcc></extensions></trkpt>
      <trkpt lon="-82.146673" lat="33.556411"><ele>93.114052</ele><time>2021-10-22T14:20:28Z</time><extensions><speed>0.794627</speed><course>148.007812</course><hAcc>1.341102</hAcc><vAcc>0.944092</vAcc></extensions></trkpt>
      <trkpt lon="-82.146669" lat="33.556418"><ele>92.995697</ele><time>2021-10-22T14:20:29Z</time><extensions><speed>0.903155</speed><course>53.085938</course><hAcc>1.343180</hAcc><vAcc>0.943060</vAcc></extensions></trkpt>
      <trkpt lon="-82.146664" lat="33.556426"><ele>92.878792</ele><time>2021-10-22T14:20:30Z</time><extensions><speed>1.007200</speed><course>43.593750</course><hAcc>1.344011</hAcc><vAcc>0.941180</vAcc></extensions></trkpt>
      <trkpt lon="-82.146659" lat="33.556434"><ele>92.764366</ele><time>2021-10-22T14:20:31Z</time><extensions><speed>1.105045</speed><course>40.429688</course><hAcc>1.343786</hAcc><vAcc>0.938446</vAcc></extensions></trkpt>
      <trkpt lon="-82.146653" lat="33.556443"><ele>92.653450</ele><time>2021-10-22T14:20:32Z</time><extensions><speed>1.195270</speed><course>46.054688</course><hAcc>1.342665</hAcc><vAcc>0.934849</vAcc></extensions></trkpt>
      <trkpt lon="-82.146647" lat="33.556453"><ele>92.546974</ele><time>2021-10-22T14:20:33Z</time><extensions><speed>1.276667</speed><course>27.773438</course><hAcc>1.340777</hAcc><vAcc>0.930393</vAcc></extensions></trkpt>
      <trkpt lon="-82.146639" lat="33.556463"><ele>92.445724</ele><time>2021-10-22T14:20:34Z</time><extensions><speed>1.348395</speed><course>23.203125</course><hAcc>1.338242</hAcc><vAcc>0.925107</vAcc></extensions></trkpt>
      <trkpt lon="-82.146631" lat="33.556474"><ele>92.350372</ele><time>2021-10-22T14:20:35Z</time><extensions><speed>1.410394</speed><course>28.476562</course><hAcc>1.335176</hAcc><vAcc>0.919064</vAcc></extensions></trkpt>
      <trkpt lon="-82.146622" lat="33.556484"><ele>92.261536</ele><time>2021-10-22T14:20:36Z</time><extensions><speed>1.463221</speed><course>41.835938</course><hAcc>1.331707</hAcc><vAcc>0.912401</vAcc></extensions></trkpt>
      <trkpt lon="-82.146613" lat="33.556495"><ele>92.179802</ele><time>2021-10-22T14:20:37Z</time><extensions><speed>1.507364</speed><course>56.953125</course><hAcc>1.327987</hAcc><vAcc>0.905333</vAcc></extensions></trkpt>
      <trkpt lon="-82.146603" lat="33.556506"><ele>92.105835</ele><time>2021-10-22T14:20:38Z</time><extensions><speed>1.542978</speed><course>42.187500</course><hAcc>1.324200</hAcc><vAcc>0.898163</vAcc></extensions></trkpt>
      <trkpt lon="-82.146592" lat="33.556516"><ele>92.040436</ele><time>2021-10-22T14:20:39Z</time><extensions><speed>1.570138</speed><course>54.140625</course><hAcc>1.320540</hAcc><vAcc>0.891237</vAcc></extensions></trkpt>
      <trkpt lon="-82.146580" lat="33.556527"><ele>91.984482</ele><time>2021-10-22T14:20:40Z</time><extensions><speed>1.589002</speed><course>61.875000</course><hAcc>1.317164</hAcc><vAcc>0.884843</vAcc></extensions></trkpt>
      <trkpt lon="-82.146568" lat="33.556537"><ele>91.938812</ele><time>2021-10-22T14:20:41Z</time><extensions><speed>1.599845</speed><course>66.445312</course><hAcc>1.314169</hAcc><vAcc>0.879167</vAcc></extensions></trkpt>
      <trkpt lon="-82.146556" lat="33.556547"><ele>91.904198</ele><time>2021-10-22T14:20:42Z</time><extensions><speed>1.602974</speed><course>55.195312</course><hAcc>1.311603</hAcc><vAcc>0.874301</vAcc></extensions></trkpt>
      <trkpt lon="-82.146543" lat="33.556557"><ele>91.881538</ele><time>2021-10-22T14:20:43Z</time><extensions><speed>1.598769</speed><course>53.789062</course><hAcc>1.309474</hAcc><vAcc>0.870262</vAcc></extensions></trkpt>
      <trkpt lon="-82.146530" lat="33.556566"><ele>91.871704</ele><time>2021-10-22T14:20:44Z</time><extensions><speed>1.587966</speed><course>42.187500</course><hAcc>1.307760</hAcc><vAcc>0.867012</vAcc></extensions></trkpt>
      <trkpt lon="-82.146516" lat="33.556575"><ele>91.875366</ele><time>2021-10-22T14:20:45Z</time><extensions><speed>1.571705</speed><course>35.156250</course><hAcc>1.306421</hAcc><vAcc>0.864474</vAcc></extensions></trkpt>
      <trkpt lon="-82.146503" lat="33.556583"><ele>91.892838</ele><time>2021-10-22T14:20:46Z</time><extensions><speed>1.551346</speed><course>86.484375</course><hAcc>1.305407</hAcc><vAcc>0.862552</vAcc></extensions></trkpt>
      <trkpt lon="-82.146489" lat="33.556591"><ele>91.924019</ele><time>2021-10-22T14:20:47Z</time><extensions><speed>1.528260</speed><course>59.765625</course><hAcc>1.304663</hAcc><vAcc>0.861142</vAcc></extensions></trkpt>
      <trkpt lon="-82.146476" lat="33.556599"><ele>91.968399</ele><time>2021-10-22T14:20:48Z</time><extensions><speed>1.503754</speed><course>63.984375</course><hAcc>1.304136</hAcc><vAcc>0.860141</vAcc></extensions></trkpt>
      <trkpt lon="-82.146462" lat="33.556606"><ele>92.024948</ele><time>2021-10-22T14:20:49Z</time><extensions><speed>1.479057</speed><course>61.171875</course><hAcc>1.303779</hAcc><vAcc>0.859459</vAcc></extensions></trkpt>
      <trkpt lon="-82.146448" lat="33.556613"><ele>92.092056</ele><time>2021-10-22T14:20:50Z</time><extensions><speed>1.455246</speed><course>71.015625</course><hAcc>1.303549</hAcc><vAcc>0.859014</vAcc></extensions></trkpt>
      <trkpt lon="-82.146435" lat="33.556619"><ele>92.167717</ele><time>2021-10-22T14:20:51Z</time><extensions><speed>1.433150</speed><course>91.757812</course><hAcc>1.303412</hAcc><vAcc>0.858740</vAcc></extensions></trkpt>
      <trkpt lon="-82.146422" lat="33.556626"><ele>92.249611</ele><time>2021-10-22T14:20:52Z</time><extensions><speed>1.413301</speed><course>100.546875</course><hAcc>1.303340</hAcc><vAcc>0.858584</vAcc></extensions></trkpt>
      <trkpt lon="-82.146409" lat="33.556632"><ele>92.335419</ele><time>2021-10-22T14:20:53Z</time><extensions><speed>1.395927</speed><course>55.195312</course><hAcc>1.303312</hAcc><vAcc>0.858507</vAcc></extensions></trkpt>
      <trkpt lon="-82.146396" lat="33.556638"><ele>92.423027</ele><time>2021-10-22T14:20:54Z</time><extensions><speed>1.380992</speed><course>45.000000</course><hAcc>1.303296</hAcc><vAcc>0.858466</vAcc></extensions></trkpt>
      <trkpt lon="-82.146383" lat="33.556645"><ele>92.510277</ele><time>2021-10-22T14:20:55Z</time><extensions><speed>1.368426</speed><course>38.671875</course><hAcc>1.303279</hAcc><vAcc>0.858442</vAcc></extensions></trkpt>
      <trkpt lon="-82.146370" lat="33.556651"><ele>92.595421</ele><time>2021-10-22T14:20:56Z</time><extensions><speed>1.357974</speed><course>42.539062</course><hAcc>1.303272</hAcc><vAcc>0.858431</vAcc></extensions></trkpt>
      <trkpt lon="-82.146358" lat="33.556657"><ele>92.676788</ele><time>2021-10-22T14:20:57Z</time><extensions><speed>1.349331</speed><course>60.117188</course><hAcc>1.303269</hAcc><vAcc>0.858425</vAcc></extensions></trkpt>
      <trkpt lon="-82.146346" lat="33.556664"><ele>92.752922</ele><time>2021-10-22T14:20:58Z</time><extensions><speed>1.342191</speed><course>58.710938</course><hAcc>1.303266</hAcc><vAcc>0.858420</vAcc></extensions></trkpt>
      <trkpt lon="-82.146334" lat="33.556671"><ele>92.822495</ele><time>2021-10-22T14:20:59Z</time><extensions><speed>1.336288</speed><course>65.039062</course><hAcc>1.303263</hAcc><vAcc>0.858414</vAcc></extensions></trkpt>
      <trkpt lon="-82.146322" lat="33.556678"><ele>92.884239</ele><time>2021-10-22T14:21:00Z</time><extensions><speed>1.331287</speed><course>63.984375</course><hAcc>1.303260</hAcc><vAcc>0.858406</vAcc></extensions></trkpt>
      <trkpt lon="-82.146311" lat="33.556685"><ele>92.936905</ele><time>2021-10-22T14:21:01Z</time><extensions><speed>1.326641</speed><course>63.984375</course><hAcc>1.303258</hAcc><vAcc>0.858399</vAcc></extensions></trkpt>
      <trkpt lon="-82.146299" lat="33.556692"><ele>92.979332</ele><time>2021-10-22T14:21:02Z</time><extensions><speed>1.321655</speed><course>82.968750</course><hAcc>1.303259</hAcc><vAcc>0.858396</vAcc></extensions></trkpt>
      <trkpt lon="-82.146288" lat="33.556700"><ele>93.010437</ele><time>2021-10-22T14:21:03Z</time><extensions><speed>1.315633</speed><course>91.406250</course><hAcc>1.303264</hAcc><vAcc>0.858403</vAcc></extensions></trkpt>
      <trkpt lon="-82.146278" lat="33.556707"><ele>93.029282</ele><time>2021-10-22T14:21:04Z</time><extensions><speed>1.307885</speed><course>93.867188</course><hAcc>1.303277</hAcc><vAcc>0.858423</vAcc></extensions></trkpt>
      <trkpt lon="-82.146267" lat="33.556715"><ele>93.035248</ele><time>2021-10-22T14:21:05Z</time><extensions><speed>1.297673</speed><course>75.937500</course><hAcc>1.303302</hAcc><vAcc>0.858464</vAcc></extensions></trkpt>
      <trkpt lon="-82.146257" lat="33.556723"><ele>93.028061</ele><time>2021-10-22T14:21:06Z</time><extensions><speed>1.284009</speed><course>4.570312</course><hAcc>1.303343</hAcc><vAcc>0.858533</vAcc></extensions></trkpt>
      <trkpt lon="-82.146247" lat="33.556731"><ele>93.007904</ele><time>2021-10-22T14:21:07Z</time><extensions><speed>1.265688</speed><course>22.851562</course><hAcc>1.303405</hAcc><vAcc>0.858640</vAcc></extensions></trkpt>
      <trkpt lon="-82.146237" lat="33.556738"><ele>92.975456</ele><time>2021-10-22T14:21:08Z</time><extensions><speed>1.241719</speed><course>23.554688</course><hAcc>1.303493</hAcc><vAcc>0.858796</vAcc></extensions></trkpt>
      <trkpt lon="-82.146228" lat="33.556746"><ele>92.931992</ele><time>2021-10-22T14:21:09Z</time><extensions><speed>1.211740</speed><course>18.281250</course><hAcc>1.303613</hAcc><vAcc>0.859009</vAcc></extensions></trkpt>
      <trkpt lon="-82.146218" lat="33.556754"><ele>92.879204</ele><time>2021-10-22T14:21:10Z</time><extensions><speed>1.175995</speed><course>31.992188</course><hAcc>1.303770</hAcc><vAcc>0.859291</vAcc></extensions></trkpt>
      <trkpt lon="-82.146209" lat="33.556761"><ele>92.819229</ele><time>2021-10-22T14:21:11Z</time><extensions><speed>1.135147</speed><course>32.695312</course><hAcc>1.303970</hAcc><vAcc>0.859651</vAcc></extensions></trkpt>
      <trkpt lon="-82.146200" lat="33.556768"><ele>92.754547</ele><time>2021-10-22T14:21:12Z</time><extensions><speed>1.090189</speed><course>50.625000</course><hAcc>1.304216</hAcc><vAcc>0.860096</vAcc></extensions></trkpt>
      <trkpt lon="-82.146192" lat="33.556774"><ele>92.687752</ele><time>2021-10-22T14:21:13Z</time><extensions><speed>1.042392</speed><course>52.734375</course><hAcc>1.304510</hAcc><vAcc>0.860628</vAcc></extensions></trkpt>
      <trkpt lon="-82.146184" lat="33.556780"><ele>92.621170</ele><time>2021-10-22T14:21:14Z</time><extensions><speed>0.993282</speed><course>61.875000</course><hAcc>1.304850</hAcc><vAcc>0.861241</vAcc></extensions></trkpt>
      <trkpt lon="-82.146175" lat="33.556786"><ele>92.556786</ele><time>2021-10-22T14:21:15Z</time><extensions><speed>0.944493</speed><course>67.500000</course><hAcc>1.305231</hAcc><vAcc>0.861922</vAcc></extensions></trkpt>
      <trkpt lon="-82.146168" lat="33.556791"><ele>92.496178</ele><time>2021-10-22T14:21:16Z</time><extensions><speed>0.897608</speed><course>69.960938</course><hAcc>1.305642</hAcc><vAcc>0.862648</vAcc></extensions></trkpt>
      <trkpt lon="-82.146160" lat="33.556795"><ele>92.440491</ele><time>2021-10-22T14:21:17Z</time><extensions><speed>0.854205</speed><course>75.234375</course><hAcc>1.306065</hAcc><vAcc>0.863381</vAcc></extensions></trkpt>
      <trkpt lon="-82.146152" lat="33.556799"><ele>92.390465</ele><time>2021-10-22T14:21:18Z</time><extensions><speed>0.815957</speed><course>111.445312</course><hAcc>1.306480</hAcc><vAcc>0.864074</vAcc></extensions></trkpt>
      <trkpt lon="-82.146145" lat="33.556803"><ele>92.346550</ele><time>2021-10-22T14:21:19Z</time><extensions><speed>0.784269</speed><course>41.484375</course><hAcc>1.306861</hAcc><vAcc>0.864671</vAcc></extensions></trkpt>
      <trkpt lon="-82.146138" lat="33.556806"><ele>92.308945</ele><time>2021-10-22T14:21:20Z</time><extensions><speed>0.760110</speed><course>213.046875</course><hAcc>1.307182</hAcc><vAcc>0.865117</vAcc></extensions></trkpt>
      <trkpt lon="-82.146131" lat="33.556809"><ele>92.277664</ele><time>2021-10-22T14:21:21Z</time><extensions><speed>0.744031</speed><course>18.281250</course><hAcc>1.307444</hAcc><vAcc>0.865407</vAcc></extensions></trkpt>
      <trkpt lon="-82.146123" lat="33.556812"><ele>92.252548</ele><time>2021-10-22T14:21:22Z</time><extensions><speed>0.736102</speed><course>247.851562</course><hAcc>1.307702</hAcc><vAcc>0.865644</vAcc></extensions></trkpt>
      <trkpt lon="-82.146116" lat="33.556815"><ele>92.233276</ele><time>2021-10-22T14:21:23Z</time><extensions><speed>0.735742</speed><course>221.835938</course><hAcc>1.308036</hAcc><vAcc>0.865985</vAcc></extensions></trkpt>
      <trkpt lon="-82.146109" lat="33.556817"><ele>92.219383</ele><time>2021-10-22T14:21:24Z</time><extensions><speed>0.741497</speed><course>167.695312</course><hAcc>1.308525</hAcc><vAcc>0.866584</vAcc></extensions></trkpt>
      <trkpt lon="-82.146101" lat="33.556820"><ele>92.210419</ele><time>2021-10-22T14:21:25Z</time><extensions><speed>0.751290</speed><course>144.843750</course><hAcc>1.309240</hAcc><vAcc>0.867584</vAcc></extensions></trkpt>
      <trkpt lon="-82.146093" lat="33.556822"><ele>92.206123</ele><time>2021-10-22T14:21:26Z</time><extensions><speed>0.762736</speed><course>129.023438</course><hAcc>1.310240</hAcc><vAcc>0.869110</vAcc></extensions></trkpt>
      <trkpt lon="-82.146086" lat="33.556824"><ele>92.206406</ele><time>2021-10-22T14:21:27Z</time><extensions><speed>0.773274</speed><course>41.132812</course><hAcc>1.311568</hAcc><vAcc>0.871256</vAcc></extensions></trkpt>
      <trkpt lon="-82.146078" lat="33.556826"><ele>92.211403</ele><time>2021-10-22T14:21:28Z</time><extensions><speed>0.780083</speed><course>81.562500</course><hAcc>1.313246</hAcc><vAcc>0.874085</vAcc></extensions></trkpt>
      <trkpt lon="-82.146070" lat="33.556829"><ele>92.221466</ele><time>2021-10-22T14:21:29Z</time><extensions><speed>0.780451</speed><course>62.226562</course><hAcc>1.315271</hAcc><vAcc>0.877607</vAcc></extensions></trkpt>
      <trkpt lon="-82.146062" lat="33.556831"><ele>92.237114</ele><time>2021-10-22T14:21:30Z</time><extensions><speed>0.772367</speed><course>54.140625</course><hAcc>1.317609</hAcc><vAcc>0.881779</vAcc></extensions></trkpt>
      <trkpt lon="-82.146054" lat="33.556833"><ele>92.258881</ele><time>2021-10-22T14:21:31Z</time><extensions><speed>0.754771</speed><course>41.835938</course><hAcc>1.320192</hAcc><vAcc>0.886484</vAcc></extensions></trkpt>
      <trkpt lon="-82.146046" lat="33.556835"><ele>92.287163</ele><time>2021-10-22T14:21:32Z</time><extensions><speed>0.727917</speed><course>42.187500</course><hAcc>1.322915</hAcc><vAcc>0.891530</vAcc></extensions></trkpt>
      <trkpt lon="-82.146039" lat="33.556836"><ele>92.322090</ele><time>2021-10-22T14:21:33Z</time><extensions><speed>0.693021</speed><course>60.820312</course><hAcc>1.325662</hAcc><vAcc>0.896688</vAcc></extensions></trkpt>
      <trkpt lon="-82.146032" lat="33.556838"><ele>92.363495</ele><time>2021-10-22T14:21:34Z</time><extensions><speed>0.651665</speed><course>126.914062</course><hAcc>1.328332</hAcc><vAcc>0.901737</vAcc></extensions></trkpt>
      <trkpt lon="-82.146025" lat="33.556839"><ele>92.410973</ele><time>2021-10-22T14:21:35Z</time><extensions><speed>0.605620</speed><course>115.312500</course><hAcc>1.330823</hAcc><vAcc>0.906410</vAcc></extensions></trkpt>
      <trkpt lon="-82.146019" lat="33.556840"><ele>92.463928</ele><time>2021-10-22T14:21:36Z</time><extensions><speed>0.556715</speed><course>100.898438</course><hAcc>1.333037</hAcc><vAcc>0.910398</vAcc></extensions></trkpt>
      <trkpt lon="-82.146013" lat="33.556841"><ele>92.521721</ele><time>2021-10-22T14:21:37Z</time><extensions><speed>0.506960</speed><course>92.812500</course><hAcc>1.334953</hAcc><vAcc>0.913461</vAcc></extensions></trkpt>
      <trkpt lon="-82.146008" lat="33.556841"><ele>92.583649</ele><time>2021-10-22T14:21:38Z</time><extensions><speed>0.458772</speed><course>120.585938</course><hAcc>1.336673</hAcc><vAcc>0.915490</vAcc></extensions></trkpt>
      <trkpt lon="-82.146003" lat="33.556841"><ele>92.648964</ele><time>2021-10-22T14:21:39Z</time><extensions><speed>0.414659</speed><course>187.734375</course><hAcc>1.338448</hAcc><vAcc>0.916532</vAcc></extensions></trkpt>
      <trkpt lon="-82.145999" lat="33.556841"><ele>92.716782</ele><time>2021-10-22T14:21:40Z</time><extensions><speed>0.376607</speed><course>219.726562</course><hAcc>1.340699</hAcc><vAcc>0.916798</vAcc></extensions></trkpt>
      <trkpt lon="-82.145995" lat="33.556840"><ele>92.786133</ele><time>2021-10-22T14:21:41Z</time><extensions><speed>0.345654</speed><course>215.507812</course><hAcc>1.344041</hAcc><vAcc>0.916689</vAcc></extensions></trkpt>
      <trkpt lon="-82.145992" lat="33.556839"><ele>92.855942</ele><time>2021-10-22T14:21:42Z</time><extensions><speed>0.321766</speed><course>195.468750</course><hAcc>1.349303</hAcc><vAcc>0.916807</vAcc></extensions></trkpt>
      <trkpt lon="-82.145989" lat="33.556838"><ele>92.925156</ele><time>2021-10-22T14:21:43Z</time><extensions><speed>0.304048</speed><course>138.867188</course><hAcc>1.357522</hAcc><vAcc>0.917971</vAcc></extensions></trkpt>
      <trkpt lon="-82.145986" lat="33.556837"><ele>92.992737</ele><time>2021-10-22T14:21:44Z</time><extensions><speed>0.291128</speed><course>104.414062</course><hAcc>1.369932</hAcc><vAcc>0.921210</vAcc></extensions></trkpt>
      <trkpt lon="-82.145983" lat="33.556836"><ele>93.057701</ele><time>2021-10-22T14:21:45Z</time><extensions><speed>0.281525</speed><course>87.187500</course><hAcc>1.387887</hAcc><vAcc>0.927677</vAcc></extensions></trkpt>
      <trkpt lon="-82.145980" lat="33.556835"><ele>93.118874</ele><time>2021-10-22T14:21:46Z</time><extensions><speed>0.273850</speed><course>98.437500</course><hAcc>1.412683</hAcc><vAcc>0.938486</vAcc></extensions></trkpt>
      <trkpt lon="-82.145978" lat="33.556833"><ele>93.175293</ele><time>2021-10-22T14:21:47Z</time><extensions><speed>0.266711</speed><course>129.023438</course><hAcc>1.445516</hAcc><vAcc>0.954612</vAcc></extensions></trkpt>
      <trkpt lon="-82.145976" lat="33.556832"><ele>93.226044</ele><time>2021-10-22T14:21:48Z</time><extensions><speed>0.258870</speed><course>147.656250</course><hAcc>1.487259</hAcc><vAcc>0.976760</vAcc></extensions></trkpt>
      <trkpt lon="-82.145974" lat="33.556831"><ele>93.270294</ele><time>2021-10-22T14:21:49Z</time><extensions><speed>0.249407</speed><course>158.554688</course><hAcc>1.538359</hAcc><vAcc>1.005285</vAcc></extensions></trkpt>
      <trkpt lon="-82.145971" lat="33.556829"><ele>93.307312</ele><time>2021-10-22T14:21:50Z</time><extensions><speed>0.237886</speed><course>163.125000</course><hAcc>1.598712</hAcc><vAcc>1.040114</vAcc></extensions></trkpt>
      <trkpt lon="-82.145969" lat="33.556828"><ele>93.336456</ele><time>2021-10-22T14:21:51Z</time><extensions><speed>0.224723</speed><course>162.421875</course><hAcc>1.667581</hAcc><vAcc>1.080687</vAcc></extensions></trkpt>
      <trkpt lon="-82.145967" lat="33.556827"><ele>93.357193</ele><time>2021-10-22T14:21:52Z</time><extensions><speed>0.211506</speed><course>154.335938</course><hAcc>1.743543</hAcc><vAcc>1.125934</vAcc></extensions></trkpt>
      <trkpt lon="-82.145965" lat="33.556826"><ele>93.369095</ele><time>2021-10-22T14:21:53Z</time><extensions><speed>0.200613</speed><course>148.359375</course><hAcc>1.824515</hAcc><vAcc>1.174339</vAcc></extensions></trkpt>
      <trkpt lon="-82.145963" lat="33.556826"><ele>93.371780</ele><time>2021-10-22T14:21:54Z</time><extensions><speed>0.193808</speed><course>155.742188</course><hAcc>1.908077</hAcc><vAcc>1.224222</vAcc></extensions></trkpt>
      <trkpt lon="-82.145961" lat="33.556825"><ele>93.364975</ele><time>2021-10-22T14:21:55Z</time><extensions><speed>0.191953</speed><course>167.695312</course><hAcc>1.992015</hAcc><vAcc>1.274103</vAcc></extensions></trkpt>
      <trkpt lon="-82.145959" lat="33.556825"><ele>93.348534</ele><time>2021-10-22T14:21:56Z</time><extensions><speed>0.195477</speed><course>184.570312</course><hAcc>2.074563</hAcc><vAcc>1.322843</vAcc></extensions></trkpt>
      <trkpt lon="-82.145957" lat="33.556825"><ele>93.322510</ele><time>2021-10-22T14:21:57Z</time><extensions><speed>0.204161</speed><course>194.062500</course><hAcc>2.154376</hAcc><vAcc>1.369607</vAcc></extensions></trkpt>
      <trkpt lon="-82.145955" lat="33.556825"><ele>93.287186</ele><time>2021-10-22T14:21:58Z</time><extensions><speed>0.217143</speed><course>214.804688</course><hAcc>2.230466</hAcc><vAcc>1.413822</vAcc></extensions></trkpt>
      <trkpt lon="-82.145953" lat="33.556826"><ele>93.243134</ele><time>2021-10-22T14:21:59Z</time><extensions><speed>0.233196</speed><course>237.304688</course><hAcc>2.302150</hAcc><vAcc>1.455120</vAcc></extensions></trkpt>
      <trkpt lon="-82.145950" lat="33.556826"><ele>93.191216</ele><time>2021-10-22T14:22:00Z</time><extensions><speed>0.251097</speed><course>281.953125</course><hAcc>2.368993</hAcc><vAcc>1.493294</vAcc></extensions></trkpt>
      <trkpt lon="-82.145947" lat="33.556827"><ele>93.132538</ele><time>2021-10-22T14:22:01Z</time><extensions><speed>0.269871</speed><course>302.695312</course><hAcc>2.430750</hAcc><vAcc>1.528256</vAcc></extensions></trkpt>
      <trkpt lon="-82.145944" lat="33.556828"><ele>93.068428</ele><time>2021-10-22T14:22:02Z</time><extensions><speed>0.288865</speed><course>309.023438</course><hAcc>2.487331</hAcc><vAcc>1.560006</vAcc></extensions></trkpt>
      <trkpt lon="-82.145941" lat="33.556828"><ele>93.000328</ele><time>2021-10-22T14:22:03Z</time><extensions><speed>0.307723</speed><course>309.375000</course><hAcc>2.538762</hAcc><vAcc>1.588597</vAcc></extensions></trkpt>
      <trkpt lon="-82.145938" lat="33.556829"><ele>92.929787</ele><time>2021-10-22T14:22:04Z</time><extensions><speed>0.326290</speed><course>315.351562</course><hAcc>2.585154</hAcc><vAcc>1.614118</vAcc></extensions></trkpt>
      <trkpt lon="-82.145934" lat="33.556830"><ele>92.858330</ele><time>2021-10-22T14:22:05Z</time><extensions><speed>0.344513</speed><course>311.132812</course><hAcc>2.626686</hAcc><vAcc>1.636685</vAcc></extensions></trkpt>
      <trkpt lon="-82.145931" lat="33.556830"><ele>92.787483</ele><time>2021-10-22T14:22:06Z</time><extensions><speed>0.362327</speed><course>310.781250</course><hAcc>2.663588</hAcc><vAcc>1.656444</vAcc></extensions></trkpt>
      <trkpt lon="-82.145927" lat="33.556830"><ele>92.718689</ele><time>2021-10-22T14:22:07Z</time><extensions><speed>0.379548</speed><course>328.710938</course><hAcc>2.696133</hAcc><vAcc>1.673571</vAcc></extensions></trkpt>
      <trkpt lon="-82.145923" lat="33.556830"><ele>92.653290</ele><time>2021-10-22T14:22:08Z</time><extensions><speed>0.395873</speed><course>25.312500</course><hAcc>2.724622</hAcc><vAcc>1.688261</vAcc></extensions></trkpt>
      <trkpt lon="-82.145918" lat="33.556830"><ele>92.592537</ele><time>2021-10-22T14:22:09Z</time><extensions><speed>0.410958</speed><course>54.843750</course><hAcc>2.749373</hAcc><vAcc>1.700726</vAcc></extensions></trkpt>
      <trkpt lon="-82.145914" lat="33.556830"><ele>92.537498</ele><time>2021-10-22T14:22:10Z</time><extensions><speed>0.424487</speed><course>64.687500</course><hAcc>2.770709</hAcc><vAcc>1.711181</vAcc></extensions></trkpt>
      <trkpt lon="-82.145909" lat="33.556829"><ele>92.489052</ele><time>2021-10-22T14:22:11Z</time><extensions><speed>0.436186</speed><course>76.992188</course><hAcc>2.788954</hAcc><vAcc>1.719835</vAcc></extensions></trkpt>
      <trkpt lon="-82.145905" lat="33.556828"><ele>92.447762</ele><time>2021-10-22T14:22:12Z</time><extensions><speed>0.445783</speed><course>76.992188</course><hAcc>2.804417</hAcc><vAcc>1.726877</vAcc></extensions></trkpt>
      <trkpt lon="-82.145900" lat="33.556827"><ele>92.413963</ele><time>2021-10-22T14:22:13Z</time><extensions><speed>0.453069</speed><course>76.992188</course><hAcc>2.817395</hAcc><vAcc>1.732482</vAcc></extensions></trkpt>
      <trkpt lon="-82.145895" lat="33.556825"><ele>92.387764</ele><time>2021-10-22T14:22:14Z</time><extensions><speed>0.457938</speed><course>76.992188</course><hAcc>2.828172</hAcc><vAcc>1.736821</vAcc></extensions></trkpt>
      <trkpt lon="-82.145891" lat="33.556823"><ele>92.369102</ele><time>2021-10-22T14:22:15Z</time><extensions><speed>0.460283</speed><course>110.742188</course><hAcc>2.837020</hAcc><vAcc>1.740062</vAcc></extensions></trkpt>
      <trkpt lon="-82.145886" lat="33.556822"><ele>92.357712</ele><time>2021-10-22T14:22:16Z</time><extensions><speed>0.459930</speed><course>47.460938</course><hAcc>2.844195</hAcc><vAcc>1.742370</vAcc></extensions></trkpt>
      <trkpt lon="-82.145882" lat="33.556820"><ele>92.353088</ele><time>2021-10-22T14:22:17Z</time><extensions><speed>0.456639</speed><course>139.218750</course><hAcc>2.849937</hAcc><vAcc>1.743908</vAcc></extensions></trkpt>
      <trkpt lon="-82.145878" lat="33.556817"><ele>92.354538</ele><time>2021-10-22T14:22:18Z</time><extensions><speed>0.450210</speed><course>181.054688</course><hAcc>2.854472</hAcc><vAcc>1.744838</vAcc></extensions></trkpt>
      <trkpt lon="-82.145874" lat="33.556815"><ele>92.361176</ele><time>2021-10-22T14:22:19Z</time><extensions><speed>0.440535</speed><course>194.062500</course><hAcc>2.858010</hAcc><vAcc>1.745322</vAcc></extensions></trkpt>
      <trkpt lon="-82.145870" lat="33.556813"><ele>92.371964</ele><time>2021-10-22T14:22:20Z</time><extensions><speed>0.427507</speed><course>187.734375</course><hAcc>2.860745</hAcc><vAcc>1.745519</vAcc></extensions></trkpt>
      <trkpt lon="-82.145867" lat="33.556811"><ele>92.385826</ele><time>2021-10-22T14:22:21Z</time><extensions><speed>0.411032</speed><course>219.375000</course><hAcc>2.862856</hAcc><vAcc>1.745588</vAcc></extensions></trkpt>
      <trkpt lon="-82.145863" lat="33.556808"><ele>92.401627</ele><time>2021-10-22T14:22:22Z</time><extensions><speed>0.391006</speed><course>268.945312</course><hAcc>2.864503</hAcc><vAcc>1.745676</vAcc></extensions></trkpt>
      <trkpt lon="-82.145860" lat="33.556806"><ele>92.418205</ele><time>2021-10-22T14:22:23Z</time><extensions><speed>0.367281</speed><course>270.703125</course><hAcc>2.865821</hAcc><vAcc>1.745897</vAcc></extensions></trkpt>
      <trkpt lon="-82.145857" lat="33.556804"><ele>92.434418</ele><time>2021-10-22T14:22:24Z</time><extensions><speed>0.339679</speed><course>271.054688</course><hAcc>2.866916</hAcc><vAcc>1.746320</vAcc></extensions></trkpt>
      <trkpt lon="-82.145855" lat="33.556802"><ele>92.449120</ele><time>2021-10-22T14:22:25Z</time><extensions><speed>0.308042</speed><course>261.210938</course><hAcc>2.867868</hAcc><vAcc>1.746977</vAcc></extensions></trkpt>
      <trkpt lon="-82.145852" lat="33.556800"><ele>92.461174</ele><time>2021-10-22T14:22:26Z</time><extensions><speed>0.272259</speed><course>245.390625</course><hAcc>2.868732</hAcc><vAcc>1.747868</vAcc></extensions></trkpt>
      <trkpt lon="-82.145850" lat="33.556799"><ele>92.469475</ele><time>2021-10-22T14:22:27Z</time><extensions><speed>0.232426</speed><course>143.437500</course><hAcc>2.869557</hAcc><vAcc>1.748987</vAcc></extensions></trkpt>
      <trkpt lon="-82.145848" lat="33.556798"><ele>92.472931</ele><time>2021-10-22T14:22:28Z</time><extensions><speed>0.188959</speed><course>36.914062</course><hAcc>2.870382</hAcc><vAcc>1.750340</vAcc></extensions></trkpt>
      <trkpt lon="-82.145847" lat="33.556797"><ele>92.470490</ele><time>2021-10-22T14:22:29Z</time><extensions><speed>0.142910</speed><course>148.359375</course><hAcc>2.871245</hAcc><vAcc>1.751938</vAcc></extensions></trkpt>
      <trkpt lon="-82.145846" lat="33.556796"><ele>92.461143</ele><time>2021-10-22T14:22:30Z</time><extensions><speed>0.097433</speed><course>203.906250</course><hAcc>2.872182</hAcc><vAcc>1.753808</vAcc></extensions></trkpt>
      <trkpt lon="-82.145845" lat="33.556796"><ele>92.443977</ele><time>2021-10-22T14:22:31Z</time><extensions><speed>0.064746</speed><course>208.125000</course><hAcc>2.873226</hAcc><vAcc>1.755982</vAcc></extensions></trkpt>
      <trkpt lon="-82.145844" lat="33.556797"><ele>92.418213</ele><time>2021-10-22T14:22:32Z</time><extensions><speed>0.075223</speed><course>296.718750</course><hAcc>2.874407</hAcc><vAcc>1.758495</vAcc></extensions></trkpt>
      <trkpt lon="-82.145844" lat="33.556798"><ele>92.383224</ele><time>2021-10-22T14:22:33Z</time><extensions><speed>0.121689</speed><course>306.562500</course><hAcc>2.875740</hAcc><vAcc>1.761359</vAcc></extensions></trkpt>
      <trkpt lon="-82.145844" lat="33.556799"><ele>92.338547</ele><time>2021-10-22T14:22:34Z</time><extensions><speed>0.179728</speed><course>315.703125</course><hAcc>2.877229</hAcc><vAcc>1.764560</vAcc></extensions></trkpt>
      <trkpt lon="-82.145845" lat="33.556801"><ele>92.283867</ele><time>2021-10-22T14:22:35Z</time><extensions><speed>0.242011</speed><course>318.515625</course><hAcc>2.878874</hAcc><vAcc>1.768083</vAcc></extensions></trkpt>
      <trkpt lon="-82.145846" lat="33.556803"><ele>92.218857</ele><time>2021-10-22T14:22:36Z</time><extensions><speed>0.306489</speed><course>297.421875</course><hAcc>2.880662</hAcc><vAcc>1.771911</vAcc></extensions></trkpt>
      <trkpt lon="-82.145847" lat="33.556806"><ele>92.143501</ele><time>2021-10-22T14:22:37Z</time><extensions><speed>0.371955</speed><course>274.570312</course><hAcc>2.882589</hAcc><vAcc>1.776029</vAcc></extensions></trkpt>
      <trkpt lon="-82.145848" lat="33.556810"><ele>92.057693</ele><time>2021-10-22T14:22:38Z</time><extensions><speed>0.437915</speed><course>274.218750</course><hAcc>2.884669</hAcc><vAcc>1.780448</vAcc></extensions></trkpt>
      <trkpt lon="-82.145850" lat="33.556814"><ele>91.961510</ele><time>2021-10-22T14:22:39Z</time><extensions><speed>0.503854</speed><course>271.757812</course><hAcc>2.886898</hAcc><vAcc>1.785164</vAcc></extensions></trkpt>
      <trkpt lon="-82.145852" lat="33.556818"><ele>91.855171</ele><time>2021-10-22T14:22:40Z</time><extensions><speed>0.569266</speed><course>266.484375</course><hAcc>2.889272</hAcc><vAcc>1.790175</vAcc></extensions></trkpt>
      <trkpt lon="-82.145854" lat="33.556823"><ele>91.739098</ele><time>2021-10-22T14:22:41Z</time><extensions><speed>0.633575</speed><course>108.632812</course><hAcc>2.891786</hAcc><vAcc>1.795471</vAcc></extensions></trkpt>
      <trkpt lon="-82.145856" lat="33.556829"><ele>91.613869</ele><time>2021-10-22T14:22:42Z</time><extensions><speed>0.696088</speed><course>175.078125</course><hAcc>2.894429</hAcc><vAcc>1.801036</vAcc></extensions></trkpt>
      <trkpt lon="-82.145859" lat="33.556835"><ele>91.480286</ele><time>2021-10-22T14:22:43Z</time><extensions><speed>0.755924</speed><course>161.718750</course><hAcc>2.897185</hAcc><vAcc>1.806842</vAcc></extensions></trkpt>
      <trkpt lon="-82.145862" lat="33.556842"><ele>91.339394</ele><time>2021-10-22T14:22:44Z</time><extensions><speed>0.812029</speed><course>56.250000</course><hAcc>2.900034</hAcc><vAcc>1.812847</vAcc></extensions></trkpt>
      <trkpt lon="-82.145866" lat="33.556849"><ele>91.192459</ele><time>2021-10-22T14:22:45Z</time><extensions><speed>0.863283</speed><course>355.078125</course><hAcc>2.902945</hAcc><vAcc>1.818989</vAcc></extensions></trkpt>
      <trkpt lon="-82.145869" lat="33.556856"><ele>91.040993</ele><time>2021-10-22T14:22:46Z</time><extensions><speed>0.908657</speed><course>346.640625</course><hAcc>2.905882</hAcc><vAcc>1.825192</vAcc></extensions></trkpt>
      <trkpt lon="-82.145873" lat="33.556864"><ele>90.886642</ele><time>2021-10-22T14:22:47Z</time><extensions><speed>0.947380</speed><course>356.132812</course><hAcc>2.908801</hAcc><vAcc>1.831355</vAcc></extensions></trkpt>
      <trkpt lon="-82.145878" lat="33.556871"><ele>90.731163</ele><time>2021-10-22T14:22:48Z</time><extensions><speed>0.978975</speed><course>358.945312</course><hAcc>2.911650</hAcc><vAcc>1.837368</vAcc></extensions></trkpt>
      <trkpt lon="-82.145882" lat="33.556880"><ele>90.576340</ele><time>2021-10-22T14:22:49Z</time><extensions><speed>1.003212</speed><course>354.726562</course><hAcc>2.914384</hAcc><vAcc>1.843131</vAcc></extensions></trkpt>
      <trkpt lon="-82.145887" lat="33.556888"><ele>90.423889</ele><time>2021-10-22T14:22:50Z</time><extensions><speed>1.020100</speed><course>352.265625</course><hAcc>2.916966</hAcc><vAcc>1.848560</vAcc></extensions></trkpt>
      <trkpt lon="-82.145892" lat="33.556896"><ele>90.275467</ele><time>2021-10-22T14:22:51Z</time><extensions><speed>1.029872</speed><course>352.968750</course><hAcc>2.919366</hAcc><vAcc>1.853591</vAcc></extensions></trkpt>
      <trkpt lon="-82.145897" lat="33.556904"><ele>90.132622</ele><time>2021-10-22T14:22:52Z</time><extensions><speed>1.032872</speed><course>352.968750</course><hAcc>2.921562</hAcc><vAcc>1.858176</vAcc></extensions></trkpt>
      <trkpt lon="-82.145903" lat="33.556912"><ele>89.996796</ele><time>2021-10-22T14:22:53Z</time><extensions><speed>1.029459</speed><course>350.859375</course><hAcc>2.923540</hAcc><vAcc>1.862284</vAcc></extensions></trkpt>
      <trkpt lon="-82.145908" lat="33.556920"><ele>89.869331</ele><time>2021-10-22T14:22:54Z</time><extensions><speed>1.019941</speed><course>307.265625</course><hAcc>2.925290</hAcc><vAcc>1.865895</vAcc></extensions></trkpt>
      <trkpt lon="-82.145914" lat="33.556928"><ele>89.751480</ele><time>2021-10-22T14:22:55Z</time><extensions><speed>1.004520</speed><course>268.242188</course><hAcc>2.926811</hAcc><vAcc>1.869003</vAcc></extensions></trkpt>
      <trkpt lon="-82.145919" lat="33.556936"><ele>89.644371</ele><time>2021-10-22T14:22:56Z</time><extensions><speed>0.983533</speed><course>287.226562</course><hAcc>2.928103</hAcc><vAcc>1.871610</vAcc></extensions></trkpt>
      <trkpt lon="-82.145925" lat="33.556943"><ele>89.548920</ele><time>2021-10-22T14:22:57Z</time><extensions><speed>0.957687</speed><course>257.695312</course><hAcc>2.929172</hAcc><vAcc>1.873726</vAcc></extensions></trkpt>
      <trkpt lon="-82.145931" lat="33.556950"><ele>89.465721</ele><time>2021-10-22T14:22:58Z</time><extensions><speed>0.927818</speed><course>220.429688</course><hAcc>2.930027</hAcc><vAcc>1.875369</vAcc></extensions></trkpt>
      <trkpt lon="-82.145936" lat="33.556957"><ele>89.395042</ele><time>2021-10-22T14:22:59Z</time><extensions><speed>0.894661</speed><course>298.828125</course><hAcc>2.930680</hAcc><vAcc>1.876561</vAcc></extensions></trkpt>
      <trkpt lon="-82.145942" lat="33.556963"><ele>89.336891</ele><time>2021-10-22T14:23:00Z</time><extensions><speed>0.858895</speed><course>298.828125</course><hAcc>2.931142</hAcc><vAcc>1.877328</vAcc></extensions></trkpt>
      <trkpt lon="-82.145947" lat="33.556969"><ele>89.291008</ele><time>2021-10-22T14:23:01Z</time><extensions><speed>0.821172</speed><course>298.828125</course><hAcc>2.931427</hAcc><vAcc>1.877700</vAcc></extensions></trkpt>
      <trkpt lon="-82.145953" lat="33.556975"><ele>89.256958</ele><time>2021-10-22T14:23:02Z</time><extensions><speed>0.782084</speed><course>298.828125</course><hAcc>2.931553</hAcc><vAcc>1.877712</vAcc></extensions></trkpt>
      <trkpt lon="-82.145958" lat="33.556980"><ele>89.234138</ele><time>2021-10-22T14:23:03Z</time><extensions><speed>0.742163</speed><course>298.828125</course><hAcc>2.931533</hAcc><vAcc>1.877398</vAcc></extensions></trkpt>
      <trkpt lon="-82.145963" lat="33.556985"><ele>89.221794</ele><time>2021-10-22T14:23:04Z</time><extensions><speed>0.701880</speed><course>298.828125</course><hAcc>2.931385</hAcc><vAcc>1.876800</vAcc></extensions></trkpt>
      <trkpt lon="-82.145968" lat="33.556990"><ele>89.219055</ele><time>2021-10-22T14:23:05Z</time><extensions><speed>0.661648</speed><course>298.828125</course><hAcc>2.931124</hAcc><vAcc>1.875960</vAcc></extensions></trkpt>
      <trkpt lon="-82.145972" lat="33.556994"><ele>89.224968</ele><time>2021-10-22T14:23:06Z</time><extensions><speed>0.621823</speed><course>298.828125</course><hAcc>2.930767</hAcc><vAcc>1.874925</vAcc></extensions></trkpt>
      <trkpt lon="-82.145977" lat="33.556998"><ele>89.238564</ele><time>2021-10-22T14:23:07Z</time><extensions><speed>0.582711</speed><course>298.828125</course><hAcc>2.930329</hAcc><vAcc>1.873745</vAcc></extensions></trkpt>
      <trkpt lon="-82.145981" lat="33.557002"><ele>89.258827</ele><time>2021-10-22T14:23:08Z</time><extensions><speed>0.544568</speed><course>298.828125</course><hAcc>2.929823</hAcc><vAcc>1.872473</vAcc></extensions></trkpt>
      <trkpt lon="-82.145985" lat="33.557005"><ele>89.284752</ele><time>2021-10-22T14:23:09Z</time><extensions><speed>0.507604</speed><course>298.828125</course><hAcc>2.929263</hAcc><vAcc>1.871164</vAcc></extensions></trkpt>
      <trkpt lon="-82.145989" lat="33.557008"><ele>89.315376</ele><time>2021-10-22T14:23:10Z</time><extensions><speed>0.471988</speed><course>298.828125</course><hAcc>2.928658</hAcc><vAcc>1.869878</vAcc></extensions></trkpt>
      <trkpt lon="-82.145992" lat="33.557011"><ele>89.349785</ele><time>2021-10-22T14:23:11Z</time><extensions><speed>0.437852</speed><course>298.828125</course><hAcc>2.928012</hAcc><vAcc>1.868672</vAcc></extensions></trkpt>
      <trkpt lon="-82.145996" lat="33.557014"><ele>89.387100</ele><time>2021-10-22T14:23:12Z</time><extensions><speed>0.405290</speed><course>298.828125</course><hAcc>2.927323</hAcc><vAcc>1.867594</vAcc></extensions></trkpt>
      <trkpt lon="-82.145999" lat="33.557016"><ele>89.426552</ele><time>2021-10-22T14:23:13Z</time><extensions><speed>0.374364</speed><course>298.828125</course><hAcc>2.926568</hAcc><vAcc>1.866658</vAcc></extensions></trkpt>
      <trkpt lon="-82.146002" lat="33.557018"><ele>89.467499</ele><time>2021-10-22T14:23:14Z</time><extensions><speed>0.345106</speed><course>298.828125</course><hAcc>2.925701</hAcc><vAcc>1.865837</vAcc></extensions></trkpt>
      <trkpt lon="-82.146005" lat="33.557020"><ele>89.509430</ele><time>2021-10-22T14:23:15Z</time><extensions><speed>0.317527</speed><course>298.828125</course><hAcc>2.924656</hAcc><vAcc>1.865074</vAcc></extensions></trkpt>
      <trkpt lon="-82.146007" lat="33.557022"><ele>89.551918</ele><time>2021-10-22T14:23:16Z</time><extensions><speed>0.291625</speed><course>316.757812</course><hAcc>2.923359</hAcc><vAcc>1.864303</vAcc></extensions></trkpt>
      <trkpt lon="-82.146009" lat="33.557023"><ele>89.594551</ele><time>2021-10-22T14:23:17Z</time><extensions><speed>0.267384</speed><course>79.804688</course><hAcc>2.921731</hAcc><vAcc>1.863463</vAcc></extensions></trkpt>
      <trkpt lon="-82.146012" lat="33.557025"><ele>89.636955</ele><time>2021-10-22T14:23:18Z</time><extensions><speed>0.244730</speed><course>73.828125</course><hAcc>2.919688</hAcc><vAcc>1.862503</vAcc></extensions></trkpt>
      <trkpt lon="-82.146013" lat="33.557026"><ele>89.678703</ele><time>2021-10-22T14:23:19Z</time><extensions><speed>0.223546</speed><course>73.828125</course><hAcc>2.917147</hAcc><vAcc>1.861382</vAcc></extensions></trkpt>
      <trkpt lon="-82.146015" lat="33.557027"><ele>89.719360</ele><time>2021-10-22T14:23:20Z</time><extensions><speed>0.203766</speed><course>73.828125</course><hAcc>2.914020</hAcc><vAcc>1.860071</vAcc></extensions></trkpt>
      <trkpt lon="-82.146017" lat="33.557029"><ele>89.758446</ele><time>2021-10-22T14:23:21Z</time><extensions><speed>0.185366</speed><course>73.828125</course><hAcc>2.910220</hAcc><vAcc>1.858557</vAcc></extensions></trkpt>
      <trkpt lon="-82.146018" lat="33.557030"><ele>89.795494</ele><time>2021-10-22T14:23:22Z</time><extensions><speed>0.168342</speed><course>73.828125</course><hAcc>2.905660</hAcc><vAcc>1.856840</vAcc></extensions></trkpt>
      <trkpt lon="-82.146019" lat="33.557031"><ele>89.830040</ele><time>2021-10-22T14:23:23Z</time><extensions><speed>0.152699</speed><course>98.085938</course><hAcc>2.900253</hAcc><vAcc>1.854934</vAcc></extensions></trkpt>
      <trkpt lon="-82.146020" lat="33.557032"><ele>89.861656</ele><time>2021-10-22T14:23:24Z</time><extensions><speed>0.138456</speed><course>98.085938</course><hAcc>2.893917</hAcc><vAcc>1.852868</vAcc></extensions></trkpt>
      <trkpt lon="-82.146021" lat="33.557033"><ele>89.889961</ele><time>2021-10-22T14:23:25Z</time><extensions><speed>0.125646</speed><course>98.085938</course><hAcc>2.886572</hAcc><vAcc>1.850685</vAcc></extensions></trkpt>
      <trkpt lon="-82.146022" lat="33.557034"><ele>89.914627</ele><time>2021-10-22T14:23:26Z</time><extensions><speed>0.114291</speed><course>98.085938</course><hAcc>2.878122</hAcc><vAcc>1.848424</vAcc></extensions></trkpt>
      <trkpt lon="-82.146022" lat="33.557034"><ele>89.935326</ele><time>2021-10-22T14:23:27Z</time><extensions><speed>0.104474</speed><course>98.085938</course><hAcc>2.868511</hAcc><vAcc>1.846144</vAcc></extensions></trkpt>
      <trkpt lon="-82.146023" lat="33.557035"><ele>89.951912</ele><time>2021-10-22T14:23:28Z</time><extensions><speed>0.096176</speed><course>98.085938</course><hAcc>2.857673</hAcc><vAcc>1.843880</vAcc></extensions></trkpt>
      <trkpt lon="-82.146023" lat="33.557036"><ele>89.964355</ele><time>2021-10-22T14:23:29Z</time><extensions><speed>0.089368</speed><course>331.523438</course><hAcc>2.845531</hAcc><vAcc>1.841626</vAcc></extensions></trkpt>
      <trkpt lon="-82.146023" lat="33.557037"><ele>89.972778</ele><time>2021-10-22T14:23:30Z</time><extensions><speed>0.083981</speed><course>327.304688</course><hAcc>2.832010</hAcc><vAcc>1.839342</vAcc></extensions></trkpt>
      <trkpt lon="-82.146023" lat="33.557038"><ele>89.977493</ele><time>2021-10-22T14:23:31Z</time><extensions><speed>0.079909</speed><course>292.500000</course><hAcc>2.817048</hAcc><vAcc>1.836959</vAcc></extensions></trkpt>
      <trkpt lon="-82.146023" lat="33.557038"><ele>89.978897</ele><time>2021-10-22T14:23:32Z</time><extensions><speed>0.077107</speed><course>327.304688</course><hAcc>2.800602</hAcc><vAcc>1.834389</vAcc></extensions></trkpt>
      <trkpt lon="-82.146023" lat="33.557039"><ele>89.977448</ele><time>2021-10-22T14:23:33Z</time><extensions><speed>0.075739</speed><course>228.515625</course><hAcc>2.782673</hAcc><vAcc>1.831551</vAcc></extensions></trkpt>
      <trkpt lon="-82.146022" lat="33.557040"><ele>89.973564</ele><time>2021-10-22T14:23:34Z</time><extensions><speed>0.076085</speed><course>228.515625</course><hAcc>2.763314</hAcc><vAcc>1.828390</vAcc></extensions></trkpt>
      <trkpt lon="-82.146022" lat="33.557040"><ele>89.967583</ele><time>2021-10-22T14:23:35Z</time><extensions><speed>0.078358</speed><course>228.515625</course><hAcc>2.742651</hAcc><vAcc>1.824877</vAcc></extensions></trkpt>
      <trkpt lon="-82.146021" lat="33.557041"><ele>89.959747</ele><time>2021-10-22T14:23:36Z</time><extensions><speed>0.082653</speed><course>228.515625</course><hAcc>2.720889</hAcc><vAcc>1.821018</vAcc></extensions></trkpt>
      <trkpt lon="-82.146020" lat="33.557041"><ele>89.950218</ele><time>2021-10-22T14:23:37Z</time><extensions><speed>0.088936</speed><course>228.515625</course><hAcc>2.698325</hAcc><vAcc>1.816856</vAcc></extensions></trkpt>
      <trkpt lon="-82.146019" lat="33.557041"><ele>89.939041</ele><time>2021-10-22T14:23:38Z</time><extensions><speed>0.097069</speed><course>228.515625</course><hAcc>2.675363</hAcc><vAcc>1.812473</vAcc></extensions></trkpt>
      <trkpt lon="-82.146018" lat="33.557041"><ele>89.926163</ele><time>2021-10-22T14:23:39Z</time><extensions><speed>0.106869</speed><course>228.515625</course><hAcc>2.652518</hAcc><vAcc>1.807991</vAcc></extensions></trkpt>
      <trkpt lon="-82.146017" lat="33.557042"><ele>89.911438</ele><time>2021-10-22T14:23:40Z</time><extensions><speed>0.118139</speed><course>228.515625</course><hAcc>2.630430</hAcc><vAcc>1.803578</vAcc></extensions></trkpt>
      <trkpt lon="-82.146016" lat="33.557042"><ele>89.894653</ele><time>2021-10-22T14:23:41Z</time><extensions><speed>0.130694</speed><course>228.515625</course><hAcc>2.609858</hAcc><vAcc>1.799443</vAcc></extensions></trkpt>
      <trkpt lon="-82.146014" lat="33.557041"><ele>89.875526</ele><time>2021-10-22T14:23:42Z</time><extensions><speed>0.144373</speed><course>228.515625</course><hAcc>2.591681</hAcc><vAcc>1.795834</vAcc></extensions></trkpt>
      <trkpt lon="-82.146013" lat="33.557041"><ele>89.853767</ele><time>2021-10-22T14:23:43Z</time><extensions><speed>0.159034</speed><course>228.515625</course><hAcc>2.576872</hAcc><vAcc>1.793032</vAcc></extensions></trkpt>
      <trkpt lon="-82.146011" lat="33.557041"><ele>89.829109</ele><time>2021-10-22T14:23:44Z</time><extensions><speed>0.174557</speed><course>228.515625</course><hAcc>2.566476</hAcc><vAcc>1.791345</vAcc></extensions></trkpt>
      <trkpt lon="-82.146009" lat="33.557041"><ele>89.801292</ele><time>2021-10-22T14:23:45Z</time><extensions><speed>0.190829</speed><course>228.515625</course><hAcc>2.561554</hAcc><vAcc>1.791091</vAcc></extensions></trkpt>
      <trkpt lon="-82.146007" lat="33.557040"><ele>89.770172</ele><time>2021-10-22T14:23:46Z</time><extensions><speed>0.207656</speed><course>228.515625</course><hAcc>2.562897</hAcc><vAcc>1.792517</vAcc></extensions></trkpt>
      <trkpt lon="-82.146005" lat="33.557040"><ele>89.735802</ele><time>2021-10-22T14:23:47Z</time><extensions><speed>0.224692</speed><course>228.515625</course><hAcc>2.570520</hAcc><vAcc>1.795646</vAcc></extensions></trkpt>
      <trkpt lon="-82.146002" lat="33.557039"><ele>89.698425</ele><time>2021-10-22T14:23:48Z</time><extensions><speed>0.241677</speed><course>228.515625</course><hAcc>2.583659</hAcc><vAcc>1.800278</vAcc></extensions></trkpt>
      <trkpt lon="-82.146000" lat="33.557038"><ele>89.658424</ele><time>2021-10-22T14:23:49Z</time><extensions><speed>0.258490</speed><course>228.515625</course><hAcc>2.601276</hAcc><vAcc>1.806138</vAcc></extensions></trkpt>
      <trkpt lon="-82.145997" lat="33.557037"><ele>89.616226</ele><time>2021-10-22T14:23:50Z</time><extensions><speed>0.275007</speed><course>228.515625</course><hAcc>2.622344</hAcc><vAcc>1.812953</vAcc></extensions></trkpt>
      <trkpt lon="-82.145994" lat="33.557036"><ele>89.572327</ele><time>2021-10-22T14:23:51Z</time><extensions><speed>0.291092</speed><course>228.515625</course><hAcc>2.645893</hAcc><vAcc>1.820468</vAcc></extensions></trkpt>
      <trkpt lon="-82.145992" lat="33.557035"><ele>89.527252</ele><time>2021-10-22T14:23:52Z</time><extensions><speed>0.306597</speed><course>228.515625</course><hAcc>2.671037</hAcc><vAcc>1.828447</vAcc></extensions></trkpt>
      <trkpt lon="-82.145988" lat="33.557034"><ele>89.481575</ele><time>2021-10-22T14:23:53Z</time><extensions><speed>0.321358</speed><course>228.515625</course><hAcc>2.696992</hAcc><vAcc>1.836679</vAcc></extensions></trkpt>
      <trkpt lon="-82.145985" lat="33.557033"><ele>89.435974</ele><time>2021-10-22T14:23:54Z</time><extensions><speed>0.335193</speed><course>234.843750</course><hAcc>2.723073</hAcc><vAcc>1.844978</vAcc></extensions></trkpt>
      <trkpt lon="-82.145982" lat="33.557031"><ele>89.391144</ele><time>2021-10-22T14:23:55Z</time><extensions><speed>0.347900</speed><course>238.007812</course><hAcc>2.748697</hAcc><vAcc>1.853180</vAcc></extensions></trkpt>
      <trkpt lon="-82.145979" lat="33.557030"><ele>89.347862</ele><time>2021-10-22T14:23:56Z</time><extensions><speed>0.359257</speed><course>187.031250</course><hAcc>2.773368</hAcc><vAcc>1.861138</vAcc></extensions></trkpt>
      <trkpt lon="-82.145975" lat="33.557028"><ele>89.306915</ele><time>2021-10-22T14:23:57Z</time><extensions><speed>0.368905</speed><course>120.937500</course><hAcc>2.796669</hAcc><vAcc>1.868721</vAcc></extensions></trkpt>
      <trkpt lon="-82.145972" lat="33.557027"><ele>89.269157</ele><time>2021-10-22T14:23:58Z</time><extensions><speed>0.376386</speed><course>128.671875</course><hAcc>2.818247</hAcc><vAcc>1.875806</vAcc></extensions></trkpt>
      <trkpt lon="-82.145968" lat="33.557025"><ele>89.235458</ele><time>2021-10-22T14:23:59Z</time><extensions><speed>0.381288</speed><course>136.757812</course><hAcc>2.837794</hAcc><vAcc>1.882278</vAcc></extensions></trkpt>
      <trkpt lon="-82.145964" lat="33.557023"><ele>89.206703</ele><time>2021-10-22T14:24:00Z</time><extensions><speed>0.383276</speed><course>123.046875</course><hAcc>2.855041</hAcc><vAcc>1.888019</vAcc></extensions></trkpt>
      <trkpt lon="-82.145961" lat="33.557022"><ele>89.183777</ele><time>2021-10-22T14:24:01Z</time><extensions><speed>0.382126</speed><course>77.695312</course><hAcc>2.869743</hAcc><vAcc>1.892908</vAcc></extensions></trkpt>
      <trkpt lon="-82.145957" lat="33.557020"><ele>89.167503</ele><time>2021-10-22T14:24:02Z</time><extensions><speed>0.377778</speed><course>52.734375</course><hAcc>2.881664</hAcc><vAcc>1.896820</vAcc></extensions></trkpt>
      <trkpt lon="-82.145954" lat="33.557018"><ele>89.158630</ele><time>2021-10-22T14:24:03Z</time><extensions><speed>0.370333</speed><course>75.585938</course><hAcc>2.890575</hAcc><vAcc>1.899616</vAcc></extensions></trkpt>
      <trkpt lon="-82.145950" lat="33.557017"><ele>89.157776</ele><time>2021-10-22T14:24:04Z</time><extensions><speed>0.360015</speed><course>113.203125</course><hAcc>2.896249</hAcc><vAcc>1.901165</vAcc></extensions></trkpt>
      <trkpt lon="-82.145947" lat="33.557015"><ele>89.165436</ele><time>2021-10-22T14:24:05Z</time><extensions><speed>0.347158</speed><course>117.070312</course><hAcc>2.898467</hAcc><vAcc>1.901354</vAcc></extensions></trkpt>
      <trkpt lon="-82.145944" lat="33.557013"><ele>89.181976</ele><time>2021-10-22T14:24:06Z</time><extensions><speed>0.332203</speed><course>105.820312</course><hAcc>2.897007</hAcc><vAcc>1.900070</vAcc></extensions></trkpt>
      <trkpt lon="-82.145941" lat="33.557011"><ele>89.207588</ele><time>2021-10-22T14:24:07Z</time><extensions><speed>0.315647</speed><course>98.789062</course><hAcc>2.891633</hAcc><vAcc>1.897189</vAcc></extensions></trkpt>
      <trkpt lon="-82.145939" lat="33.557010"><ele>89.242294</ele><time>2021-10-22T14:24:08Z</time><extensions><speed>0.298013</speed><course>107.578125</course><hAcc>2.882102</hAcc><vAcc>1.892572</vAcc></extensions></trkpt>
      <trkpt lon="-82.145936" lat="33.557008"><ele>89.285973</ele><time>2021-10-22T14:24:09Z</time><extensions><speed>0.279845</speed><course>112.500000</course><hAcc>2.868167</hAcc><vAcc>1.886073</vAcc></extensions></trkpt>
      <trkpt lon="-82.145934" lat="33.557006"><ele>89.338333</ele><time>2021-10-22T14:24:10Z</time><extensions><speed>0.261680</speed><course>110.039062</course><hAcc>2.849590</hAcc><vAcc>1.877541</vAcc></extensions></trkpt>
      <trkpt lon="-82.145933" lat="33.557004"><ele>89.398972</ele><time>2021-10-22T14:24:11Z</time><extensions><speed>0.244026</speed><course>105.820312</course><hAcc>2.826157</hAcc><vAcc>1.866832</vAcc></extensions></trkpt>
      <trkpt lon="-82.145931" lat="33.557003"><ele>89.467308</ele><time>2021-10-22T14:24:12Z</time><extensions><speed>0.227352</speed><course>150.820312</course><hAcc>2.797697</hAcc><vAcc>1.853821</vAcc></extensions></trkpt>
      <trkpt lon="-82.145930" lat="33.557001"><ele>89.542648</ele><time>2021-10-22T14:24:13Z</time><extensions><speed>0.212123</speed><course>156.445312</course><hAcc>2.764117</hAcc><vAcc>1.838417</vAcc></extensions></trkpt>
      <trkpt lon="-82.145929" lat="33.556999"><ele>89.624214</ele><time>2021-10-22T14:24:14Z</time><extensions><speed>0.198832</speed><course>157.148438</course><hAcc>2.725436</hAcc><vAcc>1.820586</vAcc></extensions></trkpt>
      <trkpt lon="-82.145929" lat="33.556998"><ele>89.711143</ele><time>2021-10-22T14:24:15Z</time><extensions><speed>0.187965</speed><course>130.781250</course><hAcc>2.681835</hAcc><vAcc>1.800379</vAcc></extensions></trkpt>
      <trkpt lon="-82.145929" lat="33.556996"><ele>89.802544</ele><time>2021-10-22T14:24:16Z</time><extensions><speed>0.179926</speed><course>137.812500</course><hAcc>2.633723</hAcc><vAcc>1.777967</vAcc></extensions></trkpt>
      <trkpt lon="-82.145929" lat="33.556994"><ele>89.897552</ele><time>2021-10-22T14:24:17Z</time><extensions><speed>0.174920</speed><course>171.914062</course><hAcc>2.581748</hAcc><vAcc>1.753646</vAcc></extensions></trkpt>
      <trkpt lon="-82.145929" lat="33.556993"><ele>89.994980</ele><time>2021-10-22T14:24:18Z</time><extensions><speed>0.172903</speed><course>233.085938</course><hAcc>2.527139</hAcc><vAcc>1.728014</vAcc></extensions></trkpt>
      <trkpt lon="-82.145929" lat="33.556991"><ele>90.093933</ele><time>2021-10-22T14:24:19Z</time><extensions><speed>0.173495</speed><course>259.453125</course><hAcc>2.471516</hAcc><vAcc>1.701881</vAcc></extensions></trkpt>
      <trkpt lon="-82.145930" lat="33.556990"><ele>90.193428</ele><time>2021-10-22T14:24:20Z</time><extensions><speed>0.176118</speed><course>256.992188</course><hAcc>2.417201</hAcc><vAcc>1.676417</vAcc></extensions></trkpt>
      <trkpt lon="-82.145931" lat="33.556988"><ele>90.292519</ele><time>2021-10-22T14:24:21Z</time><extensions><speed>0.180120</speed><course>255.585938</course><hAcc>2.367328</hAcc><vAcc>1.653211</vAcc></extensions></trkpt>
      <trkpt lon="-82.145932" lat="33.556987"><ele>90.390312</ele><time>2021-10-22T14:24:22Z</time><extensions><speed>0.184867</speed><course>257.695312</course><hAcc>2.325951</hAcc><vAcc>1.634320</vAcc></extensions></trkpt>
      <trkpt lon="-82.145934" lat="33.556986"><ele>90.485954</ele><time>2021-10-22T14:24:23Z</time><extensions><speed>0.189832</speed><course>259.804688</course><hAcc>2.298077</hAcc><vAcc>1.622288</vAcc></extensions></trkpt>
      <trkpt lon="-82.145935" lat="33.556985"><ele>90.578667</ele><time>2021-10-22T14:24:24Z</time><extensions><speed>0.194592</speed><course>248.906250</course><hAcc>2.289541</hAcc><vAcc>1.620113</vAcc></extensions></trkpt>
      <trkpt lon="-82.145937" lat="33.556983"><ele>90.667786</ele><time>2021-10-22T14:24:25Z</time><extensions><speed>0.198916</speed><course>264.375000</course><hAcc>2.306438</hAcc><vAcc>1.631040</vAcc></extensions></trkpt>
      <trkpt lon="-82.145938" lat="33.556982"><ele>90.752823</ele><time>2021-10-22T14:24:26Z</time><extensions><speed>0.202731</speed><course>248.906250</course><hAcc>2.354096</hAcc><vAcc>1.658166</vAcc></extensions></trkpt>
      <trkpt lon="-82.145940" lat="33.556981"><ele>90.833565</ele><time>2021-10-22T14:24:27Z</time><extensions><speed>0.205967</speed><course>157.148438</course><hAcc>2.436284</hAcc><vAcc>1.704103</vAcc></extensions></trkpt>
      <trkpt lon="-82.145942" lat="33.556980"><ele>90.910042</ele><time>2021-10-22T14:24:28Z</time><extensions><speed>0.208524</speed><course>189.140625</course><hAcc>2.554829</hAcc><vAcc>1.770764</vAcc></extensions></trkpt>
      <trkpt lon="-82.145944" lat="33.556979"><ele>90.982529</ele><time>2021-10-22T14:24:29Z</time><extensions><speed>0.210383</speed><course>195.117188</course><hAcc>2.709821</hAcc><vAcc>1.859347</vAcc></extensions></trkpt>
      <trkpt lon="-82.145946" lat="33.556978"><ele>91.051414</ele><time>2021-10-22T14:24:30Z</time><extensions><speed>0.211644</speed><course>200.742188</course><hAcc>2.900352</hAcc><vAcc>1.970520</vAcc></extensions></trkpt>
      <trkpt lon="-82.145948" lat="33.556977"><ele>91.117149</ele><time>2021-10-22T14:24:31Z</time><extensions><speed>0.212433</speed><course>176.484375</course><hAcc>3.125080</hAcc><vAcc>2.104563</vAcc></extensions></trkpt>
      <trkpt lon="-82.145950" lat="33.556976"><ele>91.180229</ele><time>2021-10-22T14:24:32Z</time><extensions><speed>0.212878</speed><course>187.382812</course><hAcc>3.382481</hAcc><vAcc>2.261429</vAcc></extensions></trkpt>
      <trkpt lon="-82.145952" lat="33.556975"><ele>91.241173</ele><time>2021-10-22T14:24:33Z</time><extensions><speed>0.213067</speed><course>266.132812</course><hAcc>3.671007</hAcc><vAcc>2.440799</vAcc></extensions></trkpt>
      <trkpt lon="-82.145954" lat="33.556974"><ele>91.300529</ele><time>2021-10-22T14:24:34Z</time><extensions><speed>0.213085</speed><course>312.890625</course><hAcc>3.989153</hAcc><vAcc>2.642131</vAcc></extensions></trkpt>
      <trkpt lon="-82.145956" lat="33.556974"><ele>91.358841</ele><time>2021-10-22T14:24:35Z</time><extensions><speed>0.213034</speed><course>325.195312</course><hAcc>4.335455</hAcc><vAcc>2.864694</vAcc></extensions></trkpt>
      <trkpt lon="-82.145958" lat="33.556973"><ele>91.416580</ele><time>2021-10-22T14:24:36Z</time><extensions><speed>0.212982</speed><course>343.125000</course><hAcc>4.708469</hAcc><vAcc>3.107589</vAcc></extensions></trkpt>
      <trkpt lon="-82.145960" lat="33.556972"><ele>91.474083</ele><time>2021-10-22T14:24:37Z</time><extensions><speed>0.212963</speed><course>317.460938</course><hAcc>5.106718</hAcc><vAcc>3.369779</vAcc></extensions></trkpt>
    </trkseg>
  </trk>
</gpx>