<?xml version="1.0" encoding="UTF-8"?>
<gpx version="1.1" creator="Apple Health Export" xmlns="http://www.topografix.com/GPX/1/1" xmlns:xsi="http://www.w3.org/2001/XMLSchema-instance" xsi:schemaLocation="http://www.topografix.com/GPX/1/1 http://www.topografix.com/GPX/1/1/gpx.xsd">
  <metadata>
    <time>2026-03-14T12:15:38Z</time>
  </metadata>
  <trk>
    <name>Route 2021-05-05 9:18am</name>
    <trkseg>
      <trkpt lon="-82.146043" lat="33.556754"><ele>83.398949</ele><time>2021-05-05T13:16:37Z</time><extensions><speed>0.824661</speed><course>303.398438</course><hAcc>2.796704</hAcc><vAcc>2.732699</vAcc></extensions></trkpt>
      <trkpt lon="-82.146034" lat="33.556751"><ele>83.570274</ele><time>2021-05-05T13:16:38Z</time><extensions><speed>0.822923</speed><course>-1.000000</course><hAcc>2.540364</hAcc><vAcc>2.520824</vAcc></extensions></trkpt>
      <trkpt lon="-82.146031" lat="33.556750"><ele>83.643616</ele><time>2021-05-05T13:16:39Z</time><extensions><speed>0.822052</speed><course>240.117188</course><hAcc>2.441458</hAcc><vAcc>2.437021</vAcc></extensions></trkpt>
      <trkpt lon="-82.146023" lat="33.556748"><ele>83.809212</ele><time>2021-05-05T13:16:40Z</time><extensions><speed>0.814767</speed><course>342.773438</course><hAcc>2.243460</hAcc><vAcc>2.263844</vAcc></extensions></trkpt>
      <trkpt lon="-82.146014" lat="33.556745"><ele>83.979370</ele><time>2021-05-05T13:16:41Z</time><extensions><speed>0.807701</speed><course>297.773438</course><hAcc>2.075164</hAcc><vAcc>2.108579</vAcc></extensions></trkpt>
      <trkpt lon="-82.146006" lat="33.556743"><ele>84.148148</ele><time>2021-05-05T13:16:42Z</time><extensions><speed>0.807360</speed><course>311.835938</course><hAcc>1.940522</hAcc><vAcc>1.976277</vAcc></extensions></trkpt>
      <trkpt lon="-82.145998" lat="33.556740"><ele>84.316704</ele><time>2021-05-05T13:16:43Z</time><extensions><speed>0.814876</speed><course>353.320312</course><hAcc>1.833940</hAcc><vAcc>1.864190</vAcc></extensions></trkpt>
      <trkpt lon="-82.145990" lat="33.556737"><ele>84.483231</ele><time>2021-05-05T13:16:44Z</time><extensions><speed>0.828371</speed><course>317.109375</course><hAcc>1.751034</hAcc><vAcc>1.771125</vAcc></extensions></trkpt>
      <trkpt lon="-82.145981" lat="33.556735"><ele>84.649216</ele><time>2021-05-05T13:16:45Z</time><extensions><speed>0.846730</speed><course>346.640625</course><hAcc>1.685508</hAcc><vAcc>1.693577</vAcc></extensions></trkpt>
      <trkpt lon="-82.145973" lat="33.556732"><ele>84.814819</ele><time>2021-05-05T13:16:46Z</time><extensions><speed>0.869328</speed><course>336.796875</course><hAcc>1.632593</hAcc><vAcc>1.628965</vAcc></extensions></trkpt>
      <trkpt lon="-82.145964" lat="33.556729"><ele>84.976517</ele><time>2021-05-05T13:16:47Z</time><extensions><speed>0.894297</speed><course>336.796875</course><hAcc>1.589722</hAcc><vAcc>1.576123</vAcc></extensions></trkpt>
      <trkpt lon="-82.145955" lat="33.556725"><ele>85.139786</ele><time>2021-05-05T13:16:48Z</time><extensions><speed>0.920675</speed><course>114.609375</course><hAcc>1.552793</hAcc><vAcc>1.531056</vAcc></extensions></trkpt>
      <trkpt lon="-82.145946" lat="33.556722"><ele>85.294678</ele><time>2021-05-05T13:16:49Z</time><extensions><speed>0.940443</speed><course>137.460938</course><hAcc>1.522299</hAcc><vAcc>1.494577</vAcc></extensions></trkpt>
      <trkpt lon="-82.145936" lat="33.556719"><ele>85.444496</ele><time>2021-05-05T13:16:50Z</time><extensions><speed>0.949377</speed><course>124.101562</course><hAcc>1.496580</hAcc><vAcc>1.464345</vAcc></extensions></trkpt>
      <trkpt lon="-82.145927" lat="33.556715"><ele>85.587296</ele><time>2021-05-05T13:16:51Z</time><extensions><speed>0.942793</speed><course>124.101562</course><hAcc>1.475113</hAcc><vAcc>1.439591</vAcc></extensions></trkpt>
      <trkpt lon="-82.145918" lat="33.556712"><ele>85.723938</ele><time>2021-05-05T13:16:52Z</time><extensions><speed>0.916845</speed><course>107.578125</course><hAcc>1.457053</hAcc><vAcc>1.419363</vAcc></extensions></trkpt>
      <trkpt lon="-82.145910" lat="33.556708"><ele>85.850647</ele><time>2021-05-05T13:16:53Z</time><extensions><speed>0.870659</speed><course>95.976562</course><hAcc>1.442460</hAcc><vAcc>1.403876</vAcc></extensions></trkpt>
      <trkpt lon="-82.145902" lat="33.556704"><ele>85.965172</ele><time>2021-05-05T13:16:54Z</time><extensions><speed>0.806935</speed><course>81.914062</course><hAcc>1.431783</hAcc><vAcc>1.393716</vAcc></extensions></trkpt>
      <trkpt lon="-82.145895" lat="33.556700"><ele>86.067780</ele><time>2021-05-05T13:16:55Z</time><extensions><speed>0.728253</speed><course>95.273438</course><hAcc>1.425576</hAcc><vAcc>1.389750</vAcc></extensions></trkpt>
      <trkpt lon="-82.145889" lat="33.556696"><ele>86.155441</ele><time>2021-05-05T13:16:56Z</time><extensions><speed>0.644726</speed><course>110.742188</course><hAcc>1.425289</hAcc><vAcc>1.393677</vAcc></extensions></trkpt>
      <trkpt lon="-82.145885" lat="33.556692"><ele>86.228607</ele><time>2021-05-05T13:16:57Z</time><extensions><speed>0.564445</speed><course>127.265625</course><hAcc>1.433090</hAcc><vAcc>1.407817</vAcc></extensions></trkpt>
      <trkpt lon="-82.145882" lat="33.556688"><ele>86.285690</ele><time>2021-05-05T13:16:58Z</time><extensions><speed>0.502420</speed><course>127.617188</course><hAcc>1.451889</hAcc><vAcc>1.434535</vAcc></extensions></trkpt>
      <trkpt lon="-82.145880" lat="33.556684"><ele>86.328850</ele><time>2021-05-05T13:16:59Z</time><extensions><speed>0.463887</speed><course>146.250000</course><hAcc>1.486509</hAcc><vAcc>1.477746</vAcc></extensions></trkpt>
      <trkpt lon="-82.145880" lat="33.556680"><ele>86.358109</ele><time>2021-05-05T13:17:00Z</time><extensions><speed>0.454018</speed><course>191.953125</course><hAcc>1.542137</hAcc><vAcc>1.540403</vAcc></extensions></trkpt>
      <trkpt lon="-82.145882" lat="33.556677"><ele>85.973511</ele><time>2021-05-05T13:17:01Z</time><extensions><speed>1.374418</speed><course>311.835938</course><hAcc>1.489769</hAcc><vAcc>1.481246</vAcc></extensions></trkpt>
      <trkpt lon="-82.145896" lat="33.556672"><ele>85.949120</ele><time>2021-05-05T13:17:02Z</time><extensions><speed>1.415627</speed><course>353.320312</course><hAcc>1.410824</hAcc><vAcc>1.392683</vAcc></extensions></trkpt>
      <trkpt lon="-82.145911" lat="33.556668"><ele>85.921310</ele><time>2021-05-05T13:17:03Z</time><extensions><speed>1.455244</speed><course>317.109375</course><hAcc>1.352013</hAcc><vAcc>1.322543</vAcc></extensions></trkpt>
      <trkpt lon="-82.145926" lat="33.556663"><ele>85.890556</ele><time>2021-05-05T13:17:04Z</time><extensions><speed>1.493154</speed><course>346.640625</course><hAcc>1.309012</hAcc><vAcc>1.268236</vAcc></extensions></trkpt>
      <trkpt lon="-82.145941" lat="33.556659"><ele>85.858444</ele><time>2021-05-05T13:17:05Z</time><extensions><speed>1.528310</speed><course>336.796875</course><hAcc>1.278851</hAcc><vAcc>1.228196</vAcc></extensions></trkpt>
      <trkpt lon="-82.145957" lat="33.556655"><ele>85.825821</ele><time>2021-05-05T13:17:06Z</time><extensions><speed>1.561775</speed><course>336.796875</course><hAcc>1.257969</hAcc><vAcc>1.199324</vAcc></extensions></trkpt>
      <trkpt lon="-82.145973" lat="33.556650"><ele>85.793175</ele><time>2021-05-05T13:17:07Z</time><extensions><speed>1.594232</speed><course>114.609375</course><hAcc>1.243154</hAcc><vAcc>1.178534</vAcc></extensions></trkpt>
      <trkpt lon="-82.145990" lat="33.556646"><ele>85.762199</ele><time>2021-05-05T13:17:08Z</time><extensions><speed>1.623399</speed><course>137.460938</course><hAcc>1.232419</hAcc><vAcc>1.163873</vAcc></extensions></trkpt>
      <trkpt lon="-82.146007" lat="33.556642"><ele>85.733536</ele><time>2021-05-05T13:17:09Z</time><extensions><speed>1.648837</speed><course>124.101562</course><hAcc>1.224131</hAcc><vAcc>1.153297</vAcc></extensions></trkpt>
      <trkpt lon="-82.146024" lat="33.556638"><ele>85.708397</ele><time>2021-05-05T13:17:10Z</time><extensions><speed>1.668342</speed><course>124.101562</course><hAcc>1.217599</hAcc><vAcc>1.145684</vAcc></extensions></trkpt>
      <trkpt lon="-82.146042" lat="33.556635"><ele>85.686867</ele><time>2021-05-05T13:17:11Z</time><extensions><speed>1.681062</speed><course>107.578125</course><hAcc>1.212171</hAcc><vAcc>1.139959</vAcc></extensions></trkpt>
      <trkpt lon="-82.146059" lat="33.556631"><ele>85.669846</ele><time>2021-05-05T13:17:12Z</time><extensions><speed>1.684503</speed><course>95.976562</course><hAcc>1.207561</hAcc><vAcc>1.135564</vAcc></extensions></trkpt>
      <trkpt lon="-82.146077" lat="33.556627"><ele>85.657608</ele><time>2021-05-05T13:17:13Z</time><extensions><speed>1.676671</speed><course>81.914062</course><hAcc>1.203705</hAcc><vAcc>1.132161</vAcc></extensions></trkpt>
      <trkpt lon="-82.146094" lat="33.556624"><ele>85.650352</ele><time>2021-05-05T13:17:14Z</time><extensions><speed>1.656600</speed><course>95.273438</course><hAcc>1.200866</hAcc><vAcc>1.129732</vAcc></extensions></trkpt>
      <trkpt lon="-82.146112" lat="33.556620"><ele>85.647789</ele><time>2021-05-05T13:17:15Z</time><extensions><speed>1.622021</speed><course>110.742188</course><hAcc>1.199057</hAcc><vAcc>1.128138</vAcc></extensions></trkpt>
      <trkpt lon="-82.146128" lat="33.556617"><ele>85.649818</ele><time>2021-05-05T13:17:16Z</time><extensions><speed>1.572304</speed><course>127.265625</course><hAcc>1.198093</hAcc><vAcc>1.127164</vAcc></extensions></trkpt>
      <trkpt lon="-82.146145" lat="33.556614"><ele>85.656113</ele><time>2021-05-05T13:17:17Z</time><extensions><speed>1.507391</speed><course>127.617188</course><hAcc>1.197781</hAcc><vAcc>1.126607</vAcc></extensions></trkpt>
      <trkpt lon="-82.146160" lat="33.556611"><ele>85.666061</ele><time>2021-05-05T13:17:18Z</time><extensions><speed>1.429437</speed><course>146.250000</course><hAcc>1.197860</hAcc><vAcc>1.126233</vAcc></extensions></trkpt>
      <trkpt lon="-82.146175" lat="33.556609"><ele>85.678719</ele><time>2021-05-05T13:17:19Z</time><extensions><speed>1.341818</speed><course>191.953125</course><hAcc>1.198074</hAcc><vAcc>1.125818</vAcc></extensions></trkpt>
      <trkpt lon="-82.146188" lat="33.556606"><ele>85.692680</ele><time>2021-05-05T13:17:20Z</time><extensions><speed>1.247860</speed><course>224.648438</course><hAcc>1.198124</hAcc><vAcc>1.125107</vAcc></extensions></trkpt>
      <trkpt lon="-82.146201" lat="33.556604"><ele>85.706230</ele><time>2021-05-05T13:17:21Z</time><extensions><speed>1.148156</speed><course>239.062500</course><hAcc>1.197466</hAcc><vAcc>1.123682</vAcc></extensions></trkpt>
      <trkpt lon="-82.146212" lat="33.556602"><ele>85.716820</ele><time>2021-05-05T13:17:22Z</time><extensions><speed>1.048628</speed><course>260.507812</course><hAcc>1.195781</hAcc><vAcc>1.121328</vAcc></extensions></trkpt>
      <trkpt lon="-82.146223" lat="33.556601"><ele>85.721870</ele><time>2021-05-05T13:17:23Z</time><extensions><speed>0.946736</speed><course>280.898438</course><hAcc>1.192801</hAcc><vAcc>1.117862</vAcc></extensions></trkpt>
      <trkpt lon="-82.146233" lat="33.556599"><ele>85.718391</ele><time>2021-05-05T13:17:24Z</time><extensions><speed>0.851164</speed><course>315.000000</course><hAcc>1.188849</hAcc><vAcc>1.113626</vAcc></extensions></trkpt>
      <trkpt lon="-82.146241" lat="33.556599"><ele>85.703796</ele><time>2021-05-05T13:17:25Z</time><extensions><speed>0.759953</speed><course>258.046875</course><hAcc>1.184536</hAcc><vAcc>1.109109</vAcc></extensions></trkpt>
      <trkpt lon="-82.146249" lat="33.556598"><ele>85.676170</ele><time>2021-05-05T13:17:26Z</time><extensions><speed>0.676858</speed><course>237.656250</course><hAcc>1.180547</hAcc><vAcc>1.104899</vAcc></extensions></trkpt>
      <trkpt lon="-82.146256" lat="33.556598"><ele>85.632660</ele><time>2021-05-05T13:17:27Z</time><extensions><speed>0.597678</speed><course>236.250000</course><hAcc>1.177145</hAcc><vAcc>1.101220</vAcc></extensions></trkpt>
      <trkpt lon="-82.146262" lat="33.556598"><ele>85.572578</ele><time>2021-05-05T13:17:28Z</time><extensions><speed>0.525670</speed><course>262.265625</course><hAcc>1.174629</hAcc><vAcc>1.098364</vAcc></extensions></trkpt>
      <trkpt lon="-82.146267" lat="33.556599"><ele>85.495499</ele><time>2021-05-05T13:17:29Z</time><extensions><speed>0.459614</speed><course>273.164062</course><hAcc>1.173443</hAcc><vAcc>1.096636</vAcc></extensions></trkpt>
      <trkpt lon="-82.146272" lat="33.556600"><ele>85.401619</ele><time>2021-05-05T13:17:30Z</time><extensions><speed>0.398947</speed><course>276.328125</course><hAcc>1.173914</hAcc><vAcc>1.096212</vAcc></extensions></trkpt>
      <trkpt lon="-82.146275" lat="33.556601"><ele>85.292374</ele><time>2021-05-05T13:17:31Z</time><extensions><speed>0.345126</speed><course>273.164062</course><hAcc>1.176378</hAcc><vAcc>1.097214</vAcc></extensions></trkpt>
      <trkpt lon="-82.146278" lat="33.556602"><ele>85.169456</ele><time>2021-05-05T13:17:32Z</time><extensions><speed>0.300976</speed><course>273.515625</course><hAcc>1.181245</hAcc><vAcc>1.099737</vAcc></extensions></trkpt>
      <trkpt lon="-82.146281" lat="33.556604"><ele>85.032845</ele><time>2021-05-05T13:17:33Z</time><extensions><speed>0.268873</speed><course>265.781250</course><hAcc>1.188880</hAcc><vAcc>1.103765</vAcc></extensions></trkpt>
      <trkpt lon="-82.146282" lat="33.556606"><ele>84.883713</ele><time>2021-05-05T13:17:34Z</time><extensions><speed>0.249924</speed><course>257.695312</course><hAcc>1.199484</hAcc><vAcc>1.109121</vAcc></extensions></trkpt>
      <trkpt lon="-82.146284" lat="33.556608"><ele>84.724709</ele><time>2021-05-05T13:17:35Z</time><extensions><speed>0.241238</speed><course>262.968750</course><hAcc>1.213259</hAcc><vAcc>1.115629</vAcc></extensions></trkpt>
      <trkpt lon="-82.146285" lat="33.556610"><ele>84.553352</ele><time>2021-05-05T13:17:36Z</time><extensions><speed>0.237503</speed><course>261.914062</course><hAcc>1.230567</hAcc><vAcc>1.123144</vAcc></extensions></trkpt>
      <trkpt lon="-82.146285" lat="33.556612"><ele>84.371422</ele><time>2021-05-05T13:17:37Z</time><extensions><speed>0.234124</speed><course>263.671875</course><hAcc>1.251003</hAcc><vAcc>1.131119</vAcc></extensions></trkpt>
      <trkpt lon="-82.146286" lat="33.556614"><ele>84.180748</ele><time>2021-05-05T13:17:38Z</time><extensions><speed>0.227578</speed><course>253.476562</course><hAcc>1.273980</hAcc><vAcc>1.139035</vAcc></extensions></trkpt>
      <trkpt lon="-82.146286" lat="33.556616"><ele>83.982185</ele><time>2021-05-05T13:17:39Z</time><extensions><speed>0.215791</speed><course>259.101562</course><hAcc>1.298710</hAcc><vAcc>1.146406</vAcc></extensions></trkpt>
      <trkpt lon="-82.146286" lat="33.556618"><ele>83.777412</ele><time>2021-05-05T13:17:40Z</time><extensions><speed>0.197930</speed><course>257.695312</course><hAcc>1.324010</hAcc><vAcc>1.152785</vAcc></extensions></trkpt>
      <trkpt lon="-82.146287" lat="33.556619"><ele>83.567688</ele><time>2021-05-05T13:17:41Z</time><extensions><speed>0.174517</speed><course>260.156250</course><hAcc>1.348621</hAcc><vAcc>1.157879</vAcc></extensions></trkpt>
      <trkpt lon="-82.146287" lat="33.556621"><ele>83.358017</ele><time>2021-05-05T13:17:42Z</time><extensions><speed>0.149448</speed><course>237.304688</course><hAcc>1.371335</hAcc><vAcc>1.161658</vAcc></extensions></trkpt>
      <trkpt lon="-82.146288" lat="33.556622"><ele>83.147659</ele><time>2021-05-05T13:17:43Z</time><extensions><speed>0.129796</speed><course>223.945312</course><hAcc>1.392006</hAcc><vAcc>1.164387</vAcc></extensions></trkpt>
      <trkpt lon="-82.146290" lat="33.556622"><ele>82.938759</ele><time>2021-05-05T13:17:44Z</time><extensions><speed>0.129386</speed><course>234.843750</course><hAcc>1.410203</hAcc><vAcc>1.166169</vAcc></extensions></trkpt>
      <trkpt lon="-82.146291" lat="33.556622"><ele>82.731598</ele><time>2021-05-05T13:17:45Z</time><extensions><speed>0.158258</speed><course>356.484375</course><hAcc>1.425681</hAcc><vAcc>1.167027</vAcc></extensions></trkpt>
      <trkpt lon="-82.146293" lat="33.556622"><ele>82.534836</ele><time>2021-05-05T13:17:46Z</time><extensions><speed>0.207424</speed><course>2.460938</course><hAcc>1.438199</hAcc><vAcc>1.167239</vAcc></extensions></trkpt>
      <trkpt lon="-82.146295" lat="33.556621"><ele>82.347351</ele><time>2021-05-05T13:17:47Z</time><extensions><speed>0.266952</speed><course>338.906250</course><hAcc>1.448717</hAcc><vAcc>1.167343</vAcc></extensions></trkpt>
      <trkpt lon="-82.146298" lat="33.556619"><ele>82.166222</ele><time>2021-05-05T13:17:48Z</time><extensions><speed>0.334038</speed><course>320.625000</course><hAcc>1.457654</hAcc><vAcc>1.167449</vAcc></extensions></trkpt>
      <trkpt lon="-82.146301" lat="33.556617"><ele>81.995232</ele><time>2021-05-05T13:17:49Z</time><extensions><speed>0.404248</speed><course>259.453125</course><hAcc>1.464929</hAcc><vAcc>1.167536</vAcc></extensions></trkpt>
      <trkpt lon="-82.146305" lat="33.556615"><ele>81.834030</ele><time>2021-05-05T13:17:50Z</time><extensions><speed>0.477277</speed><course>236.250000</course><hAcc>1.470737</hAcc><vAcc>1.167600</vAcc></extensions></trkpt>
      <trkpt lon="-82.146309" lat="33.556612"><ele>81.686378</ele><time>2021-05-05T13:17:51Z</time><extensions><speed>0.549366</speed><course>234.140625</course><hAcc>1.475265</hAcc><vAcc>1.167703</vAcc></extensions></trkpt>
      <trkpt lon="-82.146314" lat="33.556608"><ele>81.551826</ele><time>2021-05-05T13:17:52Z</time><extensions><speed>0.620440</speed><course>234.140625</course><hAcc>1.479048</hAcc><vAcc>1.168032</vAcc></extensions></trkpt>
      <trkpt lon="-82.146319" lat="33.556604"><ele>81.429596</ele><time>2021-05-05T13:17:53Z</time><extensions><speed>0.691173</speed><course>234.140625</course><hAcc>1.482383</hAcc><vAcc>1.168622</vAcc></extensions></trkpt>
      <trkpt lon="-82.146325" lat="33.556600"><ele>81.320015</ele><time>2021-05-05T13:17:54Z</time><extensions><speed>0.761193</speed><course>234.140625</course><hAcc>1.485399</hAcc><vAcc>1.169414</vAcc></extensions></trkpt>
      <trkpt lon="-82.146332" lat="33.556596"><ele>81.222717</ele><time>2021-05-05T13:17:55Z</time><extensions><speed>0.830825</speed><course>234.140625</course><hAcc>1.488178</hAcc><vAcc>1.170312</vAcc></extensions></trkpt>
      <trkpt lon="-82.146339" lat="33.556591"><ele>81.137680</ele><time>2021-05-05T13:17:56Z</time><extensions><speed>0.899710</speed><course>245.742188</course><hAcc>1.490743</hAcc><vAcc>1.171191</vAcc></extensions></trkpt>
      <trkpt lon="-82.146347" lat="33.556586"><ele>81.064491</ele><time>2021-05-05T13:17:57Z</time><extensions><speed>0.967638</speed><course>132.187500</course><hAcc>1.493120</hAcc><vAcc>1.171926</vAcc></extensions></trkpt>
      <trkpt lon="-82.146356" lat="33.556581"><ele>81.002502</ele><time>2021-05-05T13:17:58Z</time><extensions><speed>1.034466</speed><course>153.984375</course><hAcc>1.495280</hAcc><vAcc>1.172360</vAcc></extensions></trkpt>
      <trkpt lon="-82.146366" lat="33.556576"><ele>80.950859</ele><time>2021-05-05T13:17:59Z</time><extensions><speed>1.100624</speed><course>99.492188</course><hAcc>1.497012</hAcc><vAcc>1.172210</vAcc></extensions></trkpt>
      <trkpt lon="-82.146377" lat="33.556571"><ele>80.909325</ele><time>2021-05-05T13:18:00Z</time><extensions><speed>1.164662</speed><course>38.320312</course><hAcc>1.497998</hAcc><vAcc>1.171133</vAcc></extensions></trkpt>
      <trkpt lon="-82.146388" lat="33.556566"><ele>80.877403</ele><time>2021-05-05T13:18:01Z</time><extensions><speed>1.224489</speed><course>7.031250</course><hAcc>1.498101</hAcc><vAcc>1.168934</vAcc></extensions></trkpt>
      <trkpt lon="-82.146400" lat="33.556561"><ele>80.854019</ele><time>2021-05-05T13:18:02Z</time><extensions><speed>1.280181</speed><course>341.015625</course><hAcc>1.497114</hAcc><vAcc>1.165336</vAcc></extensions></trkpt>
      <trkpt lon="-82.146413" lat="33.556555"><ele>80.838890</ele><time>2021-05-05T13:18:03Z</time><extensions><speed>1.329428</speed><course>343.476562</course><hAcc>1.494816</hAcc><vAcc>1.160112</vAcc></extensions></trkpt>
      <trkpt lon="-82.146426" lat="33.556550"><ele>80.831589</ele><time>2021-05-05T13:18:04Z</time><extensions><speed>1.371924</speed><course>351.210938</course><hAcc>1.491037</hAcc><vAcc>1.153023</vAcc></extensions></trkpt>
      <trkpt lon="-82.146439" lat="33.556545"><ele>80.832039</ele><time>2021-05-05T13:18:05Z</time><extensions><speed>1.406271</speed><course>259.101562</course><hAcc>1.485778</hAcc><vAcc>1.144029</vAcc></extensions></trkpt>
      <trkpt lon="-82.146453" lat="33.556540"><ele>80.840080</ele><time>2021-05-05T13:18:06Z</time><extensions><speed>1.432711</speed><course>255.585938</course><hAcc>1.479366</hAcc><vAcc>1.133300</vAcc></extensions></trkpt>
      <trkpt lon="-82.146468" lat="33.556535"><ele>80.855659</ele><time>2021-05-05T13:18:07Z</time><extensions><speed>1.452238</speed><course>264.726562</course><hAcc>1.472389</hAcc><vAcc>1.121190</vAcc></extensions></trkpt>
      <trkpt lon="-82.146482" lat="33.556529"><ele>80.878410</ele><time>2021-05-05T13:18:08Z</time><extensions><speed>1.465755</speed><course>273.515625</course><hAcc>1.466215</hAcc><vAcc>1.108750</vAcc></extensions></trkpt>
      <trkpt lon="-82.146497" lat="33.556524"><ele>80.907959</ele><time>2021-05-05T13:18:09Z</time><extensions><speed>1.474817</speed><course>257.343750</course><hAcc>1.463007</hAcc><vAcc>1.097575</vAcc></extensions></trkpt>
      <trkpt lon="-82.146511" lat="33.556519"><ele>80.943932</ele><time>2021-05-05T13:18:10Z</time><extensions><speed>1.480642</speed><course>254.179688</course><hAcc>1.465827</hAcc><vAcc>1.089972</vAcc></extensions></trkpt>
      <trkpt lon="-82.146526" lat="33.556514"><ele>80.985817</ele><time>2021-05-05T13:18:11Z</time><extensions><speed>1.484013</speed><course>259.453125</course><hAcc>1.478861</hAcc><vAcc>1.089200</vAcc></extensions></trkpt>
      <trkpt lon="-82.146541" lat="33.556509"><ele>81.032791</ele><time>2021-05-05T13:18:12Z</time><extensions><speed>1.485599</speed><course>249.257812</course><hAcc>1.507309</hAcc><vAcc>1.099403</vAcc></extensions></trkpt>
      <trkpt lon="-82.146555" lat="33.556503"><ele>81.084427</ele><time>2021-05-05T13:18:13Z</time><extensions><speed>1.486269</speed><course>224.296875</course><hAcc>1.557324</hAcc><vAcc>1.125358</vAcc></extensions></trkpt>
      <trkpt lon="-82.146570" lat="33.556498"><ele>81.139786</ele><time>2021-05-05T13:18:14Z</time><extensions><speed>1.486748</speed><course>196.523438</course><hAcc>1.634839</hAcc><vAcc>1.171769</vAcc></extensions></trkpt>
      <trkpt lon="-82.146585" lat="33.556493"><ele>81.198288</ele><time>2021-05-05T13:18:15Z</time><extensions><speed>1.487323</speed><course>182.109375</course><hAcc>1.745580</hAcc><vAcc>1.243044</vAcc></extensions></trkpt>
      <trkpt lon="-82.146600" lat="33.556487"><ele>81.258774</ele><time>2021-05-05T13:18:16Z</time><extensions><speed>1.487953</speed><course>204.960938</course><hAcc>1.892695</hAcc><vAcc>1.341661</vAcc></extensions></trkpt>
      <trkpt lon="-82.146614" lat="33.556482"><ele>81.320984</ele><time>2021-05-05T13:18:17Z</time><extensions><speed>1.488473</speed><course>221.132812</course><hAcc>2.079496</hAcc><vAcc>1.469926</vAcc></extensions></trkpt>
      <trkpt lon="-82.146629" lat="33.556477"><ele>81.383827</ele><time>2021-05-05T13:18:18Z</time><extensions><speed>1.488721</speed><course>260.507812</course><hAcc>2.304993</hAcc><vAcc>1.627003</vAcc></extensions></trkpt>
      <trkpt lon="-82.146643" lat="33.556471"><ele>81.447372</ele><time>2021-05-05T13:18:19Z</time><extensions><speed>1.488771</speed><course>272.109375</course><hAcc>2.569979</hAcc><vAcc>1.813180</vAcc></extensions></trkpt>
    </trkseg>
  </trk>
</gpx>