<?xml version="1.0" encoding="UTF-8"?>
<gpx version="1.1" creator="Apple Health Export" xmlns="http://www.topografix.com/GPX/1/1" xmlns:xsi="http://www.w3.org/2001/XMLSchema-instance" xsi:schemaLocation="http://www.topografix.com/GPX/1/1 http://www.topografix.com/GPX/1/1/gpx.xsd">
  <metadata>
    <time>2026-03-14T12:16:46Z</time>
  </metadata>
  <trk>
    <name>Route 2024-12-29 11:57am</name>
    <trkseg>
      <trkpt lon="-82.311113" lat="35.642495"><ele>797.490946</ele><time>2024-12-29T16:57:19Z</time><extensions><speed>-1.000000</speed><course>-1.000000</course><hAcc>31.330920</hAcc><vAcc>48.129978</vAcc></extensions></trkpt>
    </trkseg>
  </trk>
</gpx>