<?xml version="1.0" encoding="UTF-8"?>
<gpx version="1.1" creator="Apple Health Export" xmlns="http://www.topografix.com/GPX/1/1" xmlns:xsi="http://www.w3.org/2001/XMLSchema-instance" xsi:schemaLocation="http://www.topografix.com/GPX/1/1 http://www.topografix.com/GPX/1/1/gpx.xsd">
  <metadata>
    <time>2026-03-14T12:15:44Z</time>
  </metadata>
  <trk>
    <name>Route 2021-10-17 8:13am</name>
    <trkseg>
      <trkpt lon="-82.146222" lat="33.556683"><ele>88.228455</ele><time>2021-10-17T12:12:05Z</time><extensions><speed>1.366310</speed><course>259.453125</course><hAcc>3.325698</hAcc><vAcc>3.256790</vAcc></extensions></trkpt>
      <trkpt lon="-82.146230" lat="33.556671"><ele>88.294434</ele><time>2021-10-17T12:12:06Z</time><extensions><speed>1.364989</speed><course>259.453125</course><hAcc>3.016771</hAcc><vAcc>2.999997</vAcc></extensions></trkpt>
      <trkpt lon="-82.146236" lat="33.556661"><ele>88.348160</ele><time>2021-10-17T12:12:07Z</time><extensions><speed>1.362101</speed><course>233.085938</course><hAcc>2.794022</hAcc><vAcc>2.808662</vAcc></extensions></trkpt>
      <trkpt lon="-82.146243" lat="33.556650"><ele>88.408928</ele><time>2021-10-17T12:12:08Z</time><extensions><speed>1.355313</speed><course>215.156250</course><hAcc>2.574816</hAcc><vAcc>2.612691</vAcc></extensions></trkpt>
      <trkpt lon="-82.146249" lat="33.556639"><ele>88.470169</ele><time>2021-10-17T12:12:09Z</time><extensions><speed>1.344438</speed><course>215.156250</course><hAcc>2.388996</hAcc><vAcc>2.437685</vAcc></extensions></trkpt>
      <trkpt lon="-82.146256" lat="33.556628"><ele>88.532219</ele><time>2021-10-17T12:12:10Z</time><extensions><speed>1.329259</speed><course>237.304688</course><hAcc>2.234808</hAcc><vAcc>2.283178</vAcc></extensions></trkpt>
      <trkpt lon="-82.146262" lat="33.556618"><ele>88.596001</ele><time>2021-10-17T12:12:11Z</time><extensions><speed>1.310451</speed><course>216.562500</course><hAcc>2.108139</hAcc><vAcc>2.147039</vAcc></extensions></trkpt>
      <trkpt lon="-82.146269" lat="33.556607"><ele>88.662361</ele><time>2021-10-17T12:12:12Z</time><extensions><speed>1.288321</speed><course>197.226562</course><hAcc>2.005097</hAcc><vAcc>2.027828</vAcc></extensions></trkpt>
      <trkpt lon="-82.146275" lat="33.556597"><ele>88.732704</ele><time>2021-10-17T12:12:13Z</time><extensions><speed>1.262805</speed><course>208.476562</course><hAcc>1.921280</hAcc><vAcc>1.923870</vAcc></extensions></trkpt>
      <trkpt lon="-82.146282" lat="33.556587"><ele>88.808968</ele><time>2021-10-17T12:12:14Z</time><extensions><speed>1.234035</speed><course>219.375000</course><hAcc>1.852091</hAcc><vAcc>1.833216</vAcc></extensions></trkpt>
      <trkpt lon="-82.146288" lat="33.556578"><ele>88.893593</ele><time>2021-10-17T12:12:15Z</time><extensions><speed>1.202075</speed><course>237.656250</course><hAcc>1.792834</hAcc><vAcc>1.753483</vAcc></extensions></trkpt>
      <trkpt lon="-82.146294" lat="33.556569"><ele>88.988518</ele><time>2021-10-17T12:12:16Z</time><extensions><speed>1.167359</speed><course>250.664062</course><hAcc>1.739729</hAcc><vAcc>1.682855</vAcc></extensions></trkpt>
      <trkpt lon="-82.146301" lat="33.556560"><ele>89.095451</ele><time>2021-10-17T12:12:17Z</time><extensions><speed>1.130511</speed><course>154.335938</course><hAcc>1.689870</hAcc><vAcc>1.619691</vAcc></extensions></trkpt>
      <trkpt lon="-82.146305" lat="33.556553"><ele>89.184586</ele><time>2021-10-17T12:12:18Z</time><extensions><speed>1.108771</speed><course>222.187500</course><hAcc>1.654968</hAcc><vAcc>1.576976</vAcc></extensions></trkpt>
      <trkpt lon="-82.146312" lat="33.556545"><ele>89.316170</ele><time>2021-10-17T12:12:19Z</time><extensions><speed>1.070504</speed><course>222.890625</course><hAcc>1.611288</hAcc><vAcc>1.525941</vAcc></extensions></trkpt>
      <trkpt lon="-82.146318" lat="33.556537"><ele>89.464813</ele><time>2021-10-17T12:12:20Z</time><extensions><speed>1.034209</speed><course>221.835938</course><hAcc>1.566995</hAcc><vAcc>1.478839</vAcc></extensions></trkpt>
      <trkpt lon="-82.146325" lat="33.556530"><ele>89.630692</ele><time>2021-10-17T12:12:21Z</time><extensions><speed>1.001380</speed><course>225.703125</course><hAcc>1.522181</hAcc><vAcc>1.434939</vAcc></extensions></trkpt>
      <trkpt lon="-82.146331" lat="33.556523"><ele>89.813599</ele><time>2021-10-17T12:12:22Z</time><extensions><speed>0.973363</speed><course>228.515625</course><hAcc>1.477551</hAcc><vAcc>1.393749</vAcc></extensions></trkpt>
      <trkpt lon="-82.146338" lat="33.556516"><ele>90.015587</ele><time>2021-10-17T12:12:23Z</time><extensions><speed>0.951475</speed><course>231.679688</course><hAcc>1.433421</hAcc><vAcc>1.354380</vAcc></extensions></trkpt>
      <trkpt lon="-82.146346" lat="33.556510"><ele>90.229271</ele><time>2021-10-17T12:12:24Z</time><extensions><speed>0.938635</speed><course>226.757812</course><hAcc>1.392063</hAcc><vAcc>1.317833</vAcc></extensions></trkpt>
      <trkpt lon="-82.146353" lat="33.556505"><ele>90.458313</ele><time>2021-10-17T12:12:25Z</time><extensions><speed>0.934675</speed><course>217.265625</course><hAcc>1.353179</hAcc><vAcc>1.283145</vAcc></extensions></trkpt>
      <trkpt lon="-82.146361" lat="33.556500"><ele>90.697983</ele><time>2021-10-17T12:12:26Z</time><extensions><speed>0.939182</speed><course>229.570312</course><hAcc>1.317716</hAcc><vAcc>1.250812</vAcc></extensions></trkpt>
      <trkpt lon="-82.146370" lat="33.556495"><ele>90.946800</ele><time>2021-10-17T12:12:27Z</time><extensions><speed>0.950708</speed><course>237.304688</course><hAcc>1.286035</hAcc><vAcc>1.221017</vAcc></extensions></trkpt>
      <trkpt lon="-82.146379" lat="33.556491"><ele>91.203011</ele><time>2021-10-17T12:12:28Z</time><extensions><speed>0.967783</speed><course>236.953125</course><hAcc>1.258420</hAcc><vAcc>1.194046</vAcc></extensions></trkpt>
      <trkpt lon="-82.146389" lat="33.556488"><ele>91.465530</ele><time>2021-10-17T12:12:29Z</time><extensions><speed>0.989230</speed><course>223.242188</course><hAcc>1.234870</hAcc><vAcc>1.170054</vAcc></extensions></trkpt>
      <trkpt lon="-82.146399" lat="33.556484"><ele>91.736107</ele><time>2021-10-17T12:12:30Z</time><extensions><speed>1.014665</speed><course>221.132812</course><hAcc>1.214766</hAcc><vAcc>1.148711</vAcc></extensions></trkpt>
      <trkpt lon="-82.146409" lat="33.556481"><ele>92.001938</ele><time>2021-10-17T12:12:31Z</time><extensions><speed>1.040535</speed><course>229.921875</course><hAcc>1.198680</hAcc><vAcc>1.130860</vAcc></extensions></trkpt>
      <trkpt lon="-82.146420" lat="33.556479"><ele>92.270782</ele><time>2021-10-17T12:12:32Z</time><extensions><speed>1.067298</speed><course>239.062500</course><hAcc>1.185764</hAcc><vAcc>1.115774</vAcc></extensions></trkpt>
      <trkpt lon="-82.146431" lat="33.556477"><ele>92.537865</ele><time>2021-10-17T12:12:33Z</time><extensions><speed>1.094121</speed><course>241.875000</course><hAcc>1.175580</hAcc><vAcc>1.103307</vAcc></extensions></trkpt>
      <trkpt lon="-82.146443" lat="33.556475"><ele>92.800522</ele><time>2021-10-17T12:12:34Z</time><extensions><speed>1.120958</speed><course>218.671875</course><hAcc>1.167702</hAcc><vAcc>1.093202</vAcc></extensions></trkpt>
      <trkpt lon="-82.146455" lat="33.556473"><ele>93.057976</ele><time>2021-10-17T12:12:35Z</time><extensions><speed>1.147307</speed><course>236.250000</course><hAcc>1.161631</hAcc><vAcc>1.085074</vAcc></extensions></trkpt>
      <trkpt lon="-82.146468" lat="33.556472"><ele>93.305977</ele><time>2021-10-17T12:12:36Z</time><extensions><speed>1.171100</speed><course>260.156250</course><hAcc>1.157073</hAcc><vAcc>1.078698</vAcc></extensions></trkpt>
      <trkpt lon="-82.146480" lat="33.556470"><ele>93.545288</ele><time>2021-10-17T12:12:37Z</time><extensions><speed>1.191197</speed><course>287.929688</course><hAcc>1.153695</hAcc><vAcc>1.073724</vAcc></extensions></trkpt>
      <trkpt lon="-82.146493" lat="33.556469"><ele>93.773743</ele><time>2021-10-17T12:12:38Z</time><extensions><speed>1.206006</speed><course>279.140625</course><hAcc>1.151177</hAcc><vAcc>1.069842</vAcc></extensions></trkpt>
      <trkpt lon="-82.146506" lat="33.556468"><ele>93.990318</ele><time>2021-10-17T12:12:39Z</time><extensions><speed>1.213811</speed><course>265.078125</course><hAcc>1.149271</hAcc><vAcc>1.066767</vAcc></extensions></trkpt>
      <trkpt lon="-82.146519" lat="33.556467"><ele>94.194153</ele><time>2021-10-17T12:12:40Z</time><extensions><speed>1.213048</speed><course>271.054688</course><hAcc>1.147821</hAcc><vAcc>1.064278</vAcc></extensions></trkpt>
      <trkpt lon="-82.146532" lat="33.556465"><ele>94.388016</ele><time>2021-10-17T12:12:41Z</time><extensions><speed>1.202722</speed><course>275.625000</course><hAcc>1.146527</hAcc><vAcc>1.062039</vAcc></extensions></trkpt>
      <trkpt lon="-82.146545" lat="33.556463"><ele>94.569794</ele><time>2021-10-17T12:12:42Z</time><extensions><speed>1.183076</speed><course>284.062500</course><hAcc>1.145190</hAcc><vAcc>1.059821</vAcc></extensions></trkpt>
      <trkpt lon="-82.146557" lat="33.556461"><ele>94.741318</ele><time>2021-10-17T12:12:43Z</time><extensions><speed>1.155413</speed><course>280.898438</course><hAcc>1.143780</hAcc><vAcc>1.057486</vAcc></extensions></trkpt>
      <trkpt lon="-82.146569" lat="33.556459"><ele>94.903824</ele><time>2021-10-17T12:12:44Z</time><extensions><speed>1.122012</speed><course>281.601562</course><hAcc>1.142156</hAcc><vAcc>1.054828</vAcc></extensions></trkpt>
      <trkpt lon="-82.146580" lat="33.556456"><ele>95.057610</ele><time>2021-10-17T12:12:45Z</time><extensions><speed>1.085244</speed><course>276.679688</course><hAcc>1.140149</hAcc><vAcc>1.051633</vAcc></extensions></trkpt>
      <trkpt lon="-82.146591" lat="33.556453"><ele>95.203293</ele><time>2021-10-17T12:12:46Z</time><extensions><speed>1.046748</speed><course>264.726562</course><hAcc>1.137566</hAcc><vAcc>1.047669</vAcc></extensions></trkpt>
      <trkpt lon="-82.146601" lat="33.556450"><ele>95.340668</ele><time>2021-10-17T12:12:47Z</time><extensions><speed>1.008501</speed><course>244.687500</course><hAcc>1.134216</hAcc><vAcc>1.042719</vAcc></extensions></trkpt>
      <trkpt lon="-82.146611" lat="33.556446"><ele>95.469597</ele><time>2021-10-17T12:12:48Z</time><extensions><speed>0.972240</speed><course>229.218750</course><hAcc>1.129937</hAcc><vAcc>1.036589</vAcc></extensions></trkpt>
      <trkpt lon="-82.146620" lat="33.556442"><ele>95.589676</ele><time>2021-10-17T12:12:49Z</time><extensions><speed>0.939316</speed><course>217.617188</course><hAcc>1.124590</hAcc><vAcc>1.029122</vAcc></extensions></trkpt>
      <trkpt lon="-82.146629" lat="33.556438"><ele>95.700447</ele><time>2021-10-17T12:12:50Z</time><extensions><speed>0.910521</speed><course>222.539062</course><hAcc>1.118096</hAcc><vAcc>1.020218</vAcc></extensions></trkpt>
      <trkpt lon="-82.146637" lat="33.556433"><ele>95.802055</ele><time>2021-10-17T12:12:51Z</time><extensions><speed>0.885729</speed><course>223.593750</course><hAcc>1.110294</hAcc><vAcc>1.009717</vAcc></extensions></trkpt>
      <trkpt lon="-82.146645" lat="33.556429"><ele>95.893692</ele><time>2021-10-17T12:12:52Z</time><extensions><speed>0.864889</speed><course>226.054688</course><hAcc>1.101095</hAcc><vAcc>0.997573</vAcc></extensions></trkpt>
      <trkpt lon="-82.146652" lat="33.556424"><ele>95.974808</ele><time>2021-10-17T12:12:53Z</time><extensions><speed>0.848080</speed><course>215.156250</course><hAcc>1.090552</hAcc><vAcc>0.983873</vAcc></extensions></trkpt>
      <trkpt lon="-82.146660" lat="33.556420"><ele>96.044724</ele><time>2021-10-17T12:12:54Z</time><extensions><speed>0.836135</speed><course>208.828125</course><hAcc>1.078966</hAcc><vAcc>0.968945</vAcc></extensions></trkpt>
      <trkpt lon="-82.146667" lat="33.556416"><ele>96.103752</ele><time>2021-10-17T12:12:55Z</time><extensions><speed>0.830246</speed><course>200.742188</course><hAcc>1.066423</hAcc><vAcc>0.952908</vAcc></extensions></trkpt>
      <trkpt lon="-82.146675" lat="33.556412"><ele>96.150482</ele><time>2021-10-17T12:12:56Z</time><extensions><speed>0.832529</speed><course>207.070312</course><hAcc>1.053409</hAcc><vAcc>0.936389</vAcc></extensions></trkpt>
      <trkpt lon="-82.146683" lat="33.556409"><ele>96.184174</ele><time>2021-10-17T12:12:57Z</time><extensions><speed>0.844836</speed><course>217.617188</course><hAcc>1.040602</hAcc><vAcc>0.920135</vAcc></extensions></trkpt>
      <trkpt lon="-82.146691" lat="33.556406"><ele>96.203629</ele><time>2021-10-17T12:12:58Z</time><extensions><speed>0.868694</speed><course>248.203125</course><hAcc>1.028834</hAcc><vAcc>0.905070</vAcc></extensions></trkpt>
      <trkpt lon="-82.146700" lat="33.556403"><ele>96.207283</ele><time>2021-10-17T12:12:59Z</time><extensions><speed>0.905117</speed><course>302.343750</course><hAcc>1.018620</hAcc><vAcc>0.891793</vAcc></extensions></trkpt>
      <trkpt lon="-82.146710" lat="33.556401"><ele>96.193039</ele><time>2021-10-17T12:13:00Z</time><extensions><speed>0.952710</speed><course>337.500000</course><hAcc>1.010289</hAcc><vAcc>0.880757</vAcc></extensions></trkpt>
      <trkpt lon="-82.146720" lat="33.556399"><ele>96.158882</ele><time>2021-10-17T12:13:01Z</time><extensions><speed>1.008337</speed><course>326.953125</course><hAcc>1.003898</hAcc><vAcc>0.872099</vAcc></extensions></trkpt>
      <trkpt lon="-82.146731" lat="33.556397"><ele>96.103584</ele><time>2021-10-17T12:13:02Z</time><extensions><speed>1.066933</speed><course>313.593750</course><hAcc>0.999335</hAcc><vAcc>0.865782</vAcc></extensions></trkpt>
      <trkpt lon="-82.146743" lat="33.556396"><ele>96.026939</ele><time>2021-10-17T12:13:03Z</time><extensions><speed>1.123572</speed><course>300.234375</course><hAcc>0.996377</hAcc><vAcc>0.861613</vAcc></extensions></trkpt>
      <trkpt lon="-82.146755" lat="33.556394"><ele>95.929710</ele><time>2021-10-17T12:13:04Z</time><extensions><speed>1.174152</speed><course>281.953125</course><hAcc>0.994823</hAcc><vAcc>0.859409</vAcc></extensions></trkpt>
      <trkpt lon="-82.146768" lat="33.556393"><ele>95.813354</ele><time>2021-10-17T12:13:05Z</time><extensions><speed>1.215554</speed><course>269.296875</course><hAcc>0.994644</hAcc><vAcc>0.859148</vAcc></extensions></trkpt>
      <trkpt lon="-82.146781" lat="33.556392"><ele>95.680054</ele><time>2021-10-17T12:13:06Z</time><extensions><speed>1.246246</speed><course>260.859375</course><hAcc>0.995936</hAcc><vAcc>0.860900</vAcc></extensions></trkpt>
      <trkpt lon="-82.146795" lat="33.556391"><ele>95.531837</ele><time>2021-10-17T12:13:07Z</time><extensions><speed>1.266165</speed><course>254.882812</course><hAcc>0.998808</hAcc><vAcc>0.864713</vAcc></extensions></trkpt>
      <trkpt lon="-82.146808" lat="33.556391"><ele>95.373268</ele><time>2021-10-17T12:13:08Z</time><extensions><speed>1.274980</speed><course>249.257812</course><hAcc>1.003632</hAcc><vAcc>0.870756</vAcc></extensions></trkpt>
      <trkpt lon="-82.146822" lat="33.556390"><ele>95.202965</ele><time>2021-10-17T12:13:09Z</time><extensions><speed>1.272990</speed><course>262.265625</course><hAcc>1.011034</hAcc><vAcc>0.879480</vAcc></extensions></trkpt>
      <trkpt lon="-82.146836" lat="33.556390"><ele>95.024178</ele><time>2021-10-17T12:13:10Z</time><extensions><speed>1.260064</speed><course>272.812500</course><hAcc>1.021382</hAcc><vAcc>0.891022</vAcc></extensions></trkpt>
      <trkpt lon="-82.146849" lat="33.556390"><ele>94.840210</ele><time>2021-10-17T12:13:11Z</time><extensions><speed>1.237192</speed><course>274.218750</course><hAcc>1.035176</hAcc><vAcc>0.905458</vAcc></extensions></trkpt>
      <trkpt lon="-82.146862" lat="33.556390"><ele>94.653412</ele><time>2021-10-17T12:13:12Z</time><extensions><speed>1.206866</speed><course>266.484375</course><hAcc>1.052905</hAcc><vAcc>0.922737</vAcc></extensions></trkpt>
      <trkpt lon="-82.146875" lat="33.556390"><ele>94.462822</ele><time>2021-10-17T12:13:13Z</time><extensions><speed>1.172147</speed><course>257.695312</course><hAcc>1.074956</hAcc><vAcc>0.942714</vAcc></extensions></trkpt>
      <trkpt lon="-82.146887" lat="33.556391"><ele>94.271576</ele><time>2021-10-17T12:13:14Z</time><extensions><speed>1.137713</speed><course>264.023438</course><hAcc>1.100889</hAcc><vAcc>0.964459</vAcc></extensions></trkpt>
      <trkpt lon="-82.146899" lat="33.556392"><ele>94.081398</ele><time>2021-10-17T12:13:15Z</time><extensions><speed>1.106491</speed><course>323.437500</course><hAcc>1.130216</hAcc><vAcc>0.987036</vAcc></extensions></trkpt>
      <trkpt lon="-82.146911" lat="33.556394"><ele>93.892914</ele><time>2021-10-17T12:13:16Z</time><extensions><speed>1.079594</speed><course>343.828125</course><hAcc>1.162441</hAcc><vAcc>1.009655</vAcc></extensions></trkpt>
      <trkpt lon="-82.146922" lat="33.556395"><ele>93.706902</ele><time>2021-10-17T12:13:17Z</time><extensions><speed>1.056471</speed><course>310.078125</course><hAcc>1.196910</hAcc><vAcc>1.031647</vAcc></extensions></trkpt>
      <trkpt lon="-82.146933" lat="33.556397"><ele>93.524162</ele><time>2021-10-17T12:13:18Z</time><extensions><speed>1.035328</speed><course>274.218750</course><hAcc>1.232768</hAcc><vAcc>1.052519</vAcc></extensions></trkpt>
      <trkpt lon="-82.146944" lat="33.556400"><ele>93.346443</ele><time>2021-10-17T12:13:19Z</time><extensions><speed>1.014744</speed><course>293.906250</course><hAcc>1.268825</hAcc><vAcc>1.071947</vAcc></extensions></trkpt>
      <trkpt lon="-82.146954" lat="33.556402"><ele>93.172218</ele><time>2021-10-17T12:13:20Z</time><extensions><speed>0.993339</speed><course>278.437500</course><hAcc>1.304427</hAcc><vAcc>1.090134</vAcc></extensions></trkpt>
      <trkpt lon="-82.146964" lat="33.556405"><ele>92.999573</ele><time>2021-10-17T12:13:21Z</time><extensions><speed>0.970187</speed><course>291.093750</course><hAcc>1.339007</hAcc><vAcc>1.107303</vAcc></extensions></trkpt>
      <trkpt lon="-82.146974" lat="33.556408"><ele>92.833519</ele><time>2021-10-17T12:13:22Z</time><extensions><speed>0.946420</speed><course>260.859375</course><hAcc>1.371586</hAcc><vAcc>1.123564</vAcc></extensions></trkpt>
      <trkpt lon="-82.146983" lat="33.556411"><ele>92.672798</ele><time>2021-10-17T12:13:23Z</time><extensions><speed>0.921627</speed><course>289.687500</course><hAcc>1.403580</hAcc><vAcc>1.140315</vAcc></extensions></trkpt>
      <trkpt lon="-82.146992" lat="33.556415"><ele>92.515686</ele><time>2021-10-17T12:13:24Z</time><extensions><speed>0.895335</speed><course>307.265625</course><hAcc>1.437073</hAcc><vAcc>1.159307</vAcc></extensions></trkpt>
      <trkpt lon="-82.147001" lat="33.556418"><ele>92.362892</ele><time>2021-10-17T12:13:25Z</time><extensions><speed>0.868186</speed><course>317.812500</course><hAcc>1.474561</hAcc><vAcc>1.182549</vAcc></extensions></trkpt>
      <trkpt lon="-82.147009" lat="33.556421"><ele>92.216026</ele><time>2021-10-17T12:13:26Z</time><extensions><speed>0.841525</speed><course>303.398438</course><hAcc>1.519299</hAcc><vAcc>1.212409</vAcc></extensions></trkpt>
      <trkpt lon="-82.147017" lat="33.556425"><ele>92.068604</ele><time>2021-10-17T12:13:27Z</time><extensions><speed>0.813940</speed><course>299.882812</course><hAcc>1.577775</hAcc><vAcc>1.253356</vAcc></extensions></trkpt>
      <trkpt lon="-82.147025" lat="33.556428"><ele>91.926834</ele><time>2021-10-17T12:13:28Z</time><extensions><speed>0.788988</speed><course>322.031250</course><hAcc>1.652640</hAcc><vAcc>1.307077</vAcc></extensions></trkpt>
      <trkpt lon="-82.147032" lat="33.556432"><ele>91.786064</ele><time>2021-10-17T12:13:29Z</time><extensions><speed>0.766495</speed><course>76.289062</course><hAcc>1.751312</hAcc><vAcc>1.378487</vAcc></extensions></trkpt>
      <trkpt lon="-82.147039" lat="33.556435"><ele>91.647949</ele><time>2021-10-17T12:13:30Z</time><extensions><speed>0.748317</speed><course>104.765625</course><hAcc>1.877257</hAcc><vAcc>1.469645</vAcc></extensions></trkpt>
      <trkpt lon="-82.147046" lat="33.556439"><ele>91.510803</ele><time>2021-10-17T12:13:31Z</time><extensions><speed>0.734791</speed><course>153.632812</course><hAcc>2.035297</hAcc><vAcc>1.583640</vAcc></extensions></trkpt>
      <trkpt lon="-82.147053" lat="33.556442"><ele>91.373871</ele><time>2021-10-17T12:13:32Z</time><extensions><speed>0.725978</speed><course>140.625000</course><hAcc>2.228612</hAcc><vAcc>1.722501</vAcc></extensions></trkpt>
      <trkpt lon="-82.147059" lat="33.556445"><ele>91.238037</ele><time>2021-10-17T12:13:33Z</time><extensions><speed>0.721500</speed><course>147.304688</course><hAcc>2.456502</hAcc><vAcc>1.885626</vAcc></extensions></trkpt>
      <trkpt lon="-82.147066" lat="33.556449"><ele>91.101463</ele><time>2021-10-17T12:13:34Z</time><extensions><speed>0.720204</speed><course>121.992188</course><hAcc>2.721400</hAcc><vAcc>2.074825</vAcc></extensions></trkpt>
    </trkseg>
  </trk>
</gpx>