<?xml version="1.0" encoding="UTF-8"?>
<gpx version="1.1" creator="Apple Health Export" xmlns="http://www.topografix.com/GPX/1/1" xmlns:xsi="http://www.w3.org/2001/XMLSchema-instance" xsi:schemaLocation="http://www.topografix.com/GPX/1/1 http://www.topografix.com/GPX/1/1/gpx.xsd">
  <metadata>
    <time>2026-03-14T12:15:45Z</time>
  </metadata>
  <trk>
    <name>Route 2021-10-23 10:08am</name>
    <trkseg>
      <trkpt lon="-82.146350" lat="33.556513"><ele>86.685356</ele><time>2021-10-23T14:06:16Z</time><extensions><speed>0.795406</speed><course>271.054688</course><hAcc>3.350799</hAcc><vAcc>3.126393</vAcc></extensions></trkpt>
      <trkpt lon="-82.146354" lat="33.556506"><ele>86.973335</ele><time>2021-10-23T14:06:17Z</time><extensions><speed>0.794258</speed><course>242.226562</course><hAcc>3.050605</hAcc><vAcc>2.878909</vAcc></extensions></trkpt>
      <trkpt lon="-82.146358" lat="33.556500"><ele>87.266777</ele><time>2021-10-23T14:06:18Z</time><extensions><speed>0.789887</speed><course>186.679688</course><hAcc>2.775707</hAcc><vAcc>2.646691</vAcc></extensions></trkpt>
      <trkpt lon="-82.146361" lat="33.556494"><ele>87.556625</ele><time>2021-10-23T14:06:19Z</time><extensions><speed>0.781414</speed><course>240.820312</course><hAcc>2.535927</hAcc><vAcc>2.438410</vAcc></extensions></trkpt>
      <trkpt lon="-82.146365" lat="33.556487"><ele>87.851555</ele><time>2021-10-23T14:06:20Z</time><extensions><speed>0.767083</speed><course>311.484375</course><hAcc>2.324790</hAcc><vAcc>2.249114</vAcc></extensions></trkpt>
      <trkpt lon="-82.146368" lat="33.556481"><ele>88.147179</ele><time>2021-10-23T14:06:21Z</time><extensions><speed>0.746641</speed><course>215.859375</course><hAcc>2.146014</hAcc><vAcc>2.082934</vAcc></extensions></trkpt>
      <trkpt lon="-82.146371" lat="33.556475"><ele>88.455017</ele><time>2021-10-23T14:06:22Z</time><extensions><speed>0.719610</speed><course>246.445312</course><hAcc>1.993254</hAcc><vAcc>1.934872</vAcc></extensions></trkpt>
      <trkpt lon="-82.146374" lat="33.556469"><ele>88.767204</ele><time>2021-10-23T14:06:22Z</time><extensions><speed>0.692702</speed><course>256.640625</course><hAcc>1.869508</hAcc><vAcc>1.809109</vAcc></extensions></trkpt>
      <trkpt lon="-82.146376" lat="33.556463"><ele>89.095322</ele><time>2021-10-23T14:06:23Z</time><extensions><speed>0.667941</speed><course>249.960938</course><hAcc>1.767501</hAcc><vAcc>1.700120</vAcc></extensions></trkpt>
      <trkpt lon="-82.146378" lat="33.556458"><ele>89.435440</ele><time>2021-10-23T14:06:24Z</time><extensions><speed>0.646512</speed><course>326.953125</course><hAcc>1.685064</hAcc><vAcc>1.607953</vAcc></extensions></trkpt>
      <trkpt lon="-82.146379" lat="33.556452"><ele>89.784088</ele><time>2021-10-23T14:06:25Z</time><extensions><speed>0.628623</speed><course>333.281250</course><hAcc>1.618125</hAcc><vAcc>1.530919</vAcc></extensions></trkpt>
      <trkpt lon="-82.146381" lat="33.556447"><ele>90.141174</ele><time>2021-10-23T14:06:26Z</time><extensions><speed>0.614116</speed><course>325.546875</course><hAcc>1.561809</hAcc><vAcc>1.466049</vAcc></extensions></trkpt>
      <trkpt lon="-82.146383" lat="33.556441"><ele>90.507637</ele><time>2021-10-23T14:06:28Z</time><extensions><speed>0.605549</speed><course>325.546875</course><hAcc>1.511912</hAcc><vAcc>1.410445</vAcc></extensions></trkpt>
      <trkpt lon="-82.146385" lat="33.556436"><ele>90.874489</ele><time>2021-10-23T14:06:28Z</time><extensions><speed>0.610179</speed><course>242.578125</course><hAcc>1.466614</hAcc><vAcc>1.362925</vAcc></extensions></trkpt>
      <trkpt lon="-82.146389" lat="33.556431"><ele>91.242004</ele><time>2021-10-23T14:06:29Z</time><extensions><speed>0.638062</speed><course>178.593750</course><hAcc>1.424025</hAcc><vAcc>1.321324</vAcc></extensions></trkpt>
      <trkpt lon="-82.146393" lat="33.556427"><ele>91.606232</ele><time>2021-10-23T14:06:30Z</time><extensions><speed>0.697936</speed><course>188.789062</course><hAcc>1.383695</hAcc><vAcc>1.284422</vAcc></extensions></trkpt>
      <trkpt lon="-82.146399" lat="33.556423"><ele>91.963615</ele><time>2021-10-23T14:06:31Z</time><extensions><speed>0.790636</speed><course>184.218750</course><hAcc>1.345866</hAcc><vAcc>1.251325</vAcc></extensions></trkpt>
      <trkpt lon="-82.146407" lat="33.556418"><ele>92.311218</ele><time>2021-10-23T14:06:32Z</time><extensions><speed>0.908064</speed><course>190.195312</course><hAcc>1.311049</hAcc><vAcc>1.221468</vAcc></extensions></trkpt>
      <trkpt lon="-82.146417" lat="33.556414"><ele>92.647148</ele><time>2021-10-23T14:06:33Z</time><extensions><speed>1.038627</speed><course>226.054688</course><hAcc>1.279707</hAcc><vAcc>1.194509</vAcc></extensions></trkpt>
      <trkpt lon="-82.146427" lat="33.556411"><ele>92.970459</ele><time>2021-10-23T14:06:34Z</time><extensions><speed>1.171384</speed><course>223.242188</course><hAcc>1.252066</hAcc><vAcc>1.170172</vAcc></extensions></trkpt>
      <trkpt lon="-82.146440" lat="33.556407"><ele>93.280731</ele><time>2021-10-23T14:06:35Z</time><extensions><speed>1.298453</speed><course>220.078125</course><hAcc>1.228062</hAcc><vAcc>1.148161</vAcc></extensions></trkpt>
      <trkpt lon="-82.146454" lat="33.556403"><ele>93.577721</ele><time>2021-10-23T14:06:36Z</time><extensions><speed>1.414749</speed><course>214.101562</course><hAcc>1.207391</hAcc><vAcc>1.128146</vAcc></extensions></trkpt>
      <trkpt lon="-82.146469" lat="33.556400"><ele>93.860779</ele><time>2021-10-23T14:06:37Z</time><extensions><speed>1.516640</speed><course>223.945312</course><hAcc>1.189576</hAcc><vAcc>1.109759</vAcc></extensions></trkpt>
      <trkpt lon="-82.146485" lat="33.556396"><ele>94.128876</ele><time>2021-10-23T14:06:38Z</time><extensions><speed>1.600669</speed><course>251.015625</course><hAcc>1.174042</hAcc><vAcc>1.092605</vAcc></extensions></trkpt>
      <trkpt lon="-82.146502" lat="33.556392"><ele>94.380852</ele><time>2021-10-23T14:06:39Z</time><extensions><speed>1.663820</speed><course>260.859375</course><hAcc>1.160171</hAcc><vAcc>1.076272</vAcc></extensions></trkpt>
      <trkpt lon="-82.146520" lat="33.556389"><ele>94.615761</ele><time>2021-10-23T14:06:40Z</time><extensions><speed>1.704855</speed><course>256.992188</course><hAcc>1.147361</hAcc><vAcc>1.060354</vAcc></extensions></trkpt>
      <trkpt lon="-82.146538" lat="33.556385"><ele>94.832909</ele><time>2021-10-23T14:06:41Z</time><extensions><speed>1.724836</speed><course>246.445312</course><hAcc>1.135059</hAcc><vAcc>1.044470</vAcc></extensions></trkpt>
      <trkpt lon="-82.146556" lat="33.556381"><ele>95.031693</ele><time>2021-10-23T14:06:42Z</time><extensions><speed>1.726235</speed><course>240.820312</course><hAcc>1.122795</hAcc><vAcc>1.028292</vAcc></extensions></trkpt>
      <trkpt lon="-82.146574" lat="33.556376"><ele>95.211571</ele><time>2021-10-23T14:06:43Z</time><extensions><speed>1.712139</speed><course>248.203125</course><hAcc>1.110209</hAcc><vAcc>1.011574</vAcc></extensions></trkpt>
      <trkpt lon="-82.146591" lat="33.556372"><ele>95.372055</ele><time>2021-10-23T14:06:44Z</time><extensions><speed>1.686442</speed><course>242.929688</course><hAcc>1.097074</hAcc><vAcc>0.994179</vAcc></extensions></trkpt>
      <trkpt lon="-82.146608" lat="33.556367"><ele>95.512543</ele><time>2021-10-23T14:06:45Z</time><extensions><speed>1.653628</speed><course>238.359375</course><hAcc>1.083326</hAcc><vAcc>0.976116</vAcc></extensions></trkpt>
      <trkpt lon="-82.146625" lat="33.556363"><ele>95.632339</ele><time>2021-10-23T14:06:46Z</time><extensions><speed>1.617975</speed><course>226.757812</course><hAcc>1.069085</hAcc><vAcc>0.957570</vAcc></extensions></trkpt>
      <trkpt lon="-82.146641" lat="33.556358"><ele>95.730797</ele><time>2021-10-23T14:06:47Z</time><extensions><speed>1.583134</speed><course>232.382812</course><hAcc>1.054678</hAcc><vAcc>0.938931</vAcc></extensions></trkpt>
      <trkpt lon="-82.146657" lat="33.556352"><ele>95.807396</ele><time>2021-10-23T14:06:48Z</time><extensions><speed>1.551808</speed><course>236.601562</course><hAcc>1.040649</hAcc><vAcc>0.920805</vAcc></extensions></trkpt>
      <trkpt lon="-82.146672" lat="33.556347"><ele>95.861946</ele><time>2021-10-23T14:06:49Z</time><extensions><speed>1.525162</speed><course>236.250000</course><hAcc>1.027632</hAcc><vAcc>0.903895</vAcc></extensions></trkpt>
      <trkpt lon="-82.146687" lat="33.556342"><ele>95.895004</ele><time>2021-10-23T14:06:50Z</time><extensions><speed>1.502464</speed><course>241.875000</course><hAcc>1.016113</hAcc><vAcc>0.888748</vAcc></extensions></trkpt>
      <trkpt lon="-82.146702" lat="33.556336"><ele>95.908211</ele><time>2021-10-23T14:06:51Z</time><extensions><speed>1.482051</speed><course>240.117188</course><hAcc>1.006313</hAcc><vAcc>0.875641</vAcc></extensions></trkpt>
      <trkpt lon="-82.146716" lat="33.556331"><ele>95.904297</ele><time>2021-10-23T14:06:52Z</time><extensions><speed>1.462322</speed><course>245.039062</course><hAcc>0.998214</hAcc><vAcc>0.864595</vAcc></extensions></trkpt>
      <trkpt lon="-82.146731" lat="33.556326"><ele>95.886726</ele><time>2021-10-23T14:06:53Z</time><extensions><speed>1.442862</speed><course>216.210938</course><hAcc>0.991605</hAcc><vAcc>0.855418</vAcc></extensions></trkpt>
      <trkpt lon="-82.146745" lat="33.556321"><ele>95.859253</ele><time>2021-10-23T14:06:54Z</time><extensions><speed>1.424914</speed><course>262.265625</course><hAcc>0.986146</hAcc><vAcc>0.847770</vAcc></extensions></trkpt>
      <trkpt lon="-82.146759" lat="33.556316"><ele>95.825584</ele><time>2021-10-23T14:06:55Z</time><extensions><speed>1.410054</speed><course>240.117188</course><hAcc>0.981533</hAcc><vAcc>0.841334</vAcc></extensions></trkpt>
      <trkpt lon="-82.146773" lat="33.556312"><ele>95.789177</ele><time>2021-10-23T14:06:56Z</time><extensions><speed>1.399628</speed><course>229.218750</course><hAcc>0.977655</hAcc><vAcc>0.835972</vAcc></extensions></trkpt>
      <trkpt lon="-82.146788" lat="33.556308"><ele>95.753204</ele><time>2021-10-23T14:06:57Z</time><extensions><speed>1.395172</speed><course>211.289062</course><hAcc>0.974498</hAcc><vAcc>0.831648</vAcc></extensions></trkpt>
      <trkpt lon="-82.146802" lat="33.556305"><ele>95.720444</ele><time>2021-10-23T14:06:58Z</time><extensions><speed>1.398042</speed><course>220.781250</course><hAcc>0.972050</hAcc><vAcc>0.828316</vAcc></extensions></trkpt>
      <trkpt lon="-82.146817" lat="33.556302"><ele>95.693138</ele><time>2021-10-23T14:06:59Z</time><extensions><speed>1.408696</speed><course>228.164062</course><hAcc>0.970291</hAcc><vAcc>0.825927</vAcc></extensions></trkpt>
      <trkpt lon="-82.146832" lat="33.556300"><ele>95.672874</ele><time>2021-10-23T14:07:00Z</time><extensions><speed>1.426545</speed><course>232.382812</course><hAcc>0.969198</hAcc><vAcc>0.824424</vAcc></extensions></trkpt>
      <trkpt lon="-82.146847" lat="33.556299"><ele>95.660706</ele><time>2021-10-23T14:07:01Z</time><extensions><speed>1.449997</speed><course>246.445312</course><hAcc>0.968745</hAcc><vAcc>0.823746</vAcc></extensions></trkpt>
      <trkpt lon="-82.146863" lat="33.556299"><ele>95.657387</ele><time>2021-10-23T14:07:02Z</time><extensions><speed>1.476736</speed><course>259.804688</course><hAcc>0.968904</hAcc><vAcc>0.823824</vAcc></extensions></trkpt>
      <trkpt lon="-82.146879" lat="33.556299"><ele>95.663498</ele><time>2021-10-23T14:07:03Z</time><extensions><speed>1.504350</speed><course>267.539062</course><hAcc>0.969646</hAcc><vAcc>0.824579</vAcc></extensions></trkpt>
      <trkpt lon="-82.146896" lat="33.556301"><ele>95.679466</ele><time>2021-10-23T14:07:04Z</time><extensions><speed>1.531056</speed><course>267.890625</course><hAcc>0.970935</hAcc><vAcc>0.825918</vAcc></extensions></trkpt>
      <trkpt lon="-82.146912" lat="33.556303"><ele>95.705452</ele><time>2021-10-23T14:07:05Z</time><extensions><speed>1.555629</speed><course>277.734375</course><hAcc>0.972728</hAcc><vAcc>0.827725</vAcc></extensions></trkpt>
      <trkpt lon="-82.146928" lat="33.556306"><ele>95.741356</ele><time>2021-10-23T14:07:06Z</time><extensions><speed>1.576413</speed><course>292.851562</course><hAcc>0.974968</hAcc><vAcc>0.829859</vAcc></extensions></trkpt>
      <trkpt lon="-82.146945" lat="33.556310"><ele>95.787041</ele><time>2021-10-23T14:07:07Z</time><extensions><speed>1.591124</speed><course>307.617188</course><hAcc>0.977579</hAcc><vAcc>0.832149</vAcc></extensions></trkpt>
      <trkpt lon="-82.146961" lat="33.556315"><ele>95.842445</ele><time>2021-10-23T14:07:08Z</time><extensions><speed>1.597177</speed><course>285.117188</course><hAcc>0.980468</hAcc><vAcc>0.834399</vAcc></extensions></trkpt>
      <trkpt lon="-82.146977" lat="33.556320"><ele>95.907585</ele><time>2021-10-23T14:07:09Z</time><extensions><speed>1.592079</speed><course>277.734375</course><hAcc>0.983620</hAcc><vAcc>0.836498</vAcc></extensions></trkpt>
      <trkpt lon="-82.146992" lat="33.556326"><ele>95.982384</ele><time>2021-10-23T14:07:10Z</time><extensions><speed>1.574240</speed><course>276.679688</course><hAcc>0.987182</hAcc><vAcc>0.838517</vAcc></extensions></trkpt>
      <trkpt lon="-82.147007" lat="33.556333"><ele>96.066444</ele><time>2021-10-23T14:07:11Z</time><extensions><speed>1.543247</speed><course>288.984375</course><hAcc>0.991309</hAcc><vAcc>0.840578</vAcc></extensions></trkpt>
      <trkpt lon="-82.147021" lat="33.556340"><ele>96.159042</ele><time>2021-10-23T14:07:12Z</time><extensions><speed>1.499451</speed><course>297.773438</course><hAcc>0.995994</hAcc><vAcc>0.842715</vAcc></extensions></trkpt>
      <trkpt lon="-82.147034" lat="33.556348"><ele>96.259140</ele><time>2021-10-23T14:07:13Z</time><extensions><speed>1.443896</speed><course>309.375000</course><hAcc>1.001008</hAcc><vAcc>0.844839</vAcc></extensions></trkpt>
      <trkpt lon="-82.147046" lat="33.556356"><ele>96.365562</ele><time>2021-10-23T14:07:14Z</time><extensions><speed>1.378443</speed><course>319.921875</course><hAcc>1.005862</hAcc><vAcc>0.846732</vAcc></extensions></trkpt>
      <trkpt lon="-82.147057" lat="33.556364"><ele>96.477203</ele><time>2021-10-23T14:07:15Z</time><extensions><speed>1.305344</speed><course>326.953125</course><hAcc>1.009806</hAcc><vAcc>0.848049</vAcc></extensions></trkpt>
      <trkpt lon="-82.147066" lat="33.556372"><ele>96.592957</ele><time>2021-10-23T14:07:16Z</time><extensions><speed>1.226743</speed><course>321.679688</course><hAcc>1.011874</hAcc><vAcc>0.848348</vAcc></extensions></trkpt>
      <trkpt lon="-82.147075" lat="33.556380"><ele>96.711678</ele><time>2021-10-23T14:07:17Z</time><extensions><speed>1.144110</speed><course>329.414062</course><hAcc>1.011294</hAcc><vAcc>0.847266</vAcc></extensions></trkpt>
      <trkpt lon="-82.147082" lat="33.556388"><ele>96.832176</ele><time>2021-10-23T14:07:18Z</time><extensions><speed>1.058736</speed><course>333.632812</course><hAcc>1.008201</hAcc><vAcc>0.844834</vAcc></extensions></trkpt>
      <trkpt lon="-82.147087" lat="33.556396"><ele>96.953300</ele><time>2021-10-23T14:07:19Z</time><extensions><speed>0.973791</speed><course>341.367188</course><hAcc>1.003664</hAcc><vAcc>0.841484</vAcc></extensions></trkpt>
      <trkpt lon="-82.147091" lat="33.556403"><ele>97.074074</ele><time>2021-10-23T14:07:20Z</time><extensions><speed>0.893625</speed><course>293.554688</course><hAcc>0.999029</hAcc><vAcc>0.837762</vAcc></extensions></trkpt>
      <trkpt lon="-82.147094" lat="33.556411"><ele>97.193878</ele><time>2021-10-23T14:07:21Z</time><extensions><speed>0.822051</speed><course>267.539062</course><hAcc>0.995557</hAcc><vAcc>0.834160</vAcc></extensions></trkpt>
      <trkpt lon="-82.147096" lat="33.556418"><ele>97.312386</ele><time>2021-10-23T14:07:22Z</time><extensions><speed>0.762053</speed><course>296.015625</course><hAcc>0.994388</hAcc><vAcc>0.831100</vAcc></extensions></trkpt>
      <trkpt lon="-82.147097" lat="33.556424"><ele>97.429413</ele><time>2021-10-23T14:07:23Z</time><extensions><speed>0.715440</speed><course>326.250000</course><hAcc>0.996532</hAcc><vAcc>0.828933</vAcc></extensions></trkpt>
      <trkpt lon="-82.147096" lat="33.556431"><ele>97.544708</ele><time>2021-10-23T14:07:24Z</time><extensions><speed>0.681315</speed><course>328.007812</course><hAcc>1.002853</hAcc><vAcc>0.827938</vAcc></extensions></trkpt>
      <trkpt lon="-82.147094" lat="33.556436"><ele>97.657745</ele><time>2021-10-23T14:07:25Z</time><extensions><speed>0.655040</speed><course>16.875000</course><hAcc>1.014008</hAcc><vAcc>0.828320</vAcc></extensions></trkpt>
      <trkpt lon="-82.147092" lat="33.556442"><ele>97.767609</ele><time>2021-10-23T14:07:26Z</time><extensions><speed>0.630275</speed><course>10.195312</course><hAcc>1.030358</hAcc><vAcc>0.830207</vAcc></extensions></trkpt>
      <trkpt lon="-82.147089" lat="33.556447"><ele>97.873230</ele><time>2021-10-23T14:07:27Z</time><extensions><speed>0.602394</speed><course>10.195312</course><hAcc>1.051835</hAcc><vAcc>0.833634</vAcc></extensions></trkpt>
      <trkpt lon="-82.147086" lat="33.556451"><ele>97.973846</ele><time>2021-10-23T14:07:28Z</time><extensions><speed>0.570231</speed><course>10.195312</course><hAcc>1.077794</hAcc><vAcc>0.838517</vAcc></extensions></trkpt>
      <trkpt lon="-82.147082" lat="33.556455"><ele>98.069328</ele><time>2021-10-23T14:07:29Z</time><extensions><speed>0.535587</speed><course>10.195312</course><hAcc>1.106821</hAcc><vAcc>0.844516</vAcc></extensions></trkpt>
      <trkpt lon="-82.147079" lat="33.556459"><ele>98.159950</ele><time>2021-10-23T14:07:30Z</time><extensions><speed>0.499997</speed><course>26.367188</course><hAcc>1.136915</hAcc><vAcc>0.850998</vAcc></extensions></trkpt>
      <trkpt lon="-82.147075" lat="33.556462"><ele>98.246048</ele><time>2021-10-23T14:07:31Z</time><extensions><speed>0.463650</speed><course>52.031250</course><hAcc>1.166237</hAcc><vAcc>0.857347</vAcc></extensions></trkpt>
      <trkpt lon="-82.147072" lat="33.556465"><ele>98.327888</ele><time>2021-10-23T14:07:32Z</time><extensions><speed>0.427071</speed><course>27.773438</course><hAcc>1.193532</hAcc><vAcc>0.863185</vAcc></extensions></trkpt>
      <trkpt lon="-82.147069" lat="33.556468"><ele>98.405731</ele><time>2021-10-23T14:07:33Z</time><extensions><speed>0.390989</speed><course>27.773438</course><hAcc>1.218054</hAcc><vAcc>0.868324</vAcc></extensions></trkpt>
      <trkpt lon="-82.147065" lat="33.556470"><ele>98.479858</ele><time>2021-10-23T14:07:34Z</time><extensions><speed>0.356046</speed><course>27.773438</course><hAcc>1.239432</hAcc><vAcc>0.872653</vAcc></extensions></trkpt>
      <trkpt lon="-82.147063" lat="33.556472"><ele>98.550606</ele><time>2021-10-23T14:07:35Z</time><extensions><speed>0.322738</speed><course>27.773438</course><hAcc>1.257552</hAcc><vAcc>0.876072</vAcc></extensions></trkpt>
      <trkpt lon="-82.147060" lat="33.556473"><ele>98.618408</ele><time>2021-10-23T14:07:36Z</time><extensions><speed>0.291427</speed><course>27.773438</course><hAcc>1.272511</hAcc><vAcc>0.878535</vAcc></extensions></trkpt>
      <trkpt lon="-82.147058" lat="33.556475"><ele>98.683662</ele><time>2021-10-23T14:07:37Z</time><extensions><speed>0.262390</speed><course>27.773438</course><hAcc>1.284603</hAcc><vAcc>0.880153</vAcc></extensions></trkpt>
      <trkpt lon="-82.147055" lat="33.556476"><ele>98.746712</ele><time>2021-10-23T14:07:38Z</time><extensions><speed>0.235845</speed><course>27.773438</course><hAcc>1.294291</hAcc><vAcc>0.881234</vAcc></extensions></trkpt>
      <trkpt lon="-82.147053" lat="33.556477"><ele>98.807823</ele><time>2021-10-23T14:07:39Z</time><extensions><speed>0.211959</speed><course>27.773438</course><hAcc>1.302134</hAcc><vAcc>0.882225</vAcc></extensions></trkpt>
      <trkpt lon="-82.147052" lat="33.556478"><ele>98.867279</ele><time>2021-10-23T14:07:40Z</time><extensions><speed>0.190847</speed><course>27.773438</course><hAcc>1.308705</hAcc><vAcc>0.883590</vAcc></extensions></trkpt>
      <trkpt lon="-82.147050" lat="33.556479"><ele>98.925301</ele><time>2021-10-23T14:07:41Z</time><extensions><speed>0.172585</speed><course>27.773438</course><hAcc>1.314527</hAcc><vAcc>0.885736</vAcc></extensions></trkpt>
      <trkpt lon="-82.147049" lat="33.556480"><ele>98.982071</ele><time>2021-10-23T14:07:42Z</time><extensions><speed>0.157163</speed><course>27.773438</course><hAcc>1.320052</hAcc><vAcc>0.888995</vAcc></extensions></trkpt>
      <trkpt lon="-82.147048" lat="33.556481"><ele>99.037727</ele><time>2021-10-23T14:07:43Z</time><extensions><speed>0.144416</speed><course>27.773438</course><hAcc>1.325645</hAcc><vAcc>0.893605</vAcc></extensions></trkpt>
      <trkpt lon="-82.147047" lat="33.556482"><ele>99.092346</ele><time>2021-10-23T14:07:44Z</time><extensions><speed>0.133945</speed><course>27.773438</course><hAcc>1.331567</hAcc><vAcc>0.899694</vAcc></extensions></trkpt>
      <trkpt lon="-82.147046" lat="33.556483"><ele>99.145920</ele><time>2021-10-23T14:07:45Z</time><extensions><speed>0.125065</speed><course>27.773438</course><hAcc>1.337967</hAcc><vAcc>0.907268</vAcc></extensions></trkpt>
      <trkpt lon="-82.147046" lat="33.556484"><ele>99.198296</ele><time>2021-10-23T14:07:46Z</time><extensions><speed>0.116814</speed><course>118.476562</course><hAcc>1.344877</hAcc><vAcc>0.916199</vAcc></extensions></trkpt>
      <trkpt lon="-82.147045" lat="33.556485"><ele>99.249229</ele><time>2021-10-23T14:07:47Z</time><extensions><speed>0.108008</speed><course>125.156250</course><hAcc>1.352207</hAcc><vAcc>0.926220</vAcc></extensions></trkpt>
      <trkpt lon="-82.147045" lat="33.556486"><ele>99.298454</ele><time>2021-10-23T14:07:48Z</time><extensions><speed>0.098343</speed><course>359.648438</course><hAcc>1.359779</hAcc><vAcc>0.936979</vAcc></extensions></trkpt>
      <trkpt lon="-82.147045" lat="33.556487"><ele>99.345749</ele><time>2021-10-23T14:07:49Z</time><extensions><speed>0.088434</speed><course>359.648438</course><hAcc>1.367392</hAcc><vAcc>0.948147</vAcc></extensions></trkpt>
      <trkpt lon="-82.147045" lat="33.556488"><ele>99.390831</ele><time>2021-10-23T14:07:50Z</time><extensions><speed>0.078740</speed><course>359.648438</course><hAcc>1.374867</hAcc><vAcc>0.959478</vAcc></extensions></trkpt>
      <trkpt lon="-82.147045" lat="33.556489"><ele>99.433342</ele><time>2021-10-23T14:07:51Z</time><extensions><speed>0.069487</speed><course>359.648438</course><hAcc>1.382071</hAcc><vAcc>0.970804</vAcc></extensions></trkpt>
      <trkpt lon="-82.147045" lat="33.556489"><ele>99.472778</ele><time>2021-10-23T14:07:52Z</time><extensions><speed>0.060590</speed><course>161.367188</course><hAcc>1.388953</hAcc><vAcc>0.982044</vAcc></extensions></trkpt>
      <trkpt lon="-82.147046" lat="33.556490"><ele>99.508598</ele><time>2021-10-23T14:07:53Z</time><extensions><speed>0.052094</speed><course>150.468750</course><hAcc>1.395597</hAcc><vAcc>0.993213</vAcc></extensions></trkpt>
      <trkpt lon="-82.147046" lat="33.556490"><ele>99.540405</ele><time>2021-10-23T14:07:54Z</time><extensions><speed>0.044348</speed><course>140.625000</course><hAcc>1.402288</hAcc><vAcc>1.004442</vAcc></extensions></trkpt>
      <trkpt lon="-82.147046" lat="33.556490"><ele>99.568138</ele><time>2021-10-23T14:07:56Z</time><extensions><speed>0.037573</speed><course>132.890625</course><hAcc>1.409614</hAcc><vAcc>1.016029</vAcc></extensions></trkpt>
      <trkpt lon="-82.147047" lat="33.556490"><ele>99.591904</ele><time>2021-10-23T14:07:57Z</time><extensions><speed>0.032097</speed><course>132.890625</course><hAcc>1.418590</hAcc><vAcc>1.028476</vAcc></extensions></trkpt>
      <trkpt lon="-82.147047" lat="33.556490"><ele>99.612122</ele><time>2021-10-23T14:07:58Z</time><extensions><speed>0.028405</speed><course>132.890625</course><hAcc>1.430861</hAcc><vAcc>1.042650</vAcc></extensions></trkpt>
      <trkpt lon="-82.147047" lat="33.556490"><ele>99.629295</ele><time>2021-10-23T14:07:59Z</time><extensions><speed>0.026990</speed><course>132.890625</course><hAcc>1.448840</hAcc><vAcc>1.059888</vAcc></extensions></trkpt>
      <trkpt lon="-82.147048" lat="33.556490"><ele>99.643929</ele><time>2021-10-23T14:08:00Z</time><extensions><speed>0.027919</speed><course>132.890625</course><hAcc>1.475939</hAcc><vAcc>1.082254</vAcc></extensions></trkpt>
      <trkpt lon="-82.147048" lat="33.556490"><ele>99.656479</ele><time>2021-10-23T14:08:01Z</time><extensions><speed>0.030660</speed><course>132.890625</course><hAcc>1.516620</hAcc><vAcc>1.112636</vAcc></extensions></trkpt>
      <trkpt lon="-82.147048" lat="33.556490"><ele>99.667274</ele><time>2021-10-23T14:08:02Z</time><extensions><speed>0.034422</speed><course>132.890625</course><hAcc>1.576190</hAcc><vAcc>1.154659</vAcc></extensions></trkpt>
      <trkpt lon="-82.147048" lat="33.556489"><ele>99.676529</ele><time>2021-10-23T14:08:03Z</time><extensions><speed>0.038507</speed><course>132.890625</course><hAcc>1.660349</hAcc><vAcc>1.212417</vAcc></extensions></trkpt>
      <trkpt lon="-82.147048" lat="33.556489"><ele>99.684364</ele><time>2021-10-23T14:08:04Z</time><extensions><speed>0.042387</speed><course>132.890625</course><hAcc>1.774534</hAcc><vAcc>1.290055</vAcc></extensions></trkpt>
      <trkpt lon="-82.147048" lat="33.556489"><ele>99.690865</ele><time>2021-10-23T14:08:05Z</time><extensions><speed>0.045648</speed><course>132.890625</course><hAcc>1.923183</hAcc><vAcc>1.391185</vAcc></extensions></trkpt>
      <trkpt lon="-82.147048" lat="33.556488"><ele>99.696190</ele><time>2021-10-23T14:08:06Z</time><extensions><speed>0.047943</speed><course>169.453125</course><hAcc>2.109130</hAcc><vAcc>1.518308</vAcc></extensions></trkpt>
      <trkpt lon="-82.147048" lat="33.556488"><ele>99.700645</ele><time>2021-10-23T14:08:07Z</time><extensions><speed>0.049146</speed><course>187.031250</course><hAcc>2.333377</hAcc><vAcc>1.672533</vAcc></extensions></trkpt>
      <trkpt lon="-82.147048" lat="33.556487"><ele>99.704643</ele><time>2021-10-23T14:08:08Z</time><extensions><speed>0.049483</speed><course>177.539062</course><hAcc>2.595172</hAcc><vAcc>1.853590</vAcc></extensions></trkpt>
    </trkseg>
  </trk>
</gpx>