<?xml version="1.0" encoding="UTF-8"?>
<gpx version="1.1" creator="Apple Health Export" xmlns="http://www.topografix.com/GPX/1/1" xmlns:xsi="http://www.w3.org/2001/XMLSchema-instance" xsi:schemaLocation="http://www.topografix.com/GPX/1/1 http://www.topografix.com/GPX/1/1/gpx.xsd">
  <metadata>
    <time>2026-03-14T12:15:44Z</time>
  </metadata>
  <trk>
    <name>Route 2021-10-14 2:48pm</name>
    <trkseg>
      <trkpt lon="-81.983748" lat="33.469884"><ele>45.520351</ele><time>2021-10-14T18:47:18Z</time><extensions><speed>0.000000</speed><course>-1.000000</course><hAcc>10.000000</hAcc><vAcc>48.000000</vAcc></extensions></trkpt>
      <trkpt lon="-81.983748" lat="33.469884"><ele>45.894131</ele><time>2021-10-14T18:47:19Z</time><extensions><speed>0.000000</speed><course>-1.000000</course><hAcc>10.000000</hAcc><vAcc>12.000000</vAcc></extensions></trkpt>
      <trkpt lon="-81.983748" lat="33.469884"><ele>45.894131</ele><time>2021-10-14T18:47:20Z</time><extensions><speed>0.000000</speed><course>-1.000000</course><hAcc>10.000000</hAcc><vAcc>12.000000</vAcc></extensions></trkpt>
      <trkpt lon="-81.983748" lat="33.469884"><ele>45.894192</ele><time>2021-10-14T18:47:21Z</time><extensions><speed>0.000000</speed><course>-1.000000</course><hAcc>10.000000</hAcc><vAcc>12.000000</vAcc></extensions></trkpt>
      <trkpt lon="-81.983748" lat="33.469884"><ele>45.894192</ele><time>2021-10-14T18:47:22Z</time><extensions><speed>0.000000</speed><course>-1.000000</course><hAcc>10.000000</hAcc><vAcc>12.000000</vAcc></extensions></trkpt>
      <trkpt lon="-81.983748" lat="33.469884"><ele>45.894070</ele><time>2021-10-14T18:47:23Z</time><extensions><speed>0.000000</speed><course>-1.000000</course><hAcc>10.000000</hAcc><vAcc>12.000000</vAcc></extensions></trkpt>
      <trkpt lon="-81.983748" lat="33.469884"><ele>45.893642</ele><time>2021-10-14T18:47:24Z</time><extensions><speed>0.000000</speed><course>-1.000000</course><hAcc>10.000000</hAcc><vAcc>12.000000</vAcc></extensions></trkpt>
      <trkpt lon="-81.983748" lat="33.469884"><ele>45.893948</ele><time>2021-10-14T18:47:25Z</time><extensions><speed>0.000000</speed><course>-1.000000</course><hAcc>10.000000</hAcc><vAcc>12.000000</vAcc></extensions></trkpt>
      <trkpt lon="-81.983748" lat="33.469884"><ele>45.894009</ele><time>2021-10-14T18:47:26Z</time><extensions><speed>0.000000</speed><course>-1.000000</course><hAcc>10.000000</hAcc><vAcc>12.000000</vAcc></extensions></trkpt>
      <trkpt lon="-81.983748" lat="33.469884"><ele>45.894253</ele><time>2021-10-14T18:47:27Z</time><extensions><speed>0.000000</speed><course>-1.000000</course><hAcc>10.000000</hAcc><vAcc>12.000000</vAcc></extensions></trkpt>
      <trkpt lon="-81.983748" lat="33.469884"><ele>45.894253</ele><time>2021-10-14T18:47:28Z</time><extensions><speed>0.000000</speed><course>-1.000000</course><hAcc>10.000000</hAcc><vAcc>12.000000</vAcc></extensions></trkpt>
      <trkpt lon="-81.983748" lat="33.469884"><ele>45.894070</ele><time>2021-10-14T18:47:29Z</time><extensions><speed>0.000000</speed><course>-1.000000</course><hAcc>10.000000</hAcc><vAcc>12.000000</vAcc></extensions></trkpt>
      <trkpt lon="-81.983748" lat="33.469884"><ele>45.894009</ele><time>2021-10-14T18:47:30Z</time><extensions><speed>0.000000</speed><course>-1.000000</course><hAcc>10.000000</hAcc><vAcc>12.000000</vAcc></extensions></trkpt>
      <trkpt lon="-81.983748" lat="33.469884"><ele>45.894009</ele><time>2021-10-14T18:47:31Z</time><extensions><speed>0.000000</speed><course>-1.000000</course><hAcc>10.000000</hAcc><vAcc>12.000000</vAcc></extensions></trkpt>
      <trkpt lon="-81.983748" lat="33.469884"><ele>45.894009</ele><time>2021-10-14T18:47:32Z</time><extensions><speed>0.000000</speed><course>-1.000000</course><hAcc>10.000000</hAcc><vAcc>12.000000</vAcc></extensions></trkpt>
      <trkpt lon="-81.983748" lat="33.469884"><ele>45.894009</ele><time>2021-10-14T18:47:33Z</time><extensions><speed>0.000000</speed><course>-1.000000</course><hAcc>10.000000</hAcc><vAcc>12.000000</vAcc></extensions></trkpt>
      <trkpt lon="-81.983748" lat="33.469884"><ele>45.893948</ele><time>2021-10-14T18:47:34Z</time><extensions><speed>0.000000</speed><course>-1.000000</course><hAcc>10.000000</hAcc><vAcc>12.000000</vAcc></extensions></trkpt>
      <trkpt lon="-81.983748" lat="33.469884"><ele>45.893948</ele><time>2021-10-14T18:47:35Z</time><extensions><speed>0.000000</speed><course>-1.000000</course><hAcc>10.000000</hAcc><vAcc>12.000000</vAcc></extensions></trkpt>
      <trkpt lon="-81.983748" lat="33.469884"><ele>45.893887</ele><time>2021-10-14T18:47:36Z</time><extensions><speed>0.000000</speed><course>-1.000000</course><hAcc>10.000000</hAcc><vAcc>12.000000</vAcc></extensions></trkpt>
      <trkpt lon="-81.983748" lat="33.469884"><ele>45.893887</ele><time>2021-10-14T18:47:37Z</time><extensions><speed>0.000000</speed><course>-1.000000</course><hAcc>10.000000</hAcc><vAcc>12.000000</vAcc></extensions></trkpt>
      <trkpt lon="-81.983748" lat="33.469884"><ele>45.893703</ele><time>2021-10-14T18:47:38Z</time><extensions><speed>0.000000</speed><course>-1.000000</course><hAcc>10.000000</hAcc><vAcc>12.000000</vAcc></extensions></trkpt>
      <trkpt lon="-81.983748" lat="33.469884"><ele>45.893887</ele><time>2021-10-14T18:47:39Z</time><extensions><speed>0.000000</speed><course>-1.000000</course><hAcc>10.000000</hAcc><vAcc>12.000000</vAcc></extensions></trkpt>
      <trkpt lon="-81.983748" lat="33.469884"><ele>45.893887</ele><time>2021-10-14T18:47:40Z</time><extensions><speed>0.000000</speed><course>-1.000000</course><hAcc>10.000000</hAcc><vAcc>12.000000</vAcc></extensions></trkpt>
      <trkpt lon="-81.983748" lat="33.469884"><ele>45.893887</ele><time>2021-10-14T18:47:41Z</time><extensions><speed>0.000000</speed><course>-1.000000</course><hAcc>10.000000</hAcc><vAcc>12.000000</vAcc></extensions></trkpt>
      <trkpt lon="-81.983748" lat="33.469884"><ele>45.893887</ele><time>2021-10-14T18:47:42Z</time><extensions><speed>0.000000</speed><course>-1.000000</course><hAcc>10.000000</hAcc><vAcc>12.000000</vAcc></extensions></trkpt>
      <trkpt lon="-81.983748" lat="33.469884"><ele>45.893948</ele><time>2021-10-14T18:47:43Z</time><extensions><speed>0.000000</speed><course>-1.000000</course><hAcc>10.000000</hAcc><vAcc>12.000000</vAcc></extensions></trkpt>
      <trkpt lon="-81.983748" lat="33.469884"><ele>45.893764</ele><time>2021-10-14T18:47:44Z</time><extensions><speed>0.000000</speed><course>-1.000000</course><hAcc>10.000000</hAcc><vAcc>12.000000</vAcc></extensions></trkpt>
      <trkpt lon="-81.983748" lat="33.469884"><ele>45.893764</ele><time>2021-10-14T18:47:45Z</time><extensions><speed>0.000000</speed><course>-1.000000</course><hAcc>10.000000</hAcc><vAcc>12.000000</vAcc></extensions></trkpt>
      <trkpt lon="-81.983748" lat="33.469884"><ele>45.893826</ele><time>2021-10-14T18:47:46Z</time><extensions><speed>0.000000</speed><course>-1.000000</course><hAcc>10.000000</hAcc><vAcc>12.000000</vAcc></extensions></trkpt>
      <trkpt lon="-81.983748" lat="33.469884"><ele>45.893764</ele><time>2021-10-14T18:47:47Z</time><extensions><speed>0.000000</speed><course>-1.000000</course><hAcc>10.000000</hAcc><vAcc>12.000000</vAcc></extensions></trkpt>
      <trkpt lon="-81.983748" lat="33.469884"><ele>45.893887</ele><time>2021-10-14T18:47:48Z</time><extensions><speed>0.000000</speed><course>-1.000000</course><hAcc>10.000000</hAcc><vAcc>12.000000</vAcc></extensions></trkpt>
      <trkpt lon="-81.983748" lat="33.469884"><ele>45.893887</ele><time>2021-10-14T18:47:49Z</time><extensions><speed>0.000000</speed><course>-1.000000</course><hAcc>10.000000</hAcc><vAcc>12.000000</vAcc></extensions></trkpt>
      <trkpt lon="-81.983748" lat="33.469884"><ele>45.865444</ele><time>2021-10-14T18:47:50Z</time><extensions><speed>0.000000</speed><course>-1.000000</course><hAcc>5.000000</hAcc><vAcc>12.000000</vAcc></extensions></trkpt>
      <trkpt lon="-81.983748" lat="33.469884"><ele>45.868801</ele><time>2021-10-14T18:47:51Z</time><extensions><speed>0.000000</speed><course>-1.000000</course><hAcc>5.000000</hAcc><vAcc>12.000000</vAcc></extensions></trkpt>
      <trkpt lon="-81.983748" lat="33.469884"><ele>45.863735</ele><time>2021-10-14T18:47:52Z</time><extensions><speed>0.000000</speed><course>-1.000000</course><hAcc>5.000000</hAcc><vAcc>12.000000</vAcc></extensions></trkpt>
      <trkpt lon="-81.983748" lat="33.469884"><ele>45.854885</ele><time>2021-10-14T18:47:53Z</time><extensions><speed>0.000000</speed><course>-1.000000</course><hAcc>5.000000</hAcc><vAcc>12.000000</vAcc></extensions></trkpt>
      <trkpt lon="-81.983748" lat="33.469884"><ele>45.845303</ele><time>2021-10-14T18:47:54Z</time><extensions><speed>0.000000</speed><course>-1.000000</course><hAcc>5.000000</hAcc><vAcc>12.000000</vAcc></extensions></trkpt>
      <trkpt lon="-81.983748" lat="33.469884"><ele>45.836208</ele><time>2021-10-14T18:47:55Z</time><extensions><speed>0.000000</speed><course>-1.000000</course><hAcc>5.000000</hAcc><vAcc>12.000000</vAcc></extensions></trkpt>
      <trkpt lon="-81.983748" lat="33.469884"><ele>45.822231</ele><time>2021-10-14T18:47:56Z</time><extensions><speed>0.000000</speed><course>-1.000000</course><hAcc>5.000000</hAcc><vAcc>12.000000</vAcc></extensions></trkpt>
      <trkpt lon="-81.983748" lat="33.469884"><ele>45.832119</ele><time>2021-10-14T18:47:57Z</time><extensions><speed>0.000000</speed><course>-1.000000</course><hAcc>5.000000</hAcc><vAcc>12.000000</vAcc></extensions></trkpt>
      <trkpt lon="-81.983748" lat="33.469884"><ele>45.823574</ele><time>2021-10-14T18:47:58Z</time><extensions><speed>0.000000</speed><course>-1.000000</course><hAcc>5.000000</hAcc><vAcc>12.000000</vAcc></extensions></trkpt>
      <trkpt lon="-81.983748" lat="33.469884"><ele>45.822842</ele><time>2021-10-14T18:47:59Z</time><extensions><speed>0.000000</speed><course>-1.000000</course><hAcc>5.000000</hAcc><vAcc>12.000000</vAcc></extensions></trkpt>
      <trkpt lon="-81.983748" lat="33.469884"><ele>45.818874</ele><time>2021-10-14T18:48:00Z</time><extensions><speed>0.000000</speed><course>-1.000000</course><hAcc>5.000000</hAcc><vAcc>12.000000</vAcc></extensions></trkpt>
      <trkpt lon="-81.983748" lat="33.469884"><ele>45.814053</ele><time>2021-10-14T18:48:01Z</time><extensions><speed>0.000000</speed><course>-1.000000</course><hAcc>5.000000</hAcc><vAcc>12.000000</vAcc></extensions></trkpt>
      <trkpt lon="-81.983748" lat="33.469884"><ele>45.799953</ele><time>2021-10-14T18:48:02Z</time><extensions><speed>0.000000</speed><course>-1.000000</course><hAcc>5.000000</hAcc><vAcc>12.000000</vAcc></extensions></trkpt>
      <trkpt lon="-81.983748" lat="33.469884"><ele>45.799221</ele><time>2021-10-14T18:48:03Z</time><extensions><speed>0.000000</speed><course>-1.000000</course><hAcc>5.000000</hAcc><vAcc>12.000000</vAcc></extensions></trkpt>
      <trkpt lon="-81.983748" lat="33.469884"><ele>45.795254</ele><time>2021-10-14T18:48:04Z</time><extensions><speed>0.000000</speed><course>-1.000000</course><hAcc>5.000000</hAcc><vAcc>12.000000</vAcc></extensions></trkpt>
      <trkpt lon="-81.983748" lat="33.469884"><ele>45.792751</ele><time>2021-10-14T18:48:05Z</time><extensions><speed>0.000000</speed><course>-1.000000</course><hAcc>5.000000</hAcc><vAcc>12.000000</vAcc></extensions></trkpt>
      <trkpt lon="-81.983748" lat="33.469884"><ele>45.793423</ele><time>2021-10-14T18:48:06Z</time><extensions><speed>0.000000</speed><course>-1.000000</course><hAcc>5.000000</hAcc><vAcc>12.000000</vAcc></extensions></trkpt>
      <trkpt lon="-81.983748" lat="33.469884"><ele>45.793850</ele><time>2021-10-14T18:48:07Z</time><extensions><speed>0.000000</speed><course>-1.000000</course><hAcc>5.000000</hAcc><vAcc>12.000000</vAcc></extensions></trkpt>
      <trkpt lon="-81.983748" lat="33.469884"><ele>45.794216</ele><time>2021-10-14T18:48:08Z</time><extensions><speed>0.000000</speed><course>-1.000000</course><hAcc>10.000000</hAcc><vAcc>12.000000</vAcc></extensions></trkpt>
      <trkpt lon="-81.983748" lat="33.469884"><ele>45.792263</ele><time>2021-10-14T18:48:09Z</time><extensions><speed>0.000000</speed><course>-1.000000</course><hAcc>10.000000</hAcc><vAcc>12.000000</vAcc></extensions></trkpt>
      <trkpt lon="-81.983748" lat="33.469884"><ele>45.785061</ele><time>2021-10-14T18:48:10Z</time><extensions><speed>0.000000</speed><course>-1.000000</course><hAcc>10.000000</hAcc><vAcc>12.000000</vAcc></extensions></trkpt>
      <trkpt lon="-81.983748" lat="33.469884"><ele>45.788113</ele><time>2021-10-14T18:48:11Z</time><extensions><speed>0.000000</speed><course>-1.000000</course><hAcc>10.000000</hAcc><vAcc>12.000000</vAcc></extensions></trkpt>
      <trkpt lon="-81.983748" lat="33.469884"><ele>45.347012</ele><time>2021-10-14T18:48:12Z</time><extensions><speed>0.000000</speed><course>-1.000000</course><hAcc>10.000000</hAcc><vAcc>12.000000</vAcc></extensions></trkpt>
      <trkpt lon="-81.983748" lat="33.469884"><ele>45.389736</ele><time>2021-10-14T18:48:13Z</time><extensions><speed>0.000000</speed><course>-1.000000</course><hAcc>10.000000</hAcc><vAcc>12.000000</vAcc></extensions></trkpt>
      <trkpt lon="-81.983747" lat="33.469887"><ele>44.862392</ele><time>2021-10-14T18:48:14Z</time><extensions><speed>0.170000</speed><course>7.382812</course><hAcc>10.000000</hAcc><vAcc>12.000000</vAcc></extensions></trkpt>
      <trkpt lon="-81.983747" lat="33.469888"><ele>44.865566</ele><time>2021-10-14T18:48:15Z</time><extensions><speed>-1.000000</speed><course>-1.000000</course><hAcc>10.000000</hAcc><vAcc>12.000000</vAcc></extensions></trkpt>
      <trkpt lon="-81.983747" lat="33.469888"><ele>44.776638</ele><time>2021-10-14T18:48:16Z</time><extensions><speed>-1.000000</speed><course>-1.000000</course><hAcc>10.000000</hAcc><vAcc>12.000000</vAcc></extensions></trkpt>
      <trkpt lon="-81.983748" lat="33.469886"><ele>44.246914</ele><time>2021-10-14T18:48:17Z</time><extensions><speed>-1.000000</speed><course>-1.000000</course><hAcc>10.000000</hAcc><vAcc>12.000000</vAcc></extensions></trkpt>
      <trkpt lon="-81.983749" lat="33.469887"><ele>44.025784</ele><time>2021-10-14T18:48:18Z</time><extensions><speed>-1.000000</speed><course>-1.000000</course><hAcc>10.000000</hAcc><vAcc>12.000000</vAcc></extensions></trkpt>
      <trkpt lon="-81.983749" lat="33.469887"><ele>44.177517</ele><time>2021-10-14T18:48:19Z</time><extensions><speed>-1.000000</speed><course>-1.000000</course><hAcc>30.000000</hAcc><vAcc>12.000000</vAcc></extensions></trkpt>
      <trkpt lon="-81.983750" lat="33.469887"><ele>43.878384</ele><time>2021-10-14T18:48:20Z</time><extensions><speed>-1.000000</speed><course>-1.000000</course><hAcc>30.000000</hAcc><vAcc>12.000000</vAcc></extensions></trkpt>
      <trkpt lon="-81.983750" lat="33.469888"><ele>43.627590</ele><time>2021-10-14T18:48:21Z</time><extensions><speed>-1.000000</speed><course>-1.000000</course><hAcc>30.000000</hAcc><vAcc>12.000000</vAcc></extensions></trkpt>
      <trkpt lon="-81.983756" lat="33.469893"><ele>43.856228</ele><time>2021-10-14T18:48:22Z</time><extensions><speed>-1.000000</speed><course>-1.000000</course><hAcc>30.000000</hAcc><vAcc>12.000000</vAcc></extensions></trkpt>
      <trkpt lon="-81.983761" lat="33.469896"><ele>44.126369</ele><time>2021-10-14T18:48:23Z</time><extensions><speed>-1.000000</speed><course>-1.000000</course><hAcc>30.000000</hAcc><vAcc>12.000000</vAcc></extensions></trkpt>
      <trkpt lon="-81.983764" lat="33.469901"><ele>44.417324</ele><time>2021-10-14T18:48:24Z</time><extensions><speed>-1.000000</speed><course>-1.000000</course><hAcc>30.000000</hAcc><vAcc>12.000000</vAcc></extensions></trkpt>
      <trkpt lon="-81.983766" lat="33.469904"><ele>44.190212</ele><time>2021-10-14T18:48:25Z</time><extensions><speed>-1.000000</speed><course>-1.000000</course><hAcc>30.000000</hAcc><vAcc>12.000000</vAcc></extensions></trkpt>
      <trkpt lon="-81.983772" lat="33.469911"><ele>44.262600</ele><time>2021-10-14T18:48:26Z</time><extensions><speed>-1.000000</speed><course>-1.000000</course><hAcc>30.000000</hAcc><vAcc>12.000000</vAcc></extensions></trkpt>
      <trkpt lon="-81.983777" lat="33.469913"><ele>44.246304</ele><time>2021-10-14T18:48:27Z</time><extensions><speed>-1.000000</speed><course>-1.000000</course><hAcc>30.000000</hAcc><vAcc>12.000000</vAcc></extensions></trkpt>
      <trkpt lon="-81.983780" lat="33.469914"><ele>44.250088</ele><time>2021-10-14T18:48:28Z</time><extensions><speed>-1.000000</speed><course>-1.000000</course><hAcc>30.000000</hAcc><vAcc>12.000000</vAcc></extensions></trkpt>
      <trkpt lon="-81.983786" lat="33.469919"><ele>44.397305</ele><time>2021-10-14T18:48:29Z</time><extensions><speed>-1.000000</speed><course>-1.000000</course><hAcc>30.000000</hAcc><vAcc>12.000000</vAcc></extensions></trkpt>
      <trkpt lon="-81.983791" lat="33.469922"><ele>44.399319</ele><time>2021-10-14T18:48:30Z</time><extensions><speed>-1.000000</speed><course>-1.000000</course><hAcc>30.000000</hAcc><vAcc>12.000000</vAcc></extensions></trkpt>
      <trkpt lon="-81.983794" lat="33.469935"><ele>43.798977</ele><time>2021-10-14T18:48:31Z</time><extensions><speed>-1.000000</speed><course>-1.000000</course><hAcc>30.000000</hAcc><vAcc>12.000000</vAcc></extensions></trkpt>
      <trkpt lon="-81.983798" lat="33.469946"><ele>43.931484</ele><time>2021-10-14T18:48:32Z</time><extensions><speed>-1.000000</speed><course>-1.000000</course><hAcc>30.000000</hAcc><vAcc>12.000000</vAcc></extensions></trkpt>
      <trkpt lon="-81.983801" lat="33.469954"><ele>43.946804</ele><time>2021-10-14T18:48:33Z</time><extensions><speed>-1.000000</speed><course>-1.000000</course><hAcc>30.000000</hAcc><vAcc>12.000000</vAcc></extensions></trkpt>
      <trkpt lon="-81.983804" lat="33.469962"><ele>44.109219</ele><time>2021-10-14T18:48:34Z</time><extensions><speed>-1.000000</speed><course>-1.000000</course><hAcc>30.000000</hAcc><vAcc>12.000000</vAcc></extensions></trkpt>
      <trkpt lon="-81.983806" lat="33.469968"><ele>44.121365</ele><time>2021-10-14T18:48:35Z</time><extensions><speed>-1.000000</speed><course>-1.000000</course><hAcc>30.000000</hAcc><vAcc>12.000000</vAcc></extensions></trkpt>
      <trkpt lon="-81.983807" lat="33.469972"><ele>43.909145</ele><time>2021-10-14T18:48:36Z</time><extensions><speed>-1.000000</speed><course>-1.000000</course><hAcc>30.000000</hAcc><vAcc>12.000000</vAcc></extensions></trkpt>
      <trkpt lon="-81.983808" lat="33.469968"><ele>43.783047</ele><time>2021-10-14T18:48:37Z</time><extensions><speed>-1.000000</speed><course>-1.000000</course><hAcc>30.000000</hAcc><vAcc>12.000000</vAcc></extensions></trkpt>
      <trkpt lon="-81.983813" lat="33.469965"><ele>43.643154</ele><time>2021-10-14T18:48:38Z</time><extensions><speed>-1.000000</speed><course>-1.000000</course><hAcc>30.000000</hAcc><vAcc>12.000000</vAcc></extensions></trkpt>
      <trkpt lon="-81.983816" lat="33.469961"><ele>43.500759</ele><time>2021-10-14T18:48:39Z</time><extensions><speed>-1.000000</speed><course>-1.000000</course><hAcc>30.000000</hAcc><vAcc>12.000000</vAcc></extensions></trkpt>
      <trkpt lon="-81.983818" lat="33.469957"><ele>43.450893</ele><time>2021-10-14T18:48:40Z</time><extensions><speed>-1.000000</speed><course>-1.000000</course><hAcc>30.000000</hAcc><vAcc>12.000000</vAcc></extensions></trkpt>
      <trkpt lon="-81.983820" lat="33.469954"><ele>43.458218</ele><time>2021-10-14T18:48:41Z</time><extensions><speed>-1.000000</speed><course>-1.000000</course><hAcc>30.000000</hAcc><vAcc>12.000000</vAcc></extensions></trkpt>
      <trkpt lon="-81.983821" lat="33.469952"><ele>43.467495</ele><time>2021-10-14T18:48:42Z</time><extensions><speed>-1.000000</speed><course>-1.000000</course><hAcc>30.000000</hAcc><vAcc>12.000000</vAcc></extensions></trkpt>
      <trkpt lon="-81.983823" lat="33.469953"><ele>43.523830</ele><time>2021-10-14T18:48:43Z</time><extensions><speed>-1.000000</speed><course>-1.000000</course><hAcc>30.000000</hAcc><vAcc>12.000000</vAcc></extensions></trkpt>
      <trkpt lon="-81.983824" lat="33.469953"><ele>43.535244</ele><time>2021-10-14T18:48:44Z</time><extensions><speed>-1.000000</speed><course>-1.000000</course><hAcc>30.000000</hAcc><vAcc>12.000000</vAcc></extensions></trkpt>
      <trkpt lon="-81.983828" lat="33.469968"><ele>43.041714</ele><time>2021-10-14T18:48:47Z</time><extensions><speed>-1.000000</speed><course>-1.000000</course><hAcc>30.000000</hAcc><vAcc>12.000000</vAcc></extensions></trkpt>
    </trkseg>
  </trk>
</gpx>