<?xml version="1.0" encoding="UTF-8"?>
<gpx version="1.1" creator="Apple Health Export" xmlns="http://www.topografix.com/GPX/1/1" xmlns:xsi="http://www.w3.org/2001/XMLSchema-instance" xsi:schemaLocation="http://www.topografix.com/GPX/1/1 http://www.topografix.com/GPX/1/1/gpx.xsd">
  <metadata>
    <time>2026-03-14T12:16:59Z</time>
  </metadata>
  <trk>
    <name>Route 2025-07-06 11:38am</name>
    <trkseg>
      <trkpt lon="-82.310750" lat="35.643035"><ele>803.983979</ele><time>2025-07-06T15:35:45Z</time><extensions><speed>1.270749</speed><course>206.472151</course><hAcc>4.063974</hAcc><vAcc>1.711455</vAcc></extensions></trkpt>
      <trkpt lon="-82.310754" lat="35.643026"><ele>803.906550</ele><time>2025-07-06T15:35:46Z</time><extensions><speed>1.271113</speed><course>205.217041</course><hAcc>3.822102</hAcc><vAcc>1.519606</vAcc></extensions></trkpt>
      <trkpt lon="-82.310759" lat="35.643016"><ele>803.829824</ele><time>2025-07-06T15:35:47Z</time><extensions><speed>1.217819</speed><course>204.502733</course><hAcc>3.631689</hAcc><vAcc>1.365472</vAcc></extensions></trkpt>
      <trkpt lon="-82.310764" lat="35.643007"><ele>803.757520</ele><time>2025-07-06T15:35:48Z</time><extensions><speed>1.161012</speed><course>204.064853</course><hAcc>3.478874</hAcc><vAcc>1.243666</vAcc></extensions></trkpt>
      <trkpt lon="-82.310767" lat="35.642998"><ele>803.690931</ele><time>2025-07-06T15:35:49Z</time><extensions><speed>1.042492</speed><course>203.762059</course><hAcc>3.352921</hAcc><vAcc>1.149386</vAcc></extensions></trkpt>
      <trkpt lon="-82.310771" lat="35.642991"><ele>803.630736</ele><time>2025-07-06T15:35:50Z</time><extensions><speed>0.903108</speed><course>203.722037</course><hAcc>3.242858</hAcc><vAcc>1.078151</vAcc></extensions></trkpt>
      <trkpt lon="-82.310774" lat="35.642985"><ele>803.577810</ele><time>2025-07-06T15:35:51Z</time><extensions><speed>0.676256</speed><course>203.312778</course><hAcc>3.139000</hAcc><vAcc>1.025771</vAcc></extensions></trkpt>
      <trkpt lon="-82.310776" lat="35.642980"><ele>803.530451</ele><time>2025-07-06T15:35:52Z</time><extensions><speed>0.309759</speed><course>200.318246</course><hAcc>3.055741</hAcc><vAcc>0.988472</vAcc></extensions></trkpt>
      <trkpt lon="-82.310776" lat="35.642978"><ele>803.491982</ele><time>2025-07-06T15:35:53Z</time><extensions><speed>0.179860</speed><course>195.474366</course><hAcc>3.000507</hAcc><vAcc>0.963052</vAcc></extensions></trkpt>
      <trkpt lon="-82.310776" lat="35.642975"><ele>803.459058</ele><time>2025-07-06T15:35:54Z</time><extensions><speed>0.232784</speed><course>198.262928</course><hAcc>2.965299</hAcc><vAcc>0.946957</vAcc></extensions></trkpt>
      <trkpt lon="-82.310777" lat="35.642972"><ele>803.435827</ele><time>2025-07-06T15:35:55Z</time><extensions><speed>0.326900</speed><course>195.040606</course><hAcc>2.908855</hAcc><vAcc>0.938196</vAcc></extensions></trkpt>
      <trkpt lon="-82.310777" lat="35.642968"><ele>803.420190</ele><time>2025-07-06T15:35:56Z</time><extensions><speed>0.436715</speed><course>195.896903</course><hAcc>2.870018</hAcc><vAcc>0.935186</vAcc></extensions></trkpt>
      <trkpt lon="-82.310779" lat="35.642964"><ele>803.401298</ele><time>2025-07-06T15:35:57Z</time><extensions><speed>0.504850</speed><course>197.450972</course><hAcc>2.839030</hAcc><vAcc>0.936566</vAcc></extensions></trkpt>
      <trkpt lon="-82.310781" lat="35.642960"><ele>803.388880</ele><time>2025-07-06T15:35:58Z</time><extensions><speed>0.505630</speed><course>198.953527</course><hAcc>2.811375</hAcc><vAcc>0.941369</vAcc></extensions></trkpt>
      <trkpt lon="-82.310783" lat="35.642956"><ele>803.369586</ele><time>2025-07-06T15:35:59Z</time><extensions><speed>0.428393</speed><course>198.802229</course><hAcc>2.784828</hAcc><vAcc>0.948804</vAcc></extensions></trkpt>
      <trkpt lon="-82.310785" lat="35.642952"><ele>803.254579</ele><time>2025-07-06T15:36:00Z</time><extensions><speed>0.399249</speed><course>199.414598</course><hAcc>2.767731</hAcc><vAcc>0.953132</vAcc></extensions></trkpt>
      <trkpt lon="-82.310787" lat="35.642949"><ele>803.128063</ele><time>2025-07-06T15:36:01Z</time><extensions><speed>0.404395</speed><course>201.888607</course><hAcc>2.767577</hAcc><vAcc>0.956734</vAcc></extensions></trkpt>
      <trkpt lon="-82.310788" lat="35.642946"><ele>802.993007</ele><time>2025-07-06T15:36:02Z</time><extensions><speed>0.468374</speed><course>198.651345</course><hAcc>2.763725</hAcc><vAcc>0.959313</vAcc></extensions></trkpt>
      <trkpt lon="-82.310790" lat="35.642941"><ele>802.853105</ele><time>2025-07-06T15:36:03Z</time><extensions><speed>0.583870</speed><course>187.242236</course><hAcc>2.754338</hAcc><vAcc>0.960555</vAcc></extensions></trkpt>
      <trkpt lon="-82.310790" lat="35.642936"><ele>802.707103</ele><time>2025-07-06T15:36:04Z</time><extensions><speed>0.660158</speed><course>185.707689</course><hAcc>2.730470</hAcc><vAcc>0.960175</vAcc></extensions></trkpt>
      <trkpt lon="-82.310791" lat="35.642930"><ele>802.554642</ele><time>2025-07-06T15:36:05Z</time><extensions><speed>0.810630</speed><course>188.351219</course><hAcc>2.716644</hAcc><vAcc>0.957939</vAcc></extensions></trkpt>
      <trkpt lon="-82.310793" lat="35.642922"><ele>802.395448</ele><time>2025-07-06T15:36:06Z</time><extensions><speed>0.882509</speed><course>191.462648</course><hAcc>2.719151</hAcc><vAcc>0.953654</vAcc></extensions></trkpt>
      <trkpt lon="-82.310796" lat="35.642914"><ele>802.231189</ele><time>2025-07-06T15:36:07Z</time><extensions><speed>0.972067</speed><course>195.360565</course><hAcc>2.733479</hAcc><vAcc>0.947200</vAcc></extensions></trkpt>
      <trkpt lon="-82.310799" lat="35.642906"><ele>802.063939</ele><time>2025-07-06T15:36:08Z</time><extensions><speed>0.954390</speed><course>196.314946</course><hAcc>2.718708</hAcc><vAcc>0.938556</vAcc></extensions></trkpt>
      <trkpt lon="-82.310802" lat="35.642898"><ele>801.894996</ele><time>2025-07-06T15:36:09Z</time><extensions><speed>0.888042</speed><course>196.738742</course><hAcc>2.711018</hAcc><vAcc>0.927845</vAcc></extensions></trkpt>
      <trkpt lon="-82.310804" lat="35.642891"><ele>801.726362</ele><time>2025-07-06T15:36:10Z</time><extensions><speed>0.745680</speed><course>198.013016</course><hAcc>2.711214</hAcc><vAcc>0.915389</vAcc></extensions></trkpt>
      <trkpt lon="-82.310807" lat="35.642887"><ele>801.561619</ele><time>2025-07-06T15:36:11Z</time><extensions><speed>0.339688</speed><course>201.099682</course><hAcc>2.707944</hAcc><vAcc>0.901782</vAcc></extensions></trkpt>
      <trkpt lon="-82.310808" lat="35.642884"><ele>801.402387</ele><time>2025-07-06T15:36:12Z</time><extensions><speed>0.159634</speed><course>207.777581</course><hAcc>2.713175</hAcc><vAcc>0.887613</vAcc></extensions></trkpt>
      <trkpt lon="-82.310810" lat="35.642883"><ele>801.250213</ele><time>2025-07-06T15:36:13Z</time><extensions><speed>0.081368</speed><course>221.405679</course><hAcc>2.722364</hAcc><vAcc>0.873442</vAcc></extensions></trkpt>
      <trkpt lon="-82.310811" lat="35.642883"><ele>801.108035</ele><time>2025-07-06T15:36:14Z</time><extensions><speed>0.056533</speed><course>243.497678</course><hAcc>2.724969</hAcc><vAcc>0.859784</vAcc></extensions></trkpt>
      <trkpt lon="-82.310812" lat="35.642883"><ele>800.975387</ele><time>2025-07-06T15:36:15Z</time><extensions><speed>0.050350</speed><course>259.520615</course><hAcc>2.732791</hAcc><vAcc>0.847169</vAcc></extensions></trkpt>
      <trkpt lon="-82.310813" lat="35.642883"><ele>800.850285</ele><time>2025-07-06T15:36:16Z</time><extensions><speed>0.057954</speed><course>267.745250</course><hAcc>2.735051</hAcc><vAcc>0.836132</vAcc></extensions></trkpt>
      <trkpt lon="-82.310815" lat="35.642883"><ele>800.730226</ele><time>2025-07-06T15:36:17Z</time><extensions><speed>0.062453</speed><course>267.480345</course><hAcc>2.744731</hAcc><vAcc>0.827192</vAcc></extensions></trkpt>
      <trkpt lon="-82.310816" lat="35.642883"><ele>800.618080</ele><time>2025-07-06T15:36:18Z</time><extensions><speed>0.075035</speed><course>263.112090</course><hAcc>2.749572</hAcc><vAcc>0.820846</vAcc></extensions></trkpt>
      <trkpt lon="-82.310818" lat="35.642883"><ele>800.513516</ele><time>2025-07-06T15:36:19Z</time><extensions><speed>0.097149</speed><course>254.922385</course><hAcc>2.752253</hAcc><vAcc>0.817505</vAcc></extensions></trkpt>
      <trkpt lon="-82.310820" lat="35.642883"><ele>800.416610</ele><time>2025-07-06T15:36:20Z</time><extensions><speed>0.146778</speed><course>240.935531</course><hAcc>2.752741</hAcc><vAcc>0.817515</vAcc></extensions></trkpt>
      <trkpt lon="-82.310822" lat="35.642882"><ele>800.327451</ele><time>2025-07-06T15:36:21Z</time><extensions><speed>0.187529</speed><course>241.608186</course><hAcc>2.748874</hAcc><vAcc>0.821130</vAcc></extensions></trkpt>
      <trkpt lon="-82.310825" lat="35.642881"><ele>800.246678</ele><time>2025-07-06T15:36:22Z</time><extensions><speed>0.204937</speed><course>239.866393</course><hAcc>2.761990</hAcc><vAcc>0.828543</vAcc></extensions></trkpt>
      <trkpt lon="-82.310828" lat="35.642881"><ele>800.173207</ele><time>2025-07-06T15:36:23Z</time><extensions><speed>0.203142</speed><course>241.406010</course><hAcc>2.774457</hAcc><vAcc>0.839917</vAcc></extensions></trkpt>
      <trkpt lon="-82.310830" lat="35.642880"><ele>800.108142</ele><time>2025-07-06T15:36:24Z</time><extensions><speed>0.206032</speed><course>248.005164</course><hAcc>2.784282</hAcc><vAcc>0.855276</vAcc></extensions></trkpt>
      <trkpt lon="-82.310833" lat="35.642879"><ele>800.050122</ele><time>2025-07-06T15:36:25Z</time><extensions><speed>0.207095</speed><course>245.039912</course><hAcc>2.821666</hAcc><vAcc>0.874531</vAcc></extensions></trkpt>
      <trkpt lon="-82.310835" lat="35.642879"><ele>800.000436</ele><time>2025-07-06T15:36:26Z</time><extensions><speed>0.212532</speed><course>240.770620</course><hAcc>2.862626</hAcc><vAcc>0.897408</vAcc></extensions></trkpt>
      <trkpt lon="-82.310837" lat="35.642878"><ele>799.958913</ele><time>2025-07-06T15:36:27Z</time><extensions><speed>0.178593</speed><course>244.146856</course><hAcc>2.900350</hAcc><vAcc>0.923563</vAcc></extensions></trkpt>
      <trkpt lon="-82.310839" lat="35.642878"><ele>799.926330</ele><time>2025-07-06T15:36:28Z</time><extensions><speed>0.131860</speed><course>301.143709</course><hAcc>2.933465</hAcc><vAcc>0.952574</vAcc></extensions></trkpt>
      <trkpt lon="-82.310840" lat="35.642879"><ele>799.903429</ele><time>2025-07-06T15:36:29Z</time><extensions><speed>0.165807</speed><course>319.873159</course><hAcc>2.969546</hAcc><vAcc>0.983955</vAcc></extensions></trkpt>
      <trkpt lon="-82.310841" lat="35.642880"><ele>799.890833</ele><time>2025-07-06T15:36:30Z</time><extensions><speed>0.231238</speed><course>325.505912</course><hAcc>2.999554</hAcc><vAcc>1.017163</vAcc></extensions></trkpt>
      <trkpt lon="-82.310843" lat="35.642882"><ele>799.889092</ele><time>2025-07-06T15:36:31Z</time><extensions><speed>0.300633</speed><course>327.780526</course><hAcc>3.053934</hAcc><vAcc>1.051523</vAcc></extensions></trkpt>
      <trkpt lon="-82.310850" lat="35.642885"><ele>799.860504</ele><time>2025-07-06T15:36:32Z</time><extensions><speed>0.418992</speed><course>319.287653</course><hAcc>3.183311</hAcc><vAcc>1.049372</vAcc></extensions></trkpt>
      <trkpt lon="-82.310854" lat="35.642888"><ele>799.855463</ele><time>2025-07-06T15:36:33Z</time><extensions><speed>0.434164</speed><course>323.815445</course><hAcc>3.392873</hAcc><vAcc>1.061454</vAcc></extensions></trkpt>
      <trkpt lon="-82.310860" lat="35.642892"><ele>799.866110</ele><time>2025-07-06T15:36:34Z</time><extensions><speed>0.489622</speed><course>323.946441</course><hAcc>3.571632</hAcc><vAcc>1.076200</vAcc></extensions></trkpt>
      <trkpt lon="-82.310864" lat="35.642897"><ele>799.865401</ele><time>2025-07-06T15:36:35Z</time><extensions><speed>0.595515</speed><course>321.613243</course><hAcc>3.730543</hAcc><vAcc>1.090676</vAcc></extensions></trkpt>
      <trkpt lon="-82.310868" lat="35.642902"><ele>799.871014</ele><time>2025-07-06T15:36:36Z</time><extensions><speed>0.700467</speed><course>319.104388</course><hAcc>3.898861</hAcc><vAcc>1.103846</vAcc></extensions></trkpt>
      <trkpt lon="-82.310874" lat="35.642908"><ele>799.880391</ele><time>2025-07-06T15:36:37Z</time><extensions><speed>0.882490</speed><course>314.048624</course><hAcc>4.066463</hAcc><vAcc>1.115031</vAcc></extensions></trkpt>
      <trkpt lon="-82.310882" lat="35.642914"><ele>799.892009</ele><time>2025-07-06T15:36:38Z</time><extensions><speed>1.102807</speed><course>308.643572</course><hAcc>4.246556</hAcc><vAcc>1.124410</vAcc></extensions></trkpt>
      <trkpt lon="-82.310893" lat="35.642920"><ele>799.904556</ele><time>2025-07-06T15:36:39Z</time><extensions><speed>1.358528</speed><course>303.967600</course><hAcc>4.433472</hAcc><vAcc>1.132880</vAcc></extensions></trkpt>
      <trkpt lon="-82.310907" lat="35.642927"><ele>799.916238</ele><time>2025-07-06T15:36:40Z</time><extensions><speed>1.646613</speed><course>300.187352</course><hAcc>4.613327</hAcc><vAcc>1.142230</vAcc></extensions></trkpt>
      <trkpt lon="-82.310925" lat="35.642935"><ele>799.933694</ele><time>2025-07-06T15:36:41Z</time><extensions><speed>1.962499</speed><course>297.157329</course><hAcc>4.799805</hAcc><vAcc>1.155303</vAcc></extensions></trkpt>
      <trkpt lon="-82.311001" lat="35.642963"><ele>800.075242</ele><time>2025-07-06T15:36:45Z</time><extensions><speed>1.824502</speed><course>289.797895</course><hAcc>4.654721</hAcc><vAcc>1.041785</vAcc></extensions></trkpt>
      <trkpt lon="-82.311018" lat="35.642968"><ele>800.138578</ele><time>2025-07-06T15:36:46Z</time><extensions><speed>1.394418</speed><course>292.871620</course><hAcc>4.508199</hAcc><vAcc>0.971799</vAcc></extensions></trkpt>
      <trkpt lon="-82.311031" lat="35.642974"><ele>800.208810</ele><time>2025-07-06T15:36:47Z</time><extensions><speed>0.970349</speed><course>299.272550</course><hAcc>4.475771</hAcc><vAcc>0.916699</vAcc></extensions></trkpt>
      <trkpt lon="-82.311036" lat="35.642978"><ele>800.283322</ele><time>2025-07-06T15:36:48Z</time><extensions><speed>0.616917</speed><course>309.381909</course><hAcc>4.449407</hAcc><vAcc>0.874464</vAcc></extensions></trkpt>
      <trkpt lon="-82.311029" lat="35.642975"><ele>800.365672</ele><time>2025-07-06T15:36:49Z</time><extensions><speed>0.129817</speed><course>339.457818</course><hAcc>4.418830</hAcc><vAcc>0.841745</vAcc></extensions></trkpt>
      <trkpt lon="-82.311025" lat="35.642974"><ele>800.445356</ele><time>2025-07-06T15:36:50Z</time><extensions><speed>0.199016</speed><course>104.376457</course><hAcc>4.432985</hAcc><vAcc>0.819673</vAcc></extensions></trkpt>
      <trkpt lon="-82.311022" lat="35.642973"><ele>800.527553</ele><time>2025-07-06T15:36:51Z</time><extensions><speed>0.430927</speed><course>110.993391</course><hAcc>4.466902</hAcc><vAcc>0.804496</vAcc></extensions></trkpt>
      <trkpt lon="-82.311016" lat="35.642972"><ele>800.613352</ele><time>2025-07-06T15:36:52Z</time><extensions><speed>0.672643</speed><course>112.296578</course><hAcc>4.492656</hAcc><vAcc>0.794638</vAcc></extensions></trkpt>
      <trkpt lon="-82.311007" lat="35.642969"><ele>800.685730</ele><time>2025-07-06T15:36:53Z</time><extensions><speed>0.907805</speed><course>112.983447</course><hAcc>4.472723</hAcc><vAcc>0.788873</vAcc></extensions></trkpt>
      <trkpt lon="-82.310997" lat="35.642965"><ele>800.757043</ele><time>2025-07-06T15:36:54Z</time><extensions><speed>1.095552</speed><course>113.775089</course><hAcc>4.372544</hAcc><vAcc>0.786404</vAcc></extensions></trkpt>
      <trkpt lon="-82.310984" lat="35.642961"><ele>800.840887</ele><time>2025-07-06T15:36:55Z</time><extensions><speed>1.239633</speed><course>115.049715</course><hAcc>4.176752</hAcc><vAcc>0.786833</vAcc></extensions></trkpt>
      <trkpt lon="-82.310972" lat="35.642955"><ele>800.924666</ele><time>2025-07-06T15:36:56Z</time><extensions><speed>1.291789</speed><course>116.336757</course><hAcc>3.892697</hAcc><vAcc>0.790110</vAcc></extensions></trkpt>
      <trkpt lon="-82.310959" lat="35.642950"><ele>801.007473</ele><time>2025-07-06T15:36:57Z</time><extensions><speed>1.231537</speed><course>118.208588</course><hAcc>3.559843</hAcc><vAcc>0.796511</vAcc></extensions></trkpt>
      <trkpt lon="-82.310948" lat="35.642945"><ele>801.088013</ele><time>2025-07-06T15:36:58Z</time><extensions><speed>1.088005</speed><course>119.078768</course><hAcc>3.229620</hAcc><vAcc>0.806903</vAcc></extensions></trkpt>
      <trkpt lon="-82.310929" lat="35.642937"><ele>801.233662</ele><time>2025-07-06T15:37:00Z</time><extensions><speed>0.908132</speed><course>117.783967</course><hAcc>2.526362</hAcc><vAcc>0.808505</vAcc></extensions></trkpt>
      <trkpt lon="-82.310921" lat="35.642933"><ele>801.307637</ele><time>2025-07-06T15:37:01Z</time><extensions><speed>0.802329</speed><course>116.133721</course><hAcc>2.187939</hAcc><vAcc>0.798399</vAcc></extensions></trkpt>
      <trkpt lon="-82.310913" lat="35.642930"><ele>801.379352</ele><time>2025-07-06T15:37:02Z</time><extensions><speed>0.858317</speed><course>119.648990</course><hAcc>1.955591</hAcc><vAcc>0.793330</vAcc></extensions></trkpt>
      <trkpt lon="-82.310904" lat="35.642925"><ele>801.448883</ele><time>2025-07-06T15:37:03Z</time><extensions><speed>1.066852</speed><course>125.917137</course><hAcc>1.787912</hAcc><vAcc>0.793203</vAcc></extensions></trkpt>
      <trkpt lon="-82.310893" lat="35.642918"><ele>801.516187</ele><time>2025-07-06T15:37:04Z</time><extensions><speed>1.294502</speed><course>131.062459</course><hAcc>1.648926</hAcc><vAcc>0.797089</vAcc></extensions></trkpt>
      <trkpt lon="-82.310883" lat="35.642911"><ele>801.581106</ele><time>2025-07-06T15:37:05Z</time><extensions><speed>1.323174</speed><course>130.869343</course><hAcc>1.535822</hAcc><vAcc>0.804444</vAcc></extensions></trkpt>
      <trkpt lon="-82.310872" lat="35.642903"><ele>801.643017</ele><time>2025-07-06T15:37:06Z</time><extensions><speed>1.105445</speed><course>130.491193</course><hAcc>1.443611</hAcc><vAcc>0.814741</vAcc></extensions></trkpt>
      <trkpt lon="-82.310864" lat="35.642898"><ele>801.700952</ele><time>2025-07-06T15:37:07Z</time><extensions><speed>0.774430</speed><course>130.307209</course><hAcc>1.376656</hAcc><vAcc>0.827392</vAcc></extensions></trkpt>
      <trkpt lon="-82.310859" lat="35.642894"><ele>801.754045</ele><time>2025-07-06T15:37:08Z</time><extensions><speed>0.451406</speed><course>130.188534</course><hAcc>1.347526</hAcc><vAcc>0.841491</vAcc></extensions></trkpt>
      <trkpt lon="-82.310856" lat="35.642892"><ele>801.802300</ele><time>2025-07-06T15:37:09Z</time><extensions><speed>0.308751</speed><course>130.101457</course><hAcc>1.324970</hAcc><vAcc>0.857183</vAcc></extensions></trkpt>
      <trkpt lon="-82.310854" lat="35.642891"><ele>801.845747</ele><time>2025-07-06T15:37:10Z</time><extensions><speed>0.163567</speed><course>130.037491</course><hAcc>1.344288</hAcc><vAcc>0.874231</vAcc></extensions></trkpt>
      <trkpt lon="-82.310853" lat="35.642890"><ele>801.884334</ele><time>2025-07-06T15:37:11Z</time><extensions><speed>0.106860</speed><course>129.980865</course><hAcc>1.344797</hAcc><vAcc>0.891832</vAcc></extensions></trkpt>
      <trkpt lon="-82.310852" lat="35.642890"><ele>801.918412</ele><time>2025-07-06T15:37:12Z</time><extensions><speed>0.063452</speed><course>129.936424</course><hAcc>1.367295</hAcc><vAcc>0.910007</vAcc></extensions></trkpt>
      <trkpt lon="-82.310852" lat="35.642889"><ele>801.947790</ele><time>2025-07-06T15:37:13Z</time><extensions><speed>0.034989</speed><course>129.893981</course><hAcc>1.400876</hAcc><vAcc>0.927104</vAcc></extensions></trkpt>
      <trkpt lon="-82.310852" lat="35.642889"><ele>801.972790</ele><time>2025-07-06T15:37:14Z</time><extensions><speed>0.018163</speed><course>129.846315</course><hAcc>1.422704</hAcc><vAcc>0.942480</vAcc></extensions></trkpt>
      <trkpt lon="-82.310852" lat="35.642889"><ele>801.994014</ele><time>2025-07-06T15:37:15Z</time><extensions><speed>0.008756</speed><course>129.785464</course><hAcc>1.427685</hAcc><vAcc>0.956546</vAcc></extensions></trkpt>
      <trkpt lon="-82.310851" lat="35.642889"><ele>802.012186</ele><time>2025-07-06T15:37:16Z</time><extensions><speed>0.003812</speed><course>129.693542</course><hAcc>1.422897</hAcc><vAcc>0.970794</vAcc></extensions></trkpt>
      <trkpt lon="-82.310851" lat="35.642889"><ele>802.027095</ele><time>2025-07-06T15:37:17Z</time><extensions><speed>0.001376</speed><course>129.510413</course><hAcc>1.416977</hAcc><vAcc>0.983396</vAcc></extensions></trkpt>
      <trkpt lon="-82.310851" lat="35.642889"><ele>802.039197</ele><time>2025-07-06T15:37:18Z</time><extensions><speed>0.000303</speed><course>128.795537</course><hAcc>1.414485</hAcc><vAcc>0.994759</vAcc></extensions></trkpt>
      <trkpt lon="-82.310851" lat="35.642889"><ele>802.048653</ele><time>2025-07-06T15:37:19Z</time><extensions><speed>0.000100</speed><course>311.843051</course><hAcc>1.419307</hAcc><vAcc>1.003944</vAcc></extensions></trkpt>
      <trkpt lon="-82.310851" lat="35.642889"><ele>802.056175</ele><time>2025-07-06T15:37:20Z</time><extensions><speed>0.000203</speed><course>310.423387</course><hAcc>1.429731</hAcc><vAcc>1.013091</vAcc></extensions></trkpt>
      <trkpt lon="-82.310851" lat="35.642889"><ele>802.061850</ele><time>2025-07-06T15:37:21Z</time><extensions><speed>0.000189</speed><course>310.188524</course><hAcc>1.443364</hAcc><vAcc>1.021291</vAcc></extensions></trkpt>
      <trkpt lon="-82.310851" lat="35.642889"><ele>802.065971</ele><time>2025-07-06T15:37:22Z</time><extensions><speed>0.000140</speed><course>310.082592</course><hAcc>1.456358</hAcc><vAcc>1.028809</vAcc></extensions></trkpt>
      <trkpt lon="-82.310851" lat="35.642889"><ele>802.068828</ele><time>2025-07-06T15:37:23Z</time><extensions><speed>0.000096</speed><course>310.017170</course><hAcc>1.462783</hAcc><vAcc>1.036276</vAcc></extensions></trkpt>
      <trkpt lon="-82.310851" lat="35.642889"><ele>802.070584</ele><time>2025-07-06T15:37:24Z</time><extensions><speed>0.000060</speed><course>309.970644</course><hAcc>1.473388</hAcc><vAcc>1.043500</vAcc></extensions></trkpt>
      <trkpt lon="-82.310851" lat="35.642889"><ele>802.071351</ele><time>2025-07-06T15:37:25Z</time><extensions><speed>0.000035</speed><course>309.933031</course><hAcc>1.491185</hAcc><vAcc>1.049568</vAcc></extensions></trkpt>
      <trkpt lon="-82.310851" lat="35.642889"><ele>802.071281</ele><time>2025-07-06T15:37:26Z</time><extensions><speed>0.000020</speed><course>309.899521</course><hAcc>1.512169</hAcc><vAcc>1.053734</vAcc></extensions></trkpt>
      <trkpt lon="-82.310851" lat="35.642889"><ele>802.070513</ele><time>2025-07-06T15:37:27Z</time><extensions><speed>0.000012</speed><course>309.869388</course><hAcc>1.530415</hAcc><vAcc>1.054886</vAcc></extensions></trkpt>
      <trkpt lon="-82.310851" lat="35.642889"><ele>802.069320</ele><time>2025-07-06T15:37:28Z</time><extensions><speed>0.000006</speed><course>309.842724</course><hAcc>1.555763</hAcc><vAcc>1.055125</vAcc></extensions></trkpt>
      <trkpt lon="-82.310851" lat="35.642889"><ele>802.067824</ele><time>2025-07-06T15:37:29Z</time><extensions><speed>0.000005</speed><course>309.819712</course><hAcc>1.555343</hAcc><vAcc>1.055095</vAcc></extensions></trkpt>
      <trkpt lon="-82.310851" lat="35.642889"><ele>802.066091</ele><time>2025-07-06T15:37:30Z</time><extensions><speed>0.000003</speed><course>309.803409</course><hAcc>1.570887</hAcc><vAcc>1.054260</vAcc></extensions></trkpt>
      <trkpt lon="-82.310851" lat="35.642889"><ele>802.064185</ele><time>2025-07-06T15:37:31Z</time><extensions><speed>0.000002</speed><course>309.790424</course><hAcc>1.594479</hAcc><vAcc>1.051803</vAcc></extensions></trkpt>
      <trkpt lon="-82.310851" lat="35.642889"><ele>802.062189</ele><time>2025-07-06T15:37:32Z</time><extensions><speed>0.000001</speed><course>309.778791</course><hAcc>1.614680</hAcc><vAcc>1.048428</vAcc></extensions></trkpt>
      <trkpt lon="-82.310851" lat="35.642889"><ele>802.060162</ele><time>2025-07-06T15:37:33Z</time><extensions><speed>0.000001</speed><course>309.766909</course><hAcc>1.628551</hAcc><vAcc>1.045157</vAcc></extensions></trkpt>
      <trkpt lon="-82.310851" lat="35.642889"><ele>802.058139</ele><time>2025-07-06T15:37:34Z</time><extensions><speed>0.000000</speed><course>309.752520</course><hAcc>1.633086</hAcc><vAcc>1.041601</vAcc></extensions></trkpt>
      <trkpt lon="-82.310851" lat="35.642889"><ele>802.056154</ele><time>2025-07-06T15:37:35Z</time><extensions><speed>0.000000</speed><course>309.732030</course><hAcc>1.626269</hAcc><vAcc>1.038409</vAcc></extensions></trkpt>
      <trkpt lon="-82.310851" lat="35.642889"><ele>802.054240</ele><time>2025-07-06T15:37:36Z</time><extensions><speed>0.000000</speed><course>309.700346</course><hAcc>1.609187</hAcc><vAcc>1.034398</vAcc></extensions></trkpt>
      <trkpt lon="-82.310851" lat="35.642889"><ele>802.052420</ele><time>2025-07-06T15:37:37Z</time><extensions><speed>0.000000</speed><course>309.656299</course><hAcc>1.588444</hAcc><vAcc>1.030422</vAcc></extensions></trkpt>
      <trkpt lon="-82.310851" lat="35.642889"><ele>802.050698</ele><time>2025-07-06T15:37:38Z</time><extensions><speed>0.000000</speed><course>309.602282</course><hAcc>1.570418</hAcc><vAcc>1.028464</vAcc></extensions></trkpt>
      <trkpt lon="-82.310851" lat="35.642889"><ele>802.049095</ele><time>2025-07-06T15:37:39Z</time><extensions><speed>0.000000</speed><course>309.525657</course><hAcc>1.551294</hAcc><vAcc>1.027989</vAcc></extensions></trkpt>
      <trkpt lon="-82.310851" lat="35.642889"><ele>802.047626</ele><time>2025-07-06T15:37:40Z</time><extensions><speed>0.000000</speed><course>309.415139</course><hAcc>1.538202</hAcc><vAcc>1.028551</vAcc></extensions></trkpt>
      <trkpt lon="-82.310851" lat="35.642889"><ele>802.046285</ele><time>2025-07-06T15:37:41Z</time><extensions><speed>0.000000</speed><course>309.294259</course><hAcc>1.536527</hAcc><vAcc>1.031417</vAcc></extensions></trkpt>
      <trkpt lon="-82.310851" lat="35.642889"><ele>802.045067</ele><time>2025-07-06T15:37:42Z</time><extensions><speed>0.000000</speed><course>309.090480</course><hAcc>1.548060</hAcc><vAcc>1.037401</vAcc></extensions></trkpt>
      <trkpt lon="-82.310851" lat="35.642889"><ele>802.043983</ele><time>2025-07-06T15:37:43Z</time><extensions><speed>0.000000</speed><course>308.307226</course><hAcc>1.565429</hAcc><vAcc>1.045385</vAcc></extensions></trkpt>
      <trkpt lon="-82.310851" lat="35.642889"><ele>802.043027</ele><time>2025-07-06T15:37:44Z</time><extensions><speed>0.000000</speed><course>306.692689</course><hAcc>1.591870</hAcc><vAcc>1.055411</vAcc></extensions></trkpt>
      <trkpt lon="-82.310851" lat="35.642889"><ele>802.042194</ele><time>2025-07-06T15:37:45Z</time><extensions><speed>0.000000</speed><course>306.222335</course><hAcc>1.618744</hAcc><vAcc>1.067068</vAcc></extensions></trkpt>
      <trkpt lon="-82.310851" lat="35.642889"><ele>802.041463</ele><time>2025-07-06T15:37:46Z</time><extensions><speed>0.000000</speed><course>307.356571</course><hAcc>1.636626</hAcc><vAcc>1.081717</vAcc></extensions></trkpt>
      <trkpt lon="-82.310851" lat="35.642889"><ele>802.040839</ele><time>2025-07-06T15:37:47Z</time><extensions><speed>0.000000</speed><course>297.437820</course><hAcc>1.680596</hAcc><vAcc>1.097691</vAcc></extensions></trkpt>
      <trkpt lon="-82.310851" lat="35.642889"><ele>802.040317</ele><time>2025-07-06T15:37:48Z</time><extensions><speed>0.000000</speed><course>231.872438</course><hAcc>1.736458</hAcc><vAcc>1.113845</vAcc></extensions></trkpt>
      <trkpt lon="-82.310851" lat="35.642889"><ele>802.039876</ele><time>2025-07-06T15:37:49Z</time><extensions><speed>0.000000</speed><course>200.884812</course><hAcc>1.789118</hAcc><vAcc>1.131362</vAcc></extensions></trkpt>
      <trkpt lon="-82.310851" lat="35.642889"><ele>802.039515</ele><time>2025-07-06T15:37:50Z</time><extensions><speed>0.000000</speed><course>197.017232</course><hAcc>1.834534</hAcc><vAcc>1.148736</vAcc></extensions></trkpt>
      <trkpt lon="-82.310851" lat="35.642889"><ele>802.039223</ele><time>2025-07-06T15:37:51Z</time><extensions><speed>0.000000</speed><course>200.130839</course><hAcc>1.874295</hAcc><vAcc>1.165924</vAcc></extensions></trkpt>
      <trkpt lon="-82.310851" lat="35.642889"><ele>802.038990</ele><time>2025-07-06T15:37:52Z</time><extensions><speed>0.000000</speed><course>208.712887</course><hAcc>1.907649</hAcc><vAcc>1.182605</vAcc></extensions></trkpt>
      <trkpt lon="-82.310851" lat="35.642889"><ele>802.038810</ele><time>2025-07-06T15:37:53Z</time><extensions><speed>0.000000</speed><course>230.450047</course><hAcc>1.932829</hAcc><vAcc>1.198424</vAcc></extensions></trkpt>
      <trkpt lon="-82.310851" lat="35.642889"><ele>802.038675</ele><time>2025-07-06T15:37:54Z</time><extensions><speed>0.000000</speed><course>297.740292</course><hAcc>1.949347</hAcc><vAcc>1.213244</vAcc></extensions></trkpt>
      <trkpt lon="-82.310851" lat="35.642889"><ele>802.038579</ele><time>2025-07-06T15:37:55Z</time><extensions><speed>0.000000</speed><course>346.309975</course><hAcc>1.955195</hAcc><vAcc>1.226524</vAcc></extensions></trkpt>
      <trkpt lon="-82.310851" lat="35.642889"><ele>802.038516</ele><time>2025-07-06T15:37:56Z</time><extensions><speed>0.000000</speed><course>4.675278</course><hAcc>1.952946</hAcc><vAcc>1.238485</vAcc></extensions></trkpt>
      <trkpt lon="-82.310851" lat="35.642889"><ele>802.038482</ele><time>2025-07-06T15:37:57Z</time><extensions><speed>0.000000</speed><course>15.537418</course><hAcc>1.940525</hAcc><vAcc>1.248496</vAcc></extensions></trkpt>
      <trkpt lon="-82.310851" lat="35.642889"><ele>802.038469</ele><time>2025-07-06T15:37:58Z</time><extensions><speed>0.000000</speed><course>30.898366</course><hAcc>1.923339</hAcc><vAcc>1.258624</vAcc></extensions></trkpt>
      <trkpt lon="-82.310851" lat="35.642889"><ele>802.038476</ele><time>2025-07-06T15:37:59Z</time><extensions><speed>0.000000</speed><course>52.828919</course><hAcc>1.905643</hAcc><vAcc>1.268116</vAcc></extensions></trkpt>
      <trkpt lon="-82.310851" lat="35.642889"><ele>802.038499</ele><time>2025-07-06T15:38:00Z</time><extensions><speed>0.000000</speed><course>59.889251</course><hAcc>1.880314</hAcc><vAcc>1.275912</vAcc></extensions></trkpt>
      <trkpt lon="-82.310851" lat="35.642889"><ele>802.038537</ele><time>2025-07-06T15:38:01Z</time><extensions><speed>0.000000</speed><course>55.998747</course><hAcc>1.859140</hAcc><vAcc>1.281063</vAcc></extensions></trkpt>
      <trkpt lon="-82.310851" lat="35.642889"><ele>802.038549</ele><time>2025-07-06T15:38:02Z</time><extensions><speed>0.000000</speed><course>53.492994</course><hAcc>1.842120</hAcc><vAcc>1.317361</vAcc></extensions></trkpt>
      <trkpt lon="-82.310851" lat="35.642889"><ele>802.038568</ele><time>2025-07-06T15:38:03Z</time><extensions><speed>0.000000</speed><course>57.517892</course><hAcc>1.836293</hAcc><vAcc>1.362174</vAcc></extensions></trkpt>
      <trkpt lon="-82.310851" lat="35.642889"><ele>802.038592</ele><time>2025-07-06T15:38:04Z</time><extensions><speed>0.000000</speed><course>63.839910</course><hAcc>1.841931</hAcc><vAcc>1.417406</vAcc></extensions></trkpt>
      <trkpt lon="-82.310851" lat="35.642889"><ele>802.038607</ele><time>2025-07-06T15:38:04Z</time><extensions><speed>0.000000</speed><course>65.128815</course><hAcc>1.845040</hAcc><vAcc>1.455191</vAcc></extensions></trkpt>
      <trkpt lon="-82.310851" lat="35.642889"><ele>802.038618</ele><time>2025-07-06T15:38:05Z</time><extensions><speed>0.000000</speed><course>65.464681</course><hAcc>1.859242</hAcc><vAcc>1.487391</vAcc></extensions></trkpt>
      <trkpt lon="-82.310851" lat="35.642889"><ele>802.038646</ele><time>2025-07-06T15:38:06Z</time><extensions><speed>0.000000</speed><course>65.511650</course><hAcc>1.914409</hAcc><vAcc>1.573586</vAcc></extensions></trkpt>
      <trkpt lon="-82.310851" lat="35.642889"><ele>802.038675</ele><time>2025-07-06T15:38:07Z</time><extensions><speed>0.000000</speed><course>64.053980</course><hAcc>2.033077</hAcc><vAcc>1.675257</vAcc></extensions></trkpt>
      <trkpt lon="-82.310851" lat="35.642889"><ele>802.038705</ele><time>2025-07-06T15:38:08Z</time><extensions><speed>0.000000</speed><course>65.945476</course><hAcc>2.217291</hAcc><vAcc>1.794349</vAcc></extensions></trkpt>
      <trkpt lon="-82.310851" lat="35.642889"><ele>802.038735</ele><time>2025-07-06T15:38:09Z</time><extensions><speed>0.000000</speed><course>74.164326</course><hAcc>2.480429</hAcc><vAcc>1.932470</vAcc></extensions></trkpt>
      <trkpt lon="-82.310851" lat="35.642889"><ele>802.038765</ele><time>2025-07-06T15:38:10Z</time><extensions><speed>0.000000</speed><course>80.387755</course><hAcc>2.899210</hAcc><vAcc>2.090902</vAcc></extensions></trkpt>
    </trkseg>
  </trk>
</gpx>