<?xml version="1.0" encoding="UTF-8"?>
<gpx version="1.1" creator="Apple Health Export" xmlns="http://www.topografix.com/GPX/1/1" xmlns:xsi="http://www.w3.org/2001/XMLSchema-instance" xsi:schemaLocation="http://www.topografix.com/GPX/1/1 http://www.topografix.com/GPX/1/1/gpx.xsd">
  <metadata>
    <time>2026-03-14T12:16:41Z</time>
  </metadata>
  <trk>
    <name>Route 2024-10-01 12:00pm</name>
    <trkseg>
      <trkpt lon="-82.146771" lat="33.556995"><ele>86.325716</ele><time>2024-10-01T15:54:02Z</time><extensions><speed>1.435802</speed><course>190.601119</course><hAcc>2.899553</hAcc><vAcc>1.821432</vAcc></extensions></trkpt>
      <trkpt lon="-82.146774" lat="33.556983"><ele>86.353279</ele><time>2024-10-01T15:54:03Z</time><extensions><speed>1.420061</speed><course>190.107077</course><hAcc>2.663648</hAcc><vAcc>1.621645</vAcc></extensions></trkpt>
      <trkpt lon="-82.146777" lat="33.556972"><ele>86.391030</ele><time>2024-10-01T15:54:04Z</time><extensions><speed>1.383051</speed><course>190.966038</course><hAcc>2.487750</hAcc><vAcc>1.461505</vAcc></extensions></trkpt>
      <trkpt lon="-82.146779" lat="33.556960"><ele>86.437126</ele><time>2024-10-01T15:54:05Z</time><extensions><speed>1.343136</speed><course>191.787842</course><hAcc>2.384540</hAcc><vAcc>1.335774</vAcc></extensions></trkpt>
      <trkpt lon="-82.146782" lat="33.556949"><ele>86.491118</ele><time>2024-10-01T15:54:06Z</time><extensions><speed>1.327994</speed><course>192.886762</course><hAcc>2.310695</hAcc><vAcc>1.239594</vAcc></extensions></trkpt>
      <trkpt lon="-82.146785" lat="33.556937"><ele>86.547714</ele><time>2024-10-01T15:54:07Z</time><extensions><speed>1.353490</speed><course>198.099712</course><hAcc>2.235044</hAcc><vAcc>1.168333</vAcc></extensions></trkpt>
      <trkpt lon="-82.146790" lat="33.556926"><ele>86.603674</ele><time>2024-10-01T15:54:08Z</time><extensions><speed>1.328119</speed><course>204.087094</course><hAcc>2.158816</hAcc><vAcc>1.117518</vAcc></extensions></trkpt>
      <trkpt lon="-82.146796" lat="33.556915"><ele>86.660835</ele><time>2024-10-01T15:54:09Z</time><extensions><speed>1.316183</speed><course>206.440462</course><hAcc>2.100786</hAcc><vAcc>1.082929</vAcc></extensions></trkpt>
      <trkpt lon="-82.146802" lat="33.556904"><ele>86.714520</ele><time>2024-10-01T15:54:10Z</time><extensions><speed>1.343287</speed><course>205.863848</course><hAcc>2.057329</hAcc><vAcc>1.060778</vAcc></extensions></trkpt>
      <trkpt lon="-82.146808" lat="33.556893"><ele>86.768957</ele><time>2024-10-01T15:54:11Z</time><extensions><speed>1.288542</speed><course>205.274423</course><hAcc>2.023661</hAcc><vAcc>1.047693</vAcc></extensions></trkpt>
      <trkpt lon="-82.146815" lat="33.556882"><ele>86.824445</ele><time>2024-10-01T15:54:12Z</time><extensions><speed>1.272197</speed><course>205.338292</course><hAcc>2.029835</hAcc><vAcc>1.040984</vAcc></extensions></trkpt>
      <trkpt lon="-82.146820" lat="33.556871"><ele>86.878034</ele><time>2024-10-01T15:54:13Z</time><extensions><speed>1.255299</speed><course>199.866818</course><hAcc>1.974709</hAcc><vAcc>1.038465</vAcc></extensions></trkpt>
      <trkpt lon="-82.146825" lat="33.556860"><ele>86.930979</ele><time>2024-10-01T15:54:14Z</time><extensions><speed>1.268862</speed><course>194.468658</course><hAcc>1.943425</hAcc><vAcc>1.038569</vAcc></extensions></trkpt>
      <trkpt lon="-82.146828" lat="33.556848"><ele>86.987526</ele><time>2024-10-01T15:54:15Z</time><extensions><speed>1.278786</speed><course>192.218190</course><hAcc>1.926410</hAcc><vAcc>1.040081</vAcc></extensions></trkpt>
      <trkpt lon="-82.146832" lat="33.556836"><ele>87.047141</ele><time>2024-10-01T15:54:16Z</time><extensions><speed>1.327160</speed><course>190.376174</course><hAcc>1.880381</hAcc><vAcc>1.042159</vAcc></extensions></trkpt>
      <trkpt lon="-82.146835" lat="33.556824"><ele>87.102353</ele><time>2024-10-01T15:54:17Z</time><extensions><speed>1.363242</speed><course>188.734510</course><hAcc>1.870165</hAcc><vAcc>1.044261</vAcc></extensions></trkpt>
      <trkpt lon="-82.146838" lat="33.556812"><ele>87.155891</ele><time>2024-10-01T15:54:18Z</time><extensions><speed>1.311960</speed><course>185.488460</course><hAcc>1.901206</hAcc><vAcc>1.046064</vAcc></extensions></trkpt>
      <trkpt lon="-82.146840" lat="33.556800"><ele>87.200117</ele><time>2024-10-01T15:54:19Z</time><extensions><speed>1.363684</speed><course>188.512890</course><hAcc>1.847106</hAcc><vAcc>1.047283</vAcc></extensions></trkpt>
      <trkpt lon="-82.146844" lat="33.556789"><ele>87.241189</ele><time>2024-10-01T15:54:20Z</time><extensions><speed>1.318083</speed><course>189.276078</course><hAcc>1.850892</hAcc><vAcc>1.047819</vAcc></extensions></trkpt>
      <trkpt lon="-82.146848" lat="33.556777"><ele>87.276783</ele><time>2024-10-01T15:54:21Z</time><extensions><speed>1.434447</speed><course>197.985160</course><hAcc>1.812194</hAcc><vAcc>1.047556</vAcc></extensions></trkpt>
      <trkpt lon="-82.146854" lat="33.556764"><ele>87.308283</ele><time>2024-10-01T15:54:22Z</time><extensions><speed>1.532477</speed><course>199.896158</course><hAcc>1.788715</hAcc><vAcc>1.046475</vAcc></extensions></trkpt>
      <trkpt lon="-82.146861" lat="33.556751"><ele>87.335872</ele><time>2024-10-01T15:54:23Z</time><extensions><speed>1.506890</speed><course>198.101894</course><hAcc>1.808087</hAcc><vAcc>1.044629</vAcc></extensions></trkpt>
      <trkpt lon="-82.146866" lat="33.556738"><ele>87.358262</ele><time>2024-10-01T15:54:24Z</time><extensions><speed>1.558389</speed><course>198.801702</course><hAcc>1.781661</hAcc><vAcc>1.042075</vAcc></extensions></trkpt>
      <trkpt lon="-82.146872" lat="33.556725"><ele>87.374508</ele><time>2024-10-01T15:54:25Z</time><extensions><speed>1.547623</speed><course>199.072110</course><hAcc>1.776016</hAcc><vAcc>1.038907</vAcc></extensions></trkpt>
      <trkpt lon="-82.146879" lat="33.556712"><ele>87.387797</ele><time>2024-10-01T15:54:26Z</time><extensions><speed>1.539674</speed><course>201.624456</course><hAcc>1.780464</hAcc><vAcc>1.035216</vAcc></extensions></trkpt>
      <trkpt lon="-82.146885" lat="33.556700"><ele>87.399534</ele><time>2024-10-01T15:54:27Z</time><extensions><speed>1.510560</speed><course>201.844751</course><hAcc>1.786006</hAcc><vAcc>1.031102</vAcc></extensions></trkpt>
      <trkpt lon="-82.146891" lat="33.556687"><ele>87.409482</ele><time>2024-10-01T15:54:28Z</time><extensions><speed>1.508147</speed><course>205.479785</course><hAcc>1.781319</hAcc><vAcc>1.026649</vAcc></extensions></trkpt>
      <trkpt lon="-82.146898" lat="33.556675"><ele>87.418518</ele><time>2024-10-01T15:54:29Z</time><extensions><speed>1.491895</speed><course>203.196980</course><hAcc>1.812470</hAcc><vAcc>1.021945</vAcc></extensions></trkpt>
      <trkpt lon="-82.146905" lat="33.556663"><ele>87.426920</ele><time>2024-10-01T15:54:30Z</time><extensions><speed>1.493879</speed><course>205.947993</course><hAcc>1.807336</hAcc><vAcc>1.017082</vAcc></extensions></trkpt>
      <trkpt lon="-82.146911" lat="33.556651"><ele>87.428981</ele><time>2024-10-01T15:54:31Z</time><extensions><speed>1.478969</speed><course>203.577471</course><hAcc>1.830633</hAcc><vAcc>1.012137</vAcc></extensions></trkpt>
      <trkpt lon="-82.146917" lat="33.556639"><ele>87.429452</ele><time>2024-10-01T15:54:32Z</time><extensions><speed>1.463726</speed><course>201.585981</course><hAcc>1.834276</hAcc><vAcc>1.007166</vAcc></extensions></trkpt>
      <trkpt lon="-82.146923" lat="33.556627"><ele>87.428442</ele><time>2024-10-01T15:54:33Z</time><extensions><speed>1.444586</speed><course>200.826023</course><hAcc>1.827548</hAcc><vAcc>1.002259</vAcc></extensions></trkpt>
      <trkpt lon="-82.146927" lat="33.556615"><ele>87.425059</ele><time>2024-10-01T15:54:34Z</time><extensions><speed>1.413619</speed><course>197.681734</course><hAcc>1.849710</hAcc><vAcc>0.997599</vAcc></extensions></trkpt>
      <trkpt lon="-82.146932" lat="33.556603"><ele>87.421666</ele><time>2024-10-01T15:54:35Z</time><extensions><speed>1.385517</speed><course>198.073462</course><hAcc>1.842115</hAcc><vAcc>0.993345</vAcc></extensions></trkpt>
      <trkpt lon="-82.146937" lat="33.556591"><ele>87.416051</ele><time>2024-10-01T15:54:36Z</time><extensions><speed>1.368765</speed><course>197.472810</course><hAcc>1.864273</hAcc><vAcc>0.989620</vAcc></extensions></trkpt>
      <trkpt lon="-82.146941" lat="33.556580"><ele>87.411974</ele><time>2024-10-01T15:54:37Z</time><extensions><speed>1.360937</speed><course>200.175969</course><hAcc>1.850389</hAcc><vAcc>0.986478</vAcc></extensions></trkpt>
      <trkpt lon="-82.146947" lat="33.556569"><ele>87.421658</ele><time>2024-10-01T15:54:38Z</time><extensions><speed>1.354300</speed><course>199.783394</course><hAcc>1.850690</hAcc><vAcc>0.983991</vAcc></extensions></trkpt>
      <trkpt lon="-82.146952" lat="33.556557"><ele>87.439313</ele><time>2024-10-01T15:54:39Z</time><extensions><speed>1.333891</speed><course>198.584086</course><hAcc>1.881170</hAcc><vAcc>0.982181</vAcc></extensions></trkpt>
      <trkpt lon="-82.146956" lat="33.556546"><ele>87.463540</ele><time>2024-10-01T15:54:40Z</time><extensions><speed>1.314577</speed><course>192.550604</course><hAcc>1.881219</hAcc><vAcc>0.981110</vAcc></extensions></trkpt>
      <trkpt lon="-82.146959" lat="33.556535"><ele>87.501570</ele><time>2024-10-01T15:54:41Z</time><extensions><speed>1.304654</speed><course>187.403028</course><hAcc>1.871455</hAcc><vAcc>0.980785</vAcc></extensions></trkpt>
      <trkpt lon="-82.146961" lat="33.556523"><ele>87.545426</ele><time>2024-10-01T15:54:42Z</time><extensions><speed>1.316927</speed><course>184.764788</course><hAcc>1.892442</hAcc><vAcc>0.981240</vAcc></extensions></trkpt>
      <trkpt lon="-82.146962" lat="33.556512"><ele>87.592080</ele><time>2024-10-01T15:54:43Z</time><extensions><speed>1.298435</speed><course>186.274058</course><hAcc>1.874114</hAcc><vAcc>0.982558</vAcc></extensions></trkpt>
      <trkpt lon="-82.146964" lat="33.556501"><ele>87.640511</ele><time>2024-10-01T15:54:44Z</time><extensions><speed>1.263247</speed><course>187.531567</course><hAcc>1.879931</hAcc><vAcc>0.984778</vAcc></extensions></trkpt>
      <trkpt lon="-82.146966" lat="33.556490"><ele>87.689375</ele><time>2024-10-01T15:54:45Z</time><extensions><speed>1.218897</speed><course>189.108802</course><hAcc>1.888864</hAcc><vAcc>0.987878</vAcc></extensions></trkpt>
      <trkpt lon="-82.146968" lat="33.556479"><ele>87.743601</ele><time>2024-10-01T15:54:46Z</time><extensions><speed>1.203709</speed><course>191.229705</course><hAcc>1.895659</hAcc><vAcc>0.991759</vAcc></extensions></trkpt>
      <trkpt lon="-82.146971" lat="33.556469"><ele>87.803793</ele><time>2024-10-01T15:54:47Z</time><extensions><speed>1.224046</speed><course>191.380668</course><hAcc>1.910292</hAcc><vAcc>0.996195</vAcc></extensions></trkpt>
      <trkpt lon="-82.146974" lat="33.556458"><ele>87.868540</ele><time>2024-10-01T15:54:48Z</time><extensions><speed>1.284931</speed><course>192.048670</course><hAcc>1.924239</hAcc><vAcc>1.001003</vAcc></extensions></trkpt>
      <trkpt lon="-82.146977" lat="33.556447"><ele>87.939766</ele><time>2024-10-01T15:54:49Z</time><extensions><speed>1.246305</speed><course>197.006693</course><hAcc>1.892417</hAcc><vAcc>1.005927</vAcc></extensions></trkpt>
      <trkpt lon="-82.146981" lat="33.556437"><ele>88.006264</ele><time>2024-10-01T15:54:50Z</time><extensions><speed>1.213783</speed><course>197.579569</course><hAcc>1.888693</hAcc><vAcc>1.010845</vAcc></extensions></trkpt>
      <trkpt lon="-82.146985" lat="33.556428"><ele>88.066869</ele><time>2024-10-01T15:54:51Z</time><extensions><speed>1.186924</speed><course>196.369338</course><hAcc>1.893175</hAcc><vAcc>1.015541</vAcc></extensions></trkpt>
      <trkpt lon="-82.146988" lat="33.556419"><ele>88.121038</ele><time>2024-10-01T15:54:52Z</time><extensions><speed>1.170215</speed><course>193.297596</course><hAcc>1.876090</hAcc><vAcc>1.019864</vAcc></extensions></trkpt>
      <trkpt lon="-82.146991" lat="33.556410"><ele>88.171918</ele><time>2024-10-01T15:54:53Z</time><extensions><speed>1.182031</speed><course>194.066101</course><hAcc>1.877497</hAcc><vAcc>1.023672</vAcc></extensions></trkpt>
      <trkpt lon="-82.146994" lat="33.556400"><ele>88.264149</ele><time>2024-10-01T15:54:54Z</time><extensions><speed>1.262466</speed><course>193.449776</course><hAcc>1.902276</hAcc><vAcc>1.021713</vAcc></extensions></trkpt>
      <trkpt lon="-82.146996" lat="33.556390"><ele>88.351874</ele><time>2024-10-01T15:54:55Z</time><extensions><speed>1.171157</speed><course>191.174895</course><hAcc>1.871086</hAcc><vAcc>1.018149</vAcc></extensions></trkpt>
      <trkpt lon="-82.146998" lat="33.556380"><ele>88.433494</ele><time>2024-10-01T15:54:56Z</time><extensions><speed>1.131041</speed><course>189.671050</course><hAcc>1.852089</hAcc><vAcc>1.013159</vAcc></extensions></trkpt>
      <trkpt lon="-82.147000" lat="33.556371"><ele>88.511243</ele><time>2024-10-01T15:54:57Z</time><extensions><speed>1.100209</speed><course>187.429495</course><hAcc>1.867421</hAcc><vAcc>1.006850</vAcc></extensions></trkpt>
      <trkpt lon="-82.147000" lat="33.556361"><ele>88.584006</ele><time>2024-10-01T15:54:58Z</time><extensions><speed>1.057646</speed><course>185.412876</course><hAcc>1.878545</hAcc><vAcc>0.999253</vAcc></extensions></trkpt>
      <trkpt lon="-82.147001" lat="33.556352"><ele>88.649832</ele><time>2024-10-01T15:54:59Z</time><extensions><speed>0.999822</speed><course>180.675653</course><hAcc>1.894357</hAcc><vAcc>0.990365</vAcc></extensions></trkpt>
      <trkpt lon="-82.146999" lat="33.556345"><ele>88.711618</ele><time>2024-10-01T15:55:00Z</time><extensions><speed>0.824341</speed><course>168.742983</course><hAcc>1.900154</hAcc><vAcc>0.980229</vAcc></extensions></trkpt>
      <trkpt lon="-82.146997" lat="33.556339"><ele>88.767954</ele><time>2024-10-01T15:55:01Z</time><extensions><speed>0.640901</speed><course>156.190878</course><hAcc>1.925876</hAcc><vAcc>0.969021</vAcc></extensions></trkpt>
      <trkpt lon="-82.146993" lat="33.556335"><ele>88.820445</ele><time>2024-10-01T15:55:02Z</time><extensions><speed>0.315080</speed><course>135.214345</course><hAcc>1.955637</hAcc><vAcc>0.956992</vAcc></extensions></trkpt>
      <trkpt lon="-82.146990" lat="33.556334"><ele>88.870576</ele><time>2024-10-01T15:55:03Z</time><extensions><speed>0.256224</speed><course>111.419651</course><hAcc>1.973101</hAcc><vAcc>0.944494</vAcc></extensions></trkpt>
      <trkpt lon="-82.146987" lat="33.556334"><ele>88.917931</ele><time>2024-10-01T15:55:04Z</time><extensions><speed>0.225088</speed><course>93.368929</course><hAcc>1.992144</hAcc><vAcc>0.932030</vAcc></extensions></trkpt>
      <trkpt lon="-82.146983" lat="33.556335"><ele>88.958418</ele><time>2024-10-01T15:55:05Z</time><extensions><speed>0.300270</speed><course>83.035203</course><hAcc>1.996002</hAcc><vAcc>0.920202</vAcc></extensions></trkpt>
      <trkpt lon="-82.146979" lat="33.556336"><ele>88.989769</ele><time>2024-10-01T15:55:06Z</time><extensions><speed>0.349910</speed><course>104.035337</course><hAcc>2.034974</hAcc><vAcc>0.909588</vAcc></extensions></trkpt>
      <trkpt lon="-82.146973" lat="33.556335"><ele>89.014918</ele><time>2024-10-01T15:55:07Z</time><extensions><speed>0.782645</speed><course>113.677690</course><hAcc>2.041915</hAcc><vAcc>0.900643</vAcc></extensions></trkpt>
      <trkpt lon="-82.146962" lat="33.556333"><ele>89.033964</ele><time>2024-10-01T15:55:08Z</time><extensions><speed>1.038644</speed><course>102.623934</course><hAcc>2.030531</hAcc><vAcc>0.893684</vAcc></extensions></trkpt>
      <trkpt lon="-82.146950" lat="33.556332"><ele>89.043854</ele><time>2024-10-01T15:55:09Z</time><extensions><speed>1.113299</speed><course>101.327848</course><hAcc>2.021659</hAcc><vAcc>0.888867</vAcc></extensions></trkpt>
      <trkpt lon="-82.146937" lat="33.556331"><ele>89.047608</ele><time>2024-10-01T15:55:10Z</time><extensions><speed>1.212148</speed><course>99.595305</course><hAcc>2.012397</hAcc><vAcc>0.886186</vAcc></extensions></trkpt>
      <trkpt lon="-82.146924" lat="33.556331"><ele>89.045837</ele><time>2024-10-01T15:55:11Z</time><extensions><speed>1.284525</speed><course>99.644865</course><hAcc>2.007642</hAcc><vAcc>0.885531</vAcc></extensions></trkpt>
      <trkpt lon="-82.146909" lat="33.556330"><ele>89.038150</ele><time>2024-10-01T15:55:12Z</time><extensions><speed>1.403760</speed><course>99.867984</course><hAcc>2.000587</hAcc><vAcc>0.886681</vAcc></extensions></trkpt>
      <trkpt lon="-82.146894" lat="33.556330"><ele>89.024004</ele><time>2024-10-01T15:55:13Z</time><extensions><speed>1.480887</speed><course>96.267523</course><hAcc>1.985313</hAcc><vAcc>0.889340</vAcc></extensions></trkpt>
      <trkpt lon="-82.146878" lat="33.556331"><ele>89.002589</ele><time>2024-10-01T15:55:14Z</time><extensions><speed>1.512079</speed><course>92.353869</course><hAcc>1.956469</hAcc><vAcc>0.893244</vAcc></extensions></trkpt>
      <trkpt lon="-82.146862" lat="33.556333"><ele>88.973024</ele><time>2024-10-01T15:55:15Z</time><extensions><speed>1.533002</speed><course>92.088047</course><hAcc>1.933907</hAcc><vAcc>0.898083</vAcc></extensions></trkpt>
      <trkpt lon="-82.146847" lat="33.556334"><ele>88.939037</ele><time>2024-10-01T15:55:16Z</time><extensions><speed>1.528822</speed><course>93.704475</course><hAcc>1.912967</hAcc><vAcc>0.903593</vAcc></extensions></trkpt>
      <trkpt lon="-82.146831" lat="33.556336"><ele>88.898209</ele><time>2024-10-01T15:55:17Z</time><extensions><speed>1.561501</speed><course>89.716763</course><hAcc>1.882917</hAcc><vAcc>0.909537</vAcc></extensions></trkpt>
      <trkpt lon="-82.146815" lat="33.556337"><ele>88.851436</ele><time>2024-10-01T15:55:18Z</time><extensions><speed>1.511852</speed><course>95.990771</course><hAcc>1.850862</hAcc><vAcc>0.915664</vAcc></extensions></trkpt>
      <trkpt lon="-82.146800" lat="33.556338"><ele>88.795353</ele><time>2024-10-01T15:55:19Z</time><extensions><speed>1.545066</speed><course>96.076750</course><hAcc>1.834386</hAcc><vAcc>0.921822</vAcc></extensions></trkpt>
      <trkpt lon="-82.146784" lat="33.556340"><ele>88.729856</ele><time>2024-10-01T15:55:20Z</time><extensions><speed>1.520481</speed><course>81.721185</course><hAcc>1.786879</hAcc><vAcc>0.927894</vAcc></extensions></trkpt>
      <trkpt lon="-82.146769" lat="33.556344"><ele>88.660108</ele><time>2024-10-01T15:55:21Z</time><extensions><speed>1.462702</speed><course>80.373600</course><hAcc>1.764774</hAcc><vAcc>0.933830</vAcc></extensions></trkpt>
      <trkpt lon="-82.146754" lat="33.556347"><ele>88.586397</ele><time>2024-10-01T15:55:22Z</time><extensions><speed>1.467201</speed><course>80.024490</course><hAcc>1.764407</hAcc><vAcc>0.939495</vAcc></extensions></trkpt>
      <trkpt lon="-82.146739" lat="33.556352"><ele>88.516530</ele><time>2024-10-01T15:55:23Z</time><extensions><speed>1.457958</speed><course>70.691533</course><hAcc>1.728805</hAcc><vAcc>0.944862</vAcc></extensions></trkpt>
      <trkpt lon="-82.146725" lat="33.556359"><ele>88.445203</ele><time>2024-10-01T15:55:24Z</time><extensions><speed>1.439934</speed><course>64.813021</course><hAcc>1.723943</hAcc><vAcc>0.949959</vAcc></extensions></trkpt>
      <trkpt lon="-82.146710" lat="33.556367"><ele>88.373188</ele><time>2024-10-01T15:55:25Z</time><extensions><speed>1.487117</speed><course>62.997884</course><hAcc>1.690503</hAcc><vAcc>0.954759</vAcc></extensions></trkpt>
      <trkpt lon="-82.146696" lat="33.556374"><ele>88.297823</ele><time>2024-10-01T15:55:26Z</time><extensions><speed>1.490119</speed><course>64.913753</course><hAcc>1.681320</hAcc><vAcc>0.959239</vAcc></extensions></trkpt>
      <trkpt lon="-82.146681" lat="33.556381"><ele>88.220432</ele><time>2024-10-01T15:55:27Z</time><extensions><speed>1.449161</speed><course>65.720462</course><hAcc>1.688412</hAcc><vAcc>0.963374</vAcc></extensions></trkpt>
      <trkpt lon="-82.146666" lat="33.556389"><ele>88.148607</ele><time>2024-10-01T15:55:28Z</time><extensions><speed>1.525646</speed><course>62.601840</course><hAcc>1.656056</hAcc><vAcc>0.967141</vAcc></extensions></trkpt>
      <trkpt lon="-82.146651" lat="33.556397"><ele>88.078175</ele><time>2024-10-01T15:55:29Z</time><extensions><speed>1.533403</speed><course>63.042787</course><hAcc>1.658430</hAcc><vAcc>0.970499</vAcc></extensions></trkpt>
      <trkpt lon="-82.146637" lat="33.556404"><ele>88.009428</ele><time>2024-10-01T15:55:30Z</time><extensions><speed>1.423386</speed><course>64.436935</course><hAcc>1.676590</hAcc><vAcc>0.973480</vAcc></extensions></trkpt>
      <trkpt lon="-82.146623" lat="33.556412"><ele>87.941030</ele><time>2024-10-01T15:55:31Z</time><extensions><speed>1.575381</speed><course>56.267882</course><hAcc>1.647651</hAcc><vAcc>0.976098</vAcc></extensions></trkpt>
      <trkpt lon="-82.146609" lat="33.556420"><ele>87.873789</ele><time>2024-10-01T15:55:32Z</time><extensions><speed>1.460708</speed><course>64.261020</course><hAcc>1.682082</hAcc><vAcc>0.978443</vAcc></extensions></trkpt>
      <trkpt lon="-82.146594" lat="33.556427"><ele>87.804529</ele><time>2024-10-01T15:55:33Z</time><extensions><speed>1.587457</speed><course>67.145701</course><hAcc>1.661189</hAcc><vAcc>0.980641</vAcc></extensions></trkpt>
      <trkpt lon="-82.146579" lat="33.556434"><ele>87.737401</ele><time>2024-10-01T15:55:34Z</time><extensions><speed>1.662232</speed><course>64.388878</course><hAcc>1.665391</hAcc><vAcc>0.982850</vAcc></extensions></trkpt>
      <trkpt lon="-82.146564" lat="33.556442"><ele>87.672167</ele><time>2024-10-01T15:55:35Z</time><extensions><speed>1.602789</speed><course>54.575829</course><hAcc>1.681256</hAcc><vAcc>0.985156</vAcc></extensions></trkpt>
      <trkpt lon="-82.146550" lat="33.556451"><ele>87.607104</ele><time>2024-10-01T15:55:36Z</time><extensions><speed>1.778965</speed><course>60.478984</course><hAcc>1.675748</hAcc><vAcc>0.987592</vAcc></extensions></trkpt>
      <trkpt lon="-82.146534" lat="33.556460"><ele>87.540213</ele><time>2024-10-01T15:55:37Z</time><extensions><speed>1.804659</speed><course>59.712205</course><hAcc>1.672623</hAcc><vAcc>0.990151</vAcc></extensions></trkpt>
      <trkpt lon="-82.146519" lat="33.556470"><ele>87.470262</ele><time>2024-10-01T15:55:38Z</time><extensions><speed>1.793514</speed><course>57.645852</course><hAcc>1.684685</hAcc><vAcc>0.992878</vAcc></extensions></trkpt>
      <trkpt lon="-82.146504" lat="33.556479"><ele>87.397369</ele><time>2024-10-01T15:55:39Z</time><extensions><speed>1.746767</speed><course>55.882021</course><hAcc>1.706846</hAcc><vAcc>0.995754</vAcc></extensions></trkpt>
      <trkpt lon="-82.146490" lat="33.556489"><ele>87.322761</ele><time>2024-10-01T15:55:40Z</time><extensions><speed>1.672288</speed><course>55.088610</course><hAcc>1.726888</hAcc><vAcc>0.998789</vAcc></extensions></trkpt>
      <trkpt lon="-82.146477" lat="33.556499"><ele>87.244673</ele><time>2024-10-01T15:55:41Z</time><extensions><speed>1.674624</speed><course>49.512120</course><hAcc>1.694570</hAcc><vAcc>1.001957</vAcc></extensions></trkpt>
      <trkpt lon="-82.146464" lat="33.556509"><ele>87.163258</ele><time>2024-10-01T15:55:42Z</time><extensions><speed>1.649354</speed><course>47.913277</course><hAcc>1.695294</hAcc><vAcc>1.005205</vAcc></extensions></trkpt>
      <trkpt lon="-82.146453" lat="33.556521"><ele>87.074226</ele><time>2024-10-01T15:55:43Z</time><extensions><speed>1.687897</speed><course>32.770839</course><hAcc>1.694702</hAcc><vAcc>1.008420</vAcc></extensions></trkpt>
      <trkpt lon="-82.146443" lat="33.556533"><ele>86.978534</ele><time>2024-10-01T15:55:44Z</time><extensions><speed>1.570856</speed><course>42.831721</course><hAcc>1.713150</hAcc><vAcc>1.011486</vAcc></extensions></trkpt>
      <trkpt lon="-82.146432" lat="33.556544"><ele>86.877064</ele><time>2024-10-01T15:55:45Z</time><extensions><speed>1.538236</speed><course>47.755989</course><hAcc>1.733786</hAcc><vAcc>1.014285</vAcc></extensions></trkpt>
      <trkpt lon="-82.146421" lat="33.556553"><ele>86.770063</ele><time>2024-10-01T15:55:46Z</time><extensions><speed>1.498179</speed><course>44.866187</course><hAcc>1.697759</hAcc><vAcc>1.016703</vAcc></extensions></trkpt>
      <trkpt lon="-82.146410" lat="33.556563"><ele>86.659171</ele><time>2024-10-01T15:55:47Z</time><extensions><speed>1.493267</speed><course>41.734779</course><hAcc>1.694442</hAcc><vAcc>1.018621</vAcc></extensions></trkpt>
      <trkpt lon="-82.146400" lat="33.556573"><ele>86.548662</ele><time>2024-10-01T15:55:48Z</time><extensions><speed>1.479043</speed><course>44.605401</course><hAcc>1.703584</hAcc><vAcc>1.019934</vAcc></extensions></trkpt>
      <trkpt lon="-82.146389" lat="33.556583"><ele>86.439048</ele><time>2024-10-01T15:55:49Z</time><extensions><speed>1.466543</speed><course>44.984304</course><hAcc>1.675959</hAcc><vAcc>1.020665</vAcc></extensions></trkpt>
      <trkpt lon="-82.146378" lat="33.556593"><ele>86.326245</ele><time>2024-10-01T15:55:50Z</time><extensions><speed>1.471976</speed><course>47.130165</course><hAcc>1.680781</hAcc><vAcc>1.021035</vAcc></extensions></trkpt>
      <trkpt lon="-82.146367" lat="33.556603"><ele>86.205857</ele><time>2024-10-01T15:55:51Z</time><extensions><speed>1.465093</speed><course>44.192980</course><hAcc>1.641278</hAcc><vAcc>1.021119</vAcc></extensions></trkpt>
      <trkpt lon="-82.146356" lat="33.556612"><ele>86.085354</ele><time>2024-10-01T15:55:52Z</time><extensions><speed>1.463456</speed><course>50.047839</course><hAcc>1.668513</hAcc><vAcc>1.021030</vAcc></extensions></trkpt>
      <trkpt lon="-82.146344" lat="33.556621"><ele>85.963781</ele><time>2024-10-01T15:55:53Z</time><extensions><speed>1.483267</speed><course>56.486815</course><hAcc>1.688790</hAcc><vAcc>1.020824</vAcc></extensions></trkpt>
      <trkpt lon="-82.146330" lat="33.556628"><ele>85.839580</ele><time>2024-10-01T15:55:54Z</time><extensions><speed>1.476958</speed><course>58.832220</course><hAcc>1.667749</hAcc><vAcc>1.020556</vAcc></extensions></trkpt>
      <trkpt lon="-82.146317" lat="33.556636"><ele>85.716093</ele><time>2024-10-01T15:55:55Z</time><extensions><speed>1.499379</speed><course>60.830864</course><hAcc>1.676998</hAcc><vAcc>1.020387</vAcc></extensions></trkpt>
      <trkpt lon="-82.146303" lat="33.556642"><ele>85.591285</ele><time>2024-10-01T15:55:56Z</time><extensions><speed>1.469348</speed><course>61.808696</course><hAcc>1.651622</hAcc><vAcc>1.020298</vAcc></extensions></trkpt>
      <trkpt lon="-82.146290" lat="33.556649"><ele>85.466844</ele><time>2024-10-01T15:55:57Z</time><extensions><speed>1.466058</speed><course>62.683577</course><hAcc>1.665444</hAcc><vAcc>1.020452</vAcc></extensions></trkpt>
      <trkpt lon="-82.146276" lat="33.556655"><ele>85.347759</ele><time>2024-10-01T15:55:58Z</time><extensions><speed>1.482627</speed><course>60.985251</course><hAcc>1.690670</hAcc><vAcc>1.020853</vAcc></extensions></trkpt>
      <trkpt lon="-82.146263" lat="33.556662"><ele>85.229641</ele><time>2024-10-01T15:55:59Z</time><extensions><speed>1.464543</speed><course>57.922219</course><hAcc>1.669826</hAcc><vAcc>1.021493</vAcc></extensions></trkpt>
      <trkpt lon="-82.146250" lat="33.556670"><ele>85.112411</ele><time>2024-10-01T15:56:00Z</time><extensions><speed>1.471232</speed><course>59.024943</course><hAcc>1.710309</hAcc><vAcc>1.022424</vAcc></extensions></trkpt>
      <trkpt lon="-82.146237" lat="33.556676"><ele>84.997992</ele><time>2024-10-01T15:56:01Z</time><extensions><speed>1.528047</speed><course>64.572467</course><hAcc>1.765978</hAcc><vAcc>1.023573</vAcc></extensions></trkpt>
      <trkpt lon="-82.146223" lat="33.556682"><ele>84.885158</ele><time>2024-10-01T15:56:02Z</time><extensions><speed>1.494406</speed><course>62.891184</course><hAcc>1.733698</hAcc><vAcc>1.024824</vAcc></extensions></trkpt>
      <trkpt lon="-82.146209" lat="33.556688"><ele>84.779380</ele><time>2024-10-01T15:56:03Z</time><extensions><speed>1.532460</speed><course>66.847269</course><hAcc>1.761653</hAcc><vAcc>1.026067</vAcc></extensions></trkpt>
      <trkpt lon="-82.146195" lat="33.556694"><ele>84.680237</ele><time>2024-10-01T15:56:04Z</time><extensions><speed>1.455352</speed><course>61.195855</course><hAcc>1.720104</hAcc><vAcc>1.027250</vAcc></extensions></trkpt>
      <trkpt lon="-82.146182" lat="33.556700"><ele>84.586324</ele><time>2024-10-01T15:56:05Z</time><extensions><speed>1.445971</speed><course>59.480814</course><hAcc>1.742537</hAcc><vAcc>1.028338</vAcc></extensions></trkpt>
      <trkpt lon="-82.146168" lat="33.556706"><ele>84.493212</ele><time>2024-10-01T15:56:06Z</time><extensions><speed>1.526697</speed><course>65.404056</course><hAcc>1.798364</hAcc><vAcc>1.029233</vAcc></extensions></trkpt>
      <trkpt lon="-82.146154" lat="33.556711"><ele>84.401782</ele><time>2024-10-01T15:56:07Z</time><extensions><speed>1.447563</speed><course>69.128654</course><hAcc>1.778344</hAcc><vAcc>1.029984</vAcc></extensions></trkpt>
      <trkpt lon="-82.146140" lat="33.556716"><ele>84.313803</ele><time>2024-10-01T15:56:08Z</time><extensions><speed>1.490057</speed><course>68.277288</course><hAcc>1.784279</hAcc><vAcc>1.030629</vAcc></extensions></trkpt>
      <trkpt lon="-82.146126" lat="33.556721"><ele>84.237890</ele><time>2024-10-01T15:56:09Z</time><extensions><speed>1.358842</speed><course>68.527332</course><hAcc>1.757004</hAcc><vAcc>1.031142</vAcc></extensions></trkpt>
      <trkpt lon="-82.146113" lat="33.556725"><ele>84.166754</ele><time>2024-10-01T15:56:10Z</time><extensions><speed>1.276554</speed><course>69.249835</course><hAcc>1.748518</hAcc><vAcc>1.031489</vAcc></extensions></trkpt>
      <trkpt lon="-82.146100" lat="33.556728"><ele>84.101458</ele><time>2024-10-01T15:56:11Z</time><extensions><speed>1.259984</speed><course>74.172505</course><hAcc>1.777570</hAcc><vAcc>1.031645</vAcc></extensions></trkpt>
      <trkpt lon="-82.146087" lat="33.556731"><ele>84.036810</ele><time>2024-10-01T15:56:12Z</time><extensions><speed>1.289542</speed><course>79.793711</course><hAcc>1.820853</hAcc><vAcc>1.031613</vAcc></extensions></trkpt>
      <trkpt lon="-82.146073" lat="33.556733"><ele>83.975663</ele><time>2024-10-01T15:56:13Z</time><extensions><speed>1.410549</speed><course>84.092194</course><hAcc>1.871827</hAcc><vAcc>1.031447</vAcc></extensions></trkpt>
      <trkpt lon="-82.146059" lat="33.556734"><ele>83.914224</ele><time>2024-10-01T15:56:14Z</time><extensions><speed>1.304897</speed><course>85.726548</course><hAcc>1.822388</hAcc><vAcc>1.031191</vAcc></extensions></trkpt>
      <trkpt lon="-82.146047" lat="33.556735"><ele>83.851977</ele><time>2024-10-01T15:56:15Z</time><extensions><speed>1.273518</speed><course>86.947366</course><hAcc>1.822762</hAcc><vAcc>1.030895</vAcc></extensions></trkpt>
      <trkpt lon="-82.146033" lat="33.556737"><ele>83.784982</ele><time>2024-10-01T15:56:16Z</time><extensions><speed>1.382054</speed><course>87.329952</course><hAcc>1.870033</hAcc><vAcc>1.030572</vAcc></extensions></trkpt>
      <trkpt lon="-82.146020" lat="33.556738"><ele>83.712140</ele><time>2024-10-01T15:56:17Z</time><extensions><speed>1.277250</speed><course>86.835700</course><hAcc>1.832190</hAcc><vAcc>1.030282</vAcc></extensions></trkpt>
      <trkpt lon="-82.146007" lat="33.556738"><ele>83.643294</ele><time>2024-10-01T15:56:18Z</time><extensions><speed>1.273970</speed><course>88.878402</course><hAcc>1.843710</hAcc><vAcc>1.030268</vAcc></extensions></trkpt>
      <trkpt lon="-82.145994" lat="33.556739"><ele>83.575277</ele><time>2024-10-01T15:56:19Z</time><extensions><speed>1.388062</speed><course>90.535022</course><hAcc>1.884048</hAcc><vAcc>1.030764</vAcc></extensions></trkpt>
      <trkpt lon="-82.145980" lat="33.556739"><ele>83.507072</ele><time>2024-10-01T15:56:20Z</time><extensions><speed>1.310008</speed><course>93.144529</course><hAcc>1.858003</hAcc><vAcc>1.031904</vAcc></extensions></trkpt>
      <trkpt lon="-82.145966" lat="33.556738"><ele>83.439044</ele><time>2024-10-01T15:56:21Z</time><extensions><speed>1.408448</speed><course>96.749281</course><hAcc>1.868377</hAcc><vAcc>1.033718</vAcc></extensions></trkpt>
      <trkpt lon="-82.145953" lat="33.556737"><ele>83.371258</ele><time>2024-10-01T15:56:22Z</time><extensions><speed>1.276613</speed><course>94.563995</course><hAcc>1.831818</hAcc><vAcc>1.036211</vAcc></extensions></trkpt>
      <trkpt lon="-82.145940" lat="33.556736"><ele>83.306088</ele><time>2024-10-01T15:56:23Z</time><extensions><speed>1.241742</speed><course>94.283758</course><hAcc>1.855678</hAcc><vAcc>1.039359</vAcc></extensions></trkpt>
      <trkpt lon="-82.145927" lat="33.556735"><ele>83.242739</ele><time>2024-10-01T15:56:24Z</time><extensions><speed>1.375283</speed><course>93.169256</course><hAcc>1.899208</hAcc><vAcc>1.043102</vAcc></extensions></trkpt>
      <trkpt lon="-82.145913" lat="33.556735"><ele>83.180304</ele><time>2024-10-01T15:56:25Z</time><extensions><speed>1.196831</speed><course>93.875136</course><hAcc>1.925148</hAcc><vAcc>1.047389</vAcc></extensions></trkpt>
      <trkpt lon="-82.145900" lat="33.556734"><ele>83.119685</ele><time>2024-10-01T15:56:26Z</time><extensions><speed>1.273483</speed><course>95.880160</course><hAcc>1.974310</hAcc><vAcc>1.052251</vAcc></extensions></trkpt>
      <trkpt lon="-82.145888" lat="33.556733"><ele>83.062383</ele><time>2024-10-01T15:56:27Z</time><extensions><speed>1.103603</speed><course>95.192110</course><hAcc>1.966169</hAcc><vAcc>1.057692</vAcc></extensions></trkpt>
      <trkpt lon="-82.145877" lat="33.556732"><ele>83.008552</ele><time>2024-10-01T15:56:28Z</time><extensions><speed>1.031714</speed><course>94.970382</course><hAcc>2.004278</hAcc><vAcc>1.063706</vAcc></extensions></trkpt>
      <trkpt lon="-82.145866" lat="33.556731"><ele>82.960013</ele><time>2024-10-01T15:56:29Z</time><extensions><speed>1.242202</speed><course>97.125629</course><hAcc>2.101656</hAcc><vAcc>1.070212</vAcc></extensions></trkpt>
      <trkpt lon="-82.145854" lat="33.556730"><ele>82.915717</ele><time>2024-10-01T15:56:30Z</time><extensions><speed>1.033676</speed><course>97.543685</course><hAcc>2.113583</hAcc><vAcc>1.077027</vAcc></extensions></trkpt>
      <trkpt lon="-82.145844" lat="33.556729"><ele>82.875146</ele><time>2024-10-01T15:56:31Z</time><extensions><speed>0.899332</speed><course>96.065993</course><hAcc>2.169479</hAcc><vAcc>1.083873</vAcc></extensions></trkpt>
      <trkpt lon="-82.145835" lat="33.556728"><ele>82.833855</ele><time>2024-10-01T15:56:32Z</time><extensions><speed>0.787651</speed><course>93.574236</course><hAcc>2.270355</hAcc><vAcc>1.090501</vAcc></extensions></trkpt>
      <trkpt lon="-82.145828" lat="33.556728"><ele>82.797546</ele><time>2024-10-01T15:56:33Z</time><extensions><speed>0.663287</speed><course>89.685562</course><hAcc>2.399967</hAcc><vAcc>1.096725</vAcc></extensions></trkpt>
      <trkpt lon="-82.145822" lat="33.556728"><ele>82.763102</ele><time>2024-10-01T15:56:34Z</time><extensions><speed>0.500180</speed><course>85.988248</course><hAcc>2.551528</hAcc><vAcc>1.102331</vAcc></extensions></trkpt>
      <trkpt lon="-82.145818" lat="33.556729"><ele>82.727884</ele><time>2024-10-01T15:56:35Z</time><extensions><speed>0.421106</speed><course>85.397170</course><hAcc>2.720107</hAcc><vAcc>1.107108</vAcc></extensions></trkpt>
      <trkpt lon="-82.145814" lat="33.556729"><ele>82.695017</ele><time>2024-10-01T15:56:36Z</time><extensions><speed>0.317731</speed><course>85.205605</course><hAcc>2.847577</hAcc><vAcc>1.111027</vAcc></extensions></trkpt>
      <trkpt lon="-82.145812" lat="33.556729"><ele>82.666047</ele><time>2024-10-01T15:56:37Z</time><extensions><speed>0.203089</speed><course>81.742517</course><hAcc>2.919841</hAcc><vAcc>1.114036</vAcc></extensions></trkpt>
      <trkpt lon="-82.145811" lat="33.556730"><ele>82.640982</ele><time>2024-10-01T15:56:38Z</time><extensions><speed>0.142217</speed><course>80.101840</course><hAcc>2.977203</hAcc><vAcc>1.116086</vAcc></extensions></trkpt>
      <trkpt lon="-82.145811" lat="33.556730"><ele>82.618238</ele><time>2024-10-01T15:56:39Z</time><extensions><speed>0.150483</speed><course>81.184821</course><hAcc>3.013906</hAcc><vAcc>1.117098</vAcc></extensions></trkpt>
      <trkpt lon="-82.145809" lat="33.556730"><ele>82.602859</ele><time>2024-10-01T15:56:40Z</time><extensions><speed>0.214868</speed><course>82.605613</course><hAcc>3.035098</hAcc><vAcc>1.117107</vAcc></extensions></trkpt>
      <trkpt lon="-82.145807" lat="33.556731"><ele>82.594385</ele><time>2024-10-01T15:56:41Z</time><extensions><speed>0.268177</speed><course>88.229045</course><hAcc>3.039150</hAcc><vAcc>1.116134</vAcc></extensions></trkpt>
      <trkpt lon="-82.145805" lat="33.556732"><ele>82.590422</ele><time>2024-10-01T15:56:42Z</time><extensions><speed>0.362650</speed><course>89.206912</course><hAcc>3.026259</hAcc><vAcc>1.114227</vAcc></extensions></trkpt>
      <trkpt lon="-82.145802" lat="33.556733"><ele>82.589254</ele><time>2024-10-01T15:56:43Z</time><extensions><speed>0.368393</speed><course>82.162303</course><hAcc>2.994110</hAcc><vAcc>1.111482</vAcc></extensions></trkpt>
      <trkpt lon="-82.145799" lat="33.556734"><ele>82.589836</ele><time>2024-10-01T15:56:44Z</time><extensions><speed>0.412843</speed><course>79.586111</course><hAcc>2.989596</hAcc><vAcc>1.108058</vAcc></extensions></trkpt>
      <trkpt lon="-82.145795" lat="33.556735"><ele>82.593739</ele><time>2024-10-01T15:56:45Z</time><extensions><speed>0.463891</speed><course>83.266871</course><hAcc>2.993923</hAcc><vAcc>1.104087</vAcc></extensions></trkpt>
      <trkpt lon="-82.145791" lat="33.556737"><ele>82.595452</ele><time>2024-10-01T15:56:46Z</time><extensions><speed>0.442276</speed><course>81.347906</course><hAcc>2.971198</hAcc><vAcc>1.099718</vAcc></extensions></trkpt>
      <trkpt lon="-82.145788" lat="33.556738"><ele>82.600745</ele><time>2024-10-01T15:56:47Z</time><extensions><speed>0.441973</speed><course>77.462616</course><hAcc>2.942793</hAcc><vAcc>1.095001</vAcc></extensions></trkpt>
      <trkpt lon="-82.145784" lat="33.556740"><ele>82.611142</ele><time>2024-10-01T15:56:48Z</time><extensions><speed>0.429702</speed><course>73.596673</course><hAcc>2.924847</hAcc><vAcc>1.090042</vAcc></extensions></trkpt>
      <trkpt lon="-82.145781" lat="33.556742"><ele>82.622321</ele><time>2024-10-01T15:56:49Z</time><extensions><speed>0.442237</speed><course>71.935989</course><hAcc>2.918669</hAcc><vAcc>1.084913</vAcc></extensions></trkpt>
      <trkpt lon="-82.145777" lat="33.556744"><ele>82.630743</ele><time>2024-10-01T15:56:50Z</time><extensions><speed>0.460834</speed><course>67.938337</course><hAcc>2.907113</hAcc><vAcc>1.079670</vAcc></extensions></trkpt>
      <trkpt lon="-82.145774" lat="33.556747"><ele>82.637155</ele><time>2024-10-01T15:56:51Z</time><extensions><speed>0.473874</speed><course>64.421164</course><hAcc>2.891905</hAcc><vAcc>1.074360</vAcc></extensions></trkpt>
      <trkpt lon="-82.145771" lat="33.556750"><ele>82.633640</ele><time>2024-10-01T15:56:52Z</time><extensions><speed>0.463027</speed><course>55.384149</course><hAcc>2.866847</hAcc><vAcc>1.065236</vAcc></extensions></trkpt>
      <trkpt lon="-82.145768" lat="33.556753"><ele>82.625208</ele><time>2024-10-01T15:56:53Z</time><extensions><speed>0.477401</speed><course>50.287579</course><hAcc>2.853851</hAcc><vAcc>1.055124</vAcc></extensions></trkpt>
      <trkpt lon="-82.145765" lat="33.556756"><ele>82.613228</ele><time>2024-10-01T15:56:54Z</time><extensions><speed>0.472426</speed><course>52.355611</course><hAcc>2.849210</hAcc><vAcc>1.044248</vAcc></extensions></trkpt>
      <trkpt lon="-82.145762" lat="33.556759"><ele>82.597833</ele><time>2024-10-01T15:56:55Z</time><extensions><speed>0.478555</speed><course>54.614656</course><hAcc>2.841896</hAcc><vAcc>1.032616</vAcc></extensions></trkpt>
      <trkpt lon="-82.145758" lat="33.556762"><ele>82.579553</ele><time>2024-10-01T15:56:56Z</time><extensions><speed>0.451415</speed><course>52.669531</course><hAcc>2.825773</hAcc><vAcc>1.020192</vAcc></extensions></trkpt>
      <trkpt lon="-82.145756" lat="33.556765"><ele>82.560100</ele><time>2024-10-01T15:56:57Z</time><extensions><speed>0.342537</speed><course>45.913624</course><hAcc>2.810440</hAcc><vAcc>1.006918</vAcc></extensions></trkpt>
      <trkpt lon="-82.145755" lat="33.556767"><ele>82.539262</ele><time>2024-10-01T15:56:58Z</time><extensions><speed>0.213526</speed><course>26.191446</course><hAcc>2.780707</hAcc><vAcc>0.992736</vAcc></extensions></trkpt>
      <trkpt lon="-82.145755" lat="33.556769"><ele>82.516938</ele><time>2024-10-01T15:56:59Z</time><extensions><speed>0.158943</speed><course>4.059143</course><hAcc>2.751389</hAcc><vAcc>0.977620</vAcc></extensions></trkpt>
      <trkpt lon="-82.145756" lat="33.556771"><ele>82.488991</ele><time>2024-10-01T15:57:00Z</time><extensions><speed>0.151364</speed><course>339.126677</course><hAcc>2.722946</hAcc><vAcc>0.961610</vAcc></extensions></trkpt>
      <trkpt lon="-82.145758" lat="33.556772"><ele>82.459297</ele><time>2024-10-01T15:57:01Z</time><extensions><speed>0.124607</speed><course>328.630790</course><hAcc>2.715085</hAcc><vAcc>0.944868</vAcc></extensions></trkpt>
      <trkpt lon="-82.145759" lat="33.556772"><ele>82.428000</ele><time>2024-10-01T15:57:02Z</time><extensions><speed>0.100668</speed><course>317.920888</course><hAcc>2.709947</hAcc><vAcc>0.927698</vAcc></extensions></trkpt>
      <trkpt lon="-82.145760" lat="33.556773"><ele>82.395734</ele><time>2024-10-01T15:57:03Z</time><extensions><speed>0.092869</speed><course>307.403129</course><hAcc>2.698768</hAcc><vAcc>0.910534</vAcc></extensions></trkpt>
      <trkpt lon="-82.145761" lat="33.556773"><ele>82.363020</ele><time>2024-10-01T15:57:04Z</time><extensions><speed>0.091605</speed><course>297.288372</course><hAcc>2.687361</hAcc><vAcc>0.893839</vAcc></extensions></trkpt>
      <trkpt lon="-82.145763" lat="33.556773"><ele>82.330385</ele><time>2024-10-01T15:57:05Z</time><extensions><speed>0.090699</speed><course>287.774571</course><hAcc>2.678947</hAcc><vAcc>0.877324</vAcc></extensions></trkpt>
      <trkpt lon="-82.145764" lat="33.556773"><ele>82.298328</ele><time>2024-10-01T15:57:06Z</time><extensions><speed>0.100167</speed><course>278.639941</course><hAcc>2.671543</hAcc><vAcc>0.861625</vAcc></extensions></trkpt>
      <trkpt lon="-82.145765" lat="33.556772"><ele>82.267243</ele><time>2024-10-01T15:57:07Z</time><extensions><speed>0.091687</speed><course>269.529115</course><hAcc>2.679623</hAcc><vAcc>0.846959</vAcc></extensions></trkpt>
      <trkpt lon="-82.145767" lat="33.556772"><ele>82.237467</ele><time>2024-10-01T15:57:08Z</time><extensions><speed>0.090521</speed><course>258.695063</course><hAcc>2.653477</hAcc><vAcc>0.833490</vAcc></extensions></trkpt>
      <trkpt lon="-82.145768" lat="33.556771"><ele>82.209290</ele><time>2024-10-01T15:57:09Z</time><extensions><speed>0.086849</speed><course>248.806210</course><hAcc>2.634172</hAcc><vAcc>0.821328</vAcc></extensions></trkpt>
      <trkpt lon="-82.145769" lat="33.556770"><ele>82.182969</ele><time>2024-10-01T15:57:10Z</time><extensions><speed>0.078432</speed><course>239.300764</course><hAcc>2.616316</hAcc><vAcc>0.810522</vAcc></extensions></trkpt>
      <trkpt lon="-82.145770" lat="33.556770"><ele>82.158732</ele><time>2024-10-01T15:57:11Z</time><extensions><speed>0.075352</speed><course>229.095799</course><hAcc>2.594724</hAcc><vAcc>0.801065</vAcc></extensions></trkpt>
      <trkpt lon="-82.145770" lat="33.556769"><ele>82.136738</ele><time>2024-10-01T15:57:12Z</time><extensions><speed>0.078246</speed><course>221.024222</course><hAcc>2.587872</hAcc><vAcc>0.792891</vAcc></extensions></trkpt>
      <trkpt lon="-82.145771" lat="33.556769"><ele>82.117063</ele><time>2024-10-01T15:57:13Z</time><extensions><speed>0.074253</speed><course>215.460603</course><hAcc>2.586402</hAcc><vAcc>0.785888</vAcc></extensions></trkpt>
      <trkpt lon="-82.145771" lat="33.556768"><ele>82.099711</ele><time>2024-10-01T15:57:14Z</time><extensions><speed>0.064572</speed><course>211.883554</course><hAcc>2.585355</hAcc><vAcc>0.779922</vAcc></extensions></trkpt>
      <trkpt lon="-82.145772" lat="33.556768"><ele>82.084623</ele><time>2024-10-01T15:57:15Z</time><extensions><speed>0.074567</speed><course>215.832513</course><hAcc>2.572955</hAcc><vAcc>0.774883</vAcc></extensions></trkpt>
      <trkpt lon="-82.145772" lat="33.556767"><ele>82.071694</ele><time>2024-10-01T15:57:16Z</time><extensions><speed>0.069388</speed><course>216.974903</course><hAcc>2.558080</hAcc><vAcc>0.770698</vAcc></extensions></trkpt>
      <trkpt lon="-82.145773" lat="33.556766"><ele>82.060784</ele><time>2024-10-01T15:57:17Z</time><extensions><speed>0.070721</speed><course>217.378124</course><hAcc>2.524653</hAcc><vAcc>0.767295</vAcc></extensions></trkpt>
      <trkpt lon="-82.145773" lat="33.556766"><ele>82.051727</ele><time>2024-10-01T15:57:18Z</time><extensions><speed>0.071933</speed><course>217.511261</course><hAcc>2.486489</hAcc><vAcc>0.764587</vAcc></extensions></trkpt>
      <trkpt lon="-82.145774" lat="33.556765"><ele>82.044341</ele><time>2024-10-01T15:57:19Z</time><extensions><speed>0.060990</speed><course>217.559481</course><hAcc>2.480355</hAcc><vAcc>0.762477</vAcc></extensions></trkpt>
      <trkpt lon="-82.145774" lat="33.556765"><ele>82.038443</ele><time>2024-10-01T15:57:20Z</time><extensions><speed>0.042073</speed><course>217.581859</course><hAcc>2.510602</hAcc><vAcc>0.760867</vAcc></extensions></trkpt>
      <trkpt lon="-82.145775" lat="33.556765"><ele>82.033846</ele><time>2024-10-01T15:57:21Z</time><extensions><speed>0.029755</speed><course>217.593993</course><hAcc>2.543424</hAcc><vAcc>0.759665</vAcc></extensions></trkpt>
      <trkpt lon="-82.145775" lat="33.556764"><ele>82.030373</ele><time>2024-10-01T15:57:22Z</time><extensions><speed>0.028822</speed><course>217.599714</course><hAcc>2.567562</hAcc><vAcc>0.758784</vAcc></extensions></trkpt>
      <trkpt lon="-82.145775" lat="33.556764"><ele>82.027853</ele><time>2024-10-01T15:57:23Z</time><extensions><speed>0.025727</speed><course>217.601889</course><hAcc>2.610795</hAcc><vAcc>0.758191</vAcc></extensions></trkpt>
      <trkpt lon="-82.145775" lat="33.556764"><ele>82.026115</ele><time>2024-10-01T15:57:24Z</time><extensions><speed>0.020590</speed><course>217.602817</course><hAcc>2.658672</hAcc><vAcc>0.758106</vAcc></extensions></trkpt>
      <trkpt lon="-82.145775" lat="33.556764"><ele>82.025024</ele><time>2024-10-01T15:57:25Z</time><extensions><speed>0.018661</speed><course>217.603222</course><hAcc>2.688423</hAcc><vAcc>0.758638</vAcc></extensions></trkpt>
      <trkpt lon="-82.145776" lat="33.556764"><ele>82.024460</ele><time>2024-10-01T15:57:26Z</time><extensions><speed>0.017191</speed><course>217.603379</course><hAcc>2.710645</hAcc><vAcc>0.759924</vAcc></extensions></trkpt>
      <trkpt lon="-82.145776" lat="33.556763"><ele>82.024315</ele><time>2024-10-01T15:57:27Z</time><extensions><speed>0.016052</speed><course>217.603440</course><hAcc>2.728121</hAcc><vAcc>0.762143</vAcc></extensions></trkpt>
      <trkpt lon="-82.145776" lat="33.556763"><ele>82.024492</ele><time>2024-10-01T15:57:28Z</time><extensions><speed>0.015496</speed><course>217.603463</course><hAcc>2.743495</hAcc><vAcc>0.765506</vAcc></extensions></trkpt>
      <trkpt lon="-82.145776" lat="33.556763"><ele>82.024909</ele><time>2024-10-01T15:57:29Z</time><extensions><speed>0.013311</speed><course>217.603472</course><hAcc>2.766159</hAcc><vAcc>0.770223</vAcc></extensions></trkpt>
      <trkpt lon="-82.145776" lat="33.556763"><ele>82.025509</ele><time>2024-10-01T15:57:30Z</time><extensions><speed>0.011641</speed><course>217.603476</course><hAcc>2.784072</hAcc><vAcc>0.774578</vAcc></extensions></trkpt>
      <trkpt lon="-82.145776" lat="33.556763"><ele>82.026217</ele><time>2024-10-01T15:57:31Z</time><extensions><speed>0.010040</speed><course>217.603478</course><hAcc>2.796375</hAcc><vAcc>0.779224</vAcc></extensions></trkpt>
      <trkpt lon="-82.145776" lat="33.556763"><ele>82.026985</ele><time>2024-10-01T15:57:32Z</time><extensions><speed>0.009358</speed><course>217.603478</course><hAcc>2.797891</hAcc><vAcc>0.784054</vAcc></extensions></trkpt>
      <trkpt lon="-82.145776" lat="33.556763"><ele>82.027777</ele><time>2024-10-01T15:57:33Z</time><extensions><speed>0.009132</speed><course>217.603479</course><hAcc>2.796304</hAcc><vAcc>0.788847</vAcc></extensions></trkpt>
      <trkpt lon="-82.145776" lat="33.556763"><ele>82.028565</ele><time>2024-10-01T15:57:34Z</time><extensions><speed>0.007907</speed><course>217.603479</course><hAcc>2.805786</hAcc><vAcc>0.793351</vAcc></extensions></trkpt>
      <trkpt lon="-82.145776" lat="33.556763"><ele>82.029330</ele><time>2024-10-01T15:57:35Z</time><extensions><speed>0.006506</speed><course>217.603479</course><hAcc>2.816098</hAcc><vAcc>0.797296</vAcc></extensions></trkpt>
      <trkpt lon="-82.145776" lat="33.556763"><ele>82.030059</ele><time>2024-10-01T15:57:36Z</time><extensions><speed>0.005699</speed><course>217.603479</course><hAcc>2.816264</hAcc><vAcc>0.800258</vAcc></extensions></trkpt>
      <trkpt lon="-82.145776" lat="33.556763"><ele>82.030742</ele><time>2024-10-01T15:57:37Z</time><extensions><speed>0.005181</speed><course>217.603479</course><hAcc>2.810904</hAcc><vAcc>0.801864</vAcc></extensions></trkpt>
      <trkpt lon="-82.145776" lat="33.556763"><ele>82.031372</ele><time>2024-10-01T15:57:38Z</time><extensions><speed>0.004630</speed><course>217.603479</course><hAcc>2.806522</hAcc><vAcc>0.801871</vAcc></extensions></trkpt>
      <trkpt lon="-82.145776" lat="33.556763"><ele>82.031947</ele><time>2024-10-01T15:57:39Z</time><extensions><speed>0.004080</speed><course>217.603479</course><hAcc>2.804151</hAcc><vAcc>0.800225</vAcc></extensions></trkpt>
      <trkpt lon="-82.145777" lat="33.556762"><ele>82.032463</ele><time>2024-10-01T15:57:40Z</time><extensions><speed>0.003529</speed><course>217.603479</course><hAcc>2.765242</hAcc><vAcc>0.797107</vAcc></extensions></trkpt>
      <trkpt lon="-82.145777" lat="33.556762"><ele>82.032921</ele><time>2024-10-01T15:57:41Z</time><extensions><speed>0.003278</speed><course>217.603479</course><hAcc>2.725917</hAcc><vAcc>0.792900</vAcc></extensions></trkpt>
      <trkpt lon="-82.145777" lat="33.556762"><ele>82.033320</ele><time>2024-10-01T15:57:42Z</time><extensions><speed>0.002901</speed><course>217.603479</course><hAcc>2.690911</hAcc><vAcc>0.788062</vAcc></extensions></trkpt>
      <trkpt lon="-82.145777" lat="33.556762"><ele>82.033664</ele><time>2024-10-01T15:57:43Z</time><extensions><speed>0.002702</speed><course>217.603479</course><hAcc>2.655142</hAcc><vAcc>0.783020</vAcc></extensions></trkpt>
      <trkpt lon="-82.145777" lat="33.556762"><ele>82.033955</ele><time>2024-10-01T15:57:44Z</time><extensions><speed>0.002274</speed><course>217.603479</course><hAcc>2.625030</hAcc><vAcc>0.778131</vAcc></extensions></trkpt>
      <trkpt lon="-82.145777" lat="33.556762"><ele>82.034198</ele><time>2024-10-01T15:57:45Z</time><extensions><speed>0.002073</speed><course>217.603479</course><hAcc>2.585712</hAcc><vAcc>0.773654</vAcc></extensions></trkpt>
      <trkpt lon="-82.145777" lat="33.556762"><ele>82.034396</ele><time>2024-10-01T15:57:46Z</time><extensions><speed>0.002120</speed><course>217.603479</course><hAcc>2.531150</hAcc><vAcc>0.769741</vAcc></extensions></trkpt>
      <trkpt lon="-82.145777" lat="33.556762"><ele>82.034556</ele><time>2024-10-01T15:57:47Z</time><extensions><speed>0.002077</speed><course>217.603479</course><hAcc>2.471024</hAcc><vAcc>0.766456</vAcc></extensions></trkpt>
      <trkpt lon="-82.145777" lat="33.556762"><ele>82.034680</ele><time>2024-10-01T15:57:48Z</time><extensions><speed>0.001906</speed><course>217.603479</course><hAcc>2.408730</hAcc><vAcc>0.763797</vAcc></extensions></trkpt>
      <trkpt lon="-82.145777" lat="33.556762"><ele>82.034775</ele><time>2024-10-01T15:57:49Z</time><extensions><speed>0.001687</speed><course>217.603479</course><hAcc>2.343382</hAcc><vAcc>0.761715</vAcc></extensions></trkpt>
      <trkpt lon="-82.145777" lat="33.556762"><ele>82.034844</ele><time>2024-10-01T15:57:50Z</time><extensions><speed>0.001379</speed><course>217.603480</course><hAcc>2.282912</hAcc><vAcc>0.760138</vAcc></extensions></trkpt>
      <trkpt lon="-82.145777" lat="33.556762"><ele>82.034892</ele><time>2024-10-01T15:57:51Z</time><extensions><speed>0.001050</speed><course>217.603480</course><hAcc>2.234274</hAcc><vAcc>0.758982</vAcc></extensions></trkpt>
      <trkpt lon="-82.145777" lat="33.556762"><ele>82.034922</ele><time>2024-10-01T15:57:52Z</time><extensions><speed>0.000862</speed><course>217.603480</course><hAcc>2.191822</hAcc><vAcc>0.758163</vAcc></extensions></trkpt>
      <trkpt lon="-82.145777" lat="33.556762"><ele>82.034938</ele><time>2024-10-01T15:57:53Z</time><extensions><speed>0.000736</speed><course>217.603480</course><hAcc>2.157680</hAcc><vAcc>0.757604</vAcc></extensions></trkpt>
      <trkpt lon="-82.145777" lat="33.556762"><ele>82.034942</ele><time>2024-10-01T15:57:54Z</time><extensions><speed>0.000607</speed><course>217.603480</course><hAcc>2.136047</hAcc><vAcc>0.757238</vAcc></extensions></trkpt>
      <trkpt lon="-82.145777" lat="33.556762"><ele>82.034938</ele><time>2024-10-01T15:57:55Z</time><extensions><speed>0.000520</speed><course>217.603481</course><hAcc>2.119866</hAcc><vAcc>0.757010</vAcc></extensions></trkpt>
      <trkpt lon="-82.145777" lat="33.556762"><ele>82.034927</ele><time>2024-10-01T15:57:56Z</time><extensions><speed>0.000504</speed><course>217.603481</course><hAcc>2.102051</hAcc><vAcc>0.756878</vAcc></extensions></trkpt>
      <trkpt lon="-82.145777" lat="33.556762"><ele>82.034911</ele><time>2024-10-01T15:57:57Z</time><extensions><speed>0.000493</speed><course>217.603482</course><hAcc>2.091397</hAcc><vAcc>0.756807</vAcc></extensions></trkpt>
      <trkpt lon="-82.145777" lat="33.556762"><ele>82.034892</ele><time>2024-10-01T15:57:58Z</time><extensions><speed>0.000406</speed><course>217.603483</course><hAcc>2.096430</hAcc><vAcc>0.756775</vAcc></extensions></trkpt>
      <trkpt lon="-82.145777" lat="33.556762"><ele>82.034872</ele><time>2024-10-01T15:57:59Z</time><extensions><speed>0.000399</speed><course>217.603484</course><hAcc>2.094654</hAcc><vAcc>0.756765</vAcc></extensions></trkpt>
      <trkpt lon="-82.145777" lat="33.556762"><ele>82.034851</ele><time>2024-10-01T15:58:00Z</time><extensions><speed>0.000334</speed><course>217.603486</course><hAcc>2.102800</hAcc><vAcc>0.756765</vAcc></extensions></trkpt>
      <trkpt lon="-82.145777" lat="33.556762"><ele>82.034829</ele><time>2024-10-01T15:58:01Z</time><extensions><speed>0.000334</speed><course>217.603488</course><hAcc>2.100839</hAcc><vAcc>0.756770</vAcc></extensions></trkpt>
      <trkpt lon="-82.145777" lat="33.556762"><ele>82.034809</ele><time>2024-10-01T15:58:02Z</time><extensions><speed>0.000279</speed><course>217.603490</course><hAcc>2.115162</hAcc><vAcc>0.756775</vAcc></extensions></trkpt>
      <trkpt lon="-82.145777" lat="33.556762"><ele>82.034789</ele><time>2024-10-01T15:58:03Z</time><extensions><speed>0.000225</speed><course>217.603492</course><hAcc>2.130206</hAcc><vAcc>0.756779</vAcc></extensions></trkpt>
      <trkpt lon="-82.145777" lat="33.556762"><ele>82.034771</ele><time>2024-10-01T15:58:04Z</time><extensions><speed>0.000205</speed><course>217.603493</course><hAcc>2.133337</hAcc><vAcc>0.756780</vAcc></extensions></trkpt>
      <trkpt lon="-82.145777" lat="33.556762"><ele>82.034755</ele><time>2024-10-01T15:58:05Z</time><extensions><speed>0.000174</speed><course>217.603494</course><hAcc>2.141335</hAcc><vAcc>0.756779</vAcc></extensions></trkpt>
      <trkpt lon="-82.145777" lat="33.556762"><ele>82.034740</ele><time>2024-10-01T15:58:06Z</time><extensions><speed>0.000146</speed><course>217.603495</course><hAcc>2.145281</hAcc><vAcc>0.756776</vAcc></extensions></trkpt>
      <trkpt lon="-82.145777" lat="33.556762"><ele>82.034727</ele><time>2024-10-01T15:58:07Z</time><extensions><speed>0.000144</speed><course>217.603495</course><hAcc>2.135642</hAcc><vAcc>0.756773</vAcc></extensions></trkpt>
      <trkpt lon="-82.145777" lat="33.556762"><ele>82.034715</ele><time>2024-10-01T15:58:08Z</time><extensions><speed>0.000115</speed><course>217.603494</course><hAcc>2.139936</hAcc><vAcc>0.756769</vAcc></extensions></trkpt>
      <trkpt lon="-82.145777" lat="33.556762"><ele>82.034705</ele><time>2024-10-01T15:58:09Z</time><extensions><speed>0.000102</speed><course>217.603492</course><hAcc>2.137211</hAcc><vAcc>0.756764</vAcc></extensions></trkpt>
      <trkpt lon="-82.145777" lat="33.556762"><ele>82.034697</ele><time>2024-10-01T15:58:10Z</time><extensions><speed>0.000077</speed><course>217.603492</course><hAcc>2.143353</hAcc><vAcc>0.756760</vAcc></extensions></trkpt>
      <trkpt lon="-82.145777" lat="33.556762"><ele>82.034690</ele><time>2024-10-01T15:58:11Z</time><extensions><speed>0.000060</speed><course>217.603493</course><hAcc>2.145264</hAcc><vAcc>0.756756</vAcc></extensions></trkpt>
      <trkpt lon="-82.145777" lat="33.556762"><ele>82.034684</ele><time>2024-10-01T15:58:12Z</time><extensions><speed>0.000049</speed><course>217.603494</course><hAcc>2.139849</hAcc><vAcc>0.756753</vAcc></extensions></trkpt>
      <trkpt lon="-82.145777" lat="33.556762"><ele>82.034680</ele><time>2024-10-01T15:58:13Z</time><extensions><speed>0.000044</speed><course>217.603495</course><hAcc>2.125318</hAcc><vAcc>0.756750</vAcc></extensions></trkpt>
      <trkpt lon="-82.145777" lat="33.556762"><ele>82.034676</ele><time>2024-10-01T15:58:14Z</time><extensions><speed>0.000039</speed><course>217.603495</course><hAcc>2.114409</hAcc><vAcc>0.756748</vAcc></extensions></trkpt>
      <trkpt lon="-82.145777" lat="33.556762"><ele>82.034674</ele><time>2024-10-01T15:58:15Z</time><extensions><speed>0.000031</speed><course>217.603498</course><hAcc>2.116644</hAcc><vAcc>0.756746</vAcc></extensions></trkpt>
      <trkpt lon="-82.145777" lat="33.556762"><ele>82.034672</ele><time>2024-10-01T15:58:16Z</time><extensions><speed>0.000026</speed><course>217.603505</course><hAcc>2.115107</hAcc><vAcc>0.756745</vAcc></extensions></trkpt>
      <trkpt lon="-82.145777" lat="33.556762"><ele>82.034670</ele><time>2024-10-01T15:58:17Z</time><extensions><speed>0.000022</speed><course>217.603514</course><hAcc>2.111563</hAcc><vAcc>0.756744</vAcc></extensions></trkpt>
      <trkpt lon="-82.145777" lat="33.556762"><ele>82.034670</ele><time>2024-10-01T15:58:18Z</time><extensions><speed>0.000019</speed><course>217.603528</course><hAcc>2.107536</hAcc><vAcc>0.756743</vAcc></extensions></trkpt>
      <trkpt lon="-82.145777" lat="33.556762"><ele>82.034669</ele><time>2024-10-01T15:58:19Z</time><extensions><speed>0.000017</speed><course>217.603546</course><hAcc>2.104809</hAcc><vAcc>0.756743</vAcc></extensions></trkpt>
      <trkpt lon="-82.145777" lat="33.556762"><ele>82.034669</ele><time>2024-10-01T15:58:20Z</time><extensions><speed>0.000014</speed><course>217.603569</course><hAcc>2.105105</hAcc><vAcc>0.756742</vAcc></extensions></trkpt>
      <trkpt lon="-82.145777" lat="33.556762"><ele>82.034669</ele><time>2024-10-01T15:58:21Z</time><extensions><speed>0.000013</speed><course>217.603587</course><hAcc>2.099815</hAcc><vAcc>0.756742</vAcc></extensions></trkpt>
      <trkpt lon="-82.145777" lat="33.556762"><ele>82.034670</ele><time>2024-10-01T15:58:22Z</time><extensions><speed>0.000012</speed><course>217.603594</course><hAcc>2.093499</hAcc><vAcc>0.756742</vAcc></extensions></trkpt>
      <trkpt lon="-82.145777" lat="33.556762"><ele>82.034670</ele><time>2024-10-01T15:58:23Z</time><extensions><speed>0.000009</speed><course>217.603596</course><hAcc>2.102829</hAcc><vAcc>0.756742</vAcc></extensions></trkpt>
      <trkpt lon="-82.145777" lat="33.556762"><ele>82.034671</ele><time>2024-10-01T15:58:24Z</time><extensions><speed>0.000008</speed><course>217.603599</course><hAcc>2.109468</hAcc><vAcc>0.756742</vAcc></extensions></trkpt>
      <trkpt lon="-82.145777" lat="33.556762"><ele>82.034671</ele><time>2024-10-01T15:58:25Z</time><extensions><speed>0.000006</speed><course>217.603592</course><hAcc>2.110246</hAcc><vAcc>0.756742</vAcc></extensions></trkpt>
      <trkpt lon="-82.145777" lat="33.556762"><ele>82.034672</ele><time>2024-10-01T15:58:26Z</time><extensions><speed>0.000006</speed><course>217.603575</course><hAcc>2.110660</hAcc><vAcc>0.756742</vAcc></extensions></trkpt>
      <trkpt lon="-82.145777" lat="33.556762"><ele>82.034672</ele><time>2024-10-01T15:58:27Z</time><extensions><speed>0.000005</speed><course>217.603545</course><hAcc>2.107592</hAcc><vAcc>0.756742</vAcc></extensions></trkpt>
      <trkpt lon="-82.145777" lat="33.556762"><ele>82.034673</ele><time>2024-10-01T15:58:28Z</time><extensions><speed>0.000005</speed><course>217.603501</course><hAcc>2.110809</hAcc><vAcc>0.756742</vAcc></extensions></trkpt>
      <trkpt lon="-82.145777" lat="33.556762"><ele>82.034674</ele><time>2024-10-01T15:58:29Z</time><extensions><speed>0.000004</speed><course>217.603460</course><hAcc>2.132319</hAcc><vAcc>0.756742</vAcc></extensions></trkpt>
      <trkpt lon="-82.145777" lat="33.556762"><ele>82.034674</ele><time>2024-10-01T15:58:30Z</time><extensions><speed>0.000003</speed><course>217.603421</course><hAcc>2.155972</hAcc><vAcc>0.756742</vAcc></extensions></trkpt>
      <trkpt lon="-82.145777" lat="33.556762"><ele>82.034675</ele><time>2024-10-01T15:58:31Z</time><extensions><speed>0.000003</speed><course>217.603396</course><hAcc>2.181511</hAcc><vAcc>0.756742</vAcc></extensions></trkpt>
      <trkpt lon="-82.145777" lat="33.556762"><ele>82.034675</ele><time>2024-10-01T15:58:32Z</time><extensions><speed>0.000002</speed><course>217.603432</course><hAcc>2.212401</hAcc><vAcc>0.756743</vAcc></extensions></trkpt>
      <trkpt lon="-82.145777" lat="33.556762"><ele>82.034675</ele><time>2024-10-01T15:58:33Z</time><extensions><speed>0.000002</speed><course>217.603529</course><hAcc>2.248269</hAcc><vAcc>0.756743</vAcc></extensions></trkpt>
      <trkpt lon="-82.145777" lat="33.556762"><ele>82.034676</ele><time>2024-10-01T15:58:34Z</time><extensions><speed>0.000002</speed><course>217.603644</course><hAcc>2.279700</hAcc><vAcc>0.756743</vAcc></extensions></trkpt>
      <trkpt lon="-82.145777" lat="33.556762"><ele>82.034676</ele><time>2024-10-01T15:58:35Z</time><extensions><speed>0.000002</speed><course>217.603735</course><hAcc>2.319489</hAcc><vAcc>0.756743</vAcc></extensions></trkpt>
      <trkpt lon="-82.145777" lat="33.556762"><ele>82.034676</ele><time>2024-10-01T15:58:36Z</time><extensions><speed>0.000002</speed><course>217.603749</course><hAcc>2.393827</hAcc><vAcc>0.757611</vAcc></extensions></trkpt>
      <trkpt lon="-82.145777" lat="33.556762"><ele>82.034676</ele><time>2024-10-01T15:58:37Z</time><extensions><speed>0.000001</speed><course>217.603650</course><hAcc>2.519465</hAcc><vAcc>0.759675</vAcc></extensions></trkpt>
      <trkpt lon="-82.145777" lat="33.556762"><ele>82.034677</ele><time>2024-10-01T15:58:38Z</time><extensions><speed>0.000001</speed><course>217.603497</course><hAcc>2.648470</hAcc><vAcc>0.763361</vAcc></extensions></trkpt>
      <trkpt lon="-82.145777" lat="33.556762"><ele>82.034677</ele><time>2024-10-01T15:58:39Z</time><extensions><speed>0.000001</speed><course>217.603350</course><hAcc>2.739750</hAcc><vAcc>0.769164</vAcc></extensions></trkpt>
      <trkpt lon="-82.145777" lat="33.556762"><ele>82.034677</ele><time>2024-10-01T15:58:40Z</time><extensions><speed>0.000001</speed><course>217.603249</course><hAcc>2.815682</hAcc><vAcc>0.777568</vAcc></extensions></trkpt>
      <trkpt lon="-82.145777" lat="33.556762"><ele>82.034677</ele><time>2024-10-01T15:58:41Z</time><extensions><speed>0.000001</speed><course>217.603208</course><hAcc>2.928472</hAcc><vAcc>0.788995</vAcc></extensions></trkpt>
      <trkpt lon="-82.145777" lat="33.556762"><ele>82.034677</ele><time>2024-10-01T15:58:42Z</time><extensions><speed>0.000001</speed><course>217.603099</course><hAcc>3.020095</hAcc><vAcc>0.803681</vAcc></extensions></trkpt>
      <trkpt lon="-82.145777" lat="33.556762"><ele>82.034677</ele><time>2024-10-01T15:58:43Z</time><extensions><speed>0.000001</speed><course>217.602905</course><hAcc>3.095925</hAcc><vAcc>0.821628</vAcc></extensions></trkpt>
      <trkpt lon="-82.145777" lat="33.556762"><ele>82.034677</ele><time>2024-10-01T15:58:44Z</time><extensions><speed>0.000000</speed><course>217.602793</course><hAcc>3.148310</hAcc><vAcc>0.842589</vAcc></extensions></trkpt>
      <trkpt lon="-82.145777" lat="33.556762"><ele>82.034677</ele><time>2024-10-01T15:58:45Z</time><extensions><speed>0.000000</speed><course>217.602834</course><hAcc>3.187083</hAcc><vAcc>0.866040</vAcc></extensions></trkpt>
      <trkpt lon="-82.145777" lat="33.556762"><ele>82.034677</ele><time>2024-10-01T15:58:46Z</time><extensions><speed>0.000000</speed><course>217.603160</course><hAcc>3.231661</hAcc><vAcc>0.891153</vAcc></extensions></trkpt>
      <trkpt lon="-82.145777" lat="33.556762"><ele>82.034677</ele><time>2024-10-01T15:58:47Z</time><extensions><speed>0.000000</speed><course>217.603762</course><hAcc>3.290512</hAcc><vAcc>0.916927</vAcc></extensions></trkpt>
      <trkpt lon="-82.145777" lat="33.556762"><ele>82.034677</ele><time>2024-10-01T15:58:48Z</time><extensions><speed>0.000000</speed><course>217.604951</course><hAcc>3.362529</hAcc><vAcc>0.942491</vAcc></extensions></trkpt>
      <trkpt lon="-82.145777" lat="33.556762"><ele>82.034677</ele><time>2024-10-01T15:58:49Z</time><extensions><speed>0.000000</speed><course>217.606205</course><hAcc>3.447174</hAcc><vAcc>0.967030</vAcc></extensions></trkpt>
      <trkpt lon="-82.145777" lat="33.556762"><ele>82.034677</ele><time>2024-10-01T15:58:50Z</time><extensions><speed>0.000000</speed><course>217.607482</course><hAcc>3.540773</hAcc><vAcc>0.989894</vAcc></extensions></trkpt>
      <trkpt lon="-82.145777" lat="33.556762"><ele>82.034677</ele><time>2024-10-01T15:58:51Z</time><extensions><speed>0.000000</speed><course>217.608421</course><hAcc>3.609431</hAcc><vAcc>1.010716</vAcc></extensions></trkpt>
      <trkpt lon="-82.145777" lat="33.556762"><ele>82.034677</ele><time>2024-10-01T15:58:52Z</time><extensions><speed>0.000000</speed><course>217.609253</course><hAcc>3.648217</hAcc><vAcc>1.029273</vAcc></extensions></trkpt>
      <trkpt lon="-82.145777" lat="33.556762"><ele>82.034677</ele><time>2024-10-01T15:58:53Z</time><extensions><speed>0.000000</speed><course>217.609865</course><hAcc>3.671362</hAcc><vAcc>1.045686</vAcc></extensions></trkpt>
      <trkpt lon="-82.145777" lat="33.556762"><ele>82.034677</ele><time>2024-10-01T15:58:54Z</time><extensions><speed>0.000000</speed><course>217.609665</course><hAcc>3.697228</hAcc><vAcc>1.060041</vAcc></extensions></trkpt>
      <trkpt lon="-82.145777" lat="33.556762"><ele>82.034677</ele><time>2024-10-01T15:58:55Z</time><extensions><speed>0.000000</speed><course>217.609932</course><hAcc>3.719553</hAcc><vAcc>1.072420</vAcc></extensions></trkpt>
      <trkpt lon="-82.145777" lat="33.556762"><ele>82.034677</ele><time>2024-10-01T15:58:56Z</time><extensions><speed>0.000000</speed><course>217.610093</course><hAcc>3.726951</hAcc><vAcc>1.082926</vAcc></extensions></trkpt>
      <trkpt lon="-82.145777" lat="33.556762"><ele>82.034677</ele><time>2024-10-01T15:58:57Z</time><extensions><speed>0.000000</speed><course>217.610896</course><hAcc>3.729907</hAcc><vAcc>1.091717</vAcc></extensions></trkpt>
      <trkpt lon="-82.145777" lat="33.556762"><ele>82.034677</ele><time>2024-10-01T15:58:58Z</time><extensions><speed>0.000000</speed><course>217.611608</course><hAcc>3.736190</hAcc><vAcc>1.099000</vAcc></extensions></trkpt>
      <trkpt lon="-82.145777" lat="33.556762"><ele>82.034677</ele><time>2024-10-01T15:58:59Z</time><extensions><speed>0.000000</speed><course>217.611939</course><hAcc>3.737299</hAcc><vAcc>1.105035</vAcc></extensions></trkpt>
      <trkpt lon="-82.145777" lat="33.556762"><ele>82.034677</ele><time>2024-10-01T15:59:00Z</time><extensions><speed>0.000000</speed><course>217.610886</course><hAcc>3.738381</hAcc><vAcc>1.110029</vAcc></extensions></trkpt>
      <trkpt lon="-82.145777" lat="33.556762"><ele>82.034677</ele><time>2024-10-01T15:59:01Z</time><extensions><speed>0.000000</speed><course>217.610807</course><hAcc>3.741161</hAcc><vAcc>1.114132</vAcc></extensions></trkpt>
      <trkpt lon="-82.145777" lat="33.556762"><ele>82.034677</ele><time>2024-10-01T15:59:02Z</time><extensions><speed>0.000000</speed><course>217.611904</course><hAcc>3.752566</hAcc><vAcc>1.117452</vAcc></extensions></trkpt>
      <trkpt lon="-82.145777" lat="33.556762"><ele>82.034677</ele><time>2024-10-01T15:59:03Z</time><extensions><speed>0.000000</speed><course>217.613962</course><hAcc>3.775602</hAcc><vAcc>1.120054</vAcc></extensions></trkpt>
      <trkpt lon="-82.145777" lat="33.556762"><ele>82.034677</ele><time>2024-10-01T15:59:04Z</time><extensions><speed>0.000000</speed><course>217.619162</course><hAcc>3.802265</hAcc><vAcc>1.114631</vAcc></extensions></trkpt>
      <trkpt lon="-82.145777" lat="33.556762"><ele>82.034677</ele><time>2024-10-01T15:59:05Z</time><extensions><speed>0.000000</speed><course>217.628227</course><hAcc>3.826761</hAcc><vAcc>1.107490</vAcc></extensions></trkpt>
      <trkpt lon="-82.145777" lat="33.556762"><ele>82.034677</ele><time>2024-10-01T15:59:06Z</time><extensions><speed>0.000000</speed><course>217.639807</course><hAcc>3.840561</hAcc><vAcc>1.098794</vAcc></extensions></trkpt>
      <trkpt lon="-82.145777" lat="33.556762"><ele>82.034677</ele><time>2024-10-01T15:59:07Z</time><extensions><speed>0.000000</speed><course>217.652822</course><hAcc>3.836141</hAcc><vAcc>1.088623</vAcc></extensions></trkpt>
      <trkpt lon="-82.145777" lat="33.556762"><ele>82.034677</ele><time>2024-10-01T15:59:08Z</time><extensions><speed>0.000000</speed><course>217.665898</course><hAcc>3.827933</hAcc><vAcc>1.077065</vAcc></extensions></trkpt>
      <trkpt lon="-82.145777" lat="33.556762"><ele>82.034677</ele><time>2024-10-01T15:59:09Z</time><extensions><speed>0.000000</speed><course>217.681648</course><hAcc>3.859389</hAcc><vAcc>1.064256</vAcc></extensions></trkpt>
      <trkpt lon="-82.145777" lat="33.556762"><ele>82.034677</ele><time>2024-10-01T15:59:10Z</time><extensions><speed>0.000000</speed><course>217.708156</course><hAcc>3.887591</hAcc><vAcc>1.050262</vAcc></extensions></trkpt>
      <trkpt lon="-82.145777" lat="33.556762"><ele>82.034677</ele><time>2024-10-01T15:59:11Z</time><extensions><speed>0.000000</speed><course>217.738299</course><hAcc>3.904708</hAcc><vAcc>1.034363</vAcc></extensions></trkpt>
      <trkpt lon="-82.145777" lat="33.556762"><ele>82.034677</ele><time>2024-10-01T15:59:12Z</time><extensions><speed>0.000000</speed><course>217.776091</course><hAcc>3.917353</hAcc><vAcc>1.017064</vAcc></extensions></trkpt>
      <trkpt lon="-82.145777" lat="33.556762"><ele>82.034677</ele><time>2024-10-01T15:59:13Z</time><extensions><speed>0.000000</speed><course>217.823219</course><hAcc>3.916008</hAcc><vAcc>0.998579</vAcc></extensions></trkpt>
      <trkpt lon="-82.145781" lat="33.556765"><ele>82.025478</ele><time>2024-10-01T15:59:14Z</time><extensions><speed>0.046613</speed><course>309.916320</course><hAcc>3.902039</hAcc><vAcc>0.979222</vAcc></extensions></trkpt>
      <trkpt lon="-82.145785" lat="33.556768"><ele>82.015581</ele><time>2024-10-01T15:59:15Z</time><extensions><speed>0.104605</speed><course>309.295762</course><hAcc>3.869279</hAcc><vAcc>0.959415</vAcc></extensions></trkpt>
      <trkpt lon="-82.145789" lat="33.556771"><ele>82.004373</ele><time>2024-10-01T15:59:16Z</time><extensions><speed>0.175986</speed><course>309.378437</course><hAcc>3.837235</hAcc><vAcc>0.939624</vAcc></extensions></trkpt>
      <trkpt lon="-82.145794" lat="33.556774"><ele>81.991783</ele><time>2024-10-01T15:59:17Z</time><extensions><speed>0.247644</speed><course>309.387591</course><hAcc>3.812148</hAcc><vAcc>0.920355</vAcc></extensions></trkpt>
      <trkpt lon="-82.145799" lat="33.556778"><ele>81.975946</ele><time>2024-10-01T15:59:18Z</time><extensions><speed>0.336886</speed><course>309.774897</course><hAcc>3.786022</hAcc><vAcc>0.902148</vAcc></extensions></trkpt>
      <trkpt lon="-82.145805" lat="33.556782"><ele>81.957990</ele><time>2024-10-01T15:59:19Z</time><extensions><speed>0.424969</speed><course>309.833234</course><hAcc>3.769306</hAcc><vAcc>0.885466</vAcc></extensions></trkpt>
      <trkpt lon="-82.145810" lat="33.556785"><ele>81.938797</ele><time>2024-10-01T15:59:20Z</time><extensions><speed>0.465124</speed><course>309.766112</course><hAcc>3.775833</hAcc><vAcc>0.870738</vAcc></extensions></trkpt>
      <trkpt lon="-82.145816" lat="33.556789"><ele>81.918680</ele><time>2024-10-01T15:59:21Z</time><extensions><speed>0.447341</speed><course>309.466708</course><hAcc>3.794509</hAcc><vAcc>0.858443</vAcc></extensions></trkpt>
      <trkpt lon="-82.145821" lat="33.556792"><ele>81.896615</ele><time>2024-10-01T15:59:22Z</time><extensions><speed>0.448790</speed><course>309.203777</course><hAcc>3.798482</hAcc><vAcc>0.849092</vAcc></extensions></trkpt>
      <trkpt lon="-82.145826" lat="33.556795"><ele>81.873446</ele><time>2024-10-01T15:59:23Z</time><extensions><speed>0.512571</speed><course>309.461325</course><hAcc>3.785126</hAcc><vAcc>0.843170</vAcc></extensions></trkpt>
      <trkpt lon="-82.145832" lat="33.556798"><ele>81.848867</ele><time>2024-10-01T15:59:24Z</time><extensions><speed>0.549292</speed><course>310.840933</course><hAcc>3.774255</hAcc><vAcc>0.841067</vAcc></extensions></trkpt>
      <trkpt lon="-82.145837" lat="33.556802"><ele>81.825287</ele><time>2024-10-01T15:59:25Z</time><extensions><speed>0.569068</speed><course>313.747063</course><hAcc>3.766324</hAcc><vAcc>0.842992</vAcc></extensions></trkpt>
      <trkpt lon="-82.145842" lat="33.556805"><ele>81.800888</ele><time>2024-10-01T15:59:26Z</time><extensions><speed>0.636953</speed><course>317.266556</course><hAcc>3.752667</hAcc><vAcc>0.849008</vAcc></extensions></trkpt>
      <trkpt lon="-82.145847" lat="33.556810"><ele>81.775782</ele><time>2024-10-01T15:59:27Z</time><extensions><speed>0.737952</speed><course>322.475076</course><hAcc>3.743495</hAcc><vAcc>0.858872</vAcc></extensions></trkpt>
      <trkpt lon="-82.145852" lat="33.556816"><ele>81.745798</ele><time>2024-10-01T15:59:28Z</time><extensions><speed>0.902531</speed><course>327.701302</course><hAcc>3.702479</hAcc><vAcc>0.867708</vAcc></extensions></trkpt>
      <trkpt lon="-82.145858" lat="33.556822"><ele>81.714412</ele><time>2024-10-01T15:59:29Z</time><extensions><speed>0.927822</speed><course>328.138883</course><hAcc>3.656557</hAcc><vAcc>0.877475</vAcc></extensions></trkpt>
      <trkpt lon="-82.145863" lat="33.556828"><ele>81.683152</ele><time>2024-10-01T15:59:30Z</time><extensions><speed>0.860454</speed><course>327.956513</course><hAcc>3.615199</hAcc><vAcc>0.887518</vAcc></extensions></trkpt>
      <trkpt lon="-82.145867" lat="33.556834"><ele>81.653149</ele><time>2024-10-01T15:59:31Z</time><extensions><speed>0.729803</speed><course>328.379412</course><hAcc>3.587721</hAcc><vAcc>0.897139</vAcc></extensions></trkpt>
      <trkpt lon="-82.145871" lat="33.556838"><ele>81.625349</ele><time>2024-10-01T15:59:32Z</time><extensions><speed>0.566546</speed><course>329.483746</course><hAcc>3.569130</hAcc><vAcc>0.905024</vAcc></extensions></trkpt>
      <trkpt lon="-82.145874" lat="33.556842"><ele>81.598491</ele><time>2024-10-01T15:59:33Z</time><extensions><speed>0.356504</speed><course>327.873957</course><hAcc>3.547653</hAcc><vAcc>0.910943</vAcc></extensions></trkpt>
      <trkpt lon="-82.145875" lat="33.556844"><ele>81.572675</ele><time>2024-10-01T15:59:34Z</time><extensions><speed>0.256422</speed><course>329.068869</course><hAcc>3.514270</hAcc><vAcc>0.914371</vAcc></extensions></trkpt>
      <trkpt lon="-82.145876" lat="33.556845"><ele>81.547981</ele><time>2024-10-01T15:59:35Z</time><extensions><speed>0.183053</speed><course>328.220440</course><hAcc>3.460265</hAcc><vAcc>0.915026</vAcc></extensions></trkpt>
      <trkpt lon="-82.145877" lat="33.556846"><ele>81.523833</ele><time>2024-10-01T15:59:36Z</time><extensions><speed>0.135726</speed><course>327.182160</course><hAcc>3.407023</hAcc><vAcc>0.912798</vAcc></extensions></trkpt>
      <trkpt lon="-82.145878" lat="33.556847"><ele>81.500919</ele><time>2024-10-01T15:59:37Z</time><extensions><speed>0.120706</speed><course>330.361329</course><hAcc>3.339689</hAcc><vAcc>0.907793</vAcc></extensions></trkpt>
      <trkpt lon="-82.145878" lat="33.556848"><ele>81.479352</ele><time>2024-10-01T15:59:38Z</time><extensions><speed>0.094923</speed><course>338.757782</course><hAcc>3.291631</hAcc><vAcc>0.900416</vAcc></extensions></trkpt>
      <trkpt lon="-82.145879" lat="33.556849"><ele>81.459338</ele><time>2024-10-01T15:59:39Z</time><extensions><speed>0.106659</speed><course>351.340823</course><hAcc>3.263370</hAcc><vAcc>0.890875</vAcc></extensions></trkpt>
      <trkpt lon="-82.145879" lat="33.556849"><ele>81.440967</ele><time>2024-10-01T15:59:40Z</time><extensions><speed>0.118393</speed><course>358.328053</course><hAcc>3.244228</hAcc><vAcc>0.879846</vAcc></extensions></trkpt>
      <trkpt lon="-82.145879" lat="33.556850"><ele>81.424302</ele><time>2024-10-01T15:59:41Z</time><extensions><speed>0.111046</speed><course>0.585830</course><hAcc>3.242734</hAcc><vAcc>0.867886</vAcc></extensions></trkpt>
      <trkpt lon="-82.145879" lat="33.556851"><ele>81.409363</ele><time>2024-10-01T15:59:42Z</time><extensions><speed>0.071739</speed><course>4.268192</course><hAcc>3.255774</hAcc><vAcc>0.855449</vAcc></extensions></trkpt>
      <trkpt lon="-82.145879" lat="33.556851"><ele>81.396122</ele><time>2024-10-01T15:59:43Z</time><extensions><speed>0.032929</speed><course>10.947280</course><hAcc>3.275043</hAcc><vAcc>0.842955</vAcc></extensions></trkpt>
      <trkpt lon="-82.145879" lat="33.556852"><ele>81.384457</ele><time>2024-10-01T15:59:44Z</time><extensions><speed>0.009305</speed><course>44.718811</course><hAcc>3.304877</hAcc><vAcc>0.831065</vAcc></extensions></trkpt>
      <trkpt lon="-82.145879" lat="33.556851"><ele>81.374272</ele><time>2024-10-01T15:59:45Z</time><extensions><speed>0.014363</speed><course>153.832126</course><hAcc>3.336795</hAcc><vAcc>0.820385</vAcc></extensions></trkpt>
      <trkpt lon="-82.145879" lat="33.556851"><ele>81.365488</ele><time>2024-10-01T15:59:46Z</time><extensions><speed>0.024097</speed><course>167.057463</course><hAcc>3.387119</hAcc><vAcc>0.811445</vAcc></extensions></trkpt>
      <trkpt lon="-82.145878" lat="33.556851"><ele>81.358017</ele><time>2024-10-01T15:59:47Z</time><extensions><speed>0.035179</speed><course>171.710634</course><hAcc>3.447876</hAcc><vAcc>0.804815</vAcc></extensions></trkpt>
      <trkpt lon="-82.145878" lat="33.556851"><ele>81.351758</ele><time>2024-10-01T15:59:48Z</time><extensions><speed>0.033441</speed><course>173.159663</course><hAcc>3.528998</hAcc><vAcc>0.801034</vAcc></extensions></trkpt>
      <trkpt lon="-82.145878" lat="33.556850"><ele>81.346853</ele><time>2024-10-01T15:59:49Z</time><extensions><speed>0.031046</speed><course>173.866779</course><hAcc>3.588746</hAcc><vAcc>0.798212</vAcc></extensions></trkpt>
      <trkpt lon="-82.145878" lat="33.556851"><ele>81.338984</ele><time>2024-10-01T15:59:50Z</time><extensions><speed>0.016523</speed><course>168.231588</course><hAcc>3.630619</hAcc><vAcc>0.797093</vAcc></extensions></trkpt>
      <trkpt lon="-82.145878" lat="33.556851"><ele>81.330554</ele><time>2024-10-01T15:59:51Z</time><extensions><speed>0.003309</speed><course>117.462969</course><hAcc>3.665546</hAcc><vAcc>0.797516</vAcc></extensions></trkpt>
      <trkpt lon="-82.145878" lat="33.556851"><ele>81.324926</ele><time>2024-10-01T15:59:52Z</time><extensions><speed>0.004437</speed><course>34.667016</course><hAcc>3.732886</hAcc><vAcc>0.807653</vAcc></extensions></trkpt>
      <trkpt lon="-82.145878" lat="33.556851"><ele>81.319415</ele><time>2024-10-01T15:59:53Z</time><extensions><speed>0.009021</speed><course>14.639300</course><hAcc>3.796392</hAcc><vAcc>0.824180</vAcc></extensions></trkpt>
      <trkpt lon="-82.145878" lat="33.556851"><ele>81.313908</ele><time>2024-10-01T15:59:54Z</time><extensions><speed>0.014425</speed><course>8.819322</course><hAcc>3.865399</hAcc><vAcc>0.848844</vAcc></extensions></trkpt>
      <trkpt lon="-82.145878" lat="33.556852"><ele>81.308319</ele><time>2024-10-01T15:59:55Z</time><extensions><speed>0.019125</speed><course>6.171610</course><hAcc>3.951944</hAcc><vAcc>0.883733</vAcc></extensions></trkpt>
      <trkpt lon="-82.145878" lat="33.556852"><ele>81.302585</ele><time>2024-10-01T15:59:56Z</time><extensions><speed>0.025529</speed><course>4.751179</course><hAcc>4.049953</hAcc><vAcc>0.931256</vAcc></extensions></trkpt>
      <trkpt lon="-82.145878" lat="33.556852"><ele>81.296674</ele><time>2024-10-01T15:59:57Z</time><extensions><speed>0.032865</speed><course>4.035174</course><hAcc>4.171743</hAcc><vAcc>0.994065</vAcc></extensions></trkpt>
      <trkpt lon="-82.145878" lat="33.556852"><ele>81.290584</ele><time>2024-10-01T15:59:58Z</time><extensions><speed>0.039877</speed><course>3.807225</course><hAcc>4.327404</hAcc><vAcc>1.074908</vAcc></extensions></trkpt>
      <trkpt lon="-82.145878" lat="33.556853"><ele>81.284336</ele><time>2024-10-01T15:59:59Z</time><extensions><speed>0.046151</speed><course>4.102986</course><hAcc>4.510052</hAcc><vAcc>1.176434</vAcc></extensions></trkpt>
      <trkpt lon="-82.145878" lat="33.556853"><ele>81.277990</ele><time>2024-10-01T16:00:00Z</time><extensions><speed>0.057413</speed><course>5.118799</course><hAcc>4.696574</hAcc><vAcc>1.300894</vAcc></extensions></trkpt>
      <trkpt lon="-82.145878" lat="33.556854"><ele>81.271617</ele><time>2024-10-01T16:00:01Z</time><extensions><speed>0.046883</speed><course>5.343735</course><hAcc>4.893562</hAcc><vAcc>1.449761</vAcc></extensions></trkpt>
    </trkseg>
  </trk>
</gpx>