<?xml version="1.0" encoding="UTF-8"?>
<gpx version="1.1" creator="Apple Health Export" xmlns="http://www.topografix.com/GPX/1/1" xmlns:xsi="http://www.w3.org/2001/XMLSchema-instance" xsi:schemaLocation="http://www.topografix.com/GPX/1/1 http://www.topografix.com/GPX/1/1/gpx.xsd">
  <metadata>
    <time>2026-03-14T12:17:07Z</time>
  </metadata>
  <trk>
    <name>Route 2025-10-18 11:18am</name>
    <trkseg>
      <trkpt lon="-82.146611" lat="33.556446"><ele>85.208179</ele><time>2025-10-18T15:11:53Z</time><extensions><speed>1.534817</speed><course>315.076524</course><hAcc>2.043269</hAcc><vAcc>2.402676</vAcc></extensions></trkpt>
      <trkpt lon="-82.146622" lat="33.556454"><ele>85.145943</ele><time>2025-10-18T15:11:54Z</time><extensions><speed>1.353028</speed><course>315.481219</course><hAcc>1.877952</hAcc><vAcc>2.175082</vAcc></extensions></trkpt>
      <trkpt lon="-82.146632" lat="33.556461"><ele>85.080497</ele><time>2025-10-18T15:11:55Z</time><extensions><speed>1.271993</speed><course>311.382168</course><hAcc>1.755981</hAcc><vAcc>1.982515</vAcc></extensions></trkpt>
      <trkpt lon="-82.146642" lat="33.556467"><ele>85.007736</ele><time>2025-10-18T15:11:56Z</time><extensions><speed>1.176171</speed><course>309.035347</course><hAcc>1.659085</hAcc><vAcc>1.820195</vAcc></extensions></trkpt>
      <trkpt lon="-82.146652" lat="33.556472"><ele>84.928408</ele><time>2025-10-18T15:11:57Z</time><extensions><speed>1.125143</speed><course>301.814105</course><hAcc>1.589849</hAcc><vAcc>1.684138</vAcc></extensions></trkpt>
      <trkpt lon="-82.146662" lat="33.556476"><ele>84.853798</ele><time>2025-10-18T15:11:58Z</time><extensions><speed>1.107784</speed><course>294.222984</course><hAcc>1.527372</hAcc><vAcc>1.570842</vAcc></extensions></trkpt>
      <trkpt lon="-82.146673" lat="33.556479"><ele>84.790421</ele><time>2025-10-18T15:11:59Z</time><extensions><speed>1.046655</speed><course>292.975191</course><hAcc>1.488918</hAcc><vAcc>1.477050</vAcc></extensions></trkpt>
      <trkpt lon="-82.146683" lat="33.556481"><ele>84.741792</ele><time>2025-10-18T15:12:00Z</time><extensions><speed>1.034761</speed><course>288.754008</course><hAcc>1.467393</hAcc><vAcc>1.399901</vAcc></extensions></trkpt>
      <trkpt lon="-82.146693" lat="33.556482"><ele>84.701248</ele><time>2025-10-18T15:12:01Z</time><extensions><speed>1.014566</speed><course>287.228462</course><hAcc>1.461264</hAcc><vAcc>1.336653</vAcc></extensions></trkpt>
      <trkpt lon="-82.146703" lat="33.556484"><ele>84.676659</ele><time>2025-10-18T15:12:02Z</time><extensions><speed>0.975640</speed><course>291.820968</course><hAcc>1.469239</hAcc><vAcc>1.284881</vAcc></extensions></trkpt>
      <trkpt lon="-82.146713" lat="33.556486"><ele>84.667567</ele><time>2025-10-18T15:12:03Z</time><extensions><speed>1.132779</speed><course>287.489295</course><hAcc>1.475713</hAcc><vAcc>1.242460</vAcc></extensions></trkpt>
      <trkpt lon="-82.146724" lat="33.556488"><ele>84.677498</ele><time>2025-10-18T15:12:04Z</time><extensions><speed>1.260352</speed><course>292.210508</course><hAcc>1.511102</hAcc><vAcc>1.207617</vAcc></extensions></trkpt>
      <trkpt lon="-82.146736" lat="33.556488"><ele>84.702075</ele><time>2025-10-18T15:12:05Z</time><extensions><speed>1.079075</speed><course>275.931127</course><hAcc>1.517711</hAcc><vAcc>1.178815</vAcc></extensions></trkpt>
      <trkpt lon="-82.146747" lat="33.556486"><ele>84.747284</ele><time>2025-10-18T15:12:06Z</time><extensions><speed>1.062511</speed><course>263.269810</course><hAcc>1.535033</hAcc><vAcc>1.153354</vAcc></extensions></trkpt>
      <trkpt lon="-82.146758" lat="33.556482"><ele>84.822743</ele><time>2025-10-18T15:12:07Z</time><extensions><speed>1.050354</speed><course>255.738049</course><hAcc>1.569028</hAcc><vAcc>1.130087</vAcc></extensions></trkpt>
      <trkpt lon="-82.146770" lat="33.556472"><ele>85.026149</ele><time>2025-10-18T15:12:08Z</time><extensions><speed>1.221349</speed><course>244.591785</course><hAcc>1.568137</hAcc><vAcc>1.109827</vAcc></extensions></trkpt>
      <trkpt lon="-82.146782" lat="33.556462"><ele>85.282922</ele><time>2025-10-18T15:12:09Z</time><extensions><speed>1.342502</speed><course>233.837573</course><hAcc>1.566145</hAcc><vAcc>1.085279</vAcc></extensions></trkpt>
      <trkpt lon="-82.146793" lat="33.556452"><ele>85.524214</ele><time>2025-10-18T15:12:10Z</time><extensions><speed>1.398951</speed><course>225.358268</course><hAcc>1.578713</hAcc><vAcc>1.061203</vAcc></extensions></trkpt>
      <trkpt lon="-82.146804" lat="33.556443"><ele>85.761114</ele><time>2025-10-18T15:12:11Z</time><extensions><speed>1.361854</speed><course>230.673653</course><hAcc>1.594574</hAcc><vAcc>1.038458</vAcc></extensions></trkpt>
      <trkpt lon="-82.146815" lat="33.556434"><ele>86.003302</ele><time>2025-10-18T15:12:12Z</time><extensions><speed>1.485211</speed><course>225.583954</course><hAcc>1.583156</hAcc><vAcc>1.017992</vAcc></extensions></trkpt>
      <trkpt lon="-82.146827" lat="33.556425"><ele>86.222909</ele><time>2025-10-18T15:12:13Z</time><extensions><speed>1.484961</speed><course>226.969800</course><hAcc>1.579592</hAcc><vAcc>0.997876</vAcc></extensions></trkpt>
      <trkpt lon="-82.146838" lat="33.556415"><ele>86.455852</ele><time>2025-10-18T15:12:14Z</time><extensions><speed>1.501764</speed><course>226.751377</course><hAcc>1.575433</hAcc><vAcc>0.977040</vAcc></extensions></trkpt>
      <trkpt lon="-82.146851" lat="33.556406"><ele>86.698824</ele><time>2025-10-18T15:12:15Z</time><extensions><speed>1.504128</speed><course>230.657121</course><hAcc>1.578490</hAcc><vAcc>0.957153</vAcc></extensions></trkpt>
      <trkpt lon="-82.146863" lat="33.556398"><ele>86.946093</ele><time>2025-10-18T15:12:16Z</time><extensions><speed>1.467631</speed><course>234.541561</course><hAcc>1.576635</hAcc><vAcc>0.937996</vAcc></extensions></trkpt>
      <trkpt lon="-82.146876" lat="33.556390"><ele>87.178770</ele><time>2025-10-18T15:12:17Z</time><extensions><speed>1.522174</speed><course>232.612055</course><hAcc>1.543942</hAcc><vAcc>0.920336</vAcc></extensions></trkpt>
      <trkpt lon="-82.146888" lat="33.556379"><ele>87.393161</ele><time>2025-10-18T15:12:18Z</time><extensions><speed>1.900181</speed><course>211.394229</course><hAcc>1.412761</hAcc><vAcc>0.904072</vAcc></extensions></trkpt>
      <trkpt lon="-82.146899" lat="33.556366"><ele>87.600799</ele><time>2025-10-18T15:12:19Z</time><extensions><speed>1.632181</speed><course>216.228191</course><hAcc>1.299839</hAcc><vAcc>0.889543</vAcc></extensions></trkpt>
      <trkpt lon="-82.146909" lat="33.556355"><ele>87.781642</ele><time>2025-10-18T15:12:20Z</time><extensions><speed>1.316370</speed><course>224.154754</course><hAcc>1.231323</hAcc><vAcc>0.877709</vAcc></extensions></trkpt>
      <trkpt lon="-82.146919" lat="33.556349"><ele>87.941236</ele><time>2025-10-18T15:12:21Z</time><extensions><speed>1.052042</speed><course>250.423947</course><hAcc>1.239500</hAcc><vAcc>0.868525</vAcc></extensions></trkpt>
      <trkpt lon="-82.146929" lat="33.556347"><ele>88.083140</ele><time>2025-10-18T15:12:22Z</time><extensions><speed>0.943285</speed><course>253.792537</course><hAcc>1.210454</hAcc><vAcc>0.862047</vAcc></extensions></trkpt>
      <trkpt lon="-82.146939" lat="33.556345"><ele>88.209465</ele><time>2025-10-18T15:12:23Z</time><extensions><speed>0.878197</speed><course>259.520969</course><hAcc>1.214880</hAcc><vAcc>0.857139</vAcc></extensions></trkpt>
      <trkpt lon="-82.146949" lat="33.556344"><ele>88.308981</ele><time>2025-10-18T15:12:24Z</time><extensions><speed>0.948911</speed><course>265.498442</course><hAcc>1.238462</hAcc><vAcc>0.854708</vAcc></extensions></trkpt>
      <trkpt lon="-82.146959" lat="33.556344"><ele>88.394736</ele><time>2025-10-18T15:12:25Z</time><extensions><speed>0.961377</speed><course>270.778045</course><hAcc>1.278350</hAcc><vAcc>0.853513</vAcc></extensions></trkpt>
      <trkpt lon="-82.146969" lat="33.556344"><ele>88.471349</ele><time>2025-10-18T15:12:26Z</time><extensions><speed>0.947872</speed><course>277.191814</course><hAcc>1.321424</hAcc><vAcc>0.852730</vAcc></extensions></trkpt>
      <trkpt lon="-82.146979" lat="33.556346"><ele>88.513196</ele><time>2025-10-18T15:12:27Z</time><extensions><speed>0.857311</speed><course>283.830389</course><hAcc>1.337423</hAcc><vAcc>0.852827</vAcc></extensions></trkpt>
      <trkpt lon="-82.146987" lat="33.556348"><ele>88.530997</ele><time>2025-10-18T15:12:28Z</time><extensions><speed>0.870438</speed><course>290.491564</course><hAcc>1.331240</hAcc><vAcc>0.852416</vAcc></extensions></trkpt>
      <trkpt lon="-82.146996" lat="33.556351"><ele>88.536025</ele><time>2025-10-18T15:12:29Z</time><extensions><speed>0.893222</speed><course>296.809265</course><hAcc>1.325808</hAcc><vAcc>0.851200</vAcc></extensions></trkpt>
      <trkpt lon="-82.147004" lat="33.556355"><ele>88.529720</ele><time>2025-10-18T15:12:30Z</time><extensions><speed>0.836967</speed><course>305.029096</course><hAcc>1.325985</hAcc><vAcc>0.850178</vAcc></extensions></trkpt>
      <trkpt lon="-82.147011" lat="33.556360"><ele>88.514272</ele><time>2025-10-18T15:12:31Z</time><extensions><speed>0.895889</speed><course>315.196541</course><hAcc>1.316609</hAcc><vAcc>0.849571</vAcc></extensions></trkpt>
      <trkpt lon="-82.147017" lat="33.556366"><ele>88.467567</ele><time>2025-10-18T15:12:32Z</time><extensions><speed>0.926113</speed><course>326.721954</course><hAcc>1.293140</hAcc><vAcc>0.849251</vAcc></extensions></trkpt>
      <trkpt lon="-82.147022" lat="33.556374"><ele>88.397225</ele><time>2025-10-18T15:12:33Z</time><extensions><speed>0.979283</speed><course>336.612413</course><hAcc>1.282989</hAcc><vAcc>0.848981</vAcc></extensions></trkpt>
      <trkpt lon="-82.147025" lat="33.556382"><ele>88.310745</ele><time>2025-10-18T15:12:34Z</time><extensions><speed>0.967208</speed><course>352.617162</course><hAcc>1.269192</hAcc><vAcc>0.849515</vAcc></extensions></trkpt>
      <trkpt lon="-82.147025" lat="33.556391"><ele>88.213952</ele><time>2025-10-18T15:12:35Z</time><extensions><speed>0.985615</speed><course>3.380275</course><hAcc>1.257602</hAcc><vAcc>0.852149</vAcc></extensions></trkpt>
      <trkpt lon="-82.147024" lat="33.556400"><ele>88.105418</ele><time>2025-10-18T15:12:36Z</time><extensions><speed>1.064723</speed><course>7.302179</course><hAcc>1.268933</hAcc><vAcc>0.855566</vAcc></extensions></trkpt>
      <trkpt lon="-82.147023" lat="33.556409"><ele>87.994812</ele><time>2025-10-18T15:12:37Z</time><extensions><speed>0.920049</speed><course>8.935883</course><hAcc>1.310266</hAcc><vAcc>0.859911</vAcc></extensions></trkpt>
      <trkpt lon="-82.147021" lat="33.556414"><ele>87.878433</ele><time>2025-10-18T15:12:38Z</time><extensions><speed>0.321156</speed><course>24.565459</course><hAcc>1.281372</hAcc><vAcc>0.865065</vAcc></extensions></trkpt>
      <trkpt lon="-82.147020" lat="33.556415"><ele>87.758956</ele><time>2025-10-18T15:12:39Z</time><extensions><speed>0.069848</speed><course>140.290662</course><hAcc>1.305782</hAcc><vAcc>0.872441</vAcc></extensions></trkpt>
      <trkpt lon="-82.147020" lat="33.556415"><ele>87.650537</ele><time>2025-10-18T15:12:40Z</time><extensions><speed>0.140238</speed><course>193.829286</course><hAcc>1.360808</hAcc><vAcc>0.880919</vAcc></extensions></trkpt>
      <trkpt lon="-82.147021" lat="33.556413"><ele>87.554651</ele><time>2025-10-18T15:12:41Z</time><extensions><speed>0.159982</speed><course>216.069512</course><hAcc>1.406986</hAcc><vAcc>0.890687</vAcc></extensions></trkpt>
      <trkpt lon="-82.147022" lat="33.556412"><ele>87.467664</ele><time>2025-10-18T15:12:42Z</time><extensions><speed>0.135954</speed><course>233.825934</course><hAcc>1.427695</hAcc><vAcc>0.902443</vAcc></extensions></trkpt>
      <trkpt lon="-82.147023" lat="33.556412"><ele>87.393385</ele><time>2025-10-18T15:12:44Z</time><extensions><speed>0.107951</speed><course>234.258666</course><hAcc>1.449267</hAcc><vAcc>0.914447</vAcc></extensions></trkpt>
      <trkpt lon="-82.147024" lat="33.556411"><ele>87.328740</ele><time>2025-10-18T15:12:45Z</time><extensions><speed>0.078708</speed><course>230.916232</course><hAcc>1.474361</hAcc><vAcc>0.926449</vAcc></extensions></trkpt>
      <trkpt lon="-82.147024" lat="33.556411"><ele>87.285023</ele><time>2025-10-18T15:12:46Z</time><extensions><speed>0.072292</speed><course>218.176515</course><hAcc>1.503957</hAcc><vAcc>0.937009</vAcc></extensions></trkpt>
      <trkpt lon="-82.147025" lat="33.556410"><ele>87.256347</ele><time>2025-10-18T15:12:47Z</time><extensions><speed>0.104254</speed><course>213.557408</course><hAcc>1.505857</hAcc><vAcc>0.947484</vAcc></extensions></trkpt>
      <trkpt lon="-82.147026" lat="33.556409"><ele>87.243582</ele><time>2025-10-18T15:12:48Z</time><extensions><speed>0.172506</speed><course>212.650384</course><hAcc>1.519973</hAcc><vAcc>0.957149</vAcc></extensions></trkpt>
      <trkpt lon="-82.147027" lat="33.556407"><ele>87.248228</ele><time>2025-10-18T15:12:49Z</time><extensions><speed>0.249875</speed><course>213.248709</course><hAcc>1.545912</hAcc><vAcc>0.965810</vAcc></extensions></trkpt>
      <trkpt lon="-82.147029" lat="33.556405"><ele>87.259479</ele><time>2025-10-18T15:12:50Z</time><extensions><speed>0.338645</speed><course>213.173003</course><hAcc>1.574268</hAcc><vAcc>0.974988</vAcc></extensions></trkpt>
      <trkpt lon="-82.147031" lat="33.556402"><ele>87.262560</ele><time>2025-10-18T15:12:51Z</time><extensions><speed>0.418711</speed><course>211.835016</course><hAcc>1.596726</hAcc><vAcc>0.983497</vAcc></extensions></trkpt>
      <trkpt lon="-82.147033" lat="33.556399"><ele>87.272173</ele><time>2025-10-18T15:12:52Z</time><extensions><speed>0.474213</speed><course>209.165272</course><hAcc>1.611222</hAcc><vAcc>0.991523</vAcc></extensions></trkpt>
      <trkpt lon="-82.147036" lat="33.556395"><ele>87.298606</ele><time>2025-10-18T15:12:53Z</time><extensions><speed>0.500424</speed><course>205.714182</course><hAcc>1.622000</hAcc><vAcc>0.998454</vAcc></extensions></trkpt>
      <trkpt lon="-82.147038" lat="33.556391"><ele>87.330668</ele><time>2025-10-18T15:12:54Z</time><extensions><speed>0.494372</speed><course>202.068633</course><hAcc>1.626935</hAcc><vAcc>1.004888</vAcc></extensions></trkpt>
      <trkpt lon="-82.147040" lat="33.556387"><ele>87.366054</ele><time>2025-10-18T15:12:55Z</time><extensions><speed>0.469148</speed><course>197.622679</course><hAcc>1.627308</hAcc><vAcc>1.010690</vAcc></extensions></trkpt>
      <trkpt lon="-82.147041" lat="33.556383"><ele>87.403443</ele><time>2025-10-18T15:12:56Z</time><extensions><speed>0.431158</speed><course>192.355555</course><hAcc>1.625144</hAcc><vAcc>1.016057</vAcc></extensions></trkpt>
      <trkpt lon="-82.147042" lat="33.556379"><ele>87.441654</ele><time>2025-10-18T15:12:57Z</time><extensions><speed>0.382090</speed><course>186.444607</course><hAcc>1.621639</hAcc><vAcc>1.021149</vAcc></extensions></trkpt>
      <trkpt lon="-82.147042" lat="33.556376"><ele>87.479658</ele><time>2025-10-18T15:12:58Z</time><extensions><speed>0.322482</speed><course>178.123124</course><hAcc>1.616133</hAcc><vAcc>1.026175</vAcc></extensions></trkpt>
      <trkpt lon="-82.147042" lat="33.556373"><ele>87.516639</ele><time>2025-10-18T15:12:59Z</time><extensions><speed>0.260321</speed><course>166.092284</course><hAcc>1.611317</hAcc><vAcc>1.031542</vAcc></extensions></trkpt>
      <trkpt lon="-82.147041" lat="33.556371"><ele>87.552079</ele><time>2025-10-18T15:13:00Z</time><extensions><speed>0.195799</speed><course>149.602139</course><hAcc>1.603541</hAcc><vAcc>1.037283</vAcc></extensions></trkpt>
      <trkpt lon="-82.147040" lat="33.556370"><ele>87.684578</ele><time>2025-10-18T15:13:01Z</time><extensions><speed>0.139119</speed><course>126.808363</course><hAcc>1.594049</hAcc><vAcc>1.043908</vAcc></extensions></trkpt>
      <trkpt lon="-82.147039" lat="33.556369"><ele>87.822653</ele><time>2025-10-18T15:13:02Z</time><extensions><speed>0.120852</speed><course>146.018590</course><hAcc>1.598037</hAcc><vAcc>1.050421</vAcc></extensions></trkpt>
      <trkpt lon="-82.147038" lat="33.556369"><ele>87.974514</ele><time>2025-10-18T15:13:03Z</time><extensions><speed>0.092059</speed><course>151.050482</course><hAcc>1.595294</hAcc><vAcc>1.056332</vAcc></extensions></trkpt>
      <trkpt lon="-82.147038" lat="33.556368"><ele>88.136884</ele><time>2025-10-18T15:13:04Z</time><extensions><speed>0.096549</speed><course>165.539325</course><hAcc>1.598296</hAcc><vAcc>1.061016</vAcc></extensions></trkpt>
      <trkpt lon="-82.147037" lat="33.556367"><ele>88.323224</ele><time>2025-10-18T15:13:05Z</time><extensions><speed>0.098325</speed><course>168.254820</course><hAcc>1.599891</hAcc><vAcc>1.062121</vAcc></extensions></trkpt>
      <trkpt lon="-82.147037" lat="33.556366"><ele>88.499134</ele><time>2025-10-18T15:13:06Z</time><extensions><speed>0.106815</speed><course>164.960215</course><hAcc>1.601088</hAcc><vAcc>1.059884</vAcc></extensions></trkpt>
      <trkpt lon="-82.147037" lat="33.556365"><ele>88.668710</ele><time>2025-10-18T15:13:07Z</time><extensions><speed>0.130472</speed><course>159.464815</course><hAcc>1.604993</hAcc><vAcc>1.055736</vAcc></extensions></trkpt>
      <trkpt lon="-82.147036" lat="33.556364"><ele>88.816696</ele><time>2025-10-18T15:13:08Z</time><extensions><speed>0.174085</speed><course>153.285261</course><hAcc>1.614185</hAcc><vAcc>1.051149</vAcc></extensions></trkpt>
      <trkpt lon="-82.147035" lat="33.556362"><ele>88.956566</ele><time>2025-10-18T15:13:09Z</time><extensions><speed>0.238146</speed><course>146.809723</course><hAcc>1.629273</hAcc><vAcc>1.045582</vAcc></extensions></trkpt>
      <trkpt lon="-82.147033" lat="33.556360"><ele>89.102841</ele><time>2025-10-18T15:13:10Z</time><extensions><speed>0.322392</speed><course>138.772911</course><hAcc>1.647190</hAcc><vAcc>1.038754</vAcc></extensions></trkpt>
      <trkpt lon="-82.147030" lat="33.556358"><ele>89.239814</ele><time>2025-10-18T15:13:11Z</time><extensions><speed>0.417048</speed><course>126.460431</course><hAcc>1.663455</hAcc><vAcc>1.030000</vAcc></extensions></trkpt>
      <trkpt lon="-82.147025" lat="33.556356"><ele>89.364805</ele><time>2025-10-18T15:13:12Z</time><extensions><speed>0.542528</speed><course>111.909227</course><hAcc>1.669634</hAcc><vAcc>1.019772</vAcc></extensions></trkpt>
      <trkpt lon="-82.147019" lat="33.556355"><ele>89.477924</ele><time>2025-10-18T15:13:13Z</time><extensions><speed>0.716305</speed><course>99.766742</course><hAcc>1.657464</hAcc><vAcc>1.007920</vAcc></extensions></trkpt>
      <trkpt lon="-82.147010" lat="33.556354"><ele>89.570319</ele><time>2025-10-18T15:13:14Z</time><extensions><speed>0.890888</speed><course>94.071170</course><hAcc>1.630174</hAcc><vAcc>0.995292</vAcc></extensions></trkpt>
      <trkpt lon="-82.146999" lat="33.556353"><ele>89.653182</ele><time>2025-10-18T15:13:15Z</time><extensions><speed>1.055985</speed><course>93.190792</course><hAcc>1.595459</hAcc><vAcc>0.983247</vAcc></extensions></trkpt>
      <trkpt lon="-82.146987" lat="33.556353"><ele>89.709859</ele><time>2025-10-18T15:13:16Z</time><extensions><speed>1.148237</speed><course>93.935161</course><hAcc>1.569175</hAcc><vAcc>0.971169</vAcc></extensions></trkpt>
      <trkpt lon="-82.146974" lat="33.556352"><ele>89.738349</ele><time>2025-10-18T15:13:17Z</time><extensions><speed>1.261751</speed><course>92.337520</course><hAcc>1.553824</hAcc><vAcc>0.959420</vAcc></extensions></trkpt>
      <trkpt lon="-82.146960" lat="33.556352"><ele>89.750608</ele><time>2025-10-18T15:13:18Z</time><extensions><speed>1.382257</speed><course>86.668170</course><hAcc>1.524165</hAcc><vAcc>0.948372</vAcc></extensions></trkpt>
      <trkpt lon="-82.146945" lat="33.556354"><ele>89.729777</ele><time>2025-10-18T15:13:19Z</time><extensions><speed>1.394773</speed><course>81.623829</course><hAcc>1.493743</hAcc><vAcc>0.938228</vAcc></extensions></trkpt>
      <trkpt lon="-82.146930" lat="33.556356"><ele>89.673738</ele><time>2025-10-18T15:13:20Z</time><extensions><speed>1.518444</speed><course>80.374594</course><hAcc>1.469429</hAcc><vAcc>0.929656</vAcc></extensions></trkpt>
      <trkpt lon="-82.146913" lat="33.556358"><ele>89.602054</ele><time>2025-10-18T15:13:21Z</time><extensions><speed>1.519836</speed><course>80.468520</course><hAcc>1.451847</hAcc><vAcc>0.922577</vAcc></extensions></trkpt>
      <trkpt lon="-82.146898" lat="33.556360"><ele>89.495431</ele><time>2025-10-18T15:13:22Z</time><extensions><speed>1.458426</speed><course>82.660936</course><hAcc>1.444219</hAcc><vAcc>0.916835</vAcc></extensions></trkpt>
      <trkpt lon="-82.146882" lat="33.556362"><ele>89.380946</ele><time>2025-10-18T15:13:23Z</time><extensions><speed>1.369290</speed><course>83.236255</course><hAcc>1.439834</hAcc><vAcc>0.912080</vAcc></extensions></trkpt>
      <trkpt lon="-82.146868" lat="33.556363"><ele>89.299824</ele><time>2025-10-18T15:13:24Z</time><extensions><speed>1.307822</speed><course>81.438942</course><hAcc>1.437833</hAcc><vAcc>0.908193</vAcc></extensions></trkpt>
      <trkpt lon="-82.146854" lat="33.556365"><ele>89.221450</ele><time>2025-10-18T15:13:25Z</time><extensions><speed>1.287807</speed><course>78.234654</course><hAcc>1.437583</hAcc><vAcc>0.904556</vAcc></extensions></trkpt>
      <trkpt lon="-82.146841" lat="33.556368"><ele>89.122970</ele><time>2025-10-18T15:13:26Z</time><extensions><speed>1.267129</speed><course>74.540766</course><hAcc>1.439093</hAcc><vAcc>0.902690</vAcc></extensions></trkpt>
      <trkpt lon="-82.146828" lat="33.556371"><ele>89.042094</ele><time>2025-10-18T15:13:27Z</time><extensions><speed>1.251186</speed><course>71.614507</course><hAcc>1.444844</hAcc><vAcc>0.899868</vAcc></extensions></trkpt>
      <trkpt lon="-82.146815" lat="33.556375"><ele>88.937088</ele><time>2025-10-18T15:13:28Z</time><extensions><speed>1.201107</speed><course>71.459052</course><hAcc>1.448838</hAcc><vAcc>0.896336</vAcc></extensions></trkpt>
      <trkpt lon="-82.146803" lat="33.556378"><ele>88.834006</ele><time>2025-10-18T15:13:29Z</time><extensions><speed>1.236549</speed><course>77.123694</course><hAcc>1.445417</hAcc><vAcc>0.893106</vAcc></extensions></trkpt>
      <trkpt lon="-82.146790" lat="33.556380"><ele>88.737382</ele><time>2025-10-18T15:13:30Z</time><extensions><speed>1.167030</speed><course>77.735822</course><hAcc>1.435612</hAcc><vAcc>0.889351</vAcc></extensions></trkpt>
      <trkpt lon="-82.146778" lat="33.556383"><ele>88.652418</ele><time>2025-10-18T15:13:31Z</time><extensions><speed>1.135556</speed><course>72.215438</course><hAcc>1.439997</hAcc><vAcc>0.885888</vAcc></extensions></trkpt>
      <trkpt lon="-82.146766" lat="33.556387"><ele>88.550152</ele><time>2025-10-18T15:13:32Z</time><extensions><speed>1.199598</speed><course>65.465130</course><hAcc>1.436107</hAcc><vAcc>0.881988</vAcc></extensions></trkpt>
      <trkpt lon="-82.146755" lat="33.556392"><ele>88.458446</ele><time>2025-10-18T15:13:33Z</time><extensions><speed>1.254044</speed><course>60.908455</course><hAcc>1.437137</hAcc><vAcc>0.877428</vAcc></extensions></trkpt>
      <trkpt lon="-82.146743" lat="33.556398"><ele>88.360379</ele><time>2025-10-18T15:13:34Z</time><extensions><speed>1.287110</speed><course>58.077603</course><hAcc>1.430533</hAcc><vAcc>0.871943</vAcc></extensions></trkpt>
      <trkpt lon="-82.146731" lat="33.556404"><ele>88.271513</ele><time>2025-10-18T15:13:35Z</time><extensions><speed>1.279332</speed><course>56.472516</course><hAcc>1.419315</hAcc><vAcc>0.866374</vAcc></extensions></trkpt>
      <trkpt lon="-82.146720" lat="33.556410"><ele>88.180480</ele><time>2025-10-18T15:13:36Z</time><extensions><speed>1.239278</speed><course>55.803551</course><hAcc>1.406302</hAcc><vAcc>0.860728</vAcc></extensions></trkpt>
      <trkpt lon="-82.146708" lat="33.556417"><ele>88.105227</ele><time>2025-10-18T15:13:37Z</time><extensions><speed>1.275222</speed><course>58.100574</course><hAcc>1.397999</hAcc><vAcc>0.855689</vAcc></extensions></trkpt>
      <trkpt lon="-82.146697" lat="33.556423"><ele>88.020441</ele><time>2025-10-18T15:13:38Z</time><extensions><speed>1.256004</speed><course>56.752887</course><hAcc>1.383097</hAcc><vAcc>0.850795</vAcc></extensions></trkpt>
      <trkpt lon="-82.146686" lat="33.556429"><ele>87.944724</ele><time>2025-10-18T15:13:39Z</time><extensions><speed>1.255818</speed><course>55.467361</course><hAcc>1.375040</hAcc><vAcc>0.846092</vAcc></extensions></trkpt>
      <trkpt lon="-82.146675" lat="33.556436"><ele>87.861138</ele><time>2025-10-18T15:13:40Z</time><extensions><speed>1.246127</speed><course>54.092886</course><hAcc>1.364060</hAcc><vAcc>0.841185</vAcc></extensions></trkpt>
      <trkpt lon="-82.146664" lat="33.556443"><ele>87.769910</ele><time>2025-10-18T15:13:41Z</time><extensions><speed>1.267811</speed><course>50.995165</course><hAcc>1.350267</hAcc><vAcc>0.835992</vAcc></extensions></trkpt>
      <trkpt lon="-82.146653" lat="33.556450"><ele>87.682320</ele><time>2025-10-18T15:13:42Z</time><extensions><speed>1.339497</speed><course>49.980149</course><hAcc>1.337346</hAcc><vAcc>0.830828</vAcc></extensions></trkpt>
      <trkpt lon="-82.146642" lat="33.556458"><ele>87.598778</ele><time>2025-10-18T15:13:43Z</time><extensions><speed>1.281472</speed><course>50.670240</course><hAcc>1.329908</hAcc><vAcc>0.825643</vAcc></extensions></trkpt>
      <trkpt lon="-82.146632" lat="33.556465"><ele>87.522616</ele><time>2025-10-18T15:13:44Z</time><extensions><speed>1.211326</speed><course>51.246742</course><hAcc>1.319751</hAcc><vAcc>0.820433</vAcc></extensions></trkpt>
      <trkpt lon="-82.146621" lat="33.556471"><ele>87.436014</ele><time>2025-10-18T15:13:45Z</time><extensions><speed>1.229783</speed><course>54.179979</course><hAcc>1.319231</hAcc><vAcc>0.815198</vAcc></extensions></trkpt>
      <trkpt lon="-82.146610" lat="33.556478"><ele>87.344268</ele><time>2025-10-18T15:13:46Z</time><extensions><speed>1.205033</speed><course>58.369760</course><hAcc>1.315951</hAcc><vAcc>0.809903</vAcc></extensions></trkpt>
      <trkpt lon="-82.146599" lat="33.556483"><ele>87.267702</ele><time>2025-10-18T15:13:47Z</time><extensions><speed>1.176986</speed><course>61.134084</course><hAcc>1.308404</hAcc><vAcc>0.804479</vAcc></extensions></trkpt>
      <trkpt lon="-82.146588" lat="33.556488"><ele>87.185483</ele><time>2025-10-18T15:13:48Z</time><extensions><speed>1.179418</speed><course>62.297607</course><hAcc>1.297107</hAcc><vAcc>0.798886</vAcc></extensions></trkpt>
      <trkpt lon="-82.146577" lat="33.556493"><ele>87.102291</ele><time>2025-10-18T15:13:49Z</time><extensions><speed>1.215904</speed><course>62.345555</course><hAcc>1.297179</hAcc><vAcc>0.793168</vAcc></extensions></trkpt>
      <trkpt lon="-82.146565" lat="33.556498"><ele>87.018747</ele><time>2025-10-18T15:13:50Z</time><extensions><speed>1.174112</speed><course>60.542838</course><hAcc>1.287179</hAcc><vAcc>0.787474</vAcc></extensions></trkpt>
      <trkpt lon="-82.146554" lat="33.556503"><ele>86.943113</ele><time>2025-10-18T15:13:51Z</time><extensions><speed>1.175592</speed><course>63.318113</course><hAcc>1.269659</hAcc><vAcc>0.782021</vAcc></extensions></trkpt>
      <trkpt lon="-82.146543" lat="33.556508"><ele>86.856079</ele><time>2025-10-18T15:13:52Z</time><extensions><speed>1.207138</speed><course>64.277177</course><hAcc>1.261346</hAcc><vAcc>0.777018</vAcc></extensions></trkpt>
      <trkpt lon="-82.146531" lat="33.556513"><ele>86.773218</ele><time>2025-10-18T15:13:53Z</time><extensions><speed>1.251458</speed><course>62.351366</course><hAcc>1.252162</hAcc><vAcc>0.772610</vAcc></extensions></trkpt>
      <trkpt lon="-82.146519" lat="33.556518"><ele>86.695703</ele><time>2025-10-18T15:13:54Z</time><extensions><speed>1.271302</speed><course>62.222748</course><hAcc>1.239232</hAcc><vAcc>0.768862</vAcc></extensions></trkpt>
      <trkpt lon="-82.146507" lat="33.556523"><ele>86.615437</ele><time>2025-10-18T15:13:55Z</time><extensions><speed>1.242381</speed><course>62.613272</course><hAcc>1.221947</hAcc><vAcc>0.765778</vAcc></extensions></trkpt>
      <trkpt lon="-82.146495" lat="33.556529"><ele>86.534783</ele><time>2025-10-18T15:13:56Z</time><extensions><speed>1.264514</speed><course>61.348473</course><hAcc>1.211705</hAcc><vAcc>0.763317</vAcc></extensions></trkpt>
      <trkpt lon="-82.146483" lat="33.556534"><ele>86.469641</ele><time>2025-10-18T15:13:57Z</time><extensions><speed>1.262661</speed><course>61.334718</course><hAcc>1.209919</hAcc><vAcc>0.761411</vAcc></extensions></trkpt>
      <trkpt lon="-82.146471" lat="33.556540"><ele>86.403248</ele><time>2025-10-18T15:13:58Z</time><extensions><speed>1.304400</speed><course>60.168372</course><hAcc>1.199620</hAcc><vAcc>0.759972</vAcc></extensions></trkpt>
      <trkpt lon="-82.146458" lat="33.556546"><ele>86.334733</ele><time>2025-10-18T15:13:59Z</time><extensions><speed>1.329342</speed><course>59.955184</course><hAcc>1.194629</hAcc><vAcc>0.758914</vAcc></extensions></trkpt>
      <trkpt lon="-82.146446" lat="33.556552"><ele>86.279436</ele><time>2025-10-18T15:14:00Z</time><extensions><speed>1.385634</speed><course>63.665754</course><hAcc>1.192178</hAcc><vAcc>0.758162</vAcc></extensions></trkpt>
      <trkpt lon="-82.146432" lat="33.556557"><ele>86.216915</ele><time>2025-10-18T15:14:01Z</time><extensions><speed>1.367376</speed><course>68.044482</course><hAcc>1.193648</hAcc><vAcc>0.757645</vAcc></extensions></trkpt>
      <trkpt lon="-82.146419" lat="33.556561"><ele>86.144848</ele><time>2025-10-18T15:14:02Z</time><extensions><speed>1.257836</speed><course>67.655085</course><hAcc>1.189790</hAcc><vAcc>0.757301</vAcc></extensions></trkpt>
      <trkpt lon="-82.146407" lat="33.556566"><ele>86.067618</ele><time>2025-10-18T15:14:03Z</time><extensions><speed>1.234881</speed><course>64.398614</course><hAcc>1.194256</hAcc><vAcc>0.757082</vAcc></extensions></trkpt>
      <trkpt lon="-82.146394" lat="33.556571"><ele>85.985539</ele><time>2025-10-18T15:14:04Z</time><extensions><speed>1.301095</speed><course>63.890835</course><hAcc>1.188350</hAcc><vAcc>0.756948</vAcc></extensions></trkpt>
      <trkpt lon="-82.146382" lat="33.556576"><ele>85.918676</ele><time>2025-10-18T15:14:05Z</time><extensions><speed>1.304629</speed><course>63.458706</course><hAcc>1.177071</hAcc><vAcc>0.756870</vAcc></extensions></trkpt>
      <trkpt lon="-82.146370" lat="33.556581"><ele>85.861886</ele><time>2025-10-18T15:14:06Z</time><extensions><speed>1.254527</speed><course>61.679150</course><hAcc>1.170837</hAcc><vAcc>0.756828</vAcc></extensions></trkpt>
      <trkpt lon="-82.146358" lat="33.556587"><ele>85.824290</ele><time>2025-10-18T15:14:07Z</time><extensions><speed>1.283636</speed><course>58.922064</course><hAcc>1.172540</hAcc><vAcc>0.756807</vAcc></extensions></trkpt>
      <trkpt lon="-82.146346" lat="33.556593"><ele>85.799687</ele><time>2025-10-18T15:14:08Z</time><extensions><speed>1.267297</speed><course>58.062982</course><hAcc>1.170843</hAcc><vAcc>0.756797</vAcc></extensions></trkpt>
      <trkpt lon="-82.146335" lat="33.556599"><ele>85.792199</ele><time>2025-10-18T15:14:09Z</time><extensions><speed>1.209462</speed><course>56.836601</course><hAcc>1.174984</hAcc><vAcc>0.756792</vAcc></extensions></trkpt>
      <trkpt lon="-82.146324" lat="33.556605"><ele>85.791214</ele><time>2025-10-18T15:14:10Z</time><extensions><speed>1.117743</speed><course>54.957512</course><hAcc>1.186920</hAcc><vAcc>0.756829</vAcc></extensions></trkpt>
      <trkpt lon="-82.146315" lat="33.556611"><ele>85.802644</ele><time>2025-10-18T15:14:11Z</time><extensions><speed>1.100389</speed><course>51.564645</course><hAcc>1.179939</hAcc><vAcc>0.756844</vAcc></extensions></trkpt>
      <trkpt lon="-82.146305" lat="33.556617"><ele>85.816234</ele><time>2025-10-18T15:14:12Z</time><extensions><speed>1.205653</speed><course>51.725318</course><hAcc>1.185638</hAcc><vAcc>0.756862</vAcc></extensions></trkpt>
      <trkpt lon="-82.146295" lat="33.556624"><ele>85.835420</ele><time>2025-10-18T15:14:13Z</time><extensions><speed>1.249252</speed><course>52.950541</course><hAcc>1.189864</hAcc><vAcc>0.756883</vAcc></extensions></trkpt>
      <trkpt lon="-82.146284" lat="33.556631"><ele>85.864111</ele><time>2025-10-18T15:14:14Z</time><extensions><speed>1.268555</speed><course>53.557506</course><hAcc>1.190573</hAcc><vAcc>0.756906</vAcc></extensions></trkpt>
      <trkpt lon="-82.146273" lat="33.556638"><ele>85.901350</ele><time>2025-10-18T15:14:15Z</time><extensions><speed>1.251528</speed><course>52.966391</course><hAcc>1.197543</hAcc><vAcc>0.756932</vAcc></extensions></trkpt>
      <trkpt lon="-82.146262" lat="33.556644"><ele>85.945119</ele><time>2025-10-18T15:14:16Z</time><extensions><speed>1.253519</speed><course>51.165184</course><hAcc>1.202540</hAcc><vAcc>0.756958</vAcc></extensions></trkpt>
      <trkpt lon="-82.146252" lat="33.556652"><ele>85.992706</ele><time>2025-10-18T15:14:17Z</time><extensions><speed>1.258358</speed><course>50.179426</course><hAcc>1.214403</hAcc><vAcc>0.756984</vAcc></extensions></trkpt>
      <trkpt lon="-82.146242" lat="33.556658"><ele>85.992803</ele><time>2025-10-18T15:14:18Z</time><extensions><speed>1.076406</speed><course>55.608143</course><hAcc>1.222125</hAcc><vAcc>0.757005</vAcc></extensions></trkpt>
      <trkpt lon="-82.146233" lat="33.556662"><ele>85.980531</ele><time>2025-10-18T15:14:19Z</time><extensions><speed>0.708315</speed><course>70.479408</course><hAcc>1.225291</hAcc><vAcc>0.757019</vAcc></extensions></trkpt>
      <trkpt lon="-82.146228" lat="33.556663"><ele>85.950134</ele><time>2025-10-18T15:14:20Z</time><extensions><speed>0.407316</speed><course>90.463620</course><hAcc>1.239332</hAcc><vAcc>0.757021</vAcc></extensions></trkpt>
      <trkpt lon="-82.146225" lat="33.556662"><ele>85.893540</ele><time>2025-10-18T15:14:21Z</time><extensions><speed>0.192150</speed><course>116.663824</course><hAcc>1.239050</hAcc><vAcc>0.757008</vAcc></extensions></trkpt>
      <trkpt lon="-82.146223" lat="33.556662"><ele>85.826965</ele><time>2025-10-18T15:14:22Z</time><extensions><speed>0.139161</speed><course>137.445406</course><hAcc>1.242853</hAcc><vAcc>0.756984</vAcc></extensions></trkpt>
      <trkpt lon="-82.146222" lat="33.556661"><ele>85.732196</ele><time>2025-10-18T15:14:23Z</time><extensions><speed>0.094855</speed><course>152.109043</course><hAcc>1.250040</hAcc><vAcc>0.756953</vAcc></extensions></trkpt>
      <trkpt lon="-82.146222" lat="33.556660"><ele>85.616034</ele><time>2025-10-18T15:14:24Z</time><extensions><speed>0.063987</speed><course>133.768626</course><hAcc>1.256261</hAcc><vAcc>0.756919</vAcc></extensions></trkpt>
      <trkpt lon="-82.146221" lat="33.556660"><ele>85.482419</ele><time>2025-10-18T15:14:25Z</time><extensions><speed>0.093983</speed><course>88.009790</course><hAcc>1.263970</hAcc><vAcc>0.756886</vAcc></extensions></trkpt>
      <trkpt lon="-82.146220" lat="33.556660"><ele>85.341678</ele><time>2025-10-18T15:14:26Z</time><extensions><speed>0.202915</speed><course>72.867842</course><hAcc>1.273507</hAcc><vAcc>0.756856</vAcc></extensions></trkpt>
      <trkpt lon="-82.146217" lat="33.556661"><ele>85.173019</ele><time>2025-10-18T15:14:27Z</time><extensions><speed>0.380008</speed><course>69.794863</course><hAcc>1.278403</hAcc><vAcc>0.756829</vAcc></extensions></trkpt>
      <trkpt lon="-82.146212" lat="33.556663"><ele>84.986909</ele><time>2025-10-18T15:14:28Z</time><extensions><speed>0.624428</speed><course>69.429301</course><hAcc>1.272098</hAcc><vAcc>0.756806</vAcc></extensions></trkpt>
      <trkpt lon="-82.146204" lat="33.556665"><ele>84.806318</ele><time>2025-10-18T15:14:29Z</time><extensions><speed>0.846165</speed><course>66.255358</course><hAcc>1.267673</hAcc><vAcc>0.756788</vAcc></extensions></trkpt>
      <trkpt lon="-82.146196" lat="33.556669"><ele>84.625545</ele><time>2025-10-18T15:14:30Z</time><extensions><speed>0.932555</speed><course>65.587364</course><hAcc>1.266704</hAcc><vAcc>0.756774</vAcc></extensions></trkpt>
      <trkpt lon="-82.146186" lat="33.556672"><ele>84.447266</ele><time>2025-10-18T15:14:31Z</time><extensions><speed>0.987780</speed><course>68.119187</course><hAcc>1.258591</hAcc><vAcc>0.756763</vAcc></extensions></trkpt>
      <trkpt lon="-82.146177" lat="33.556675"><ele>84.279771</ele><time>2025-10-18T15:14:32Z</time><extensions><speed>0.846026</speed><course>70.010435</course><hAcc>1.256321</hAcc><vAcc>0.756756</vAcc></extensions></trkpt>
      <trkpt lon="-82.146169" lat="33.556678"><ele>84.125844</ele><time>2025-10-18T15:14:33Z</time><extensions><speed>0.689794</speed><course>64.083728</course><hAcc>1.238843</hAcc><vAcc>0.756750</vAcc></extensions></trkpt>
      <trkpt lon="-82.146163" lat="33.556681"><ele>83.995683</ele><time>2025-10-18T15:14:34Z</time><extensions><speed>0.735510</speed><course>56.907969</course><hAcc>1.240990</hAcc><vAcc>0.756746</vAcc></extensions></trkpt>
      <trkpt lon="-82.146155" lat="33.556685"><ele>83.895863</ele><time>2025-10-18T15:14:35Z</time><extensions><speed>0.857338</speed><course>54.601431</course><hAcc>1.241882</hAcc><vAcc>0.756744</vAcc></extensions></trkpt>
      <trkpt lon="-82.146147" lat="33.556690"><ele>83.797645</ele><time>2025-10-18T15:14:36Z</time><extensions><speed>0.970553</speed><course>54.432122</course><hAcc>1.244041</hAcc><vAcc>0.756742</vAcc></extensions></trkpt>
      <trkpt lon="-82.146138" lat="33.556695"><ele>83.714889</ele><time>2025-10-18T15:14:37Z</time><extensions><speed>1.063615</speed><course>56.043634</course><hAcc>1.242211</hAcc><vAcc>0.756742</vAcc></extensions></trkpt>
      <trkpt lon="-82.146129" lat="33.556700"><ele>83.648758</ele><time>2025-10-18T15:14:38Z</time><extensions><speed>1.128909</speed><course>57.831426</course><hAcc>1.239311</hAcc><vAcc>0.756741</vAcc></extensions></trkpt>
      <trkpt lon="-82.146118" lat="33.556706"><ele>83.591701</ele><time>2025-10-18T15:14:39Z</time><extensions><speed>1.151681</speed><course>59.775865</course><hAcc>1.253605</hAcc><vAcc>0.756741</vAcc></extensions></trkpt>
      <trkpt lon="-82.146107" lat="33.556711"><ele>83.566422</ele><time>2025-10-18T15:14:40Z</time><extensions><speed>1.157602</speed><course>59.935130</course><hAcc>1.263329</hAcc><vAcc>0.756987</vAcc></extensions></trkpt>
      <trkpt lon="-82.146096" lat="33.556716"><ele>83.534261</ele><time>2025-10-18T15:14:41Z</time><extensions><speed>1.175979</speed><course>59.071086</course><hAcc>1.272366</hAcc><vAcc>0.757100</vAcc></extensions></trkpt>
      <trkpt lon="-82.146085" lat="33.556722"><ele>83.508515</ele><time>2025-10-18T15:14:42Z</time><extensions><speed>1.203587</speed><course>60.049974</course><hAcc>1.284747</hAcc><vAcc>0.757234</vAcc></extensions></trkpt>
      <trkpt lon="-82.146074" lat="33.556726"><ele>83.498310</ele><time>2025-10-18T15:14:43Z</time><extensions><speed>1.150699</speed><course>65.011932</course><hAcc>1.297760</hAcc><vAcc>0.757391</vAcc></extensions></trkpt>
      <trkpt lon="-82.146063" lat="33.556730"><ele>83.497855</ele><time>2025-10-18T15:14:44Z</time><extensions><speed>1.065450</speed><course>72.388266</course><hAcc>1.290197</hAcc><vAcc>0.757567</vAcc></extensions></trkpt>
      <trkpt lon="-82.146052" lat="33.556732"><ele>83.509908</ele><time>2025-10-18T15:14:45Z</time><extensions><speed>1.014900</speed><course>77.904647</course><hAcc>1.285827</hAcc><vAcc>0.757757</vAcc></extensions></trkpt>
      <trkpt lon="-82.146042" lat="33.556734"><ele>83.518595</ele><time>2025-10-18T15:14:46Z</time><extensions><speed>0.992689</speed><course>82.837535</course><hAcc>1.293568</hAcc><vAcc>0.757954</vAcc></extensions></trkpt>
      <trkpt lon="-82.146031" lat="33.556735"><ele>83.536050</ele><time>2025-10-18T15:14:47Z</time><extensions><speed>1.016843</speed><course>83.768490</course><hAcc>1.306851</hAcc><vAcc>0.758142</vAcc></extensions></trkpt>
      <trkpt lon="-82.146020" lat="33.556736"><ele>83.548847</ele><time>2025-10-18T15:14:48Z</time><extensions><speed>0.947951</speed><course>83.035519</course><hAcc>1.297601</hAcc><vAcc>0.758304</vAcc></extensions></trkpt>
      <trkpt lon="-82.146010" lat="33.556737"><ele>83.577075</ele><time>2025-10-18T15:14:49Z</time><extensions><speed>1.001432</speed><course>83.711367</course><hAcc>1.281316</hAcc><vAcc>0.758414</vAcc></extensions></trkpt>
      <trkpt lon="-82.145999" lat="33.556738"><ele>83.607816</ele><time>2025-10-18T15:14:50Z</time><extensions><speed>1.048616</speed><course>87.931133</course><hAcc>1.265142</hAcc><vAcc>0.758444</vAcc></extensions></trkpt>
      <trkpt lon="-82.145987" lat="33.556738"><ele>83.637796</ele><time>2025-10-18T15:14:51Z</time><extensions><speed>1.081901</speed><course>94.220621</course><hAcc>1.262694</hAcc><vAcc>0.758380</vAcc></extensions></trkpt>
      <trkpt lon="-82.145976" lat="33.556736"><ele>83.667110</ele><time>2025-10-18T15:14:52Z</time><extensions><speed>1.138488</speed><course>97.950051</course><hAcc>1.265179</hAcc><vAcc>0.758240</vAcc></extensions></trkpt>
      <trkpt lon="-82.145963" lat="33.556735"><ele>83.693409</ele><time>2025-10-18T15:14:53Z</time><extensions><speed>1.157394</speed><course>96.878775</course><hAcc>1.273356</hAcc><vAcc>0.758054</vAcc></extensions></trkpt>
      <trkpt lon="-82.145951" lat="33.556734"><ele>83.717840</ele><time>2025-10-18T15:14:54Z</time><extensions><speed>1.119397</speed><course>90.670309</course><hAcc>1.284856</hAcc><vAcc>0.757850</vAcc></extensions></trkpt>
      <trkpt lon="-82.145940" lat="33.556735"><ele>83.738233</ele><time>2025-10-18T15:14:55Z</time><extensions><speed>0.990734</speed><course>84.234332</course><hAcc>1.303558</hAcc><vAcc>0.757647</vAcc></extensions></trkpt>
      <trkpt lon="-82.145930" lat="33.556736"><ele>83.766566</ele><time>2025-10-18T15:14:56Z</time><extensions><speed>0.783673</speed><course>76.245825</course><hAcc>1.319295</hAcc><vAcc>0.757459</vAcc></extensions></trkpt>
      <trkpt lon="-82.145923" lat="33.556738"><ele>83.794567</ele><time>2025-10-18T15:14:57Z</time><extensions><speed>0.604662</speed><course>71.029279</course><hAcc>1.352651</hAcc><vAcc>0.757293</vAcc></extensions></trkpt>
      <trkpt lon="-82.145917" lat="33.556740"><ele>83.818880</ele><time>2025-10-18T15:14:58Z</time><extensions><speed>0.532319</speed><course>68.876887</course><hAcc>1.395323</hAcc><vAcc>0.757153</vAcc></extensions></trkpt>
      <trkpt lon="-82.145913" lat="33.556741"><ele>83.842654</ele><time>2025-10-18T15:14:59Z</time><extensions><speed>0.391054</speed><course>64.580967</course><hAcc>1.423998</hAcc><vAcc>0.757039</vAcc></extensions></trkpt>
      <trkpt lon="-82.145910" lat="33.556743"><ele>83.862220</ele><time>2025-10-18T15:15:00Z</time><extensions><speed>0.293590</speed><course>59.526434</course><hAcc>1.450801</hAcc><vAcc>0.756951</vAcc></extensions></trkpt>
      <trkpt lon="-82.145907" lat="33.556744"><ele>83.871828</ele><time>2025-10-18T15:15:01Z</time><extensions><speed>0.227232</speed><course>54.804254</course><hAcc>1.474525</hAcc><vAcc>0.756883</vAcc></extensions></trkpt>
      <trkpt lon="-82.145906" lat="33.556745"><ele>83.875174</ele><time>2025-10-18T15:15:02Z</time><extensions><speed>0.150265</speed><course>51.925793</course><hAcc>1.498717</hAcc><vAcc>0.756834</vAcc></extensions></trkpt>
      <trkpt lon="-82.145904" lat="33.556746"><ele>83.874270</ele><time>2025-10-18T15:15:03Z</time><extensions><speed>0.120965</speed><course>78.063062</course><hAcc>1.514380</hAcc><vAcc>0.756799</vAcc></extensions></trkpt>
      <trkpt lon="-82.145903" lat="33.556745"><ele>83.867728</ele><time>2025-10-18T15:15:04Z</time><extensions><speed>0.231827</speed><course>111.451797</course><hAcc>1.533450</hAcc><vAcc>0.756775</vAcc></extensions></trkpt>
      <trkpt lon="-82.145899" lat="33.556744"><ele>83.855115</ele><time>2025-10-18T15:15:05Z</time><extensions><speed>0.425853</speed><course>116.434767</course><hAcc>1.572824</hAcc><vAcc>0.756760</vAcc></extensions></trkpt>
      <trkpt lon="-82.145894" lat="33.556742"><ele>83.838760</ele><time>2025-10-18T15:15:06Z</time><extensions><speed>0.677001</speed><course>112.248011</course><hAcc>1.623964</hAcc><vAcc>0.756751</vAcc></extensions></trkpt>
      <trkpt lon="-82.145886" lat="33.556739"><ele>83.816991</ele><time>2025-10-18T15:15:07Z</time><extensions><speed>0.962814</speed><course>110.647302</course><hAcc>1.679192</hAcc><vAcc>0.756745</vAcc></extensions></trkpt>
      <trkpt lon="-82.145875" lat="33.556736"><ele>83.789874</ele><time>2025-10-18T15:15:08Z</time><extensions><speed>1.157786</speed><course>111.069098</course><hAcc>1.754874</hAcc><vAcc>0.756743</vAcc></extensions></trkpt>
      <trkpt lon="-82.145863" lat="33.556732"><ele>83.758190</ele><time>2025-10-18T15:15:09Z</time><extensions><speed>1.215665</speed><course>110.573600</course><hAcc>1.829428</hAcc><vAcc>0.756742</vAcc></extensions></trkpt>
      <trkpt lon="-82.145851" lat="33.556728"><ele>83.722951</ele><time>2025-10-18T15:15:10Z</time><extensions><speed>1.166493</speed><course>109.544941</course><hAcc>1.886733</hAcc><vAcc>0.756741</vAcc></extensions></trkpt>
      <trkpt lon="-82.145839" lat="33.556725"><ele>83.684866</ele><time>2025-10-18T15:15:11Z</time><extensions><speed>1.102284</speed><course>106.728993</course><hAcc>1.928936</hAcc><vAcc>0.756742</vAcc></extensions></trkpt>
      <trkpt lon="-82.145828" lat="33.556723"><ele>83.642262</ele><time>2025-10-18T15:15:12Z</time><extensions><speed>1.103125</speed><course>103.100361</course><hAcc>1.961889</hAcc><vAcc>0.756742</vAcc></extensions></trkpt>
      <trkpt lon="-82.145817" lat="33.556721"><ele>83.598443</ele><time>2025-10-18T15:15:13Z</time><extensions><speed>1.009856</speed><course>100.451475</course><hAcc>2.011356</hAcc><vAcc>0.756742</vAcc></extensions></trkpt>
      <trkpt lon="-82.145806" lat="33.556719"><ele>83.550588</ele><time>2025-10-18T15:15:14Z</time><extensions><speed>0.914074</speed><course>97.165194</course><hAcc>2.090125</hAcc><vAcc>0.756743</vAcc></extensions></trkpt>
      <trkpt lon="-82.145798" lat="33.556719"><ele>83.499322</ele><time>2025-10-18T15:15:15Z</time><extensions><speed>0.723444</speed><course>94.222920</course><hAcc>2.204797</hAcc><vAcc>0.756743</vAcc></extensions></trkpt>
      <trkpt lon="-82.145791" lat="33.556719"><ele>83.447894</ele><time>2025-10-18T15:15:16Z</time><extensions><speed>0.430038</speed><course>85.007222</course><hAcc>2.335522</hAcc><vAcc>0.756743</vAcc></extensions></trkpt>
      <trkpt lon="-82.145787" lat="33.556720"><ele>83.393368</ele><time>2025-10-18T15:15:17Z</time><extensions><speed>0.414574</speed><course>72.635675</course><hAcc>2.455765</hAcc><vAcc>0.756743</vAcc></extensions></trkpt>
      <trkpt lon="-82.145783" lat="33.556722"><ele>83.338919</ele><time>2025-10-18T15:15:18Z</time><extensions><speed>0.441315</speed><course>60.005736</course><hAcc>2.619685</hAcc><vAcc>0.756743</vAcc></extensions></trkpt>
      <trkpt lon="-82.145779" lat="33.556725"><ele>83.285035</ele><time>2025-10-18T15:15:19Z</time><extensions><speed>0.502477</speed><course>48.327900</course><hAcc>2.825469</hAcc><vAcc>0.756743</vAcc></extensions></trkpt>
      <trkpt lon="-82.145775" lat="33.556729"><ele>83.232086</ele><time>2025-10-18T15:15:20Z</time><extensions><speed>0.615890</speed><course>41.020215</course><hAcc>3.042851</hAcc><vAcc>0.756742</vAcc></extensions></trkpt>
      <trkpt lon="-82.145771" lat="33.556734"><ele>83.180314</ele><time>2025-10-18T15:15:21Z</time><extensions><speed>0.747021</speed><course>36.887343</course><hAcc>3.244921</hAcc><vAcc>0.757381</vAcc></extensions></trkpt>
      <trkpt lon="-82.145766" lat="33.556740"><ele>83.130149</ele><time>2025-10-18T15:15:22Z</time><extensions><speed>0.869740</speed><course>34.201195</course><hAcc>3.410849</hAcc><vAcc>0.758078</vAcc></extensions></trkpt>
      <trkpt lon="-82.145761" lat="33.556747"><ele>83.082042</ele><time>2025-10-18T15:15:23Z</time><extensions><speed>0.864921</speed><course>25.795048</course><hAcc>3.524145</hAcc><vAcc>0.758707</vAcc></extensions></trkpt>
      <trkpt lon="-82.145758" lat="33.556754"><ele>83.035975</ele><time>2025-10-18T15:15:24Z</time><extensions><speed>0.926524</speed><course>21.536524</course><hAcc>3.571486</hAcc><vAcc>0.760140</vAcc></extensions></trkpt>
      <trkpt lon="-82.145755" lat="33.556762"><ele>82.992745</ele><time>2025-10-18T15:15:25Z</time><extensions><speed>0.857975</speed><course>14.946218</course><hAcc>3.571403</hAcc><vAcc>0.761848</vAcc></extensions></trkpt>
      <trkpt lon="-82.145759" lat="33.556767"><ele>82.938836</ele><time>2025-10-18T15:15:26Z</time><extensions><speed>0.557673</speed><course>357.358646</course><hAcc>3.543732</hAcc><vAcc>0.763506</vAcc></extensions></trkpt>
      <trkpt lon="-82.145766" lat="33.556769"><ele>82.885101</ele><time>2025-10-18T15:15:27Z</time><extensions><speed>0.454215</speed><course>331.964874</course><hAcc>3.469603</hAcc><vAcc>0.765173</vAcc></extensions></trkpt>
      <trkpt lon="-82.145773" lat="33.556771"><ele>82.836251</ele><time>2025-10-18T15:15:28Z</time><extensions><speed>0.408253</speed><course>301.504750</course><hAcc>3.409996</hAcc><vAcc>0.766947</vAcc></extensions></trkpt>
      <trkpt lon="-82.145779" lat="33.556771"><ele>82.785093</ele><time>2025-10-18T15:15:29Z</time><extensions><speed>0.443079</speed><course>280.049120</course><hAcc>3.368044</hAcc><vAcc>0.768740</vAcc></extensions></trkpt>
      <trkpt lon="-82.145783" lat="33.556771"><ele>82.741967</ele><time>2025-10-18T15:15:30Z</time><extensions><speed>0.488051</speed><course>266.142756</course><hAcc>3.343381</hAcc><vAcc>0.770417</vAcc></extensions></trkpt>
      <trkpt lon="-82.145788" lat="33.556769"><ele>82.700191</ele><time>2025-10-18T15:15:31Z</time><extensions><speed>0.525602</speed><course>256.844542</course><hAcc>3.336039</hAcc><vAcc>0.771799</vAcc></extensions></trkpt>
      <trkpt lon="-82.145793" lat="33.556767"><ele>82.669796</ele><time>2025-10-18T15:15:32Z</time><extensions><speed>0.577417</speed><course>250.139523</course><hAcc>3.339155</hAcc><vAcc>0.772708</vAcc></extensions></trkpt>
      <trkpt lon="-82.145798" lat="33.556764"><ele>82.645283</ele><time>2025-10-18T15:15:33Z</time><extensions><speed>0.612854</speed><course>243.587247</course><hAcc>3.347382</hAcc><vAcc>0.773035</vAcc></extensions></trkpt>
      <trkpt lon="-82.145804" lat="33.556761"><ele>82.622912</ele><time>2025-10-18T15:15:34Z</time><extensions><speed>0.681410</speed><course>237.083994</course><hAcc>3.349928</hAcc><vAcc>0.772738</vAcc></extensions></trkpt>
      <trkpt lon="-82.145809" lat="33.556757"><ele>82.595063</ele><time>2025-10-18T15:15:35Z</time><extensions><speed>0.730385</speed><course>228.977581</course><hAcc>3.343018</hAcc><vAcc>0.771821</vAcc></extensions></trkpt>
      <trkpt lon="-82.145814" lat="33.556751"><ele>82.575425</ele><time>2025-10-18T15:15:36Z</time><extensions><speed>0.742526</speed><course>214.487127</course><hAcc>3.327761</hAcc><vAcc>0.770387</vAcc></extensions></trkpt>
      <trkpt lon="-82.145817" lat="33.556745"><ele>82.557991</ele><time>2025-10-18T15:15:37Z</time><extensions><speed>0.730046</speed><course>185.941097</course><hAcc>3.340393</hAcc><vAcc>0.768627</vAcc></extensions></trkpt>
      <trkpt lon="-82.145815" lat="33.556738"><ele>82.543571</ele><time>2025-10-18T15:15:38Z</time><extensions><speed>0.918685</speed><course>154.782110</course><hAcc>3.404389</hAcc><vAcc>0.766741</vAcc></extensions></trkpt>
      <trkpt lon="-82.145809" lat="33.556730"><ele>82.531145</ele><time>2025-10-18T15:15:39Z</time><extensions><speed>1.264580</speed><course>134.330999</course><hAcc>3.516177</hAcc><vAcc>0.764893</vAcc></extensions></trkpt>
      <trkpt lon="-82.145800" lat="33.556724"><ele>82.520859</ele><time>2025-10-18T15:15:40Z</time><extensions><speed>1.553597</speed><course>122.343769</course><hAcc>3.641490</hAcc><vAcc>0.763191</vAcc></extensions></trkpt>
      <trkpt lon="-82.145788" lat="33.556718"><ele>82.510461</ele><time>2025-10-18T15:15:41Z</time><extensions><speed>1.682290</speed><course>117.207378</course><hAcc>3.764999</hAcc><vAcc>0.761699</vAcc></extensions></trkpt>
      <trkpt lon="-82.145775" lat="33.556713"><ele>82.499781</ele><time>2025-10-18T15:15:42Z</time><extensions><speed>1.664414</speed><course>114.450527</course><hAcc>3.865923</hAcc><vAcc>0.760445</vAcc></extensions></trkpt>
      <trkpt lon="-82.145760" lat="33.556707"><ele>82.487049</ele><time>2025-10-18T15:15:43Z</time><extensions><speed>1.522686</speed><course>112.133144</course><hAcc>3.941118</hAcc><vAcc>0.759429</vAcc></extensions></trkpt>
      <trkpt lon="-82.145747" lat="33.556704"><ele>82.473595</ele><time>2025-10-18T15:15:44Z</time><extensions><speed>1.139787</speed><course>109.047687</course><hAcc>3.952381</hAcc><vAcc>0.758633</vAcc></extensions></trkpt>
      <trkpt lon="-82.145738" lat="33.556701"><ele>82.462534</ele><time>2025-10-18T15:15:45Z</time><extensions><speed>0.633953</speed><course>102.281789</course><hAcc>3.895990</hAcc><vAcc>0.758030</vAcc></extensions></trkpt>
      <trkpt lon="-82.145734" lat="33.556701"><ele>82.452446</ele><time>2025-10-18T15:15:46Z</time><extensions><speed>0.205866</speed><course>72.220843</course><hAcc>3.785628</hAcc><vAcc>0.757588</vAcc></extensions></trkpt>
      <trkpt lon="-82.145734" lat="33.556702"><ele>82.437732</ele><time>2025-10-18T15:15:47Z</time><extensions><speed>0.265790</speed><course>323.886847</course><hAcc>3.623960</hAcc><vAcc>0.757275</vAcc></extensions></trkpt>
      <trkpt lon="-82.145737" lat="33.556705"><ele>82.414336</ele><time>2025-10-18T15:15:48Z</time><extensions><speed>0.575179</speed><course>306.225938</course><hAcc>3.410163</hAcc><vAcc>0.757062</vAcc></extensions></trkpt>
      <trkpt lon="-82.145744" lat="33.556708"><ele>82.403391</ele><time>2025-10-18T15:15:49Z</time><extensions><speed>0.807495</speed><course>303.257458</course><hAcc>3.150079</hAcc><vAcc>0.756923</vAcc></extensions></trkpt>
      <trkpt lon="-82.145752" lat="33.556713"><ele>82.399919</ele><time>2025-10-18T15:15:50Z</time><extensions><speed>0.894932</speed><course>302.964164</course><hAcc>2.882645</hAcc><vAcc>0.756836</vAcc></extensions></trkpt>
      <trkpt lon="-82.145760" lat="33.556717"><ele>82.392699</ele><time>2025-10-18T15:15:51Z</time><extensions><speed>0.858447</speed><course>303.835689</course><hAcc>2.665958</hAcc><vAcc>0.756787</vAcc></extensions></trkpt>
      <trkpt lon="-82.145767" lat="33.556721"><ele>82.384366</ele><time>2025-10-18T15:15:52Z</time><extensions><speed>0.697078</speed><course>307.906959</course><hAcc>2.533718</hAcc><vAcc>0.756761</vAcc></extensions></trkpt>
      <trkpt lon="-82.145773" lat="33.556726"><ele>82.376910</ele><time>2025-10-18T15:15:53Z</time><extensions><speed>0.712564</speed><course>315.107491</course><hAcc>2.435212</hAcc><vAcc>0.756749</vAcc></extensions></trkpt>
      <trkpt lon="-82.145778" lat="33.556731"><ele>82.370924</ele><time>2025-10-18T15:15:54Z</time><extensions><speed>0.785707</speed><course>321.978934</course><hAcc>2.383986</hAcc><vAcc>0.756747</vAcc></extensions></trkpt>
      <trkpt lon="-82.145783" lat="33.556737"><ele>82.366516</ele><time>2025-10-18T15:15:55Z</time><extensions><speed>0.921173</speed><course>326.586463</course><hAcc>2.388785</hAcc><vAcc>0.756749</vAcc></extensions></trkpt>
      <trkpt lon="-82.145790" lat="33.556745"><ele>82.363541</ele><time>2025-10-18T15:15:56Z</time><extensions><speed>1.120009</speed><course>326.568526</course><hAcc>2.427458</hAcc><vAcc>0.756752</vAcc></extensions></trkpt>
      <trkpt lon="-82.145797" lat="33.556754"><ele>82.361833</ele><time>2025-10-18T15:15:57Z</time><extensions><speed>1.348400</speed><course>323.110728</course><hAcc>2.461744</hAcc><vAcc>0.756784</vAcc></extensions></trkpt>
      <trkpt lon="-82.145807" lat="33.556764"><ele>82.353262</ele><time>2025-10-18T15:15:58Z</time><extensions><speed>1.501769</speed><course>319.013391</course><hAcc>2.471666</hAcc><vAcc>0.757032</vAcc></extensions></trkpt>
      <trkpt lon="-82.145818" lat="33.556774"><ele>82.338358</ele><time>2025-10-18T15:15:59Z</time><extensions><speed>1.576201</speed><course>318.492915</course><hAcc>2.456828</hAcc><vAcc>0.758206</vAcc></extensions></trkpt>
      <trkpt lon="-82.145829" lat="33.556785"><ele>82.315596</ele><time>2025-10-18T15:16:00Z</time><extensions><speed>1.469948</speed><course>318.295843</course><hAcc>2.431311</hAcc><vAcc>0.760385</vAcc></extensions></trkpt>
      <trkpt lon="-82.145838" lat="33.556794"><ele>82.284824</ele><time>2025-10-18T15:16:01Z</time><extensions><speed>1.242670</speed><course>318.587677</course><hAcc>2.403845</hAcc><vAcc>0.763056</vAcc></extensions></trkpt>
      <trkpt lon="-82.145846" lat="33.556801"><ele>82.235103</ele><time>2025-10-18T15:16:02Z</time><extensions><speed>0.897978</speed><course>316.356379</course><hAcc>2.379316</hAcc><vAcc>0.765308</vAcc></extensions></trkpt>
      <trkpt lon="-82.145851" lat="33.556806"><ele>82.172273</ele><time>2025-10-18T15:16:03Z</time><extensions><speed>0.549675</speed><course>314.773595</course><hAcc>2.362560</hAcc><vAcc>0.768641</vAcc></extensions></trkpt>
      <trkpt lon="-82.145855" lat="33.556808"><ele>82.105133</ele><time>2025-10-18T15:16:04Z</time><extensions><speed>0.310247</speed><course>312.908477</course><hAcc>2.340033</hAcc><vAcc>0.774584</vAcc></extensions></trkpt>
      <trkpt lon="-82.145857" lat="33.556810"><ele>82.015131</ele><time>2025-10-18T15:16:05Z</time><extensions><speed>0.169869</speed><course>315.049161</course><hAcc>2.315197</hAcc><vAcc>0.780132</vAcc></extensions></trkpt>
      <trkpt lon="-82.145858" lat="33.556811"><ele>81.922656</ele><time>2025-10-18T15:16:06Z</time><extensions><speed>0.105760</speed><course>331.140722</course><hAcc>2.289921</hAcc><vAcc>0.784694</vAcc></extensions></trkpt>
      <trkpt lon="-82.145858" lat="33.556812"><ele>81.811712</ele><time>2025-10-18T15:16:07Z</time><extensions><speed>0.118420</speed><course>0.606242</course><hAcc>2.260291</hAcc><vAcc>0.789368</vAcc></extensions></trkpt>
      <trkpt lon="-82.145858" lat="33.556813"><ele>81.698534</ele><time>2025-10-18T15:16:08Z</time><extensions><speed>0.224121</speed><course>13.133739</course><hAcc>2.218108</hAcc><vAcc>0.793839</vAcc></extensions></trkpt>
      <trkpt lon="-82.145857" lat="33.556815"><ele>81.582865</ele><time>2025-10-18T15:16:09Z</time><extensions><speed>0.301556</speed><course>14.371232</course><hAcc>2.188587</hAcc><vAcc>0.797694</vAcc></extensions></trkpt>
      <trkpt lon="-82.145856" lat="33.556818"><ele>81.466825</ele><time>2025-10-18T15:16:10Z</time><extensions><speed>0.216703</speed><course>12.445769</course><hAcc>2.179691</hAcc><vAcc>0.800510</vAcc></extensions></trkpt>
      <trkpt lon="-82.145856" lat="33.556819"><ele>81.355754</ele><time>2025-10-18T15:16:11Z</time><extensions><speed>0.013848</speed><course>301.686554</course><hAcc>2.177882</hAcc><vAcc>0.801997</vAcc></extensions></trkpt>
      <trkpt lon="-82.145857" lat="33.556818"><ele>81.245813</ele><time>2025-10-18T15:16:12Z</time><extensions><speed>0.152239</speed><course>201.252879</course><hAcc>2.162974</hAcc><vAcc>0.802064</vAcc></extensions></trkpt>
      <trkpt lon="-82.145857" lat="33.556816"><ele>81.139972</ele><time>2025-10-18T15:16:13Z</time><extensions><speed>0.284285</speed><course>194.598172</course><hAcc>2.148968</hAcc><vAcc>0.800738</vAcc></extensions></trkpt>
      <trkpt lon="-82.145858" lat="33.556813"><ele>81.043611</ele><time>2025-10-18T15:16:14Z</time><extensions><speed>0.366197</speed><course>190.447270</course><hAcc>2.143875</hAcc><vAcc>0.798056</vAcc></extensions></trkpt>
      <trkpt lon="-82.145859" lat="33.556810"><ele>80.957589</ele><time>2025-10-18T15:16:15Z</time><extensions><speed>0.414710</speed><course>189.237268</course><hAcc>2.161986</hAcc><vAcc>0.794160</vAcc></extensions></trkpt>
      <trkpt lon="-82.145860" lat="33.556806"><ele>80.882183</ele><time>2025-10-18T15:16:16Z</time><extensions><speed>0.447217</speed><course>191.457102</course><hAcc>2.215135</hAcc><vAcc>0.789423</vAcc></extensions></trkpt>
      <trkpt lon="-82.145861" lat="33.556802"><ele>80.822032</ele><time>2025-10-18T15:16:17Z</time><extensions><speed>0.444890</speed><course>195.147147</course><hAcc>2.318127</hAcc><vAcc>0.784338</vAcc></extensions></trkpt>
      <trkpt lon="-82.145862" lat="33.556798"><ele>80.777646</ele><time>2025-10-18T15:16:18Z</time><extensions><speed>0.410684</speed><course>199.372409</course><hAcc>2.475234</hAcc><vAcc>0.779329</vAcc></extensions></trkpt>
      <trkpt lon="-82.145864" lat="33.556795"><ele>80.740849</ele><time>2025-10-18T15:16:19Z</time><extensions><speed>0.356663</speed><course>205.878534</course><hAcc>2.673552</hAcc><vAcc>0.774690</vAcc></extensions></trkpt>
      <trkpt lon="-82.145865" lat="33.556792"><ele>80.718257</ele><time>2025-10-18T15:16:20Z</time><extensions><speed>0.289792</speed><course>216.374205</course><hAcc>2.909564</hAcc><vAcc>0.770712</vAcc></extensions></trkpt>
      <trkpt lon="-82.145867" lat="33.556790"><ele>80.714171</ele><time>2025-10-18T15:16:21Z</time><extensions><speed>0.228910</speed><course>226.199316</course><hAcc>3.178938</hAcc><vAcc>0.767387</vAcc></extensions></trkpt>
      <trkpt lon="-82.145869" lat="33.556788"><ele>80.715202</ele><time>2025-10-18T15:16:22Z</time><extensions><speed>0.154882</speed><course>230.242739</course><hAcc>3.463109</hAcc><vAcc>0.764728</vAcc></extensions></trkpt>
      <trkpt lon="-82.145867" lat="33.556786"><ele>80.724053</ele><time>2025-10-18T15:16:23Z</time><extensions><speed>0.135522</speed><course>162.739412</course><hAcc>3.741875</hAcc><vAcc>0.762695</vAcc></extensions></trkpt>
      <trkpt lon="-82.145863" lat="33.556783"><ele>80.740052</ele><time>2025-10-18T15:16:24Z</time><extensions><speed>0.340870</speed><course>130.295411</course><hAcc>4.046055</hAcc><vAcc>0.761218</vAcc></extensions></trkpt>
      <trkpt lon="-82.145856" lat="33.556778"><ele>80.761728</ele><time>2025-10-18T15:16:25Z</time><extensions><speed>0.636383</speed><course>124.325439</course><hAcc>4.375324</hAcc><vAcc>0.760216</vAcc></extensions></trkpt>
      <trkpt lon="-82.145847" lat="33.556772"><ele>80.787575</ele><time>2025-10-18T15:16:26Z</time><extensions><speed>0.962055</speed><course>123.231711</course><hAcc>4.710932</hAcc><vAcc>0.759627</vAcc></extensions></trkpt>
      <trkpt lon="-82.145835" lat="33.556765"><ele>80.816128</ele><time>2025-10-18T15:16:27Z</time><extensions><speed>1.278018</speed><course>123.278547</course><hAcc>5.021809</hAcc><vAcc>0.759391</vAcc></extensions></trkpt>
      <trkpt lon="-82.145820" lat="33.556756"><ele>80.846005</ele><time>2025-10-18T15:16:28Z</time><extensions><speed>1.549614</speed><course>123.664251</course><hAcc>5.281519</hAcc><vAcc>0.759486</vAcc></extensions></trkpt>
      <trkpt lon="-82.145803" lat="33.556746"><ele>80.876025</ele><time>2025-10-18T15:16:29Z</time><extensions><speed>1.745705</speed><course>123.835876</course><hAcc>5.474511</hAcc><vAcc>0.759908</vAcc></extensions></trkpt>
      <trkpt lon="-82.145784" lat="33.556734"><ele>80.907390</ele><time>2025-10-18T15:16:30Z</time><extensions><speed>1.829519</speed><course>123.348620</course><hAcc>5.599493</hAcc><vAcc>0.759994</vAcc></extensions></trkpt>
      <trkpt lon="-82.145766" lat="33.556724"><ele>80.934738</ele><time>2025-10-18T15:16:31Z</time><extensions><speed>1.756903</speed><course>122.082988</course><hAcc>5.639193</hAcc><vAcc>0.759210</vAcc></extensions></trkpt>
      <trkpt lon="-82.145749" lat="33.556715"><ele>80.959850</ele><time>2025-10-18T15:16:32Z</time><extensions><speed>1.475346</speed><course>121.875377</course><hAcc>5.642446</hAcc><vAcc>0.758666</vAcc></extensions></trkpt>
      <trkpt lon="-82.145737" lat="33.556707"><ele>80.982420</ele><time>2025-10-18T15:16:33Z</time><extensions><speed>0.953668</speed><course>124.972412</course><hAcc>5.609511</hAcc><vAcc>0.758236</vAcc></extensions></trkpt>
      <trkpt lon="-82.145728" lat="33.556702"><ele>81.002268</ele><time>2025-10-18T15:16:34Z</time><extensions><speed>0.652585</speed><course>128.083803</course><hAcc>5.521125</hAcc><vAcc>0.757875</vAcc></extensions></trkpt>
      <trkpt lon="-82.145723" lat="33.556698"><ele>81.019514</ele><time>2025-10-18T15:16:35Z</time><extensions><speed>0.471716</speed><course>130.887143</course><hAcc>5.399588</hAcc><vAcc>0.757638</vAcc></extensions></trkpt>
      <trkpt lon="-82.145718" lat="33.556694"><ele>81.034507</ele><time>2025-10-18T15:16:36Z</time><extensions><speed>0.369766</speed><course>133.118127</course><hAcc>5.275232</hAcc><vAcc>0.758818</vAcc></extensions></trkpt>
      <trkpt lon="-82.145715" lat="33.556691"><ele>81.047115</ele><time>2025-10-18T15:16:37Z</time><extensions><speed>0.292110</speed><course>134.663669</course><hAcc>5.166231</hAcc><vAcc>0.760350</vAcc></extensions></trkpt>
      <trkpt lon="-82.145712" lat="33.556689"><ele>81.057683</ele><time>2025-10-18T15:16:38Z</time><extensions><speed>0.231647</speed><course>135.703203</course><hAcc>5.078311</hAcc><vAcc>0.762253</vAcc></extensions></trkpt>
      <trkpt lon="-82.145710" lat="33.556687"><ele>81.066325</ele><time>2025-10-18T15:16:39Z</time><extensions><speed>0.189729</speed><course>136.352781</course><hAcc>5.008878</hAcc><vAcc>0.764515</vAcc></extensions></trkpt>
      <trkpt lon="-82.145708" lat="33.556686"><ele>81.073259</ele><time>2025-10-18T15:16:40Z</time><extensions><speed>0.154533</speed><course>136.736594</course><hAcc>4.956241</hAcc><vAcc>0.767354</vAcc></extensions></trkpt>
      <trkpt lon="-82.145707" lat="33.556684"><ele>81.078811</ele><time>2025-10-18T15:16:41Z</time><extensions><speed>0.133837</speed><course>136.960231</course><hAcc>4.911822</hAcc><vAcc>0.771074</vAcc></extensions></trkpt>
      <trkpt lon="-82.145706" lat="33.556683"><ele>81.083107</ele><time>2025-10-18T15:16:42Z</time><extensions><speed>0.123050</speed><course>137.078433</course><hAcc>4.871097</hAcc><vAcc>0.775916</vAcc></extensions></trkpt>
      <trkpt lon="-82.145704" lat="33.556682"><ele>81.086351</ele><time>2025-10-18T15:16:43Z</time><extensions><speed>0.124462</speed><course>137.137339</course><hAcc>4.823358</hAcc><vAcc>0.782449</vAcc></extensions></trkpt>
      <trkpt lon="-82.145703" lat="33.556681"><ele>81.088711</ele><time>2025-10-18T15:16:44Z</time><extensions><speed>0.148318</speed><course>137.162787</course><hAcc>4.768658</hAcc><vAcc>0.791443</vAcc></extensions></trkpt>
      <trkpt lon="-82.145702" lat="33.556680"><ele>81.090369</ele><time>2025-10-18T15:16:45Z</time><extensions><speed>0.158452</speed><course>137.173337</course><hAcc>4.747733</hAcc><vAcc>0.804023</vAcc></extensions></trkpt>
      <trkpt lon="-82.145705" lat="33.556679"><ele>81.104520</ele><time>2025-10-18T15:16:47Z</time><extensions><speed>0.082965</speed><course>156.721451</course><hAcc>4.819931</hAcc><vAcc>0.805314</vAcc></extensions></trkpt>
      <trkpt lon="-82.145709" lat="33.556680"><ele>81.122108</ele><time>2025-10-18T15:16:48Z</time><extensions><speed>0.050520</speed><course>204.739419</course><hAcc>4.831405</hAcc><vAcc>0.792157</vAcc></extensions></trkpt>
      <trkpt lon="-82.145713" lat="33.556680"><ele>81.143864</ele><time>2025-10-18T15:16:49Z</time><extensions><speed>0.066262</speed><course>251.365628</course><hAcc>4.850149</hAcc><vAcc>0.782936</vAcc></extensions></trkpt>
      <trkpt lon="-82.145717" lat="33.556681"><ele>81.168485</ele><time>2025-10-18T15:16:50Z</time><extensions><speed>0.096753</speed><course>269.538654</course><hAcc>4.869187</hAcc><vAcc>0.776447</vAcc></extensions></trkpt>
      <trkpt lon="-82.145720" lat="33.556682"><ele>81.197131</ele><time>2025-10-18T15:16:51Z</time><extensions><speed>0.132445</speed><course>277.732556</course><hAcc>4.881776</hAcc><vAcc>0.771836</vAcc></extensions></trkpt>
      <trkpt lon="-82.145726" lat="33.556683"><ele>81.230799</ele><time>2025-10-18T15:16:52Z</time><extensions><speed>0.205903</speed><course>282.099434</course><hAcc>4.859576</hAcc><vAcc>0.768524</vAcc></extensions></trkpt>
      <trkpt lon="-82.145732" lat="33.556684"><ele>81.268631</ele><time>2025-10-18T15:16:53Z</time><extensions><speed>0.338499</speed><course>284.099934</course><hAcc>4.828439</hAcc><vAcc>0.766094</vAcc></extensions></trkpt>
      <trkpt lon="-82.145739" lat="33.556685"><ele>81.310267</ele><time>2025-10-18T15:16:54Z</time><extensions><speed>0.452456</speed><course>285.337443</course><hAcc>4.817325</hAcc><vAcc>0.764245</vAcc></extensions></trkpt>
      <trkpt lon="-82.145746" lat="33.556687"><ele>81.354951</ele><time>2025-10-18T15:16:55Z</time><extensions><speed>0.553028</speed><course>286.340048</course><hAcc>4.826152</hAcc><vAcc>0.762766</vAcc></extensions></trkpt>
      <trkpt lon="-82.145755" lat="33.556689"><ele>81.401664</ele><time>2025-10-18T15:16:56Z</time><extensions><speed>0.643828</speed><course>287.334708</course><hAcc>4.838340</hAcc><vAcc>0.761524</vAcc></extensions></trkpt>
      <trkpt lon="-82.145765" lat="33.556691"><ele>81.454113</ele><time>2025-10-18T15:16:57Z</time><extensions><speed>0.729897</speed><course>287.923292</course><hAcc>4.837791</hAcc><vAcc>0.760481</vAcc></extensions></trkpt>
      <trkpt lon="-82.145774" lat="33.556694"><ele>81.504929</ele><time>2025-10-18T15:16:58Z</time><extensions><speed>0.823683</speed><course>288.138189</course><hAcc>4.818688</hAcc><vAcc>0.759598</vAcc></extensions></trkpt>
      <trkpt lon="-82.145785" lat="33.556696"><ele>81.556580</ele><time>2025-10-18T15:16:59Z</time><extensions><speed>0.910559</speed><course>287.464446</course><hAcc>4.795622</hAcc><vAcc>0.758874</vAcc></extensions></trkpt>
      <trkpt lon="-82.145796" lat="33.556699"><ele>81.608384</ele><time>2025-10-18T15:17:00Z</time><extensions><speed>0.941067</speed><course>286.775722</course><hAcc>4.790348</hAcc><vAcc>0.758237</vAcc></extensions></trkpt>
      <trkpt lon="-82.145807" lat="33.556702"><ele>81.659309</ele><time>2025-10-18T15:17:01Z</time><extensions><speed>0.881413</speed><course>286.096680</course><hAcc>4.818884</hAcc><vAcc>0.757653</vAcc></extensions></trkpt>
      <trkpt lon="-82.145816" lat="33.556704"><ele>81.708147</ele><time>2025-10-18T15:17:02Z</time><extensions><speed>0.716517</speed><course>285.321345</course><hAcc>4.874282</hAcc><vAcc>0.757240</vAcc></extensions></trkpt>
      <trkpt lon="-82.145825" lat="33.556706"><ele>81.755061</ele><time>2025-10-18T15:17:03Z</time><extensions><speed>0.599248</speed><course>284.332912</course><hAcc>4.893383</hAcc><vAcc>0.756961</vAcc></extensions></trkpt>
      <trkpt lon="-82.145832" lat="33.556707"><ele>81.799286</ele><time>2025-10-18T15:17:04Z</time><extensions><speed>0.458200</speed><course>283.219807</course><hAcc>4.906936</hAcc><vAcc>0.756692</vAcc></extensions></trkpt>
      <trkpt lon="-82.145837" lat="33.556708"><ele>81.840592</ele><time>2025-10-18T15:17:05Z</time><extensions><speed>0.383194</speed><course>282.298432</course><hAcc>4.897265</hAcc><vAcc>0.756470</vAcc></extensions></trkpt>
      <trkpt lon="-82.145842" lat="33.556709"><ele>81.878992</ele><time>2025-10-18T15:17:06Z</time><extensions><speed>0.361844</speed><course>281.870769</course><hAcc>4.862064</hAcc><vAcc>0.756301</vAcc></extensions></trkpt>
      <trkpt lon="-82.145846" lat="33.556710"><ele>81.918150</ele><time>2025-10-18T15:17:07Z</time><extensions><speed>0.380555</speed><course>282.602116</course><hAcc>4.805765</hAcc><vAcc>0.756156</vAcc></extensions></trkpt>
      <trkpt lon="-82.145850" lat="33.556712"><ele>81.953561</ele><time>2025-10-18T15:17:08Z</time><extensions><speed>0.404677</speed><course>287.994243</course><hAcc>4.733700</hAcc><vAcc>0.756017</vAcc></extensions></trkpt>
      <trkpt lon="-82.145854" lat="33.556715"><ele>81.980489</ele><time>2025-10-18T15:17:09Z</time><extensions><speed>0.433938</speed><course>292.895867</course><hAcc>4.673106</hAcc><vAcc>0.755851</vAcc></extensions></trkpt>
      <trkpt lon="-82.145859" lat="33.556717"><ele>82.002763</ele><time>2025-10-18T15:17:10Z</time><extensions><speed>0.449381</speed><course>295.570162</course><hAcc>4.649669</hAcc><vAcc>0.755696</vAcc></extensions></trkpt>
      <trkpt lon="-82.145864" lat="33.556719"><ele>82.021887</ele><time>2025-10-18T15:17:11Z</time><extensions><speed>0.420102</speed><course>299.222486</course><hAcc>4.677043</hAcc><vAcc>0.755601</vAcc></extensions></trkpt>
      <trkpt lon="-82.145867" lat="33.556722"><ele>82.037961</ele><time>2025-10-18T15:17:12Z</time><extensions><speed>0.357009</speed><course>304.175329</course><hAcc>4.718148</hAcc><vAcc>0.755604</vAcc></extensions></trkpt>
      <trkpt lon="-82.145870" lat="33.556725"><ele>82.050636</ele><time>2025-10-18T15:17:13Z</time><extensions><speed>0.250210</speed><course>310.534379</course><hAcc>4.770037</hAcc><vAcc>0.755692</vAcc></extensions></trkpt>
      <trkpt lon="-82.145872" lat="33.556727"><ele>82.060107</ele><time>2025-10-18T15:17:14Z</time><extensions><speed>0.190772</speed><course>320.297521</course><hAcc>4.780732</hAcc><vAcc>0.755832</vAcc></extensions></trkpt>
      <trkpt lon="-82.145873" lat="33.556729"><ele>82.066532</ele><time>2025-10-18T15:17:15Z</time><extensions><speed>0.168698</speed><course>332.680487</course><hAcc>4.747993</hAcc><vAcc>0.755956</vAcc></extensions></trkpt>
      <trkpt lon="-82.145874" lat="33.556730"><ele>82.070115</ele><time>2025-10-18T15:17:16Z</time><extensions><speed>0.189612</speed><course>343.702714</course><hAcc>4.670234</hAcc><vAcc>0.756065</vAcc></extensions></trkpt>
      <trkpt lon="-82.145874" lat="33.556733"><ele>82.071135</ele><time>2025-10-18T15:17:17Z</time><extensions><speed>0.244075</speed><course>350.324359</course><hAcc>4.550255</hAcc><vAcc>0.756178</vAcc></extensions></trkpt>
      <trkpt lon="-82.145875" lat="33.556735"><ele>82.069902</ele><time>2025-10-18T15:17:18Z</time><extensions><speed>0.286887</speed><course>351.648543</course><hAcc>4.413918</hAcc><vAcc>0.756283</vAcc></extensions></trkpt>
      <trkpt lon="-82.145875" lat="33.556738"><ele>82.066867</ele><time>2025-10-18T15:17:19Z</time><extensions><speed>0.303492</speed><course>352.214485</course><hAcc>4.289813</hAcc><vAcc>0.756396</vAcc></extensions></trkpt>
      <trkpt lon="-82.145876" lat="33.556741"><ele>82.062573</ele><time>2025-10-18T15:17:20Z</time><extensions><speed>0.294893</speed><course>353.782710</course><hAcc>4.196839</hAcc><vAcc>0.756485</vAcc></extensions></trkpt>
      <trkpt lon="-82.145876" lat="33.556744"><ele>82.057504</ele><time>2025-10-18T15:17:21Z</time><extensions><speed>0.260061</speed><course>357.524769</course><hAcc>4.150173</hAcc><vAcc>0.756567</vAcc></extensions></trkpt>
      <trkpt lon="-82.145876" lat="33.556746"><ele>82.052025</ele><time>2025-10-18T15:17:22Z</time><extensions><speed>0.179945</speed><course>355.423119</course><hAcc>4.138108</hAcc><vAcc>0.756658</vAcc></extensions></trkpt>
      <trkpt lon="-82.145877" lat="33.556747"><ele>82.046387</ele><time>2025-10-18T15:17:23Z</time><extensions><speed>0.124520</speed><course>353.547881</course><hAcc>4.110436</hAcc><vAcc>0.756774</vAcc></extensions></trkpt>
      <trkpt lon="-82.145877" lat="33.556749"><ele>82.040788</ele><time>2025-10-18T15:17:24Z</time><extensions><speed>0.089161</speed><course>351.971783</course><hAcc>4.062472</hAcc><vAcc>0.756895</vAcc></extensions></trkpt>
      <trkpt lon="-82.145877" lat="33.556749"><ele>82.035387</ele><time>2025-10-18T15:17:25Z</time><extensions><speed>0.068749</speed><course>350.790507</course><hAcc>4.003018</hAcc><vAcc>0.757012</vAcc></extensions></trkpt>
      <trkpt lon="-82.145877" lat="33.556750"><ele>82.030245</ele><time>2025-10-18T15:17:26Z</time><extensions><speed>0.055078</speed><course>350.000944</course><hAcc>3.945352</hAcc><vAcc>0.757052</vAcc></extensions></trkpt>
      <trkpt lon="-82.145877" lat="33.556751"><ele>82.025543</ele><time>2025-10-18T15:17:27Z</time><extensions><speed>0.044471</speed><course>349.521739</course><hAcc>3.894402</hAcc><vAcc>0.756947</vAcc></extensions></trkpt>
      <trkpt lon="-82.145877" lat="33.556751"><ele>82.021278</ele><time>2025-10-18T15:17:28Z</time><extensions><speed>0.039353</speed><course>349.243058</course><hAcc>3.842107</hAcc><vAcc>0.756862</vAcc></extensions></trkpt>
      <trkpt lon="-82.145877" lat="33.556751"><ele>82.017460</ele><time>2025-10-18T15:17:29Z</time><extensions><speed>0.039121</speed><course>349.105172</course><hAcc>3.797483</hAcc><vAcc>0.756815</vAcc></extensions></trkpt>
      <trkpt lon="-82.145877" lat="33.556752"><ele>82.014088</ele><time>2025-10-18T15:17:30Z</time><extensions><speed>0.029577</speed><course>349.035674</course><hAcc>3.795449</hAcc><vAcc>0.756782</vAcc></extensions></trkpt>
      <trkpt lon="-82.145877" lat="33.556752"><ele>82.011164</ele><time>2025-10-18T15:17:31Z</time><extensions><speed>0.022730</speed><course>348.991949</course><hAcc>3.799013</hAcc><vAcc>0.756742</vAcc></extensions></trkpt>
      <trkpt lon="-82.145878" lat="33.556752"><ele>82.008663</ele><time>2025-10-18T15:17:32Z</time><extensions><speed>0.020687</speed><course>348.967254</course><hAcc>3.788708</hAcc><vAcc>0.756713</vAcc></extensions></trkpt>
      <trkpt lon="-82.145878" lat="33.556752"><ele>82.006553</ele><time>2025-10-18T15:17:33Z</time><extensions><speed>0.019264</speed><course>348.954993</course><hAcc>3.770120</hAcc><vAcc>0.756689</vAcc></extensions></trkpt>
      <trkpt lon="-82.145878" lat="33.556753"><ele>82.004810</ele><time>2025-10-18T15:17:34Z</time><extensions><speed>0.023175</speed><course>348.949613</course><hAcc>3.731661</hAcc><vAcc>0.756671</vAcc></extensions></trkpt>
      <trkpt lon="-82.145878" lat="33.556753"><ele>82.003387</ele><time>2025-10-18T15:17:35Z</time><extensions><speed>0.023455</speed><course>348.947432</course><hAcc>3.718781</hAcc><vAcc>0.756687</vAcc></extensions></trkpt>
      <trkpt lon="-82.145878" lat="33.556753"><ele>82.002254</ele><time>2025-10-18T15:17:36Z</time><extensions><speed>0.021821</speed><course>348.946317</course><hAcc>3.735268</hAcc><vAcc>0.756696</vAcc></extensions></trkpt>
      <trkpt lon="-82.145878" lat="33.556753"><ele>82.001374</ele><time>2025-10-18T15:17:37Z</time><extensions><speed>0.019064</speed><course>348.945670</course><hAcc>3.764500</hAcc><vAcc>0.756703</vAcc></extensions></trkpt>
      <trkpt lon="-82.145878" lat="33.556753"><ele>82.000713</ele><time>2025-10-18T15:17:38Z</time><extensions><speed>0.016402</speed><course>348.945270</course><hAcc>3.790471</hAcc><vAcc>0.756714</vAcc></extensions></trkpt>
      <trkpt lon="-82.145878" lat="33.556754"><ele>82.000237</ele><time>2025-10-18T15:17:39Z</time><extensions><speed>0.013856</speed><course>348.945016</course><hAcc>3.808959</hAcc><vAcc>0.756731</vAcc></extensions></trkpt>
      <trkpt lon="-82.145878" lat="33.556754"><ele>81.999916</ele><time>2025-10-18T15:17:40Z</time><extensions><speed>0.011657</speed><course>348.944853</course><hAcc>3.817345</hAcc><vAcc>0.756755</vAcc></extensions></trkpt>
      <trkpt lon="-82.145878" lat="33.556754"><ele>81.999722</ele><time>2025-10-18T15:17:41Z</time><extensions><speed>0.010060</speed><course>348.944750</course><hAcc>3.816029</hAcc><vAcc>0.756761</vAcc></extensions></trkpt>
      <trkpt lon="-82.145878" lat="33.556754"><ele>81.999631</ele><time>2025-10-18T15:17:42Z</time><extensions><speed>0.008534</speed><course>348.944687</course><hAcc>3.812459</hAcc><vAcc>0.756753</vAcc></extensions></trkpt>
      <trkpt lon="-82.145878" lat="33.556754"><ele>81.999620</ele><time>2025-10-18T15:17:43Z</time><extensions><speed>0.007284</speed><course>348.944648</course><hAcc>3.809976</hAcc><vAcc>0.756742</vAcc></extensions></trkpt>
      <trkpt lon="-82.145878" lat="33.556754"><ele>81.999672</ele><time>2025-10-18T15:17:44Z</time><extensions><speed>0.005909</speed><course>348.944624</course><hAcc>3.814080</hAcc><vAcc>0.756739</vAcc></extensions></trkpt>
      <trkpt lon="-82.145878" lat="33.556754"><ele>81.999768</ele><time>2025-10-18T15:17:45Z</time><extensions><speed>0.004767</speed><course>348.944609</course><hAcc>3.818040</hAcc><vAcc>0.756755</vAcc></extensions></trkpt>
      <trkpt lon="-82.145878" lat="33.556754"><ele>81.999897</ele><time>2025-10-18T15:17:46Z</time><extensions><speed>0.003984</speed><course>348.944600</course><hAcc>3.817872</hAcc><vAcc>0.756759</vAcc></extensions></trkpt>
      <trkpt lon="-82.145878" lat="33.556754"><ele>82.000046</ele><time>2025-10-18T15:17:47Z</time><extensions><speed>0.003411</speed><course>348.944594</course><hAcc>3.817311</hAcc><vAcc>0.756741</vAcc></extensions></trkpt>
      <trkpt lon="-82.145878" lat="33.556754"><ele>82.000206</ele><time>2025-10-18T15:17:48Z</time><extensions><speed>0.002966</speed><course>348.944591</course><hAcc>3.819604</hAcc><vAcc>0.756706</vAcc></extensions></trkpt>
      <trkpt lon="-82.145878" lat="33.556754"><ele>82.000371</ele><time>2025-10-18T15:17:49Z</time><extensions><speed>0.002620</speed><course>348.944590</course><hAcc>3.823689</hAcc><vAcc>0.756670</vAcc></extensions></trkpt>
      <trkpt lon="-82.145878" lat="33.556754"><ele>82.000533</ele><time>2025-10-18T15:17:50Z</time><extensions><speed>0.002366</speed><course>348.944589</course><hAcc>3.821319</hAcc><vAcc>0.756657</vAcc></extensions></trkpt>
      <trkpt lon="-82.145878" lat="33.556754"><ele>82.000689</ele><time>2025-10-18T15:17:51Z</time><extensions><speed>0.002541</speed><course>348.944588</course><hAcc>3.804435</hAcc><vAcc>0.756664</vAcc></extensions></trkpt>
      <trkpt lon="-82.145878" lat="33.556754"><ele>82.000837</ele><time>2025-10-18T15:17:52Z</time><extensions><speed>0.002447</speed><course>348.944588</course><hAcc>3.805433</hAcc><vAcc>0.756630</vAcc></extensions></trkpt>
      <trkpt lon="-82.145878" lat="33.556754"><ele>82.000972</ele><time>2025-10-18T15:17:53Z</time><extensions><speed>0.002228</speed><course>348.944588</course><hAcc>3.825241</hAcc><vAcc>0.756555</vAcc></extensions></trkpt>
      <trkpt lon="-82.145878" lat="33.556754"><ele>82.001095</ele><time>2025-10-18T15:17:54Z</time><extensions><speed>0.001939</speed><course>348.944588</course><hAcc>3.852480</hAcc><vAcc>0.756513</vAcc></extensions></trkpt>
      <trkpt lon="-82.145878" lat="33.556754"><ele>82.001205</ele><time>2025-10-18T15:17:55Z</time><extensions><speed>0.001662</speed><course>348.944588</course><hAcc>3.874360</hAcc><vAcc>0.756470</vAcc></extensions></trkpt>
      <trkpt lon="-82.145878" lat="33.556754"><ele>82.001302</ele><time>2025-10-18T15:17:56Z</time><extensions><speed>0.001443</speed><course>348.944588</course><hAcc>3.886395</hAcc><vAcc>0.756384</vAcc></extensions></trkpt>
      <trkpt lon="-82.145878" lat="33.556754"><ele>82.001386</ele><time>2025-10-18T15:17:57Z</time><extensions><speed>0.001245</speed><course>348.944588</course><hAcc>3.889222</hAcc><vAcc>0.756337</vAcc></extensions></trkpt>
      <trkpt lon="-82.145878" lat="33.556754"><ele>82.001458</ele><time>2025-10-18T15:17:58Z</time><extensions><speed>0.001078</speed><course>348.944588</course><hAcc>3.888554</hAcc><vAcc>0.756390</vAcc></extensions></trkpt>
      <trkpt lon="-82.145878" lat="33.556755"><ele>82.001518</ele><time>2025-10-18T15:17:59Z</time><extensions><speed>0.000906</speed><course>348.944587</course><hAcc>3.889847</hAcc><vAcc>0.756443</vAcc></extensions></trkpt>
      <trkpt lon="-82.145878" lat="33.556755"><ele>82.001568</ele><time>2025-10-18T15:18:00Z</time><extensions><speed>0.000737</speed><course>348.944587</course><hAcc>3.893222</hAcc><vAcc>0.756484</vAcc></extensions></trkpt>
      <trkpt lon="-82.145878" lat="33.556755"><ele>82.001609</ele><time>2025-10-18T15:18:01Z</time><extensions><speed>0.000615</speed><course>348.944587</course><hAcc>3.896139</hAcc><vAcc>0.756511</vAcc></extensions></trkpt>
      <trkpt lon="-82.145878" lat="33.556755"><ele>82.001642</ele><time>2025-10-18T15:18:02Z</time><extensions><speed>0.000483</speed><course>348.944587</course><hAcc>3.905898</hAcc><vAcc>0.756534</vAcc></extensions></trkpt>
      <trkpt lon="-82.145878" lat="33.556755"><ele>82.001667</ele><time>2025-10-18T15:18:03Z</time><extensions><speed>0.000380</speed><course>348.944586</course><hAcc>3.915492</hAcc><vAcc>0.756560</vAcc></extensions></trkpt>
      <trkpt lon="-82.145878" lat="33.556755"><ele>82.001685</ele><time>2025-10-18T15:18:04Z</time><extensions><speed>0.000316</speed><course>348.944586</course><hAcc>3.917572</hAcc><vAcc>0.756584</vAcc></extensions></trkpt>
      <trkpt lon="-82.145878" lat="33.556755"><ele>82.001699</ele><time>2025-10-18T15:18:05Z</time><extensions><speed>0.000281</speed><course>348.944586</course><hAcc>3.904755</hAcc><vAcc>0.756598</vAcc></extensions></trkpt>
      <trkpt lon="-82.145878" lat="33.556755"><ele>82.001708</ele><time>2025-10-18T15:18:06Z</time><extensions><speed>0.000332</speed><course>348.944586</course><hAcc>3.866626</hAcc><vAcc>0.756595</vAcc></extensions></trkpt>
      <trkpt lon="-82.145878" lat="33.556755"><ele>82.001713</ele><time>2025-10-18T15:18:07Z</time><extensions><speed>0.000333</speed><course>348.944586</course><hAcc>3.851687</hAcc><vAcc>0.756607</vAcc></extensions></trkpt>
      <trkpt lon="-82.145878" lat="33.556755"><ele>82.001716</ele><time>2025-10-18T15:18:08Z</time><extensions><speed>0.000309</speed><course>348.944587</course><hAcc>3.864426</hAcc><vAcc>0.756635</vAcc></extensions></trkpt>
      <trkpt lon="-82.145878" lat="33.556755"><ele>82.001716</ele><time>2025-10-18T15:18:09Z</time><extensions><speed>0.000273</speed><course>348.944587</course><hAcc>3.888837</hAcc><vAcc>0.756664</vAcc></extensions></trkpt>
      <trkpt lon="-82.145878" lat="33.556755"><ele>82.001714</ele><time>2025-10-18T15:18:10Z</time><extensions><speed>0.000238</speed><course>348.944588</course><hAcc>3.910807</hAcc><vAcc>0.756686</vAcc></extensions></trkpt>
      <trkpt lon="-82.145878" lat="33.556755"><ele>82.001711</ele><time>2025-10-18T15:18:11Z</time><extensions><speed>0.000207</speed><course>348.944588</course><hAcc>3.925186</hAcc><vAcc>0.756711</vAcc></extensions></trkpt>
      <trkpt lon="-82.145878" lat="33.556755"><ele>82.001708</ele><time>2025-10-18T15:18:12Z</time><extensions><speed>0.000179</speed><course>348.944588</course><hAcc>3.933264</hAcc><vAcc>0.756729</vAcc></extensions></trkpt>
      <trkpt lon="-82.145878" lat="33.556755"><ele>82.001703</ele><time>2025-10-18T15:18:13Z</time><extensions><speed>0.000153</speed><course>348.944589</course><hAcc>3.935737</hAcc><vAcc>0.756742</vAcc></extensions></trkpt>
      <trkpt lon="-82.145878" lat="33.556755"><ele>82.001699</ele><time>2025-10-18T15:18:14Z</time><extensions><speed>0.000131</speed><course>348.944589</course><hAcc>3.932471</hAcc><vAcc>0.756759</vAcc></extensions></trkpt>
      <trkpt lon="-82.145878" lat="33.556755"><ele>82.001694</ele><time>2025-10-18T15:18:15Z</time><extensions><speed>0.000112</speed><course>348.944590</course><hAcc>3.924058</hAcc><vAcc>0.756777</vAcc></extensions></trkpt>
      <trkpt lon="-82.145878" lat="33.556755"><ele>82.001689</ele><time>2025-10-18T15:18:16Z</time><extensions><speed>0.000094</speed><course>348.944590</course><hAcc>3.916620</hAcc><vAcc>0.756793</vAcc></extensions></trkpt>
      <trkpt lon="-82.145878" lat="33.556755"><ele>82.001685</ele><time>2025-10-18T15:18:17Z</time><extensions><speed>0.000077</speed><course>348.944590</course><hAcc>3.906137</hAcc><vAcc>0.756807</vAcc></extensions></trkpt>
      <trkpt lon="-82.145878" lat="33.556755"><ele>82.001680</ele><time>2025-10-18T15:18:18Z</time><extensions><speed>0.000064</speed><course>348.944590</course><hAcc>3.894703</hAcc><vAcc>0.756814</vAcc></extensions></trkpt>
      <trkpt lon="-82.145878" lat="33.556755"><ele>82.001676</ele><time>2025-10-18T15:18:19Z</time><extensions><speed>0.000052</speed><course>348.944590</course><hAcc>3.885376</hAcc><vAcc>0.756804</vAcc></extensions></trkpt>
      <trkpt lon="-82.145878" lat="33.556755"><ele>82.001673</ele><time>2025-10-18T15:18:20Z</time><extensions><speed>0.000042</speed><course>348.944590</course><hAcc>3.873830</hAcc><vAcc>0.756785</vAcc></extensions></trkpt>
      <trkpt lon="-82.145878" lat="33.556755"><ele>82.001670</ele><time>2025-10-18T15:18:21Z</time><extensions><speed>0.000036</speed><course>348.944590</course><hAcc>3.902588</hAcc><vAcc>0.761885</vAcc></extensions></trkpt>
      <trkpt lon="-82.145878" lat="33.556755"><ele>82.001666</ele><time>2025-10-18T15:18:22Z</time><extensions><speed>0.000032</speed><course>348.944591</course><hAcc>3.934526</hAcc><vAcc>0.770606</vAcc></extensions></trkpt>
      <trkpt lon="-82.145878" lat="33.556755"><ele>82.001664</ele><time>2025-10-18T15:18:23Z</time><extensions><speed>0.000028</speed><course>348.944592</course><hAcc>3.981515</hAcc><vAcc>0.785220</vAcc></extensions></trkpt>
      <trkpt lon="-82.145878" lat="33.556755"><ele>82.001661</ele><time>2025-10-18T15:18:24Z</time><extensions><speed>0.000026</speed><course>348.944592</course><hAcc>4.049211</hAcc><vAcc>0.808520</vAcc></extensions></trkpt>
      <trkpt lon="-82.145878" lat="33.556755"><ele>82.001659</ele><time>2025-10-18T15:18:25Z</time><extensions><speed>0.000019</speed><course>348.944593</course><hAcc>4.155444</hAcc><vAcc>0.844113</vAcc></extensions></trkpt>
      <trkpt lon="-82.145878" lat="33.556755"><ele>82.001657</ele><time>2025-10-18T15:18:26Z</time><extensions><speed>0.000018</speed><course>348.944595</course><hAcc>4.268763</hAcc><vAcc>0.895687</vAcc></extensions></trkpt>
      <trkpt lon="-82.145878" lat="33.556755"><ele>82.001655</ele><time>2025-10-18T15:18:27Z</time><extensions><speed>0.000012</speed><course>348.944595</course><hAcc>4.420292</hAcc><vAcc>0.967107</vAcc></extensions></trkpt>
      <trkpt lon="-82.145878" lat="33.556755"><ele>82.001653</ele><time>2025-10-18T15:18:28Z</time><extensions><speed>0.000012</speed><course>348.944596</course><hAcc>4.598018</hAcc><vAcc>1.061476</vAcc></extensions></trkpt>
      <trkpt lon="-82.145878" lat="33.556755"><ele>82.001651</ele><time>2025-10-18T15:18:29Z</time><extensions><speed>0.000010</speed><course>348.944595</course><hAcc>4.886647</hAcc><vAcc>1.181074</vAcc></extensions></trkpt>
      <trkpt lon="-82.145878" lat="33.556755"><ele>82.001649</ele><time>2025-10-18T15:18:30Z</time><extensions><speed>0.000008</speed><course>348.944595</course><hAcc>5.344700</hAcc><vAcc>1.326818</vAcc></extensions></trkpt>
    </trkseg>
  </trk>
</gpx>