<?xml version="1.0" encoding="UTF-8"?>
<gpx version="1.1" creator="Apple Health Export" xmlns="http://www.topografix.com/GPX/1/1" xmlns:xsi="http://www.w3.org/2001/XMLSchema-instance" xsi:schemaLocation="http://www.topografix.com/GPX/1/1 http://www.topografix.com/GPX/1/1/gpx.xsd">
  <metadata>
    <time>2026-03-14T12:15:56Z</time>
  </metadata>
  <trk>
    <name>Route 2022-04-08 8:41am</name>
    <trkseg>
      <trkpt lon="-82.146300" lat="33.556657"><ele>85.048012</ele><time>2022-04-08T12:40:54Z</time><extensions><speed>1.006197</speed><course>257.320587</course><hAcc>2.096431</hAcc><vAcc>3.089168</vAcc></extensions></trkpt>
      <trkpt lon="-82.146305" lat="33.556656"><ele>85.068756</ele><time>2022-04-08T12:40:54Z</time><extensions><speed>1.140119</speed><course>266.340088</course><hAcc>2.022736</hAcc><vAcc>3.001116</vAcc></extensions></trkpt>
      <trkpt lon="-82.146319" lat="33.556653"><ele>85.137215</ele><time>2022-04-08T12:40:55Z</time><extensions><speed>1.590014</speed><course>244.967758</course><hAcc>1.906966</hAcc><vAcc>2.872667</vAcc></extensions></trkpt>
      <trkpt lon="-82.146337" lat="33.556644"><ele>85.375854</ele><time>2022-04-08T12:40:56Z</time><extensions><speed>2.325359</speed><course>233.421875</course><hAcc>1.775905</hAcc><vAcc>2.756034</vAcc></extensions></trkpt>
      <trkpt lon="-82.146354" lat="33.556631"><ele>85.610352</ele><time>2022-04-08T12:40:57Z</time><extensions><speed>1.871006</speed><course>221.667450</course><hAcc>1.695514</hAcc><vAcc>2.662760</vAcc></extensions></trkpt>
      <trkpt lon="-82.146366" lat="33.556619"><ele>86.056747</ele><time>2022-04-08T12:40:58Z</time><extensions><speed>1.532984</speed><course>218.250717</course><hAcc>1.670282</hAcc><vAcc>2.588903</vAcc></extensions></trkpt>
      <trkpt lon="-82.146376" lat="33.556610"><ele>86.114639</ele><time>2022-04-08T12:40:59Z</time><extensions><speed>1.214933</speed><course>229.914062</course><hAcc>1.652630</hAcc><vAcc>2.552835</vAcc></extensions></trkpt>
      <trkpt lon="-82.146385" lat="33.556603"><ele>86.422836</ele><time>2022-04-08T12:41:00Z</time><extensions><speed>1.259905</speed><course>221.037628</course><hAcc>1.652651</hAcc><vAcc>2.508303</vAcc></extensions></trkpt>
      <trkpt lon="-82.146391" lat="33.556591"><ele>86.804581</ele><time>2022-04-08T12:41:01Z</time><extensions><speed>1.590645</speed><course>192.418594</course><hAcc>1.668716</hAcc><vAcc>2.473686</vAcc></extensions></trkpt>
      <trkpt lon="-82.146399" lat="33.556576"><ele>86.799904</ele><time>2022-04-08T12:41:02Z</time><extensions><speed>1.586614</speed><course>211.876846</course><hAcc>1.674228</hAcc><vAcc>2.385323</vAcc></extensions></trkpt>
      <trkpt lon="-82.146409" lat="33.556563"><ele>86.522858</ele><time>2022-04-08T12:41:03Z</time><extensions><speed>1.683771</speed><course>216.992798</course><hAcc>1.692930</hAcc><vAcc>2.116120</vAcc></extensions></trkpt>
      <trkpt lon="-82.146421" lat="33.556551"><ele>86.524040</ele><time>2022-04-08T12:41:04Z</time><extensions><speed>1.683005</speed><course>224.407623</course><hAcc>1.742003</hAcc><vAcc>2.027510</vAcc></extensions></trkpt>
      <trkpt lon="-82.146434" lat="33.556539"><ele>86.634674</ele><time>2022-04-08T12:41:05Z</time><extensions><speed>1.824837</speed><course>218.547119</course><hAcc>1.756579</hAcc><vAcc>1.949240</vAcc></extensions></trkpt>
      <trkpt lon="-82.146445" lat="33.556526"><ele>86.730225</ele><time>2022-04-08T12:41:06Z</time><extensions><speed>1.636807</speed><course>214.381271</course><hAcc>1.763804</hAcc><vAcc>1.878487</vAcc></extensions></trkpt>
      <trkpt lon="-82.146455" lat="33.556515"><ele>86.848679</ele><time>2022-04-08T12:41:07Z</time><extensions><speed>1.420274</speed><course>212.928986</course><hAcc>1.789586</hAcc><vAcc>1.813418</vAcc></extensions></trkpt>
      <trkpt lon="-82.146464" lat="33.556505"><ele>86.883781</ele><time>2022-04-08T12:41:08Z</time><extensions><speed>1.337845</speed><course>223.027298</course><hAcc>1.794775</hAcc><vAcc>1.752854</vAcc></extensions></trkpt>
      <trkpt lon="-82.146474" lat="33.556496"><ele>86.909393</ele><time>2022-04-08T12:41:09Z</time><extensions><speed>1.336442</speed><course>214.173065</course><hAcc>1.783619</hAcc><vAcc>1.696109</vAcc></extensions></trkpt>
      <trkpt lon="-82.146479" lat="33.556486"><ele>86.954468</ele><time>2022-04-08T12:41:10Z</time><extensions><speed>1.170408</speed><course>192.876297</course><hAcc>1.762528</hAcc><vAcc>1.642766</vAcc></extensions></trkpt>
      <trkpt lon="-82.146482" lat="33.556475"><ele>86.994484</ele><time>2022-04-08T12:41:11Z</time><extensions><speed>1.179510</speed><course>187.620224</course><hAcc>1.735771</hAcc><vAcc>1.592801</vAcc></extensions></trkpt>
      <trkpt lon="-82.146488" lat="33.556465"><ele>87.052292</ele><time>2022-04-08T12:41:12Z</time><extensions><speed>1.315780</speed><course>214.002777</course><hAcc>1.655736</hAcc><vAcc>1.546205</vAcc></extensions></trkpt>
      <trkpt lon="-82.146493" lat="33.556461"><ele>87.081856</ele><time>2022-04-08T12:41:13Z</time><extensions><speed>1.289160</speed><course>217.705276</course><hAcc>1.634540</hAcc><vAcc>1.512298</vAcc></extensions></trkpt>
      <trkpt lon="-82.146501" lat="33.556452"><ele>87.136963</ele><time>2022-04-08T12:41:14Z</time><extensions><speed>1.064590</speed><course>216.083801</course><hAcc>1.654519</hAcc><vAcc>1.476228</vAcc></extensions></trkpt>
      <trkpt lon="-82.146509" lat="33.556446"><ele>87.226250</ele><time>2022-04-08T12:41:15Z</time><extensions><speed>1.038624</speed><course>229.199326</course><hAcc>1.655426</hAcc><vAcc>1.444439</vAcc></extensions></trkpt>
      <trkpt lon="-82.146518" lat="33.556440"><ele>87.299110</ele><time>2022-04-08T12:41:16Z</time><extensions><speed>0.989591</speed><course>233.214828</course><hAcc>1.644422</hAcc><vAcc>1.416857</vAcc></extensions></trkpt>
      <trkpt lon="-82.146526" lat="33.556436"><ele>87.360924</ele><time>2022-04-08T12:41:17Z</time><extensions><speed>0.861073</speed><course>249.582336</course><hAcc>1.638579</hAcc><vAcc>1.393410</vAcc></extensions></trkpt>
      <trkpt lon="-82.146536" lat="33.556434"><ele>87.427895</ele><time>2022-04-08T12:41:18Z</time><extensions><speed>0.917503</speed><course>260.896606</course><hAcc>1.641700</hAcc><vAcc>1.373747</vAcc></extensions></trkpt>
      <trkpt lon="-82.146546" lat="33.556433"><ele>87.499908</ele><time>2022-04-08T12:41:19Z</time><extensions><speed>1.024739</speed><course>267.161530</course><hAcc>1.662801</hAcc><vAcc>1.357479</vAcc></extensions></trkpt>
      <trkpt lon="-82.146559" lat="33.556433"><ele>87.587547</ele><time>2022-04-08T12:41:20Z</time><extensions><speed>1.251804</speed><course>265.198517</course><hAcc>1.677882</hAcc><vAcc>1.344267</vAcc></extensions></trkpt>
      <trkpt lon="-82.146574" lat="33.556432"><ele>87.680237</ele><time>2022-04-08T12:41:21Z</time><extensions><speed>1.673409</speed><course>265.053345</course><hAcc>1.670646</hAcc><vAcc>1.333729</vAcc></extensions></trkpt>
      <trkpt lon="-82.146593" lat="33.556431"><ele>87.752533</ele><time>2022-04-08T12:41:22Z</time><extensions><speed>1.831721</speed><course>268.761658</course><hAcc>1.671599</hAcc><vAcc>1.325427</vAcc></extensions></trkpt>
      <trkpt lon="-82.146613" lat="33.556431"><ele>87.826927</ele><time>2022-04-08T12:41:23Z</time><extensions><speed>1.777977</speed><course>273.844757</course><hAcc>1.684228</hAcc><vAcc>1.319016</vAcc></extensions></trkpt>
      <trkpt lon="-82.146631" lat="33.556433"><ele>87.898216</ele><time>2022-04-08T12:41:24Z</time><extensions><speed>1.507664</speed><course>277.289429</course><hAcc>1.715838</hAcc><vAcc>1.314064</vAcc></extensions></trkpt>
      <trkpt lon="-82.146644" lat="33.556435"><ele>87.948471</ele><time>2022-04-08T12:41:25Z</time><extensions><speed>0.985270</speed><course>282.431061</course><hAcc>1.755762</hAcc><vAcc>1.310502</vAcc></extensions></trkpt>
      <trkpt lon="-82.146654" lat="33.556437"><ele>87.957321</ele><time>2022-04-08T12:41:26Z</time><extensions><speed>0.991075</speed><course>289.242188</course><hAcc>1.736163</hAcc><vAcc>1.307313</vAcc></extensions></trkpt>
      <trkpt lon="-82.146664" lat="33.556441"><ele>87.935127</ele><time>2022-04-08T12:41:27Z</time><extensions><speed>1.014431</speed><course>299.597260</course><hAcc>1.690492</hAcc><vAcc>1.305480</vAcc></extensions></trkpt>
      <trkpt lon="-82.146673" lat="33.556445"><ele>87.902145</ele><time>2022-04-08T12:41:28Z</time><extensions><speed>0.939092</speed><course>304.253510</course><hAcc>1.672976</hAcc><vAcc>1.304102</vAcc></extensions></trkpt>
      <trkpt lon="-82.146681" lat="33.556449"><ele>87.866508</ele><time>2022-04-08T12:41:29Z</time><extensions><speed>0.733350</speed><course>308.258057</course><hAcc>1.698122</hAcc><vAcc>1.303542</vAcc></extensions></trkpt>
      <trkpt lon="-82.146686" lat="33.556453"><ele>87.840622</ele><time>2022-04-08T12:41:30Z</time><extensions><speed>0.528150</speed><course>323.587006</course><hAcc>1.701564</hAcc><vAcc>1.303024</vAcc></extensions></trkpt>
      <trkpt lon="-82.146689" lat="33.556457"><ele>87.814095</ele><time>2022-04-08T12:41:31Z</time><extensions><speed>0.431870</speed><course>333.174225</course><hAcc>1.694861</hAcc><vAcc>1.302983</vAcc></extensions></trkpt>
      <trkpt lon="-82.146692" lat="33.556460"><ele>87.799294</ele><time>2022-04-08T12:41:32Z</time><extensions><speed>0.510509</speed><course>321.073242</course><hAcc>1.692101</hAcc><vAcc>1.302360</vAcc></extensions></trkpt>
      <trkpt lon="-82.146696" lat="33.556463"><ele>87.798294</ele><time>2022-04-08T12:41:33Z</time><extensions><speed>0.586110</speed><course>310.299683</course><hAcc>1.680075</hAcc><vAcc>1.302524</vAcc></extensions></trkpt>
      <trkpt lon="-82.146701" lat="33.556466"><ele>87.815292</ele><time>2022-04-08T12:41:34Z</time><extensions><speed>0.533377</speed><course>308.593781</course><hAcc>1.681904</hAcc><vAcc>1.302291</vAcc></extensions></trkpt>
      <trkpt lon="-82.146705" lat="33.556468"><ele>87.829475</ele><time>2022-04-08T12:41:35Z</time><extensions><speed>0.355997</speed><course>307.461212</course><hAcc>1.709289</hAcc><vAcc>1.302363</vAcc></extensions></trkpt>
      <trkpt lon="-82.146707" lat="33.556470"><ele>87.849319</ele><time>2022-04-08T12:41:36Z</time><extensions><speed>0.229776</speed><course>298.210480</course><hAcc>1.707434</hAcc><vAcc>1.302515</vAcc></extensions></trkpt>
      <trkpt lon="-82.146709" lat="33.556470"><ele>87.847107</ele><time>2022-04-08T12:41:37Z</time><extensions><speed>0.110721</speed><course>297.660248</course><hAcc>1.707537</hAcc><vAcc>1.302828</vAcc></extensions></trkpt>
      <trkpt lon="-82.146710" lat="33.556470"><ele>87.836479</ele><time>2022-04-08T12:41:38Z</time><extensions><speed>0.117407</speed><course>241.653442</course><hAcc>1.689373</hAcc><vAcc>1.302914</vAcc></extensions></trkpt>
      <trkpt lon="-82.146711" lat="33.556470"><ele>87.796959</ele><time>2022-04-08T12:41:39Z</time><extensions><speed>0.131022</speed><course>243.859192</course><hAcc>1.676025</hAcc><vAcc>1.302711</vAcc></extensions></trkpt>
      <trkpt lon="-82.146713" lat="33.556469"><ele>87.758286</ele><time>2022-04-08T12:41:40Z</time><extensions><speed>0.215089</speed><course>236.693787</course><hAcc>1.649153</hAcc><vAcc>1.302805</vAcc></extensions></trkpt>
      <trkpt lon="-82.146716" lat="33.556468"><ele>87.732048</ele><time>2022-04-08T12:41:41Z</time><extensions><speed>0.343336</speed><course>240.258713</course><hAcc>1.622308</hAcc><vAcc>1.302661</vAcc></extensions></trkpt>
      <trkpt lon="-82.146720" lat="33.556467"><ele>87.734207</ele><time>2022-04-08T12:41:42Z</time><extensions><speed>0.479399</speed><course>250.404633</course><hAcc>1.611648</hAcc><vAcc>1.302806</vAcc></extensions></trkpt>
      <trkpt lon="-82.146727" lat="33.556466"><ele>87.750671</ele><time>2022-04-08T12:41:43Z</time><extensions><speed>0.822190</speed><course>267.908630</course><hAcc>1.639752</hAcc><vAcc>1.303197</vAcc></extensions></trkpt>
      <trkpt lon="-82.146736" lat="33.556466"><ele>87.790138</ele><time>2022-04-08T12:41:44Z</time><extensions><speed>0.825274</speed><course>261.970520</course><hAcc>1.645090</hAcc><vAcc>1.302912</vAcc></extensions></trkpt>
      <trkpt lon="-82.146743" lat="33.556465"><ele>87.830208</ele><time>2022-04-08T12:41:45Z</time><extensions><speed>0.444224</speed><course>267.002563</course><hAcc>1.639407</hAcc><vAcc>1.302688</vAcc></extensions></trkpt>
      <trkpt lon="-82.146748" lat="33.556466"><ele>87.880310</ele><time>2022-04-08T12:41:46Z</time><extensions><speed>0.367331</speed><course>286.707001</course><hAcc>1.633236</hAcc><vAcc>1.303043</vAcc></extensions></trkpt>
      <trkpt lon="-82.146750" lat="33.556468"><ele>87.895981</ele><time>2022-04-08T12:41:47Z</time><extensions><speed>0.366565</speed><course>328.789032</course><hAcc>1.657433</hAcc><vAcc>1.329408</vAcc></extensions></trkpt>
      <trkpt lon="-82.146753" lat="33.556472"><ele>87.913216</ele><time>2022-04-08T12:41:48Z</time><extensions><speed>0.578907</speed><course>336.783661</course><hAcc>1.640771</hAcc><vAcc>1.363486</vAcc></extensions></trkpt>
      <trkpt lon="-82.146755" lat="33.556477"><ele>87.932198</ele><time>2022-04-08T12:41:49Z</time><extensions><speed>0.686812</speed><course>336.403412</course><hAcc>1.655165</hAcc><vAcc>1.407032</vAcc></extensions></trkpt>
      <trkpt lon="-82.146759" lat="33.556483"><ele>87.953461</ele><time>2022-04-08T12:41:50Z</time><extensions><speed>0.763397</speed><course>326.596649</course><hAcc>1.685692</hAcc><vAcc>1.462883</vAcc></extensions></trkpt>
      <trkpt lon="-82.146764" lat="33.556488"><ele>87.976425</ele><time>2022-04-08T12:41:51Z</time><extensions><speed>0.816225</speed><course>318.483459</course><hAcc>1.714280</hAcc><vAcc>1.531695</vAcc></extensions></trkpt>
      <trkpt lon="-82.146770" lat="33.556494"><ele>88.000687</ele><time>2022-04-08T12:41:52Z</time><extensions><speed>0.827274</speed><course>314.879761</course><hAcc>1.752853</hAcc><vAcc>1.614984</vAcc></extensions></trkpt>
      <trkpt lon="-82.146776" lat="33.556499"><ele>88.026466</ele><time>2022-04-08T12:41:53Z</time><extensions><speed>0.763261</speed><course>317.761963</course><hAcc>1.817548</hAcc><vAcc>1.716907</vAcc></extensions></trkpt>
      <trkpt lon="-82.146781" lat="33.556504"><ele>88.052345</ele><time>2022-04-08T12:41:54Z</time><extensions><speed>0.658046</speed><course>330.376495</course><hAcc>1.925959</hAcc><vAcc>1.835233</vAcc></extensions></trkpt>
      <trkpt lon="-82.146783" lat="33.556508"><ele>88.078964</ele><time>2022-04-08T12:41:55Z</time><extensions><speed>0.378894</speed><course>357.098938</course><hAcc>2.098726</hAcc><vAcc>1.976057</vAcc></extensions></trkpt>
      <trkpt lon="-82.146783" lat="33.556511"><ele>88.105492</ele><time>2022-04-08T12:41:56Z</time><extensions><speed>0.186193</speed><course>351.862000</course><hAcc>2.338482</hAcc><vAcc>2.137799</vAcc></extensions></trkpt>
    </trkseg>
  </trk>
</gpx>