<?xml version="1.0" encoding="UTF-8"?>
<gpx version="1.1" creator="Apple Health Export" xmlns="http://www.topografix.com/GPX/1/1" xmlns:xsi="http://www.w3.org/2001/XMLSchema-instance" xsi:schemaLocation="http://www.topografix.com/GPX/1/1 http://www.topografix.com/GPX/1/1/gpx.xsd">
  <metadata>
    <time>2026-03-14T12:16:59Z</time>
  </metadata>
  <trk>
    <name>Route 2025-07-04 11:29am</name>
    <trkseg>
      <trkpt lon="-82.309167" lat="35.643884"><ele>804.201500</ele><time>2025-07-04T15:22:11Z</time><extensions><speed>0.711103</speed><course>273.099293</course><hAcc>2.237330</hAcc><vAcc>1.823575</vAcc></extensions></trkpt>
      <trkpt lon="-82.309175" lat="35.643884"><ele>804.103708</ele><time>2025-07-04T15:22:12Z</time><extensions><speed>0.758362</speed><course>268.408624</course><hAcc>1.861738</hAcc><vAcc>1.623737</vAcc></extensions></trkpt>
      <trkpt lon="-82.309185" lat="35.643883"><ele>804.018753</ele><time>2025-07-04T15:22:13Z</time><extensions><speed>0.940062</speed><course>260.018303</course><hAcc>1.668775</hAcc><vAcc>1.459731</vAcc></extensions></trkpt>
      <trkpt lon="-82.309196" lat="35.643881"><ele>803.946298</ele><time>2025-07-04T15:22:14Z</time><extensions><speed>1.048982</speed><course>256.212745</course><hAcc>1.542926</hAcc><vAcc>1.326663</vAcc></extensions></trkpt>
      <trkpt lon="-82.309207" lat="35.643879"><ele>803.888831</ele><time>2025-07-04T15:22:15Z</time><extensions><speed>1.138254</speed><course>254.168538</course><hAcc>1.458936</hAcc><vAcc>1.220760</vAcc></extensions></trkpt>
      <trkpt lon="-82.309220" lat="35.643876"><ele>803.854913</ele><time>2025-07-04T15:22:16Z</time><extensions><speed>1.225181</speed><course>255.188018</course><hAcc>1.417704</hAcc><vAcc>1.138494</vAcc></extensions></trkpt>
      <trkpt lon="-82.309233" lat="35.643873"><ele>803.854134</ele><time>2025-07-04T15:22:17Z</time><extensions><speed>1.283806</speed><course>256.856359</course><hAcc>1.400902</hAcc><vAcc>1.076425</vAcc></extensions></trkpt>
      <trkpt lon="-82.309247" lat="35.643870"><ele>803.877155</ele><time>2025-07-04T15:22:18Z</time><extensions><speed>1.280886</speed><course>257.846998</course><hAcc>1.380710</hAcc><vAcc>1.030794</vAcc></extensions></trkpt>
      <trkpt lon="-82.309260" lat="35.643868"><ele>803.914470</ele><time>2025-07-04T15:22:19Z</time><extensions><speed>1.166151</speed><course>257.852012</course><hAcc>1.360956</hAcc><vAcc>0.997408</vAcc></extensions></trkpt>
      <trkpt lon="-82.309273" lat="35.643866"><ele>803.950005</ele><time>2025-07-04T15:22:20Z</time><extensions><speed>1.183892</speed><course>256.441912</course><hAcc>1.335463</hAcc><vAcc>0.974299</vAcc></extensions></trkpt>
      <trkpt lon="-82.309286" lat="35.643863"><ele>804.005203</ele><time>2025-07-04T15:22:21Z</time><extensions><speed>1.254161</speed><course>254.157856</course><hAcc>1.344424</hAcc><vAcc>0.959266</vAcc></extensions></trkpt>
      <trkpt lon="-82.309300" lat="35.643859"><ele>804.061669</ele><time>2025-07-04T15:22:22Z</time><extensions><speed>1.351564</speed><course>250.815660</course><hAcc>1.359064</hAcc><vAcc>0.950933</vAcc></extensions></trkpt>
      <trkpt lon="-82.309314" lat="35.643855"><ele>804.126983</ele><time>2025-07-04T15:22:23Z</time><extensions><speed>1.336563</speed><course>247.436159</course><hAcc>1.373171</hAcc><vAcc>0.946531</vAcc></extensions></trkpt>
      <trkpt lon="-82.309327" lat="35.643850"><ele>804.171834</ele><time>2025-07-04T15:22:24Z</time><extensions><speed>1.185333</speed><course>244.275586</course><hAcc>1.394775</hAcc><vAcc>0.945222</vAcc></extensions></trkpt>
      <trkpt lon="-82.309338" lat="35.643846"><ele>804.229600</ele><time>2025-07-04T15:22:25Z</time><extensions><speed>1.128677</speed><course>244.172471</course><hAcc>1.413573</hAcc><vAcc>0.946020</vAcc></extensions></trkpt>
      <trkpt lon="-82.309349" lat="35.643842"><ele>804.260444</ele><time>2025-07-04T15:22:26Z</time><extensions><speed>1.014901</speed><course>245.299779</course><hAcc>1.454771</hAcc><vAcc>0.947211</vAcc></extensions></trkpt>
      <trkpt lon="-82.309359" lat="35.643838"><ele>804.285224</ele><time>2025-07-04T15:22:27Z</time><extensions><speed>1.010765</speed><course>244.718458</course><hAcc>1.443421</hAcc><vAcc>0.948159</vAcc></extensions></trkpt>
      <trkpt lon="-82.309369" lat="35.643834"><ele>804.320551</ele><time>2025-07-04T15:22:28Z</time><extensions><speed>0.955023</speed><course>240.188800</course><hAcc>1.446019</hAcc><vAcc>0.949291</vAcc></extensions></trkpt>
      <trkpt lon="-82.309378" lat="35.643829"><ele>804.347389</ele><time>2025-07-04T15:22:29Z</time><extensions><speed>0.979547</speed><course>234.410336</course><hAcc>1.445745</hAcc><vAcc>0.949873</vAcc></extensions></trkpt>
      <trkpt lon="-82.309386" lat="35.643824"><ele>804.382283</ele><time>2025-07-04T15:22:30Z</time><extensions><speed>1.015407</speed><course>231.516596</course><hAcc>1.442958</hAcc><vAcc>0.950203</vAcc></extensions></trkpt>
      <trkpt lon="-82.309395" lat="35.643818"><ele>804.383058</ele><time>2025-07-04T15:22:31Z</time><extensions><speed>1.037798</speed><course>230.707537</course><hAcc>1.427853</hAcc><vAcc>0.949272</vAcc></extensions></trkpt>
      <trkpt lon="-82.309405" lat="35.643812"><ele>804.350004</ele><time>2025-07-04T15:22:32Z</time><extensions><speed>1.127901</speed><course>231.706537</course><hAcc>1.412188</hAcc><vAcc>0.949017</vAcc></extensions></trkpt>
      <trkpt lon="-82.309415" lat="35.643806"><ele>804.297104</ele><time>2025-07-04T15:22:33Z</time><extensions><speed>1.175060</speed><course>235.318758</course><hAcc>1.404707</hAcc><vAcc>0.948676</vAcc></extensions></trkpt>
      <trkpt lon="-82.309426" lat="35.643800"><ele>804.252760</ele><time>2025-07-04T15:22:34Z</time><extensions><speed>1.178693</speed><course>240.099260</course><hAcc>1.383969</hAcc><vAcc>0.947988</vAcc></extensions></trkpt>
      <trkpt lon="-82.309437" lat="35.643795"><ele>804.202317</ele><time>2025-07-04T15:22:35Z</time><extensions><speed>1.154912</speed><course>244.260107</course><hAcc>1.363814</hAcc><vAcc>0.947395</vAcc></extensions></trkpt>
      <trkpt lon="-82.309449" lat="35.643791"><ele>804.153836</ele><time>2025-07-04T15:22:36Z</time><extensions><speed>1.178648</speed><course>247.932717</course><hAcc>1.356039</hAcc><vAcc>0.946856</vAcc></extensions></trkpt>
      <trkpt lon="-82.309461" lat="35.643787"><ele>804.107809</ele><time>2025-07-04T15:22:37Z</time><extensions><speed>1.178137</speed><course>251.180110</course><hAcc>1.359370</hAcc><vAcc>0.947481</vAcc></extensions></trkpt>
      <trkpt lon="-82.309473" lat="35.643784"><ele>804.048306</ele><time>2025-07-04T15:22:38Z</time><extensions><speed>1.093286</speed><course>254.769557</course><hAcc>1.362402</hAcc><vAcc>0.948217</vAcc></extensions></trkpt>
      <trkpt lon="-82.309484" lat="35.643782"><ele>803.995538</ele><time>2025-07-04T15:22:39Z</time><extensions><speed>0.998816</speed><course>260.695377</course><hAcc>1.356980</hAcc><vAcc>0.949216</vAcc></extensions></trkpt>
      <trkpt lon="-82.309495" lat="35.643781"><ele>803.947058</ele><time>2025-07-04T15:22:40Z</time><extensions><speed>0.961623</speed><course>264.686755</course><hAcc>1.363064</hAcc><vAcc>0.950587</vAcc></extensions></trkpt>
      <trkpt lon="-82.309506" lat="35.643780"><ele>803.916257</ele><time>2025-07-04T15:22:41Z</time><extensions><speed>0.976475</speed><course>262.970586</course><hAcc>1.362028</hAcc><vAcc>0.951238</vAcc></extensions></trkpt>
      <trkpt lon="-82.309517" lat="35.643778"><ele>803.902958</ele><time>2025-07-04T15:22:42Z</time><extensions><speed>1.001248</speed><course>258.005198</course><hAcc>1.358559</hAcc><vAcc>0.951791</vAcc></extensions></trkpt>
      <trkpt lon="-82.309527" lat="35.643776"><ele>803.921563</ele><time>2025-07-04T15:22:43Z</time><extensions><speed>1.008978</speed><course>253.236399</course><hAcc>1.356427</hAcc><vAcc>0.953445</vAcc></extensions></trkpt>
      <trkpt lon="-82.309538" lat="35.643773"><ele>803.948451</ele><time>2025-07-04T15:22:44Z</time><extensions><speed>1.055275</speed><course>251.489606</course><hAcc>1.361166</hAcc><vAcc>0.955302</vAcc></extensions></trkpt>
      <trkpt lon="-82.309549" lat="35.643770"><ele>803.986930</ele><time>2025-07-04T15:22:45Z</time><extensions><speed>1.069634</speed><course>251.889416</course><hAcc>1.359431</hAcc><vAcc>0.957253</vAcc></extensions></trkpt>
      <trkpt lon="-82.309560" lat="35.643767"><ele>804.022387</ele><time>2025-07-04T15:22:46Z</time><extensions><speed>1.057840</speed><course>250.186645</course><hAcc>1.356161</hAcc><vAcc>0.958667</vAcc></extensions></trkpt>
      <trkpt lon="-82.309571" lat="35.643763"><ele>804.064701</ele><time>2025-07-04T15:22:47Z</time><extensions><speed>1.031174</speed><course>243.931274</course><hAcc>1.353026</hAcc><vAcc>0.959537</vAcc></extensions></trkpt>
      <trkpt lon="-82.309581" lat="35.643759"><ele>804.117266</ele><time>2025-07-04T15:22:48Z</time><extensions><speed>0.995462</speed><course>240.288122</course><hAcc>1.343257</hAcc><vAcc>0.959694</vAcc></extensions></trkpt>
      <trkpt lon="-82.309590" lat="35.643755"><ele>804.177211</ele><time>2025-07-04T15:22:49Z</time><extensions><speed>1.000866</speed><course>238.547513</course><hAcc>1.356696</hAcc><vAcc>0.960011</vAcc></extensions></trkpt>
      <trkpt lon="-82.309600" lat="35.643750"><ele>804.259720</ele><time>2025-07-04T15:22:50Z</time><extensions><speed>1.012620</speed><course>239.111484</course><hAcc>1.368319</hAcc><vAcc>0.960245</vAcc></extensions></trkpt>
      <trkpt lon="-82.309610" lat="35.643745"><ele>804.341152</ele><time>2025-07-04T15:22:51Z</time><extensions><speed>1.084232</speed><course>239.955562</course><hAcc>1.345976</hAcc><vAcc>0.959382</vAcc></extensions></trkpt>
      <trkpt lon="-82.309621" lat="35.643740"><ele>804.440418</ele><time>2025-07-04T15:22:52Z</time><extensions><speed>1.137643</speed><course>239.736920</course><hAcc>1.354248</hAcc><vAcc>0.957239</vAcc></extensions></trkpt>
      <trkpt lon="-82.309632" lat="35.643735"><ele>804.547201</ele><time>2025-07-04T15:22:53Z</time><extensions><speed>1.176483</speed><course>241.762450</course><hAcc>1.362771</hAcc><vAcc>0.955371</vAcc></extensions></trkpt>
      <trkpt lon="-82.309643" lat="35.643730"><ele>804.639358</ele><time>2025-07-04T15:22:54Z</time><extensions><speed>1.149942</speed><course>240.794884</course><hAcc>1.365512</hAcc><vAcc>0.952268</vAcc></extensions></trkpt>
      <trkpt lon="-82.309654" lat="35.643725"><ele>804.713806</ele><time>2025-07-04T15:22:55Z</time><extensions><speed>1.118064</speed><course>239.210646</course><hAcc>1.350420</hAcc><vAcc>0.949724</vAcc></extensions></trkpt>
      <trkpt lon="-82.309664" lat="35.643720"><ele>804.787360</ele><time>2025-07-04T15:22:56Z</time><extensions><speed>1.109425</speed><course>238.885786</course><hAcc>1.334602</hAcc><vAcc>0.946544</vAcc></extensions></trkpt>
      <trkpt lon="-82.309675" lat="35.643715"><ele>804.812334</ele><time>2025-07-04T15:22:57Z</time><extensions><speed>1.141859</speed><course>239.742280</course><hAcc>1.322569</hAcc><vAcc>0.942569</vAcc></extensions></trkpt>
      <trkpt lon="-82.309686" lat="35.643709"><ele>804.823634</ele><time>2025-07-04T15:22:58Z</time><extensions><speed>1.146095</speed><course>241.809502</course><hAcc>1.324078</hAcc><vAcc>0.937615</vAcc></extensions></trkpt>
      <trkpt lon="-82.309698" lat="35.643705"><ele>804.814049</ele><time>2025-07-04T15:22:59Z</time><extensions><speed>1.173903</speed><course>243.484564</course><hAcc>1.311410</hAcc><vAcc>0.931730</vAcc></extensions></trkpt>
      <trkpt lon="-82.309709" lat="35.643700"><ele>804.785249</ele><time>2025-07-04T15:23:00Z</time><extensions><speed>1.174007</speed><course>244.430622</course><hAcc>1.294316</hAcc><vAcc>0.924999</vAcc></extensions></trkpt>
      <trkpt lon="-82.309721" lat="35.643696"><ele>804.744745</ele><time>2025-07-04T15:23:01Z</time><extensions><speed>1.157559</speed><course>245.832017</course><hAcc>1.282398</hAcc><vAcc>0.918009</vAcc></extensions></trkpt>
      <trkpt lon="-82.309732" lat="35.643692"><ele>804.687169</ele><time>2025-07-04T15:23:02Z</time><extensions><speed>1.117238</speed><course>247.172227</course><hAcc>1.289951</hAcc><vAcc>0.911121</vAcc></extensions></trkpt>
      <trkpt lon="-82.309743" lat="35.643688"><ele>804.603434</ele><time>2025-07-04T15:23:03Z</time><extensions><speed>1.046786</speed><course>248.983559</course><hAcc>1.291117</hAcc><vAcc>0.903792</vAcc></extensions></trkpt>
      <trkpt lon="-82.309754" lat="35.643685"><ele>804.509724</ele><time>2025-07-04T15:23:04Z</time><extensions><speed>1.027189</speed><course>249.723848</course><hAcc>1.280490</hAcc><vAcc>0.896516</vAcc></extensions></trkpt>
      <trkpt lon="-82.309765" lat="35.643681"><ele>804.414366</ele><time>2025-07-04T15:23:05Z</time><extensions><speed>1.010042</speed><course>249.956964</course><hAcc>1.294861</hAcc><vAcc>0.889728</vAcc></extensions></trkpt>
      <trkpt lon="-82.309775" lat="35.643678"><ele>804.311196</ele><time>2025-07-04T15:23:06Z</time><extensions><speed>0.982259</speed><course>251.359828</course><hAcc>1.297322</hAcc><vAcc>0.882348</vAcc></extensions></trkpt>
      <trkpt lon="-82.309785" lat="35.643676"><ele>804.209976</ele><time>2025-07-04T15:23:07Z</time><extensions><speed>0.940490</speed><course>253.514857</course><hAcc>1.290333</hAcc><vAcc>0.875853</vAcc></extensions></trkpt>
      <trkpt lon="-82.309795" lat="35.643673"><ele>804.093032</ele><time>2025-07-04T15:23:08Z</time><extensions><speed>0.934150</speed><course>253.699968</course><hAcc>1.279910</hAcc><vAcc>0.869300</vAcc></extensions></trkpt>
      <trkpt lon="-82.309805" lat="35.643671"><ele>803.989667</ele><time>2025-07-04T15:23:09Z</time><extensions><speed>0.967712</speed><course>252.589097</course><hAcc>1.271791</hAcc><vAcc>0.863359</vAcc></extensions></trkpt>
      <trkpt lon="-82.309816" lat="35.643668"><ele>803.894446</ele><time>2025-07-04T15:23:10Z</time><extensions><speed>1.004771</speed><course>250.053917</course><hAcc>1.266785</hAcc><vAcc>0.858387</vAcc></extensions></trkpt>
      <trkpt lon="-82.309826" lat="35.643665"><ele>803.798132</ele><time>2025-07-04T15:23:11Z</time><extensions><speed>0.993369</speed><course>246.531618</course><hAcc>1.271118</hAcc><vAcc>0.855002</vAcc></extensions></trkpt>
      <trkpt lon="-82.309835" lat="35.643661"><ele>803.688362</ele><time>2025-07-04T15:23:12Z</time><extensions><speed>0.913293</speed><course>246.340529</course><hAcc>1.246454</hAcc><vAcc>0.853108</vAcc></extensions></trkpt>
      <trkpt lon="-82.309845" lat="35.643658"><ele>803.573824</ele><time>2025-07-04T15:23:13Z</time><extensions><speed>0.937058</speed><course>249.500178</course><hAcc>1.219653</hAcc><vAcc>0.853114</vAcc></extensions></trkpt>
      <trkpt lon="-82.309855" lat="35.643655"><ele>803.425233</ele><time>2025-07-04T15:23:14Z</time><extensions><speed>0.964614</speed><course>251.488945</course><hAcc>1.211739</hAcc><vAcc>0.854510</vAcc></extensions></trkpt>
      <trkpt lon="-82.309865" lat="35.643652"><ele>803.268787</ele><time>2025-07-04T15:23:15Z</time><extensions><speed>0.979458</speed><course>249.181827</course><hAcc>1.220464</hAcc><vAcc>0.856881</vAcc></extensions></trkpt>
      <trkpt lon="-82.309875" lat="35.643649"><ele>803.096348</ele><time>2025-07-04T15:23:16Z</time><extensions><speed>1.002997</speed><course>246.337786</course><hAcc>1.197456</hAcc><vAcc>0.861365</vAcc></extensions></trkpt>
      <trkpt lon="-82.309885" lat="35.643645"><ele>802.922156</ele><time>2025-07-04T15:23:17Z</time><extensions><speed>1.011420</speed><course>245.779330</course><hAcc>1.226978</hAcc><vAcc>0.866160</vAcc></extensions></trkpt>
      <trkpt lon="-82.309896" lat="35.643642"><ele>802.730454</ele><time>2025-07-04T15:23:18Z</time><extensions><speed>1.024756</speed><course>251.069842</course><hAcc>1.218089</hAcc><vAcc>0.872135</vAcc></extensions></trkpt>
      <trkpt lon="-82.309906" lat="35.643640"><ele>802.536766</ele><time>2025-07-04T15:23:19Z</time><extensions><speed>0.994348</speed><course>257.212759</course><hAcc>1.219649</hAcc><vAcc>0.878665</vAcc></extensions></trkpt>
      <trkpt lon="-82.309917" lat="35.643638"><ele>802.327971</ele><time>2025-07-04T15:23:20Z</time><extensions><speed>1.000756</speed><course>261.370756</course><hAcc>1.238316</hAcc><vAcc>0.886582</vAcc></extensions></trkpt>
      <trkpt lon="-82.309929" lat="35.643637"><ele>802.126914</ele><time>2025-07-04T15:23:21Z</time><extensions><speed>1.091987</speed><course>263.068095</course><hAcc>1.257462</hAcc><vAcc>0.894563</vAcc></extensions></trkpt>
      <trkpt lon="-82.309941" lat="35.643635"><ele>801.925739</ele><time>2025-07-04T15:23:22Z</time><extensions><speed>1.119780</speed><course>261.222457</course><hAcc>1.281821</hAcc><vAcc>0.902966</vAcc></extensions></trkpt>
      <trkpt lon="-82.309953" lat="35.643633"><ele>801.732994</ele><time>2025-07-04T15:23:23Z</time><extensions><speed>1.147406</speed><course>259.623725</course><hAcc>1.290946</hAcc><vAcc>0.910416</vAcc></extensions></trkpt>
      <trkpt lon="-82.309965" lat="35.643631"><ele>801.531873</ele><time>2025-07-04T15:23:24Z</time><extensions><speed>1.024798</speed><course>257.834698</course><hAcc>1.285591</hAcc><vAcc>0.917624</vAcc></extensions></trkpt>
      <trkpt lon="-82.309975" lat="35.643629"><ele>801.355418</ele><time>2025-07-04T15:23:25Z</time><extensions><speed>0.939735</speed><course>255.145237</course><hAcc>1.265235</hAcc><vAcc>0.924383</vAcc></extensions></trkpt>
      <trkpt lon="-82.309985" lat="35.643627"><ele>801.195823</ele><time>2025-07-04T15:23:26Z</time><extensions><speed>0.932310</speed><course>252.610657</course><hAcc>1.275794</hAcc><vAcc>0.929025</vAcc></extensions></trkpt>
      <trkpt lon="-82.309996" lat="35.643624"><ele>801.012345</ele><time>2025-07-04T15:23:27Z</time><extensions><speed>1.073186</speed><course>250.417912</course><hAcc>1.265733</hAcc><vAcc>0.931464</vAcc></extensions></trkpt>
      <trkpt lon="-82.310008" lat="35.643621"><ele>800.875158</ele><time>2025-07-04T15:23:28Z</time><extensions><speed>1.226165</speed><course>249.722165</course><hAcc>1.263378</hAcc><vAcc>0.932824</vAcc></extensions></trkpt>
      <trkpt lon="-82.310021" lat="35.643616"><ele>800.748528</ele><time>2025-07-04T15:23:29Z</time><extensions><speed>1.299890</speed><course>246.341188</course><hAcc>1.265984</hAcc><vAcc>0.933901</vAcc></extensions></trkpt>
      <trkpt lon="-82.310034" lat="35.643611"><ele>800.626770</ele><time>2025-07-04T15:23:30Z</time><extensions><speed>1.323974</speed><course>241.370272</course><hAcc>1.263404</hAcc><vAcc>0.933369</vAcc></extensions></trkpt>
      <trkpt lon="-82.310046" lat="35.643605"><ele>800.531982</ele><time>2025-07-04T15:23:31Z</time><extensions><speed>1.338523</speed><course>235.960035</course><hAcc>1.265399</hAcc><vAcc>0.931435</vAcc></extensions></trkpt>
      <trkpt lon="-82.310058" lat="35.643598"><ele>800.474020</ele><time>2025-07-04T15:23:32Z</time><extensions><speed>1.303790</speed><course>229.752139</course><hAcc>1.263418</hAcc><vAcc>0.927420</vAcc></extensions></trkpt>
      <trkpt lon="-82.310068" lat="35.643590"><ele>800.508646</ele><time>2025-07-04T15:23:33Z</time><extensions><speed>1.287323</speed><course>225.961589</course><hAcc>1.265754</hAcc><vAcc>0.921160</vAcc></extensions></trkpt>
      <trkpt lon="-82.310078" lat="35.643582"><ele>800.513807</ele><time>2025-07-04T15:23:34Z</time><extensions><speed>1.147094</speed><course>221.745024</course><hAcc>1.267228</hAcc><vAcc>0.914080</vAcc></extensions></trkpt>
      <trkpt lon="-82.310086" lat="35.643574"><ele>800.545681</ele><time>2025-07-04T15:23:35Z</time><extensions><speed>1.070968</speed><course>220.707666</course><hAcc>1.258511</hAcc><vAcc>0.905879</vAcc></extensions></trkpt>
      <trkpt lon="-82.310093" lat="35.643567"><ele>800.586141</ele><time>2025-07-04T15:23:36Z</time><extensions><speed>1.013542</speed><course>218.055859</course><hAcc>1.257232</hAcc><vAcc>0.896831</vAcc></extensions></trkpt>
      <trkpt lon="-82.310100" lat="35.643560"><ele>800.648534</ele><time>2025-07-04T15:23:37Z</time><extensions><speed>1.002234</speed><course>214.783355</course><hAcc>1.260378</hAcc><vAcc>0.887424</vAcc></extensions></trkpt>
      <trkpt lon="-82.310105" lat="35.643553"><ele>800.732015</ele><time>2025-07-04T15:23:38Z</time><extensions><speed>0.884740</speed><course>211.714463</course><hAcc>1.252852</hAcc><vAcc>0.877593</vAcc></extensions></trkpt>
      <trkpt lon="-82.310111" lat="35.643546"><ele>800.826011</ele><time>2025-07-04T15:23:39Z</time><extensions><speed>0.941578</speed><course>211.369580</course><hAcc>1.267344</hAcc><vAcc>0.868585</vAcc></extensions></trkpt>
      <trkpt lon="-82.310116" lat="35.643538"><ele>800.934205</ele><time>2025-07-04T15:23:40Z</time><extensions><speed>1.029599</speed><course>210.030267</course><hAcc>1.266503</hAcc><vAcc>0.860499</vAcc></extensions></trkpt>
      <trkpt lon="-82.310122" lat="35.643530"><ele>801.055311</ele><time>2025-07-04T15:23:41Z</time><extensions><speed>1.133140</speed><course>211.298803</course><hAcc>1.263014</hAcc><vAcc>0.853339</vAcc></extensions></trkpt>
      <trkpt lon="-82.310129" lat="35.643521"><ele>801.186128</ele><time>2025-07-04T15:23:42Z</time><extensions><speed>1.133881</speed><course>213.302316</course><hAcc>1.257392</hAcc><vAcc>0.847219</vAcc></extensions></trkpt>
      <trkpt lon="-82.310136" lat="35.643512"><ele>801.344460</ele><time>2025-07-04T15:23:43Z</time><extensions><speed>1.183180</speed><course>211.995938</course><hAcc>1.254132</hAcc><vAcc>0.843140</vAcc></extensions></trkpt>
      <trkpt lon="-82.310143" lat="35.643503"><ele>801.499169</ele><time>2025-07-04T15:23:44Z</time><extensions><speed>1.173496</speed><course>211.324461</course><hAcc>1.279751</hAcc><vAcc>0.841294</vAcc></extensions></trkpt>
      <trkpt lon="-82.310149" lat="35.643494"><ele>801.644859</ele><time>2025-07-04T15:23:45Z</time><extensions><speed>1.176271</speed><course>207.343723</course><hAcc>1.283640</hAcc><vAcc>0.841361</vAcc></extensions></trkpt>
      <trkpt lon="-82.310155" lat="35.643485"><ele>801.796559</ele><time>2025-07-04T15:23:46Z</time><extensions><speed>1.068064</speed><course>208.153154</course><hAcc>1.274992</hAcc><vAcc>0.843344</vAcc></extensions></trkpt>
      <trkpt lon="-82.310161" lat="35.643477"><ele>801.931178</ele><time>2025-07-04T15:23:47Z</time><extensions><speed>1.048647</speed><course>210.509904</course><hAcc>1.285194</hAcc><vAcc>0.847033</vAcc></extensions></trkpt>
      <trkpt lon="-82.310167" lat="35.643469"><ele>802.064281</ele><time>2025-07-04T15:23:48Z</time><extensions><speed>1.039540</speed><course>215.185631</course><hAcc>1.288876</hAcc><vAcc>0.853035</vAcc></extensions></trkpt>
      <trkpt lon="-82.310174" lat="35.643461"><ele>802.190892</ele><time>2025-07-04T15:23:49Z</time><extensions><speed>1.045504</speed><course>220.959229</course><hAcc>1.298826</hAcc><vAcc>0.860170</vAcc></extensions></trkpt>
      <trkpt lon="-82.310182" lat="35.643455"><ele>802.308402</ele><time>2025-07-04T15:23:50Z</time><extensions><speed>1.010493</speed><course>228.045108</course><hAcc>1.299508</hAcc><vAcc>0.869284</vAcc></extensions></trkpt>
      <trkpt lon="-82.310191" lat="35.643449"><ele>802.416038</ele><time>2025-07-04T15:23:51Z</time><extensions><speed>1.012633</speed><course>237.049940</course><hAcc>1.289761</hAcc><vAcc>0.878194</vAcc></extensions></trkpt>
      <trkpt lon="-82.310201" lat="35.643444"><ele>802.510215</ele><time>2025-07-04T15:23:52Z</time><extensions><speed>1.103234</speed><course>240.166181</course><hAcc>1.295766</hAcc><vAcc>0.886591</vAcc></extensions></trkpt>
      <trkpt lon="-82.310212" lat="35.643439"><ele>802.596052</ele><time>2025-07-04T15:23:53Z</time><extensions><speed>1.135866</speed><course>237.971366</course><hAcc>1.322309</hAcc><vAcc>0.896118</vAcc></extensions></trkpt>
      <trkpt lon="-82.310222" lat="35.643434"><ele>802.666358</ele><time>2025-07-04T15:23:54Z</time><extensions><speed>1.053957</speed><course>235.944919</course><hAcc>1.361631</hAcc><vAcc>0.906223</vAcc></extensions></trkpt>
      <trkpt lon="-82.310232" lat="35.643428"><ele>802.736865</ele><time>2025-07-04T15:23:55Z</time><extensions><speed>1.190748</speed><course>239.409998</course><hAcc>1.350853</hAcc><vAcc>0.915247</vAcc></extensions></trkpt>
      <trkpt lon="-82.310244" lat="35.643423"><ele>802.784464</ele><time>2025-07-04T15:23:56Z</time><extensions><speed>1.280489</speed><course>240.663762</course><hAcc>1.363497</hAcc><vAcc>0.923418</vAcc></extensions></trkpt>
      <trkpt lon="-82.310257" lat="35.643417"><ele>802.834826</ele><time>2025-07-04T15:23:57Z</time><extensions><speed>1.316889</speed><course>241.841209</course><hAcc>1.377754</hAcc><vAcc>0.931144</vAcc></extensions></trkpt>
      <trkpt lon="-82.310270" lat="35.643412"><ele>802.874021</ele><time>2025-07-04T15:23:58Z</time><extensions><speed>1.348459</speed><course>243.003250</course><hAcc>1.388619</hAcc><vAcc>0.938780</vAcc></extensions></trkpt>
      <trkpt lon="-82.310283" lat="35.643406"><ele>802.901424</ele><time>2025-07-04T15:23:59Z</time><extensions><speed>1.373643</speed><course>244.555241</course><hAcc>1.401819</hAcc><vAcc>0.946505</vAcc></extensions></trkpt>
      <trkpt lon="-82.310299" lat="35.643401"><ele>802.923193</ele><time>2025-07-04T15:24:00Z</time><extensions><speed>1.234461</speed><course>248.339301</course><hAcc>1.416651</hAcc><vAcc>0.955493</vAcc></extensions></trkpt>
      <trkpt lon="-82.310310" lat="35.643397"><ele>802.934920</ele><time>2025-07-04T15:24:01Z</time><extensions><speed>1.338378</speed><course>251.495707</course><hAcc>1.393066</hAcc><vAcc>0.958329</vAcc></extensions></trkpt>
      <trkpt lon="-82.310324" lat="35.643394"><ele>802.948778</ele><time>2025-07-04T15:24:02Z</time><extensions><speed>1.420723</speed><course>252.562982</course><hAcc>1.384239</hAcc><vAcc>0.965379</vAcc></extensions></trkpt>
      <trkpt lon="-82.310339" lat="35.643390"><ele>802.958937</ele><time>2025-07-04T15:24:03Z</time><extensions><speed>1.387603</speed><course>250.674366</course><hAcc>1.402386</hAcc><vAcc>0.971467</vAcc></extensions></trkpt>
      <trkpt lon="-82.310353" lat="35.643386"><ele>802.985255</ele><time>2025-07-04T15:24:04Z</time><extensions><speed>1.244495</speed><course>250.564594</course><hAcc>1.413924</hAcc><vAcc>0.979531</vAcc></extensions></trkpt>
      <trkpt lon="-82.310365" lat="35.643383"><ele>803.019997</ele><time>2025-07-04T15:24:05Z</time><extensions><speed>1.121316</speed><course>255.176844</course><hAcc>1.407481</hAcc><vAcc>0.987593</vAcc></extensions></trkpt>
      <trkpt lon="-82.310377" lat="35.643381"><ele>803.083898</ele><time>2025-07-04T15:24:06Z</time><extensions><speed>0.977935</speed><course>260.154801</course><hAcc>1.421221</hAcc><vAcc>0.994156</vAcc></extensions></trkpt>
      <trkpt lon="-82.310387" lat="35.643379"><ele>803.142008</ele><time>2025-07-04T15:24:07Z</time><extensions><speed>0.838332</speed><course>264.651454</course><hAcc>1.437727</hAcc><vAcc>1.001591</vAcc></extensions></trkpt>
      <trkpt lon="-82.310395" lat="35.643379"><ele>803.201006</ele><time>2025-07-04T15:24:08Z</time><extensions><speed>0.776119</speed><course>268.448069</course><hAcc>1.437764</hAcc><vAcc>1.008712</vAcc></extensions></trkpt>
      <trkpt lon="-82.310404" lat="35.643379"><ele>803.252512</ele><time>2025-07-04T15:24:09Z</time><extensions><speed>0.788858</speed><course>266.727117</course><hAcc>1.422420</hAcc><vAcc>1.015455</vAcc></extensions></trkpt>
      <trkpt lon="-82.310413" lat="35.643378"><ele>803.328728</ele><time>2025-07-04T15:24:10Z</time><extensions><speed>0.868162</speed><course>263.069605</course><hAcc>1.403579</hAcc><vAcc>1.019535</vAcc></extensions></trkpt>
      <trkpt lon="-82.310423" lat="35.643377"><ele>803.402159</ele><time>2025-07-04T15:24:11Z</time><extensions><speed>0.992044</speed><course>260.172575</course><hAcc>1.410250</hAcc><vAcc>1.026531</vAcc></extensions></trkpt>
      <trkpt lon="-82.310435" lat="35.643375"><ele>803.474858</ele><time>2025-07-04T15:24:12Z</time><extensions><speed>1.164706</speed><course>259.182926</course><hAcc>1.433143</hAcc><vAcc>1.033618</vAcc></extensions></trkpt>
      <trkpt lon="-82.310448" lat="35.643373"><ele>803.555146</ele><time>2025-07-04T15:24:13Z</time><extensions><speed>1.234297</speed><course>260.394950</course><hAcc>1.417653</hAcc><vAcc>1.041344</vAcc></extensions></trkpt>
      <trkpt lon="-82.310461" lat="35.643371"><ele>803.627274</ele><time>2025-07-04T15:24:14Z</time><extensions><speed>1.153647</speed><course>261.112068</course><hAcc>1.446462</hAcc><vAcc>1.049004</vAcc></extensions></trkpt>
      <trkpt lon="-82.310474" lat="35.643369"><ele>803.707958</ele><time>2025-07-04T15:24:15Z</time><extensions><speed>1.252491</speed><course>260.729535</course><hAcc>1.446286</hAcc><vAcc>1.056706</vAcc></extensions></trkpt>
      <trkpt lon="-82.310488" lat="35.643367"><ele>803.780001</ele><time>2025-07-04T15:24:16Z</time><extensions><speed>1.286177</speed><course>259.713521</course><hAcc>1.472284</hAcc><vAcc>1.061810</vAcc></extensions></trkpt>
      <trkpt lon="-82.310502" lat="35.643365"><ele>803.882102</ele><time>2025-07-04T15:24:17Z</time><extensions><speed>1.215452</speed><course>257.079007</course><hAcc>1.516957</hAcc><vAcc>1.062597</vAcc></extensions></trkpt>
      <trkpt lon="-82.310514" lat="35.643362"><ele>803.982721</ele><time>2025-07-04T15:24:18Z</time><extensions><speed>1.134163</speed><course>251.845866</course><hAcc>1.525344</hAcc><vAcc>1.065404</vAcc></extensions></trkpt>
      <trkpt lon="-82.310526" lat="35.643358"><ele>804.042339</ele><time>2025-07-04T15:24:19Z</time><extensions><speed>1.104358</speed><course>244.010141</course><hAcc>1.531173</hAcc><vAcc>1.070702</vAcc></extensions></trkpt>
      <trkpt lon="-82.310536" lat="35.643353"><ele>804.097993</ele><time>2025-07-04T15:24:20Z</time><extensions><speed>1.112823</speed><course>236.516187</course><hAcc>1.543621</hAcc><vAcc>1.076108</vAcc></extensions></trkpt>
      <trkpt lon="-82.310546" lat="35.643348"><ele>804.144544</ele><time>2025-07-04T15:24:21Z</time><extensions><speed>1.116282</speed><course>231.610794</course><hAcc>1.564276</hAcc><vAcc>1.082846</vAcc></extensions></trkpt>
      <trkpt lon="-82.310556" lat="35.643341"><ele>804.190010</ele><time>2025-07-04T15:24:22Z</time><extensions><speed>1.093399</speed><course>229.823214</course><hAcc>1.583291</hAcc><vAcc>1.089148</vAcc></extensions></trkpt>
      <trkpt lon="-82.310565" lat="35.643334"><ele>804.214529</ele><time>2025-07-04T15:24:23Z</time><extensions><speed>1.096787</speed><course>224.898445</course><hAcc>1.571866</hAcc><vAcc>1.097725</vAcc></extensions></trkpt>
      <trkpt lon="-82.310573" lat="35.643327"><ele>804.225052</ele><time>2025-07-04T15:24:24Z</time><extensions><speed>1.108434</speed><course>220.970881</course><hAcc>1.587151</hAcc><vAcc>1.106787</vAcc></extensions></trkpt>
      <trkpt lon="-82.310581" lat="35.643320"><ele>804.204534</ele><time>2025-07-04T15:24:25Z</time><extensions><speed>1.050540</speed><course>220.299003</course><hAcc>1.626226</hAcc><vAcc>1.114599</vAcc></extensions></trkpt>
      <trkpt lon="-82.310588" lat="35.643312"><ele>804.173725</ele><time>2025-07-04T15:24:26Z</time><extensions><speed>1.040640</speed><course>215.929287</course><hAcc>1.632882</hAcc><vAcc>1.123689</vAcc></extensions></trkpt>
      <trkpt lon="-82.310594" lat="35.643304"><ele>804.136581</ele><time>2025-07-04T15:24:27Z</time><extensions><speed>1.011573</speed><course>213.089267</course><hAcc>1.634669</hAcc><vAcc>1.132793</vAcc></extensions></trkpt>
      <trkpt lon="-82.310600" lat="35.643297"><ele>804.101413</ele><time>2025-07-04T15:24:28Z</time><extensions><speed>0.963658</speed><course>208.225428</course><hAcc>1.662452</hAcc><vAcc>1.141796</vAcc></extensions></trkpt>
      <trkpt lon="-82.310604" lat="35.643289"><ele>804.078250</ele><time>2025-07-04T15:24:29Z</time><extensions><speed>0.925469</speed><course>201.089568</course><hAcc>1.697750</hAcc><vAcc>1.151173</vAcc></extensions></trkpt>
      <trkpt lon="-82.310608" lat="35.643281"><ele>804.051383</ele><time>2025-07-04T15:24:30Z</time><extensions><speed>0.919400</speed><course>196.558200</course><hAcc>1.744735</hAcc><vAcc>1.160382</vAcc></extensions></trkpt>
      <trkpt lon="-82.310610" lat="35.643273"><ele>804.017545</ele><time>2025-07-04T15:24:31Z</time><extensions><speed>1.050013</speed><course>194.246980</course><hAcc>1.766831</hAcc><vAcc>1.168731</vAcc></extensions></trkpt>
      <trkpt lon="-82.310613" lat="35.643263"><ele>803.984381</ele><time>2025-07-04T15:24:32Z</time><extensions><speed>1.079845</speed><course>194.158057</course><hAcc>1.781109</hAcc><vAcc>1.174071</vAcc></extensions></trkpt>
      <trkpt lon="-82.310616" lat="35.643254"><ele>803.954729</ele><time>2025-07-04T15:24:33Z</time><extensions><speed>1.013055</speed><course>192.455475</course><hAcc>1.786282</hAcc><vAcc>1.179273</vAcc></extensions></trkpt>
      <trkpt lon="-82.310618" lat="35.643245"><ele>803.916036</ele><time>2025-07-04T15:24:34Z</time><extensions><speed>0.988489</speed><course>191.937561</course><hAcc>1.781844</hAcc><vAcc>1.182604</vAcc></extensions></trkpt>
      <trkpt lon="-82.310621" lat="35.643237"><ele>803.870511</ele><time>2025-07-04T15:24:35Z</time><extensions><speed>0.965217</speed><course>193.850357</course><hAcc>1.771259</hAcc><vAcc>1.183299</vAcc></extensions></trkpt>
      <trkpt lon="-82.310624" lat="35.643228"><ele>803.833568</ele><time>2025-07-04T15:24:36Z</time><extensions><speed>0.954424</speed><course>197.295591</course><hAcc>1.758410</hAcc><vAcc>1.182466</vAcc></extensions></trkpt>
      <trkpt lon="-82.310627" lat="35.643220"><ele>803.807298</ele><time>2025-07-04T15:24:37Z</time><extensions><speed>0.972446</speed><course>200.804308</course><hAcc>1.738613</hAcc><vAcc>1.179580</vAcc></extensions></trkpt>
      <trkpt lon="-82.310631" lat="35.643212"><ele>803.777245</ele><time>2025-07-04T15:24:38Z</time><extensions><speed>1.012326</speed><course>202.954944</course><hAcc>1.729502</hAcc><vAcc>1.177856</vAcc></extensions></trkpt>
      <trkpt lon="-82.310636" lat="35.643203"><ele>803.766718</ele><time>2025-07-04T15:24:39Z</time><extensions><speed>1.056378</speed><course>205.187989</course><hAcc>1.714743</hAcc><vAcc>1.174448</vAcc></extensions></trkpt>
      <trkpt lon="-82.310641" lat="35.643195"><ele>803.747689</ele><time>2025-07-04T15:24:40Z</time><extensions><speed>1.033401</speed><course>204.381530</course><hAcc>1.692601</hAcc><vAcc>1.169249</vAcc></extensions></trkpt>
      <trkpt lon="-82.310645" lat="35.643186"><ele>803.704155</ele><time>2025-07-04T15:24:41Z</time><extensions><speed>0.986643</speed><course>202.011068</course><hAcc>1.667706</hAcc><vAcc>1.161973</vAcc></extensions></trkpt>
      <trkpt lon="-82.310649" lat="35.643178"><ele>803.637644</ele><time>2025-07-04T15:24:42Z</time><extensions><speed>0.949460</speed><course>199.375011</course><hAcc>1.650842</hAcc><vAcc>1.157453</vAcc></extensions></trkpt>
      <trkpt lon="-82.310652" lat="35.643170"><ele>803.548607</ele><time>2025-07-04T15:24:43Z</time><extensions><speed>0.918609</speed><course>197.672137</course><hAcc>1.635781</hAcc><vAcc>1.151644</vAcc></extensions></trkpt>
      <trkpt lon="-82.310655" lat="35.643162"><ele>803.465725</ele><time>2025-07-04T15:24:44Z</time><extensions><speed>0.955286</speed><course>194.254306</course><hAcc>1.622603</hAcc><vAcc>1.149302</vAcc></extensions></trkpt>
      <trkpt lon="-82.310658" lat="35.643153"><ele>803.369537</ele><time>2025-07-04T15:24:45Z</time><extensions><speed>1.008155</speed><course>191.233826</course><hAcc>1.616196</hAcc><vAcc>1.146986</vAcc></extensions></trkpt>
      <trkpt lon="-82.310660" lat="35.643144"><ele>803.265211</ele><time>2025-07-04T15:24:46Z</time><extensions><speed>1.009154</speed><course>191.145393</course><hAcc>1.601458</hAcc><vAcc>1.144003</vAcc></extensions></trkpt>
      <trkpt lon="-82.310662" lat="35.643135"><ele>803.121127</ele><time>2025-07-04T15:24:47Z</time><extensions><speed>1.044047</speed><course>193.849487</course><hAcc>1.606659</hAcc><vAcc>1.142541</vAcc></extensions></trkpt>
      <trkpt lon="-82.310666" lat="35.643126"><ele>802.953680</ele><time>2025-07-04T15:24:48Z</time><extensions><speed>1.038683</speed><course>199.573819</course><hAcc>1.611180</hAcc><vAcc>1.142532</vAcc></extensions></trkpt>
      <trkpt lon="-82.310670" lat="35.643118"><ele>802.774234</ele><time>2025-07-04T15:24:49Z</time><extensions><speed>0.977015</speed><course>206.525216</course><hAcc>1.599395</hAcc><vAcc>1.145083</vAcc></extensions></trkpt>
      <trkpt lon="-82.310675" lat="35.643110"><ele>802.569202</ele><time>2025-07-04T15:24:50Z</time><extensions><speed>0.998672</speed><course>208.369199</course><hAcc>1.598245</hAcc><vAcc>1.147166</vAcc></extensions></trkpt>
      <trkpt lon="-82.310680" lat="35.643101"><ele>802.356271</ele><time>2025-07-04T15:24:51Z</time><extensions><speed>1.071893</speed><course>206.400348</course><hAcc>1.620356</hAcc><vAcc>1.147743</vAcc></extensions></trkpt>
      <trkpt lon="-82.310685" lat="35.643093"><ele>802.133395</ele><time>2025-07-04T15:24:52Z</time><extensions><speed>1.072097</speed><course>203.456535</course><hAcc>1.639365</hAcc><vAcc>1.147893</vAcc></extensions></trkpt>
      <trkpt lon="-82.310690" lat="35.643084"><ele>801.912561</ele><time>2025-07-04T15:24:53Z</time><extensions><speed>1.038394</speed><course>200.593483</course><hAcc>1.651467</hAcc><vAcc>1.150490</vAcc></extensions></trkpt>
      <trkpt lon="-82.310693" lat="35.643075"><ele>801.690047</ele><time>2025-07-04T15:24:54Z</time><extensions><speed>1.041807</speed><course>197.695627</course><hAcc>1.680952</hAcc><vAcc>1.154703</vAcc></extensions></trkpt>
      <trkpt lon="-82.310697" lat="35.643066"><ele>801.452138</ele><time>2025-07-04T15:24:55Z</time><extensions><speed>1.039202</speed><course>193.864602</course><hAcc>1.671427</hAcc><vAcc>1.158171</vAcc></extensions></trkpt>
      <trkpt lon="-82.310699" lat="35.643056"><ele>801.209920</ele><time>2025-07-04T15:24:56Z</time><extensions><speed>1.076354</speed><course>191.386332</course><hAcc>1.660862</hAcc><vAcc>1.159362</vAcc></extensions></trkpt>
      <trkpt lon="-82.310702" lat="35.643047"><ele>800.970164</ele><time>2025-07-04T15:24:57Z</time><extensions><speed>1.077906</speed><course>191.118751</course><hAcc>1.656667</hAcc><vAcc>1.161618</vAcc></extensions></trkpt>
      <trkpt lon="-82.310704" lat="35.643038"><ele>800.737604</ele><time>2025-07-04T15:24:58Z</time><extensions><speed>1.040365</speed><course>193.255002</course><hAcc>1.656403</hAcc><vAcc>1.163152</vAcc></extensions></trkpt>
      <trkpt lon="-82.310707" lat="35.643029"><ele>800.500045</ele><time>2025-07-04T15:24:59Z</time><extensions><speed>0.978098</speed><course>194.785288</course><hAcc>1.659948</hAcc><vAcc>1.162284</vAcc></extensions></trkpt>
      <trkpt lon="-82.310710" lat="35.643020"><ele>800.267940</ele><time>2025-07-04T15:25:00Z</time><extensions><speed>1.005645</speed><course>198.285607</course><hAcc>1.642966</hAcc><vAcc>1.161983</vAcc></extensions></trkpt>
      <trkpt lon="-82.310714" lat="35.643011"><ele>800.053982</ele><time>2025-07-04T15:25:01Z</time><extensions><speed>1.042653</speed><course>202.332516</course><hAcc>1.602111</hAcc><vAcc>1.161238</vAcc></extensions></trkpt>
      <trkpt lon="-82.310719" lat="35.643003"><ele>799.846657</ele><time>2025-07-04T15:25:02Z</time><extensions><speed>1.038511</speed><course>204.674941</course><hAcc>1.590578</hAcc><vAcc>1.159291</vAcc></extensions></trkpt>
      <trkpt lon="-82.310724" lat="35.642994"><ele>799.669264</ele><time>2025-07-04T15:25:03Z</time><extensions><speed>1.021585</speed><course>206.324972</course><hAcc>1.628490</hAcc><vAcc>1.159241</vAcc></extensions></trkpt>
      <trkpt lon="-82.310729" lat="35.642987"><ele>799.482338</ele><time>2025-07-04T15:25:04Z</time><extensions><speed>0.949406</speed><course>208.549219</course><hAcc>1.672596</hAcc><vAcc>1.159776</vAcc></extensions></trkpt>
      <trkpt lon="-82.310734" lat="35.642979"><ele>799.278570</ele><time>2025-07-04T15:25:05Z</time><extensions><speed>0.948211</speed><course>214.576034</course><hAcc>1.639229</hAcc><vAcc>1.156914</vAcc></extensions></trkpt>
      <trkpt lon="-82.310740" lat="35.642973"><ele>799.067695</ele><time>2025-07-04T15:25:06Z</time><extensions><speed>0.915185</speed><course>219.566509</course><hAcc>1.624236</hAcc><vAcc>1.151135</vAcc></extensions></trkpt>
      <trkpt lon="-82.310747" lat="35.642967"><ele>798.848253</ele><time>2025-07-04T15:25:07Z</time><extensions><speed>0.879708</speed><course>224.334456</course><hAcc>1.645276</hAcc><vAcc>1.142082</vAcc></extensions></trkpt>
      <trkpt lon="-82.310754" lat="35.642961"><ele>798.665064</ele><time>2025-07-04T15:25:08Z</time><extensions><speed>0.830778</speed><course>229.934849</course><hAcc>1.669862</hAcc><vAcc>1.135055</vAcc></extensions></trkpt>
      <trkpt lon="-82.310761" lat="35.642957"><ele>798.509135</ele><time>2025-07-04T15:25:09Z</time><extensions><speed>0.808092</speed><course>236.245962</course><hAcc>1.677085</hAcc><vAcc>1.129171</vAcc></extensions></trkpt>
      <trkpt lon="-82.310769" lat="35.642953"><ele>798.403145</ele><time>2025-07-04T15:25:10Z</time><extensions><speed>0.848346</speed><course>239.775003</course><hAcc>1.683865</hAcc><vAcc>1.125279</vAcc></extensions></trkpt>
      <trkpt lon="-82.310778" lat="35.642949"><ele>798.322012</ele><time>2025-07-04T15:25:11Z</time><extensions><speed>0.897797</speed><course>242.137793</course><hAcc>1.701007</hAcc><vAcc>1.120057</vAcc></extensions></trkpt>
      <trkpt lon="-82.310787" lat="35.642946"><ele>798.262422</ele><time>2025-07-04T15:25:12Z</time><extensions><speed>0.933295</speed><course>246.551944</course><hAcc>1.713379</hAcc><vAcc>1.116577</vAcc></extensions></trkpt>
      <trkpt lon="-82.310796" lat="35.642943"><ele>798.196660</ele><time>2025-07-04T15:25:13Z</time><extensions><speed>0.901086</speed><course>253.313813</course><hAcc>1.725824</hAcc><vAcc>1.112675</vAcc></extensions></trkpt>
      <trkpt lon="-82.310806" lat="35.642941"><ele>798.130661</ele><time>2025-07-04T15:25:14Z</time><extensions><speed>0.878698</speed><course>263.454256</course><hAcc>1.723099</hAcc><vAcc>1.106783</vAcc></extensions></trkpt>
      <trkpt lon="-82.310816" lat="35.642941"><ele>798.076515</ele><time>2025-07-04T15:25:15Z</time><extensions><speed>0.921119</speed><course>269.163257</course><hAcc>1.713771</hAcc><vAcc>1.100117</vAcc></extensions></trkpt>
      <trkpt lon="-82.310826" lat="35.642940"><ele>798.014715</ele><time>2025-07-04T15:25:16Z</time><extensions><speed>0.990975</speed><course>267.864442</course><hAcc>1.706037</hAcc><vAcc>1.095813</vAcc></extensions></trkpt>
      <trkpt lon="-82.310838" lat="35.642940"><ele>797.968479</ele><time>2025-07-04T15:25:17Z</time><extensions><speed>1.052650</speed><course>262.771732</course><hAcc>1.700153</hAcc><vAcc>1.093066</vAcc></extensions></trkpt>
      <trkpt lon="-82.310849" lat="35.642938"><ele>797.949575</ele><time>2025-07-04T15:25:18Z</time><extensions><speed>1.068222</speed><course>256.538542</course><hAcc>1.703792</hAcc><vAcc>1.089006</vAcc></extensions></trkpt>
      <trkpt lon="-82.310860" lat="35.642936"><ele>797.926686</ele><time>2025-07-04T15:25:19Z</time><extensions><speed>0.980107</speed><course>256.195374</course><hAcc>1.704186</hAcc><vAcc>1.083178</vAcc></extensions></trkpt>
      <trkpt lon="-82.310870" lat="35.642934"><ele>797.942307</ele><time>2025-07-04T15:25:20Z</time><extensions><speed>0.862809</speed><course>256.766911</course><hAcc>1.701086</hAcc><vAcc>1.081069</vAcc></extensions></trkpt>
      <trkpt lon="-82.310879" lat="35.642932"><ele>797.967866</ele><time>2025-07-04T15:25:21Z</time><extensions><speed>0.751598</speed><course>259.035054</course><hAcc>1.700062</hAcc><vAcc>1.077676</vAcc></extensions></trkpt>
      <trkpt lon="-82.310886" lat="35.642932"><ele>797.968449</ele><time>2025-07-04T15:25:22Z</time><extensions><speed>0.656926</speed><course>267.085775</course><hAcc>1.697322</hAcc><vAcc>1.072814</vAcc></extensions></trkpt>
      <trkpt lon="-82.310894" lat="35.642932"><ele>797.970286</ele><time>2025-07-04T15:25:23Z</time><extensions><speed>0.631548</speed><course>278.105498</course><hAcc>1.682552</hAcc><vAcc>1.069056</vAcc></extensions></trkpt>
      <trkpt lon="-82.310901" lat="35.642933"><ele>797.970202</ele><time>2025-07-04T15:25:24Z</time><extensions><speed>0.665104</speed><course>283.551590</course><hAcc>1.665597</hAcc><vAcc>1.064440</vAcc></extensions></trkpt>
      <trkpt lon="-82.310908" lat="35.642935"><ele>797.975931</ele><time>2025-07-04T15:25:25Z</time><extensions><speed>0.714207</speed><course>284.721709</course><hAcc>1.646666</hAcc><vAcc>1.060654</vAcc></extensions></trkpt>
      <trkpt lon="-82.310916" lat="35.642936"><ele>797.963503</ele><time>2025-07-04T15:25:26Z</time><extensions><speed>0.742303</speed><course>283.918577</course><hAcc>1.620451</hAcc><vAcc>1.057123</vAcc></extensions></trkpt>
      <trkpt lon="-82.310924" lat="35.642938"><ele>797.989656</ele><time>2025-07-04T15:25:27Z</time><extensions><speed>0.734046</speed><course>280.403455</course><hAcc>1.593921</hAcc><vAcc>1.051907</vAcc></extensions></trkpt>
      <trkpt lon="-82.310933" lat="35.642938"><ele>798.034155</ele><time>2025-07-04T15:25:28Z</time><extensions><speed>0.871006</speed><course>272.406533</course><hAcc>1.569647</hAcc><vAcc>1.045942</vAcc></extensions></trkpt>
      <trkpt lon="-82.310943" lat="35.642938"><ele>798.109012</ele><time>2025-07-04T15:25:29Z</time><extensions><speed>0.999432</speed><course>266.022549</course><hAcc>1.564828</hAcc><vAcc>1.038535</vAcc></extensions></trkpt>
      <trkpt lon="-82.310954" lat="35.642937"><ele>798.189947</ele><time>2025-07-04T15:25:30Z</time><extensions><speed>1.074895</speed><course>263.093927</course><hAcc>1.551583</hAcc><vAcc>1.029353</vAcc></extensions></trkpt>
      <trkpt lon="-82.310966" lat="35.642936"><ele>798.296481</ele><time>2025-07-04T15:25:31Z</time><extensions><speed>1.010522</speed><course>258.358435</course><hAcc>1.522936</hAcc><vAcc>1.017430</vAcc></extensions></trkpt>
      <trkpt lon="-82.310977" lat="35.642934"><ele>798.416566</ele><time>2025-07-04T15:25:32Z</time><extensions><speed>0.996382</speed><course>258.417823</course><hAcc>1.520650</hAcc><vAcc>1.003439</vAcc></extensions></trkpt>
      <trkpt lon="-82.310987" lat="35.642932"><ele>798.539341</ele><time>2025-07-04T15:25:33Z</time><extensions><speed>0.915783</speed><course>262.120083</course><hAcc>1.526498</hAcc><vAcc>0.991363</vAcc></extensions></trkpt>
      <trkpt lon="-82.310996" lat="35.642932"><ele>798.637541</ele><time>2025-07-04T15:25:34Z</time><extensions><speed>0.818290</speed><course>265.807932</course><hAcc>1.539273</hAcc><vAcc>0.981844</vAcc></extensions></trkpt>
      <trkpt lon="-82.311005" lat="35.642931"><ele>798.781353</ele><time>2025-07-04T15:25:35Z</time><extensions><speed>0.737392</speed><course>270.029646</course><hAcc>1.559383</hAcc><vAcc>0.973091</vAcc></extensions></trkpt>
      <trkpt lon="-82.311013" lat="35.642932"><ele>798.919327</ele><time>2025-07-04T15:25:36Z</time><extensions><speed>0.643129</speed><course>278.157596</course><hAcc>1.587601</hAcc><vAcc>0.965509</vAcc></extensions></trkpt>
      <trkpt lon="-82.311019" lat="35.642933"><ele>799.077434</ele><time>2025-07-04T15:25:37Z</time><extensions><speed>0.534120</speed><course>287.235352</course><hAcc>1.616981</hAcc><vAcc>0.959207</vAcc></extensions></trkpt>
      <trkpt lon="-82.311024" lat="35.642934"><ele>799.243074</ele><time>2025-07-04T15:25:38Z</time><extensions><speed>0.373682</speed><course>295.282273</course><hAcc>1.666581</hAcc><vAcc>0.954728</vAcc></extensions></trkpt>
      <trkpt lon="-82.311027" lat="35.642935"><ele>799.423125</ele><time>2025-07-04T15:25:39Z</time><extensions><speed>0.246577</speed><course>289.564274</course><hAcc>1.717240</hAcc><vAcc>0.954661</vAcc></extensions></trkpt>
      <trkpt lon="-82.311029" lat="35.642936"><ele>799.615325</ele><time>2025-07-04T15:25:40Z</time><extensions><speed>0.207188</speed><course>263.558992</course><hAcc>1.758154</hAcc><vAcc>0.956965</vAcc></extensions></trkpt>
      <trkpt lon="-82.311032" lat="35.642935"><ele>799.831121</ele><time>2025-07-04T15:25:41Z</time><extensions><speed>0.246409</speed><course>237.993198</course><hAcc>1.808576</hAcc><vAcc>0.956655</vAcc></extensions></trkpt>
      <trkpt lon="-82.311034" lat="35.642933"><ele>800.037520</ele><time>2025-07-04T15:25:42Z</time><extensions><speed>0.300826</speed><course>222.727675</course><hAcc>1.880535</hAcc><vAcc>0.961925</vAcc></extensions></trkpt>
      <trkpt lon="-82.311036" lat="35.642931"><ele>800.253272</ele><time>2025-07-04T15:25:43Z</time><extensions><speed>0.367165</speed><course>212.039617</course><hAcc>1.947703</hAcc><vAcc>0.970666</vAcc></extensions></trkpt>
      <trkpt lon="-82.311038" lat="35.642928"><ele>800.464561</ele><time>2025-07-04T15:25:44Z</time><extensions><speed>0.382067</speed><course>206.113768</course><hAcc>2.003864</hAcc><vAcc>0.971438</vAcc></extensions></trkpt>
      <trkpt lon="-82.311041" lat="35.642925"><ele>800.685544</ele><time>2025-07-04T15:25:45Z</time><extensions><speed>0.482384</speed><course>205.303581</course><hAcc>2.001754</hAcc><vAcc>0.967889</vAcc></extensions></trkpt>
      <trkpt lon="-82.311043" lat="35.642922"><ele>800.894752</ele><time>2025-07-04T15:25:46Z</time><extensions><speed>0.409826</speed><course>220.384909</course><hAcc>1.989092</hAcc><vAcc>0.965154</vAcc></extensions></trkpt>
      <trkpt lon="-82.311046" lat="35.642920"><ele>801.088512</ele><time>2025-07-04T15:25:47Z</time><extensions><speed>0.331889</speed><course>242.748196</course><hAcc>1.995497</hAcc><vAcc>0.961591</vAcc></extensions></trkpt>
      <trkpt lon="-82.311049" lat="35.642919"><ele>801.269810</ele><time>2025-07-04T15:25:48Z</time><extensions><speed>0.275327</speed><course>266.951818</course><hAcc>2.021511</hAcc><vAcc>0.956122</vAcc></extensions></trkpt>
      <trkpt lon="-82.311052" lat="35.642919"><ele>801.441050</ele><time>2025-07-04T15:25:49Z</time><extensions><speed>0.253449</speed><course>283.079333</course><hAcc>2.041954</hAcc><vAcc>0.948059</vAcc></extensions></trkpt>
      <trkpt lon="-82.311055" lat="35.642920"><ele>801.599267</ele><time>2025-07-04T15:25:50Z</time><extensions><speed>0.295748</speed><course>287.046645</course><hAcc>2.028914</hAcc><vAcc>0.937076</vAcc></extensions></trkpt>
      <trkpt lon="-82.311059" lat="35.642920"><ele>801.747873</ele><time>2025-07-04T15:25:51Z</time><extensions><speed>0.343096</speed><course>283.070573</course><hAcc>2.019664</hAcc><vAcc>0.923237</vAcc></extensions></trkpt>
      <trkpt lon="-82.311063" lat="35.642921"><ele>801.869913</ele><time>2025-07-04T15:25:52Z</time><extensions><speed>0.358783</speed><course>275.492888</course><hAcc>2.040350</hAcc><vAcc>0.906929</vAcc></extensions></trkpt>
      <trkpt lon="-82.311066" lat="35.642922"><ele>801.969795</ele><time>2025-07-04T15:25:53Z</time><extensions><speed>0.313050</speed><course>295.790902</course><hAcc>2.066528</hAcc><vAcc>0.888765</vAcc></extensions></trkpt>
      <trkpt lon="-82.311069" lat="35.642924"><ele>802.051880</ele><time>2025-07-04T15:25:54Z</time><extensions><speed>0.294961</speed><course>319.065141</course><hAcc>2.091721</hAcc><vAcc>0.869600</vAcc></extensions></trkpt>
      <trkpt lon="-82.311070" lat="35.642926"><ele>802.108284</ele><time>2025-07-04T15:25:55Z</time><extensions><speed>0.288775</speed><course>348.161679</course><hAcc>2.140946</hAcc><vAcc>0.850616</vAcc></extensions></trkpt>
      <trkpt lon="-82.311070" lat="35.642928"><ele>802.145770</ele><time>2025-07-04T15:25:56Z</time><extensions><speed>0.267011</speed><course>17.385913</course><hAcc>2.213514</hAcc><vAcc>0.832723</vAcc></extensions></trkpt>
      <trkpt lon="-82.311068" lat="35.642930"><ele>802.165021</ele><time>2025-07-04T15:25:57Z</time><extensions><speed>0.263566</speed><course>55.530462</course><hAcc>2.294609</hAcc><vAcc>0.816647</vAcc></extensions></trkpt>
      <trkpt lon="-82.311065" lat="35.642931"><ele>802.159981</ele><time>2025-07-04T15:25:58Z</time><extensions><speed>0.390866</speed><course>86.769000</course><hAcc>2.384470</hAcc><vAcc>0.802804</vAcc></extensions></trkpt>
      <trkpt lon="-82.311059" lat="35.642930"><ele>802.140323</ele><time>2025-07-04T15:25:59Z</time><extensions><speed>0.611644</speed><course>104.431447</course><hAcc>2.506310</hAcc><vAcc>0.791345</vAcc></extensions></trkpt>
      <trkpt lon="-82.311052" lat="35.642928"><ele>802.094728</ele><time>2025-07-04T15:26:00Z</time><extensions><speed>0.864411</speed><course>114.803408</course><hAcc>2.644585</hAcc><vAcc>0.782211</vAcc></extensions></trkpt>
      <trkpt lon="-82.311042" lat="35.642923"><ele>802.035176</ele><time>2025-07-04T15:26:01Z</time><extensions><speed>1.105360</speed><course>121.044964</course><hAcc>2.763819</hAcc><vAcc>0.775214</vAcc></extensions></trkpt>
      <trkpt lon="-82.311031" lat="35.642917"><ele>801.965304</ele><time>2025-07-04T15:26:02Z</time><extensions><speed>1.309882</speed><course>126.156947</course><hAcc>2.853577</hAcc><vAcc>0.770093</vAcc></extensions></trkpt>
      <trkpt lon="-82.311019" lat="35.642910"><ele>801.881647</ele><time>2025-07-04T15:26:03Z</time><extensions><speed>1.362297</speed><course>129.771774</course><hAcc>2.937333</hAcc><vAcc>0.766582</vAcc></extensions></trkpt>
      <trkpt lon="-82.311008" lat="35.642902"><ele>801.788133</ele><time>2025-07-04T15:26:04Z</time><extensions><speed>1.262747</speed><course>132.138747</course><hAcc>3.035941</hAcc><vAcc>0.764427</vAcc></extensions></trkpt>
      <trkpt lon="-82.310998" lat="35.642894"><ele>801.678209</ele><time>2025-07-04T15:26:05Z</time><extensions><speed>1.103534</speed><course>133.548174</course><hAcc>3.149293</hAcc><vAcc>0.762659</vAcc></extensions></trkpt>
      <trkpt lon="-82.310989" lat="35.642888"><ele>801.572598</ele><time>2025-07-04T15:26:06Z</time><extensions><speed>1.015353</speed><course>134.324790</course><hAcc>3.253866</hAcc><vAcc>0.760768</vAcc></extensions></trkpt>
      <trkpt lon="-82.310982" lat="35.642882"><ele>801.458353</ele><time>2025-07-04T15:26:07Z</time><extensions><speed>0.970283</speed><course>134.486033</course><hAcc>3.360505</hAcc><vAcc>0.759509</vAcc></extensions></trkpt>
      <trkpt lon="-82.310974" lat="35.642875"><ele>801.347623</ele><time>2025-07-04T15:26:08Z</time><extensions><speed>1.007397</speed><course>134.863433</course><hAcc>3.467022</hAcc><vAcc>0.758703</vAcc></extensions></trkpt>
      <trkpt lon="-82.310966" lat="35.642868"><ele>801.231022</ele><time>2025-07-04T15:26:09Z</time><extensions><speed>1.111960</speed><course>135.909941</course><hAcc>3.591196</hAcc><vAcc>0.758171</vAcc></extensions></trkpt>
      <trkpt lon="-82.310957" lat="35.642861"><ele>801.112974</ele><time>2025-07-04T15:26:10Z</time><extensions><speed>1.055515</speed><course>138.242866</course><hAcc>3.769747</hAcc><vAcc>0.757802</vAcc></extensions></trkpt>
      <trkpt lon="-82.310950" lat="35.642854"><ele>801.000974</ele><time>2025-07-04T15:26:11Z</time><extensions><speed>0.967760</speed><course>139.083343</course><hAcc>4.030611</hAcc><vAcc>0.762238</vAcc></extensions></trkpt>
      <trkpt lon="-82.310944" lat="35.642849"><ele>800.893579</ele><time>2025-07-04T15:26:12Z</time><extensions><speed>0.851037</speed><course>138.116315</course><hAcc>4.388452</hAcc><vAcc>0.771140</vAcc></extensions></trkpt>
      <trkpt lon="-82.310937" lat="35.642844"><ele>800.788571</ele><time>2025-07-04T15:26:13Z</time><extensions><speed>0.726845</speed><course>134.335367</course><hAcc>4.845015</hAcc><vAcc>0.785056</vAcc></extensions></trkpt>
      <trkpt lon="-82.310935" lat="35.642837"><ele>800.686305</ele><time>2025-07-04T15:26:14Z</time><extensions><speed>0.607762</speed><course>150.168394</course><hAcc>5.380637</hAcc><vAcc>0.805211</vAcc></extensions></trkpt>
      <trkpt lon="-82.310931" lat="35.642829"><ele>800.589718</ele><time>2025-07-04T15:26:15Z</time><extensions><speed>0.705551</speed><course>159.625241</course><hAcc>5.976691</hAcc><vAcc>0.833014</vAcc></extensions></trkpt>
      <trkpt lon="-82.310929" lat="35.642821"><ele>800.502802</ele><time>2025-07-04T15:26:16Z</time><extensions><speed>0.717661</speed><course>168.768526</course><hAcc>6.606540</hAcc><vAcc>0.869576</vAcc></extensions></trkpt>
      <trkpt lon="-82.310928" lat="35.642812"><ele>800.425213</ele><time>2025-07-04T15:26:17Z</time><extensions><speed>0.778547</speed><course>176.957545</course><hAcc>7.230785</hAcc><vAcc>0.915917</vAcc></extensions></trkpt>
      <trkpt lon="-82.310928" lat="35.642803"><ele>800.360502</ele><time>2025-07-04T15:26:18Z</time><extensions><speed>0.866012</speed><course>185.584857</course><hAcc>7.805094</hAcc><vAcc>0.972797</vAcc></extensions></trkpt>
      <trkpt lon="-82.310931" lat="35.642792"><ele>800.318045</ele><time>2025-07-04T15:26:19Z</time><extensions><speed>1.003725</speed><course>194.006975</course><hAcc>8.268167</hAcc><vAcc>1.038829</vAcc></extensions></trkpt>
      <trkpt lon="-82.310938" lat="35.642782"><ele>800.299091</ele><time>2025-07-04T15:26:20Z</time><extensions><speed>1.160684</speed><course>203.445977</course><hAcc>8.551076</hAcc><vAcc>1.112984</vAcc></extensions></trkpt>
      <trkpt lon="-82.311029" lat="35.642651"><ele>799.867121</ele><time>2025-07-04T15:26:40Z</time><extensions><speed>0.473254</speed><course>209.604657</course><hAcc>7.946603</hAcc><vAcc>1.133185</vAcc></extensions></trkpt>
      <trkpt lon="-82.311046" lat="35.642649"><ele>799.813349</ele><time>2025-07-04T15:26:41Z</time><extensions><speed>0.505145</speed><course>200.162194</course><hAcc>7.299405</hAcc><vAcc>1.069291</vAcc></extensions></trkpt>
      <trkpt lon="-82.311057" lat="35.642646"><ele>799.745147</ele><time>2025-07-04T15:26:42Z</time><extensions><speed>0.606066</speed><course>192.086357</course><hAcc>6.704307</hAcc><vAcc>1.016884</vAcc></extensions></trkpt>
      <trkpt lon="-82.311064" lat="35.642648"><ele>799.647326</ele><time>2025-07-04T15:26:43Z</time><extensions><speed>0.644089</speed><course>186.938921</course><hAcc>6.218416</hAcc><vAcc>0.975714</vAcc></extensions></trkpt>
      <trkpt lon="-82.311070" lat="35.642650"><ele>799.530389</ele><time>2025-07-04T15:26:44Z</time><extensions><speed>0.545335</speed><course>192.660031</course><hAcc>5.796513</hAcc><vAcc>0.944211</vAcc></extensions></trkpt>
      <trkpt lon="-82.311074" lat="35.642649"><ele>799.406833</ele><time>2025-07-04T15:26:45Z</time><extensions><speed>0.449457</speed><course>196.587593</course><hAcc>5.445224</hAcc><vAcc>0.922307</vAcc></extensions></trkpt>
      <trkpt lon="-82.311078" lat="35.642649"><ele>799.272810</ele><time>2025-07-04T15:26:46Z</time><extensions><speed>0.331118</speed><course>208.906459</course><hAcc>5.127742</hAcc><vAcc>0.907624</vAcc></extensions></trkpt>
      <trkpt lon="-82.311082" lat="35.642650"><ele>799.128770</ele><time>2025-07-04T15:26:47Z</time><extensions><speed>0.290949</speed><course>252.552957</course><hAcc>4.824577</hAcc><vAcc>0.896910</vAcc></extensions></trkpt>
      <trkpt lon="-82.311087" lat="35.642652"><ele>798.980511</ele><time>2025-07-04T15:26:48Z</time><extensions><speed>0.484629</speed><course>286.734488</course><hAcc>4.536121</hAcc><vAcc>0.889848</vAcc></extensions></trkpt>
      <trkpt lon="-82.311094" lat="35.642656"><ele>798.830638</ele><time>2025-07-04T15:26:49Z</time><extensions><speed>0.703151</speed><course>300.687952</course><hAcc>4.270196</hAcc><vAcc>0.886114</vAcc></extensions></trkpt>
      <trkpt lon="-82.311102" lat="35.642661"><ele>798.681632</ele><time>2025-07-04T15:26:50Z</time><extensions><speed>0.847082</speed><course>309.262049</course><hAcc>4.048321</hAcc><vAcc>0.884723</vAcc></extensions></trkpt>
      <trkpt lon="-82.311109" lat="35.642667"><ele>798.536007</ele><time>2025-07-04T15:26:51Z</time><extensions><speed>0.883550</speed><course>317.116519</course><hAcc>3.885814</hAcc><vAcc>0.886049</vAcc></extensions></trkpt>
      <trkpt lon="-82.311116" lat="35.642674"><ele>798.396561</ele><time>2025-07-04T15:26:52Z</time><extensions><speed>0.945357</speed><course>324.777577</course><hAcc>3.757550</hAcc><vAcc>0.889053</vAcc></extensions></trkpt>
      <trkpt lon="-82.311122" lat="35.642682"><ele>798.265022</ele><time>2025-07-04T15:26:53Z</time><extensions><speed>1.010254</speed><course>330.933524</course><hAcc>3.653533</hAcc><vAcc>0.893744</vAcc></extensions></trkpt>
      <trkpt lon="-82.311131" lat="35.642703"><ele>798.075706</ele><time>2025-07-04T15:26:54Z</time><extensions><speed>1.205034</speed><course>337.047514</course><hAcc>3.560489</hAcc><vAcc>0.892925</vAcc></extensions></trkpt>
      <trkpt lon="-82.311137" lat="35.642716"><ele>797.911730</ele><time>2025-07-04T15:26:55Z</time><extensions><speed>1.176405</speed><course>337.150422</course><hAcc>3.533670</hAcc><vAcc>0.897817</vAcc></extensions></trkpt>
      <trkpt lon="-82.311143" lat="35.642728"><ele>797.755437</ele><time>2025-07-04T15:26:56Z</time><extensions><speed>1.142223</speed><course>337.870252</course><hAcc>3.513242</hAcc><vAcc>0.903882</vAcc></extensions></trkpt>
      <trkpt lon="-82.311148" lat="35.642739"><ele>797.605699</ele><time>2025-07-04T15:26:57Z</time><extensions><speed>1.151538</speed><course>339.015327</course><hAcc>3.481832</hAcc><vAcc>0.910475</vAcc></extensions></trkpt>
      <trkpt lon="-82.311153" lat="35.642750"><ele>797.461251</ele><time>2025-07-04T15:26:58Z</time><extensions><speed>1.199102</speed><course>340.353394</course><hAcc>3.443231</hAcc><vAcc>0.915823</vAcc></extensions></trkpt>
      <trkpt lon="-82.311158" lat="35.642762"><ele>797.322678</ele><time>2025-07-04T15:26:59Z</time><extensions><speed>1.215629</speed><course>341.687896</course><hAcc>3.408268</hAcc><vAcc>0.919581</vAcc></extensions></trkpt>
      <trkpt lon="-82.311162" lat="35.642773"><ele>797.190268</ele><time>2025-07-04T15:27:00Z</time><extensions><speed>1.238629</speed><course>342.974255</course><hAcc>3.368807</hAcc><vAcc>0.921456</vAcc></extensions></trkpt>
      <trkpt lon="-82.311166" lat="35.642785"><ele>797.064477</ele><time>2025-07-04T15:27:01Z</time><extensions><speed>1.328196</speed><course>344.152366</course><hAcc>3.311250</hAcc><vAcc>0.920563</vAcc></extensions></trkpt>
      <trkpt lon="-82.311171" lat="35.642798"><ele>796.944833</ele><time>2025-07-04T15:27:02Z</time><extensions><speed>1.429665</speed><course>345.204455</course><hAcc>3.241597</hAcc><vAcc>0.918635</vAcc></extensions></trkpt>
      <trkpt lon="-82.311175" lat="35.642811"><ele>796.832452</ele><time>2025-07-04T15:27:03Z</time><extensions><speed>1.475974</speed><course>346.240097</course><hAcc>3.169342</hAcc><vAcc>0.914648</vAcc></extensions></trkpt>
      <trkpt lon="-82.311179" lat="35.642825"><ele>796.726650</ele><time>2025-07-04T15:27:04Z</time><extensions><speed>1.444958</speed><course>347.501402</course><hAcc>3.116437</hAcc><vAcc>0.910660</vAcc></extensions></trkpt>
      <trkpt lon="-82.311182" lat="35.642837"><ele>796.628921</ele><time>2025-07-04T15:27:05Z</time><extensions><speed>1.214883</speed><course>346.818128</course><hAcc>3.116866</hAcc><vAcc>0.906227</vAcc></extensions></trkpt>
      <trkpt lon="-82.311185" lat="35.642847"><ele>796.539964</ele><time>2025-07-04T15:27:06Z</time><extensions><speed>0.995762</speed><course>346.367059</course><hAcc>3.144930</hAcc><vAcc>0.901153</vAcc></extensions></trkpt>
      <trkpt lon="-82.311188" lat="35.642855"><ele>796.459395</ele><time>2025-07-04T15:27:07Z</time><extensions><speed>0.814927</speed><course>346.061949</course><hAcc>3.172245</hAcc><vAcc>0.895835</vAcc></extensions></trkpt>
      <trkpt lon="-82.311190" lat="35.642863"><ele>796.432793</ele><time>2025-07-04T15:27:08Z</time><extensions><speed>0.689404</speed><course>345.744969</course><hAcc>3.193795</hAcc><vAcc>0.891175</vAcc></extensions></trkpt>
      <trkpt lon="-82.311193" lat="35.642870"><ele>796.423150</ele><time>2025-07-04T15:27:09Z</time><extensions><speed>0.583634</speed><course>345.140407</course><hAcc>3.208112</hAcc><vAcc>0.886603</vAcc></extensions></trkpt>
      <trkpt lon="-82.311194" lat="35.642876"><ele>796.434133</ele><time>2025-07-04T15:27:10Z</time><extensions><speed>0.503737</speed><course>344.929426</course><hAcc>3.217524</hAcc><vAcc>0.882055</vAcc></extensions></trkpt>
      <trkpt lon="-82.311195" lat="35.642881"><ele>796.470322</ele><time>2025-07-04T15:27:11Z</time><extensions><speed>0.431629</speed><course>345.752598</course><hAcc>3.232127</hAcc><vAcc>0.877307</vAcc></extensions></trkpt>
      <trkpt lon="-82.311196" lat="35.642885"><ele>796.533576</ele><time>2025-07-04T15:27:12Z</time><extensions><speed>0.378934</speed><course>346.906530</course><hAcc>3.251405</hAcc><vAcc>0.870523</vAcc></extensions></trkpt>
      <trkpt lon="-82.311197" lat="35.642889"><ele>796.606087</ele><time>2025-07-04T15:27:13Z</time><extensions><speed>0.361669</speed><course>348.410723</course><hAcc>3.268969</hAcc><vAcc>0.864588</vAcc></extensions></trkpt>
      <trkpt lon="-82.311197" lat="35.642893"><ele>796.691741</ele><time>2025-07-04T15:27:14Z</time><extensions><speed>0.373910</speed><course>350.175026</course><hAcc>3.280019</hAcc><vAcc>0.858661</vAcc></extensions></trkpt>
      <trkpt lon="-82.311198" lat="35.642897"><ele>796.788482</ele><time>2025-07-04T15:27:15Z</time><extensions><speed>0.471596</speed><course>351.946689</course><hAcc>3.278277</hAcc><vAcc>0.853044</vAcc></extensions></trkpt>
      <trkpt lon="-82.311199" lat="35.642902"><ele>796.895147</ele><time>2025-07-04T15:27:16Z</time><extensions><speed>0.517885</speed><course>353.716287</course><hAcc>3.305583</hAcc><vAcc>0.847663</vAcc></extensions></trkpt>
      <trkpt lon="-82.311199" lat="35.642906"><ele>797.009918</ele><time>2025-07-04T15:27:17Z</time><extensions><speed>0.535131</speed><course>356.016666</course><hAcc>3.353556</hAcc><vAcc>0.842659</vAcc></extensions></trkpt>
      <trkpt lon="-82.311199" lat="35.642911"><ele>797.130255</ele><time>2025-07-04T15:27:18Z</time><extensions><speed>0.523474</speed><course>359.741823</course><hAcc>3.397797</hAcc><vAcc>0.837373</vAcc></extensions></trkpt>
      <trkpt lon="-82.311199" lat="35.642916"><ele>797.252798</ele><time>2025-07-04T15:27:19Z</time><extensions><speed>0.496355</speed><course>4.977077</course><hAcc>3.424047</hAcc><vAcc>0.831627</vAcc></extensions></trkpt>
      <trkpt lon="-82.311198" lat="35.642921"><ele>797.414225</ele><time>2025-07-04T15:27:20Z</time><extensions><speed>0.482926</speed><course>9.909042</course><hAcc>3.429867</hAcc><vAcc>0.825111</vAcc></extensions></trkpt>
      <trkpt lon="-82.311197" lat="35.642926"><ele>797.574081</ele><time>2025-07-04T15:27:21Z</time><extensions><speed>0.460065</speed><course>12.560464</course><hAcc>3.422849</hAcc><vAcc>0.818971</vAcc></extensions></trkpt>
      <trkpt lon="-82.311196" lat="35.642930"><ele>797.731836</ele><time>2025-07-04T15:27:22Z</time><extensions><speed>0.425254</speed><course>13.990677</course><hAcc>3.416689</hAcc><vAcc>0.814166</vAcc></extensions></trkpt>
      <trkpt lon="-82.311194" lat="35.642934"><ele>797.889250</ele><time>2025-07-04T15:27:23Z</time><extensions><speed>0.356480</speed><course>14.687702</course><hAcc>3.424087</hAcc><vAcc>0.811102</vAcc></extensions></trkpt>
      <trkpt lon="-82.311193" lat="35.642938"><ele>798.045184</ele><time>2025-07-04T15:27:24Z</time><extensions><speed>0.305719</speed><course>14.851721</course><hAcc>3.430379</hAcc><vAcc>0.810532</vAcc></extensions></trkpt>
      <trkpt lon="-82.311192" lat="35.642940"><ele>798.199137</ele><time>2025-07-04T15:27:25Z</time><extensions><speed>0.277959</speed><course>14.551973</course><hAcc>3.433565</hAcc><vAcc>0.812514</vAcc></extensions></trkpt>
      <trkpt lon="-82.311192" lat="35.642943"><ele>798.349897</ele><time>2025-07-04T15:27:26Z</time><extensions><speed>0.262707</speed><course>13.967241</course><hAcc>3.445105</hAcc><vAcc>0.817515</vAcc></extensions></trkpt>
      <trkpt lon="-82.311190" lat="35.642946"><ele>798.513056</ele><time>2025-07-04T15:27:27Z</time><extensions><speed>0.258996</speed><course>14.900687</course><hAcc>3.469973</hAcc><vAcc>0.826513</vAcc></extensions></trkpt>
      <trkpt lon="-82.311189" lat="35.642948"><ele>798.677872</ele><time>2025-07-04T15:27:28Z</time><extensions><speed>0.258302</speed><course>16.131661</course><hAcc>3.502506</hAcc><vAcc>0.837948</vAcc></extensions></trkpt>
      <trkpt lon="-82.311188" lat="35.642951"><ele>798.841467</ele><time>2025-07-04T15:27:29Z</time><extensions><speed>0.261456</speed><course>17.664999</course><hAcc>3.539369</hAcc><vAcc>0.851547</vAcc></extensions></trkpt>
      <trkpt lon="-82.311186" lat="35.642953"><ele>799.001705</ele><time>2025-07-04T15:27:30Z</time><extensions><speed>0.254129</speed><course>19.889230</course><hAcc>3.583721</hAcc><vAcc>0.866869</vAcc></extensions></trkpt>
      <trkpt lon="-82.311185" lat="35.642956"><ele>799.156469</ele><time>2025-07-04T15:27:31Z</time><extensions><speed>0.230437</speed><course>23.096102</course><hAcc>3.637590</hAcc><vAcc>0.883717</vAcc></extensions></trkpt>
      <trkpt lon="-82.311183" lat="35.642958"><ele>799.304518</ele><time>2025-07-04T15:27:32Z</time><extensions><speed>0.204221</speed><course>27.010999</course><hAcc>3.693624</hAcc><vAcc>0.901244</vAcc></extensions></trkpt>
      <trkpt lon="-82.311182" lat="35.642960"><ele>799.445151</ele><time>2025-07-04T15:27:33Z</time><extensions><speed>0.182657</speed><course>31.336451</course><hAcc>3.745956</hAcc><vAcc>0.919309</vAcc></extensions></trkpt>
      <trkpt lon="-82.311181" lat="35.642961"><ele>799.578093</ele><time>2025-07-04T15:27:34Z</time><extensions><speed>0.161904</speed><course>35.966660</course><hAcc>3.793095</hAcc><vAcc>0.937651</vAcc></extensions></trkpt>
      <trkpt lon="-82.311179" lat="35.642962"><ele>799.703100</ele><time>2025-07-04T15:27:35Z</time><extensions><speed>0.144723</speed><course>40.860729</course><hAcc>3.828876</hAcc><vAcc>0.955948</vAcc></extensions></trkpt>
      <trkpt lon="-82.311178" lat="35.642964"><ele>799.819568</ele><time>2025-07-04T15:27:36Z</time><extensions><speed>0.137371</speed><course>45.577000</course><hAcc>3.840688</hAcc><vAcc>0.973307</vAcc></extensions></trkpt>
      <trkpt lon="-82.311177" lat="35.642965"><ele>799.927296</ele><time>2025-07-04T15:27:37Z</time><extensions><speed>0.153659</speed><course>48.722924</course><hAcc>3.828907</hAcc><vAcc>0.989799</vAcc></extensions></trkpt>
      <trkpt lon="-82.311175" lat="35.642966"><ele>800.025794</ele><time>2025-07-04T15:27:38Z</time><extensions><speed>0.145924</speed><course>49.639159</course><hAcc>3.829935</hAcc><vAcc>1.005049</vAcc></extensions></trkpt>
      <trkpt lon="-82.311170" lat="35.642965"><ele>800.167780</ele><time>2025-07-04T15:27:39Z</time><extensions><speed>0.158336</speed><course>65.542242</course><hAcc>3.833825</hAcc><vAcc>1.014705</vAcc></extensions></trkpt>
      <trkpt lon="-82.311165" lat="35.642964"><ele>800.310497</ele><time>2025-07-04T15:27:40Z</time><extensions><speed>0.181661</speed><course>79.785762</course><hAcc>3.830791</hAcc><vAcc>1.017831</vAcc></extensions></trkpt>
      <trkpt lon="-82.311159" lat="35.642963"><ele>800.449947</ele><time>2025-07-04T15:27:41Z</time><extensions><speed>0.209964</speed><course>90.329653</course><hAcc>3.820122</hAcc><vAcc>1.014208</vAcc></extensions></trkpt>
      <trkpt lon="-82.311154" lat="35.642962"><ele>800.578468</ele><time>2025-07-04T15:27:42Z</time><extensions><speed>0.229676</speed><course>97.244255</course><hAcc>3.814329</hAcc><vAcc>1.009204</vAcc></extensions></trkpt>
      <trkpt lon="-82.311149" lat="35.642961"><ele>800.698731</ele><time>2025-07-04T15:27:43Z</time><extensions><speed>0.265077</speed><course>102.184705</course><hAcc>3.799899</hAcc><vAcc>1.002298</vAcc></extensions></trkpt>
      <trkpt lon="-82.311144" lat="35.642960"><ele>800.812445</ele><time>2025-07-04T15:27:44Z</time><extensions><speed>0.317526</speed><course>105.636877</course><hAcc>3.772162</hAcc><vAcc>0.993237</vAcc></extensions></trkpt>
      <trkpt lon="-82.311139" lat="35.642959"><ele>800.920898</ele><time>2025-07-04T15:27:45Z</time><extensions><speed>0.438312</speed><course>107.824280</course><hAcc>3.722487</hAcc><vAcc>0.982210</vAcc></extensions></trkpt>
      <trkpt lon="-82.311133" lat="35.642957"><ele>801.024981</ele><time>2025-07-04T15:27:46Z</time><extensions><speed>0.528815</speed><course>109.249575</course><hAcc>3.672663</hAcc><vAcc>0.968827</vAcc></extensions></trkpt>
      <trkpt lon="-82.311127" lat="35.642955"><ele>801.124945</ele><time>2025-07-04T15:27:47Z</time><extensions><speed>0.602120</speed><course>110.290337</course><hAcc>3.621483</hAcc><vAcc>0.952980</vAcc></extensions></trkpt>
      <trkpt lon="-82.311120" lat="35.642953"><ele>801.220540</ele><time>2025-07-04T15:27:48Z</time><extensions><speed>0.660279</speed><course>111.028299</course><hAcc>3.554195</hAcc><vAcc>0.934842</vAcc></extensions></trkpt>
      <trkpt lon="-82.311113" lat="35.642951"><ele>801.311088</ele><time>2025-07-04T15:27:49Z</time><extensions><speed>0.685947</speed><course>111.458848</course><hAcc>3.467962</hAcc><vAcc>0.914881</vAcc></extensions></trkpt>
      <trkpt lon="-82.311106" lat="35.642948"><ele>801.395664</ele><time>2025-07-04T15:27:50Z</time><extensions><speed>0.632553</speed><course>111.674709</course><hAcc>3.375297</hAcc><vAcc>0.893844</vAcc></extensions></trkpt>
      <trkpt lon="-82.311100" lat="35.642946"><ele>801.473418</ele><time>2025-07-04T15:27:51Z</time><extensions><speed>0.553176</speed><course>111.799646</course><hAcc>3.278628</hAcc><vAcc>0.872654</vAcc></extensions></trkpt>
      <trkpt lon="-82.311094" lat="35.642945"><ele>801.543765</ele><time>2025-07-04T15:27:52Z</time><extensions><speed>0.473490</speed><course>111.876631</course><hAcc>3.179178</hAcc><vAcc>0.852243</vAcc></extensions></trkpt>
      <trkpt lon="-82.311090" lat="35.642943"><ele>801.606420</ele><time>2025-07-04T15:27:53Z</time><extensions><speed>0.396307</speed><course>111.925662</course><hAcc>3.083264</hAcc><vAcc>0.833396</vAcc></extensions></trkpt>
      <trkpt lon="-82.311086" lat="35.642942"><ele>801.661376</ele><time>2025-07-04T15:27:54Z</time><extensions><speed>0.323141</speed><course>111.957942</course><hAcc>2.996530</hAcc><vAcc>0.816668</vAcc></extensions></trkpt>
      <trkpt lon="-82.311083" lat="35.642941"><ele>801.708854</ele><time>2025-07-04T15:27:55Z</time><extensions><speed>0.259010</speed><course>111.979886</course><hAcc>2.920086</hAcc><vAcc>0.802370</vAcc></extensions></trkpt>
      <trkpt lon="-82.311081" lat="35.642940"><ele>801.749253</ele><time>2025-07-04T15:27:56Z</time><extensions><speed>0.202977</speed><course>111.995105</course><hAcc>2.854319</hAcc><vAcc>0.790571</vAcc></extensions></trkpt>
      <trkpt lon="-82.311079" lat="35.642940"><ele>801.783089</ele><time>2025-07-04T15:27:57Z</time><extensions><speed>0.154646</speed><course>112.005960</course><hAcc>2.795792</hAcc><vAcc>0.781154</vAcc></extensions></trkpt>
      <trkpt lon="-82.311077" lat="35.642939"><ele>801.810957</ele><time>2025-07-04T15:27:58Z</time><extensions><speed>0.119811</speed><course>112.013757</course><hAcc>2.735859</hAcc><vAcc>0.773875</vAcc></extensions></trkpt>
      <trkpt lon="-82.311076" lat="35.642939"><ele>801.833480</ele><time>2025-07-04T15:27:59Z</time><extensions><speed>0.093266</speed><course>112.019176</course><hAcc>2.675894</hAcc><vAcc>0.768424</vAcc></extensions></trkpt>
      <trkpt lon="-82.311075" lat="35.642938"><ele>801.851295</ele><time>2025-07-04T15:28:00Z</time><extensions><speed>0.072319</speed><course>112.022874</course><hAcc>2.619956</hAcc><vAcc>0.764469</vAcc></extensions></trkpt>
      <trkpt lon="-82.311075" lat="35.642938"><ele>801.865012</ele><time>2025-07-04T15:28:01Z</time><extensions><speed>0.054505</speed><course>112.025387</course><hAcc>2.574144</hAcc><vAcc>0.761692</vAcc></extensions></trkpt>
      <trkpt lon="-82.311074" lat="35.642938"><ele>801.875222</ele><time>2025-07-04T15:28:02Z</time><extensions><speed>0.040226</speed><course>112.027122</course><hAcc>2.538158</hAcc><vAcc>0.759811</vAcc></extensions></trkpt>
      <trkpt lon="-82.311074" lat="35.642938"><ele>801.882470</ele><time>2025-07-04T15:28:03Z</time><extensions><speed>0.030277</speed><course>112.028300</course><hAcc>2.509005</hAcc><vAcc>0.758586</vAcc></extensions></trkpt>
      <trkpt lon="-82.311073" lat="35.642938"><ele>801.887257</ele><time>2025-07-04T15:28:04Z</time><extensions><speed>0.022792</speed><course>112.029065</course><hAcc>2.493865</hAcc><vAcc>0.757824</vAcc></extensions></trkpt>
      <trkpt lon="-82.311073" lat="35.642938"><ele>801.890035</ele><time>2025-07-04T15:28:05Z</time><extensions><speed>0.016541</speed><course>112.029558</course><hAcc>2.498014</hAcc><vAcc>0.757375</vAcc></extensions></trkpt>
      <trkpt lon="-82.311073" lat="35.642938"><ele>801.891204</ele><time>2025-07-04T15:28:06Z</time><extensions><speed>0.012408</speed><course>112.029878</course><hAcc>2.512726</hAcc><vAcc>0.757130</vAcc></extensions></trkpt>
      <trkpt lon="-82.311073" lat="35.642938"><ele>801.891116</ele><time>2025-07-04T15:28:07Z</time><extensions><speed>0.009590</speed><course>112.030074</course><hAcc>2.535622</hAcc><vAcc>0.757008</vAcc></extensions></trkpt>
      <trkpt lon="-82.311073" lat="35.642938"><ele>801.890073</ele><time>2025-07-04T15:28:08Z</time><extensions><speed>0.007605</speed><course>112.030193</course><hAcc>2.555770</hAcc><vAcc>0.756956</vAcc></extensions></trkpt>
      <trkpt lon="-82.311073" lat="35.642938"><ele>801.888335</ele><time>2025-07-04T15:28:09Z</time><extensions><speed>0.007979</speed><course>112.030257</course><hAcc>2.552807</hAcc><vAcc>0.756938</vAcc></extensions></trkpt>
      <trkpt lon="-82.311073" lat="35.642938"><ele>801.886118</ele><time>2025-07-04T15:28:10Z</time><extensions><speed>0.007230</speed><course>112.030287</course><hAcc>2.579161</hAcc><vAcc>0.756934</vAcc></extensions></trkpt>
      <trkpt lon="-82.311073" lat="35.642938"><ele>801.883601</ele><time>2025-07-04T15:28:11Z</time><extensions><speed>0.006091</speed><course>112.030305</course><hAcc>2.628596</hAcc><vAcc>0.756932</vAcc></extensions></trkpt>
      <trkpt lon="-82.311073" lat="35.642938"><ele>801.880929</ele><time>2025-07-04T15:28:12Z</time><extensions><speed>0.004902</speed><course>112.030316</course><hAcc>2.678831</hAcc><vAcc>0.756927</vAcc></extensions></trkpt>
      <trkpt lon="-82.311073" lat="35.642938"><ele>801.878217</ele><time>2025-07-04T15:28:13Z</time><extensions><speed>0.003857</speed><course>112.030325</course><hAcc>2.717533</hAcc><vAcc>0.756917</vAcc></extensions></trkpt>
      <trkpt lon="-82.311073" lat="35.642938"><ele>801.875553</ele><time>2025-07-04T15:28:14Z</time><extensions><speed>0.002993</speed><course>112.030331</course><hAcc>2.743713</hAcc><vAcc>0.756902</vAcc></extensions></trkpt>
      <trkpt lon="-82.311073" lat="35.642938"><ele>801.873003</ele><time>2025-07-04T15:28:15Z</time><extensions><speed>0.002269</speed><course>112.030336</course><hAcc>2.762697</hAcc><vAcc>0.756883</vAcc></extensions></trkpt>
      <trkpt lon="-82.311073" lat="35.642938"><ele>801.870614</ele><time>2025-07-04T15:28:16Z</time><extensions><speed>0.001692</speed><course>112.030340</course><hAcc>2.775730</hAcc><vAcc>0.756863</vAcc></extensions></trkpt>
      <trkpt lon="-82.311072" lat="35.642938"><ele>801.868417</ele><time>2025-07-04T15:28:17Z</time><extensions><speed>0.001248</speed><course>112.030343</course><hAcc>2.783027</hAcc><vAcc>0.756843</vAcc></extensions></trkpt>
      <trkpt lon="-82.311072" lat="35.642938"><ele>801.866430</ele><time>2025-07-04T15:28:18Z</time><extensions><speed>0.000921</speed><course>112.030346</course><hAcc>2.782634</hAcc><vAcc>0.756824</vAcc></extensions></trkpt>
      <trkpt lon="-82.311072" lat="35.642938"><ele>801.864660</ele><time>2025-07-04T15:28:19Z</time><extensions><speed>0.000691</speed><course>112.030348</course><hAcc>2.776927</hAcc><vAcc>0.756807</vAcc></extensions></trkpt>
      <trkpt lon="-82.311072" lat="35.642938"><ele>801.863108</ele><time>2025-07-04T15:28:20Z</time><extensions><speed>0.000506</speed><course>112.030349</course><hAcc>2.772178</hAcc><vAcc>0.756792</vAcc></extensions></trkpt>
      <trkpt lon="-82.311072" lat="35.642938"><ele>801.861766</ele><time>2025-07-04T15:28:21Z</time><extensions><speed>0.000374</speed><course>112.030351</course><hAcc>2.768634</hAcc><vAcc>0.756779</vAcc></extensions></trkpt>
      <trkpt lon="-82.311072" lat="35.642938"><ele>801.860624</ele><time>2025-07-04T15:28:22Z</time><extensions><speed>0.000271</speed><course>112.030354</course><hAcc>2.770911</hAcc><vAcc>0.756769</vAcc></extensions></trkpt>
      <trkpt lon="-82.311072" lat="35.642938"><ele>801.859666</ele><time>2025-07-04T15:28:23Z</time><extensions><speed>0.000195</speed><course>112.030356</course><hAcc>2.778516</hAcc><vAcc>0.756761</vAcc></extensions></trkpt>
      <trkpt lon="-82.311072" lat="35.642938"><ele>801.858876</ele><time>2025-07-04T15:28:24Z</time><extensions><speed>0.000146</speed><course>112.030359</course><hAcc>2.787616</hAcc><vAcc>0.756755</vAcc></extensions></trkpt>
      <trkpt lon="-82.311072" lat="35.642938"><ele>801.858238</ele><time>2025-07-04T15:28:25Z</time><extensions><speed>0.000111</speed><course>112.030363</course><hAcc>2.801480</hAcc><vAcc>0.756751</vAcc></extensions></trkpt>
      <trkpt lon="-82.311072" lat="35.642938"><ele>801.857734</ele><time>2025-07-04T15:28:26Z</time><extensions><speed>0.000082</speed><course>112.030368</course><hAcc>2.814937</hAcc><vAcc>0.756747</vAcc></extensions></trkpt>
      <trkpt lon="-82.311072" lat="35.642938"><ele>801.857345</ele><time>2025-07-04T15:28:27Z</time><extensions><speed>0.000077</speed><course>112.030371</course><hAcc>2.816091</hAcc><vAcc>0.756745</vAcc></extensions></trkpt>
      <trkpt lon="-82.311072" lat="35.642938"><ele>801.857057</ele><time>2025-07-04T15:28:28Z</time><extensions><speed>0.000052</speed><course>112.030371</course><hAcc>2.856616</hAcc><vAcc>0.756744</vAcc></extensions></trkpt>
      <trkpt lon="-82.311072" lat="35.642938"><ele>801.856853</ele><time>2025-07-04T15:28:29Z</time><extensions><speed>0.000040</speed><course>112.030366</course><hAcc>2.884902</hAcc><vAcc>0.756743</vAcc></extensions></trkpt>
      <trkpt lon="-82.311072" lat="35.642938"><ele>801.856720</ele><time>2025-07-04T15:28:30Z</time><extensions><speed>0.000036</speed><course>112.030357</course><hAcc>2.889208</hAcc><vAcc>0.756742</vAcc></extensions></trkpt>
      <trkpt lon="-82.311072" lat="35.642938"><ele>801.856643</ele><time>2025-07-04T15:28:31Z</time><extensions><speed>0.000041</speed><course>112.030345</course><hAcc>2.872065</hAcc><vAcc>0.756742</vAcc></extensions></trkpt>
      <trkpt lon="-82.311072" lat="35.642938"><ele>801.856613</ele><time>2025-07-04T15:28:32Z</time><extensions><speed>0.000039</speed><course>112.030340</course><hAcc>2.887219</hAcc><vAcc>0.756742</vAcc></extensions></trkpt>
      <trkpt lon="-82.311072" lat="35.642938"><ele>801.856618</ele><time>2025-07-04T15:28:33Z</time><extensions><speed>0.000034</speed><course>112.030346</course><hAcc>2.928651</hAcc><vAcc>0.756834</vAcc></extensions></trkpt>
      <trkpt lon="-82.311072" lat="35.642938"><ele>801.856650</ele><time>2025-07-04T15:28:34Z</time><extensions><speed>0.000029</speed><course>112.030365</course><hAcc>2.975147</hAcc><vAcc>0.756945</vAcc></extensions></trkpt>
      <trkpt lon="-82.311072" lat="35.642938"><ele>801.856701</ele><time>2025-07-04T15:28:35Z</time><extensions><speed>0.000024</speed><course>112.030391</course><hAcc>3.015334</hAcc><vAcc>0.757075</vAcc></extensions></trkpt>
      <trkpt lon="-82.311072" lat="35.642938"><ele>801.856766</ele><time>2025-07-04T15:28:36Z</time><extensions><speed>0.000019</speed><course>112.030423</course><hAcc>3.044829</hAcc><vAcc>0.757226</vAcc></extensions></trkpt>
      <trkpt lon="-82.311072" lat="35.642938"><ele>801.856840</ele><time>2025-07-04T15:28:37Z</time><extensions><speed>0.000015</speed><course>112.030450</course><hAcc>3.067215</hAcc><vAcc>0.757400</vAcc></extensions></trkpt>
      <trkpt lon="-82.311072" lat="35.642938"><ele>801.856918</ele><time>2025-07-04T15:28:38Z</time><extensions><speed>0.000012</speed><course>112.030475</course><hAcc>3.086545</hAcc><vAcc>0.757605</vAcc></extensions></trkpt>
      <trkpt lon="-82.311072" lat="35.642938"><ele>801.856997</ele><time>2025-07-04T15:28:39Z</time><extensions><speed>0.000009</speed><course>112.030488</course><hAcc>3.100973</hAcc><vAcc>0.757855</vAcc></extensions></trkpt>
      <trkpt lon="-82.311072" lat="35.642938"><ele>801.857074</ele><time>2025-07-04T15:28:40Z</time><extensions><speed>0.000007</speed><course>112.030489</course><hAcc>3.110478</hAcc><vAcc>0.758171</vAcc></extensions></trkpt>
      <trkpt lon="-82.311072" lat="35.642938"><ele>801.857148</ele><time>2025-07-04T15:28:41Z</time><extensions><speed>0.000005</speed><course>112.030448</course><hAcc>3.115765</hAcc><vAcc>0.758584</vAcc></extensions></trkpt>
      <trkpt lon="-82.311072" lat="35.642938"><ele>801.857217</ele><time>2025-07-04T15:28:42Z</time><extensions><speed>0.000004</speed><course>112.030360</course><hAcc>3.109977</hAcc><vAcc>0.759143</vAcc></extensions></trkpt>
      <trkpt lon="-82.311072" lat="35.642938"><ele>801.857284</ele><time>2025-07-04T15:28:43Z</time><extensions><speed>0.000003</speed><course>112.030188</course><hAcc>3.100455</hAcc><vAcc>0.759345</vAcc></extensions></trkpt>
      <trkpt lon="-82.311072" lat="35.642938"><ele>801.857341</ele><time>2025-07-04T15:28:44Z</time><extensions><speed>0.000003</speed><course>112.029964</course><hAcc>3.091902</hAcc><vAcc>0.758733</vAcc></extensions></trkpt>
      <trkpt lon="-82.311072" lat="35.642938"><ele>801.857392</ele><time>2025-07-04T15:28:45Z</time><extensions><speed>0.000002</speed><course>112.029588</course><hAcc>3.091820</hAcc><vAcc>0.758289</vAcc></extensions></trkpt>
      <trkpt lon="-82.311072" lat="35.642938"><ele>801.857436</ele><time>2025-07-04T15:28:46Z</time><extensions><speed>0.000002</speed><course>112.029113</course><hAcc>3.101408</hAcc><vAcc>0.757957</vAcc></extensions></trkpt>
      <trkpt lon="-82.311072" lat="35.642938"><ele>801.857474</ele><time>2025-07-04T15:28:47Z</time><extensions><speed>0.000001</speed><course>112.028515</course><hAcc>3.107385</hAcc><vAcc>0.757698</vAcc></extensions></trkpt>
      <trkpt lon="-82.311072" lat="35.642938"><ele>801.857507</ele><time>2025-07-04T15:28:48Z</time><extensions><speed>0.000001</speed><course>112.027796</course><hAcc>3.116583</hAcc><vAcc>0.757515</vAcc></extensions></trkpt>
      <trkpt lon="-82.311072" lat="35.642938"><ele>801.857534</ele><time>2025-07-04T15:28:49Z</time><extensions><speed>0.000001</speed><course>112.026992</course><hAcc>3.132533</hAcc><vAcc>0.757370</vAcc></extensions></trkpt>
      <trkpt lon="-82.311072" lat="35.642938"><ele>801.857556</ele><time>2025-07-04T15:28:50Z</time><extensions><speed>0.000001</speed><course>112.026192</course><hAcc>3.140341</hAcc><vAcc>0.757240</vAcc></extensions></trkpt>
      <trkpt lon="-82.311075" lat="35.642937"><ele>801.850389</ele><time>2025-07-04T15:28:51Z</time><extensions><speed>0.041274</speed><course>256.902742</course><hAcc>3.136742</hAcc><vAcc>0.757137</vAcc></extensions></trkpt>
      <trkpt lon="-82.311078" lat="35.642936"><ele>801.840397</ele><time>2025-07-04T15:28:52Z</time><extensions><speed>0.101212</speed><course>257.753454</course><hAcc>3.140785</hAcc><vAcc>0.757064</vAcc></extensions></trkpt>
      <trkpt lon="-82.311082" lat="35.642936"><ele>801.828606</ele><time>2025-07-04T15:28:53Z</time><extensions><speed>0.146209</speed><course>258.052477</course><hAcc>3.171507</hAcc><vAcc>0.756987</vAcc></extensions></trkpt>
      <trkpt lon="-82.311085" lat="35.642935"><ele>801.817720</ele><time>2025-07-04T15:28:54Z</time><extensions><speed>0.246703</speed><course>254.490358</course><hAcc>3.168117</hAcc><vAcc>0.756922</vAcc></extensions></trkpt>
      <trkpt lon="-82.311088" lat="35.642933"><ele>801.803164</ele><time>2025-07-04T15:28:55Z</time><extensions><speed>0.332260</speed><course>251.293202</course><hAcc>3.175574</hAcc><vAcc>0.756888</vAcc></extensions></trkpt>
      <trkpt lon="-82.311092" lat="35.642931"><ele>801.786949</ele><time>2025-07-04T15:28:56Z</time><extensions><speed>0.413509</speed><course>248.681746</course><hAcc>3.196210</hAcc><vAcc>0.756866</vAcc></extensions></trkpt>
      <trkpt lon="-82.311097" lat="35.642929"><ele>801.769177</ele><time>2025-07-04T15:28:57Z</time><extensions><speed>0.488226</speed><course>246.809732</course><hAcc>3.220225</hAcc><vAcc>0.756846</vAcc></extensions></trkpt>
      <trkpt lon="-82.311103" lat="35.642927"><ele>801.746033</ele><time>2025-07-04T15:28:58Z</time><extensions><speed>0.557301</speed><course>246.221028</course><hAcc>3.242195</hAcc><vAcc>0.756843</vAcc></extensions></trkpt>
      <trkpt lon="-82.311110" lat="35.642924"><ele>801.721172</ele><time>2025-07-04T15:28:59Z</time><extensions><speed>0.605173</speed><course>245.402751</course><hAcc>3.260501</hAcc><vAcc>0.756835</vAcc></extensions></trkpt>
      <trkpt lon="-82.311116" lat="35.642922"><ele>801.697482</ele><time>2025-07-04T15:29:00Z</time><extensions><speed>0.590000</speed><course>244.102224</course><hAcc>3.310253</hAcc><vAcc>0.761896</vAcc></extensions></trkpt>
      <trkpt lon="-82.311121" lat="35.642920"><ele>801.672387</ele><time>2025-07-04T15:29:01Z</time><extensions><speed>0.499619</speed><course>240.738110</course><hAcc>3.376736</hAcc><vAcc>0.770655</vAcc></extensions></trkpt>
      <trkpt lon="-82.311125" lat="35.642918"><ele>801.646519</ele><time>2025-07-04T15:29:02Z</time><extensions><speed>0.341942</speed><course>234.417717</course><hAcc>3.449642</hAcc><vAcc>0.785219</vAcc></extensions></trkpt>
      <trkpt lon="-82.311128" lat="35.642916"><ele>801.620161</ele><time>2025-07-04T15:29:03Z</time><extensions><speed>0.263127</speed><course>219.653426</course><hAcc>3.493902</hAcc><vAcc>0.808516</vAcc></extensions></trkpt>
      <trkpt lon="-82.311129" lat="35.642914"><ele>801.593523</ele><time>2025-07-04T15:29:04Z</time><extensions><speed>0.273655</speed><course>197.684586</course><hAcc>3.533904</hAcc><vAcc>0.844071</vAcc></extensions></trkpt>
      <trkpt lon="-82.311130" lat="35.642912"><ele>801.566782</ele><time>2025-07-04T15:29:05Z</time><extensions><speed>0.250875</speed><course>188.160401</course><hAcc>3.657787</hAcc><vAcc>0.895720</vAcc></extensions></trkpt>
      <trkpt lon="-82.311130" lat="35.642910"><ele>801.540107</ele><time>2025-07-04T15:29:06Z</time><extensions><speed>0.169674</speed><course>198.261976</course><hAcc>3.857418</hAcc><vAcc>0.967094</vAcc></extensions></trkpt>
      <trkpt lon="-82.311131" lat="35.642908"><ele>801.513499</ele><time>2025-07-04T15:29:07Z</time><extensions><speed>0.124242</speed><course>203.978138</course><hAcc>4.069634</hAcc><vAcc>1.061580</vAcc></extensions></trkpt>
      <trkpt lon="-82.311131" lat="35.642908"><ele>801.487121</ele><time>2025-07-04T15:29:08Z</time><extensions><speed>0.097658</speed><course>197.163448</course><hAcc>4.350750</hAcc><vAcc>1.180950</vAcc></extensions></trkpt>
      <trkpt lon="-82.311131" lat="35.642907"><ele>801.460841</ele><time>2025-07-04T15:29:09Z</time><extensions><speed>0.074343</speed><course>202.091929</course><hAcc>4.796426</hAcc><vAcc>1.326929</vAcc></extensions></trkpt>
    </trkseg>
  </trk>
</gpx>