<?xml version="1.0" encoding="UTF-8"?>
<gpx version="1.1" creator="Apple Health Export" xmlns="http://www.topografix.com/GPX/1/1" xmlns:xsi="http://www.w3.org/2001/XMLSchema-instance" xsi:schemaLocation="http://www.topografix.com/GPX/1/1 http://www.topografix.com/GPX/1/1/gpx.xsd">
  <metadata>
    <time>2026-03-14T12:15:44Z</time>
  </metadata>
  <trk>
    <name>Route 2021-10-17 8:41am</name>
    <trkseg>
      <trkpt lon="-82.151575" lat="33.553123"><ele>94.547523</ele><time>2021-10-17T12:34:13Z</time><extensions><speed>1.712695</speed><course>53.085938</course><hAcc>1.458126</hAcc><vAcc>1.154371</vAcc></extensions></trkpt>
      <trkpt lon="-82.151559" lat="33.553131"><ele>94.643723</ele><time>2021-10-17T12:34:14Z</time><extensions><speed>1.712100</speed><course>50.273438</course><hAcc>1.267141</hAcc><vAcc>1.011334</vAcc></extensions></trkpt>
      <trkpt lon="-82.151543" lat="33.553139"><ele>94.740814</ele><time>2021-10-17T12:34:15Z</time><extensions><speed>1.710220</speed><course>59.765625</course><hAcc>1.122513</hAcc><vAcc>0.899949</vAcc></extensions></trkpt>
      <trkpt lon="-82.151527" lat="33.553147"><ele>94.839722</ele><time>2021-10-17T12:34:16Z</time><extensions><speed>1.707085</speed><course>54.843750</course><hAcc>1.021280</hAcc><vAcc>0.818778</vAcc></extensions></trkpt>
      <trkpt lon="-82.151512" lat="33.553155"><ele>94.941330</ele><time>2021-10-17T12:34:17Z</time><extensions><speed>1.703032</speed><course>61.171875</course><hAcc>0.956856</hAcc><vAcc>0.764153</vAcc></extensions></trkpt>
      <trkpt lon="-82.151496" lat="33.553163"><ele>95.046211</ele><time>2021-10-17T12:34:18Z</time><extensions><speed>1.698623</speed><course>56.953125</course><hAcc>0.920319</hAcc><vAcc>0.730719</vAcc></extensions></trkpt>
      <trkpt lon="-82.151481" lat="33.553171"><ele>95.154434</ele><time>2021-10-17T12:34:19Z</time><extensions><speed>1.694622</speed><course>48.164062</course><hAcc>0.902483</hAcc><vAcc>0.712519</vAcc></extensions></trkpt>
      <trkpt lon="-82.151466" lat="33.553180"><ele>95.265396</ele><time>2021-10-17T12:34:20Z</time><extensions><speed>1.691479</speed><course>39.023438</course><hAcc>0.895624</hAcc><vAcc>0.704114</vAcc></extensions></trkpt>
      <trkpt lon="-82.151451" lat="33.553188"><ele>95.377831</ele><time>2021-10-17T12:34:21Z</time><extensions><speed>1.689016</speed><course>43.945312</course><hAcc>0.894212</hAcc><vAcc>0.701250</vAcc></extensions></trkpt>
      <trkpt lon="-82.151436" lat="33.553197"><ele>95.489861</ele><time>2021-10-17T12:34:22Z</time><extensions><speed>1.686855</speed><course>50.273438</course><hAcc>0.894790</hAcc><vAcc>0.700994</vAcc></extensions></trkpt>
      <trkpt lon="-82.151421" lat="33.553206"><ele>95.599121</ele><time>2021-10-17T12:34:23Z</time><extensions><speed>1.684738</speed><course>56.601562</course><hAcc>0.895488</hAcc><vAcc>0.701554</vAcc></extensions></trkpt>
      <trkpt lon="-82.151407" lat="33.553216"><ele>95.702888</ele><time>2021-10-17T12:34:24Z</time><extensions><speed>1.682582</speed><course>58.710938</course><hAcc>0.895493</hAcc><vAcc>0.701973</vAcc></extensions></trkpt>
      <trkpt lon="-82.151393" lat="33.553225"><ele>95.798386</ele><time>2021-10-17T12:34:25Z</time><extensions><speed>1.680562</speed><course>66.093750</course><hAcc>0.894616</hAcc><vAcc>0.701850</vAcc></extensions></trkpt>
      <trkpt lon="-82.151379" lat="33.553235"><ele>95.883102</ele><time>2021-10-17T12:34:26Z</time><extensions><speed>1.679250</speed><course>54.140625</course><hAcc>0.892993</hAcc><vAcc>0.701117</vAcc></extensions></trkpt>
      <trkpt lon="-82.151366" lat="33.553246"><ele>95.954941</ele><time>2021-10-17T12:34:27Z</time><extensions><speed>1.679619</speed><course>42.187500</course><hAcc>0.890889</hAcc><vAcc>0.699880</vAcc></extensions></trkpt>
      <trkpt lon="-82.151353" lat="33.553256"><ele>96.012245</ele><time>2021-10-17T12:34:29Z</time><extensions><speed>1.682662</speed><course>18.281250</course><hAcc>0.888561</hAcc><vAcc>0.698300</vAcc></extensions></trkpt>
      <trkpt lon="-82.151340" lat="33.553267"><ele>96.053635</ele><time>2021-10-17T12:34:30Z</time><extensions><speed>1.688753</speed><course>10.898438</course><hAcc>0.886245</hAcc><vAcc>0.696561</vAcc></extensions></trkpt>
      <trkpt lon="-82.151328" lat="33.553278"><ele>96.078537</ele><time>2021-10-17T12:34:31Z</time><extensions><speed>1.697353</speed><course>14.414062</course><hAcc>0.884123</hAcc><vAcc>0.694830</vAcc></extensions></trkpt>
      <trkpt lon="-82.151315" lat="33.553289"><ele>96.087006</ele><time>2021-10-17T12:34:32Z</time><extensions><speed>1.707192</speed><course>50.273438</course><hAcc>0.882290</hAcc><vAcc>0.693221</vAcc></extensions></trkpt>
      <trkpt lon="-82.151303" lat="33.553301"><ele>96.079697</ele><time>2021-10-17T12:34:33Z</time><extensions><speed>1.716699</speed><course>50.976562</course><hAcc>0.880784</hAcc><vAcc>0.691805</vAcc></extensions></trkpt>
      <trkpt lon="-82.151290" lat="33.553312"><ele>96.057632</ele><time>2021-10-17T12:34:34Z</time><extensions><speed>1.724206</speed><course>33.046875</course><hAcc>0.879601</hAcc><vAcc>0.690616</vAcc></extensions></trkpt>
      <trkpt lon="-82.151277" lat="33.553323"><ele>96.021965</ele><time>2021-10-17T12:34:35Z</time><extensions><speed>1.727875</speed><course>37.617188</course><hAcc>0.878710</hAcc><vAcc>0.689658</vAcc></extensions></trkpt>
      <trkpt lon="-82.151265" lat="33.553335"><ele>95.973808</ele><time>2021-10-17T12:34:36Z</time><extensions><speed>1.726600</speed><course>36.210938</course><hAcc>0.878066</hAcc><vAcc>0.688917</vAcc></extensions></trkpt>
      <trkpt lon="-82.151252" lat="33.553346"><ele>95.914230</ele><time>2021-10-17T12:34:37Z</time><extensions><speed>1.720616</speed><course>44.648438</course><hAcc>0.877619</hAcc><vAcc>0.688365</vAcc></extensions></trkpt>
      <trkpt lon="-82.151239" lat="33.553357"><ele>95.844391</ele><time>2021-10-17T12:34:38Z</time><extensions><speed>1.710601</speed><course>41.484375</course><hAcc>0.877323</hAcc><vAcc>0.687970</vAcc></extensions></trkpt>
      <trkpt lon="-82.151226" lat="33.553368"><ele>95.765594</ele><time>2021-10-17T12:34:39Z</time><extensions><speed>1.697333</speed><course>38.671875</course><hAcc>0.877136</hAcc><vAcc>0.687699</vAcc></extensions></trkpt>
      <trkpt lon="-82.151213" lat="33.553379"><ele>95.679283</ele><time>2021-10-17T12:34:40Z</time><extensions><speed>1.681773</speed><course>34.804688</course><hAcc>0.877024</hAcc><vAcc>0.687520</vAcc></extensions></trkpt>
      <trkpt lon="-82.151201" lat="33.553390"><ele>95.586754</ele><time>2021-10-17T12:34:41Z</time><extensions><speed>1.664926</speed><course>41.132812</course><hAcc>0.876962</hAcc><vAcc>0.687410</vAcc></extensions></trkpt>
      <trkpt lon="-82.151188" lat="33.553400"><ele>95.489098</ele><time>2021-10-17T12:34:42Z</time><extensions><speed>1.647955</speed><course>44.296875</course><hAcc>0.876930</hAcc><vAcc>0.687345</vAcc></extensions></trkpt>
      <trkpt lon="-82.151176" lat="33.553411"><ele>95.387253</ele><time>2021-10-17T12:34:43Z</time><extensions><speed>1.632331</speed><course>49.218750</course><hAcc>0.876916</hAcc><vAcc>0.687311</vAcc></extensions></trkpt>
      <trkpt lon="-82.151163" lat="33.553421"><ele>95.282082</ele><time>2021-10-17T12:34:44Z</time><extensions><speed>1.619715</speed><course>41.835938</course><hAcc>0.876910</hAcc><vAcc>0.687295</vAcc></extensions></trkpt>
      <trkpt lon="-82.151151" lat="33.553431"><ele>95.174164</ele><time>2021-10-17T12:34:45Z</time><extensions><speed>1.611529</speed><course>37.968750</course><hAcc>0.876908</hAcc><vAcc>0.687289</vAcc></extensions></trkpt>
      <trkpt lon="-82.151138" lat="33.553441"><ele>95.063751</ele><time>2021-10-17T12:34:46Z</time><extensions><speed>1.608896</speed><course>38.671875</course><hAcc>0.876906</hAcc><vAcc>0.687287</vAcc></extensions></trkpt>
      <trkpt lon="-82.151126" lat="33.553451"><ele>94.950722</ele><time>2021-10-17T12:34:47Z</time><extensions><speed>1.612535</speed><course>30.585938</course><hAcc>0.876905</hAcc><vAcc>0.687288</vAcc></extensions></trkpt>
      <trkpt lon="-82.151113" lat="33.553461"><ele>94.834602</ele><time>2021-10-17T12:34:48Z</time><extensions><speed>1.622572</speed><course>26.367188</course><hAcc>0.876902</hAcc><vAcc>0.687288</vAcc></extensions></trkpt>
      <trkpt lon="-82.151100" lat="33.553471"><ele>94.714821</ele><time>2021-10-17T12:34:49Z</time><extensions><speed>1.638661</speed><course>41.132812</course><hAcc>0.876899</hAcc><vAcc>0.687287</vAcc></extensions></trkpt>
      <trkpt lon="-82.151086" lat="33.553480"><ele>94.590797</ele><time>2021-10-17T12:34:50Z</time><extensions><speed>1.659864</speed><course>47.109375</course><hAcc>0.876895</hAcc><vAcc>0.687286</vAcc></extensions></trkpt>
      <trkpt lon="-82.151072" lat="33.553489"><ele>94.462059</ele><time>2021-10-17T12:34:51Z</time><extensions><speed>1.684837</speed><course>45.000000</course><hAcc>0.876891</hAcc><vAcc>0.687283</vAcc></extensions></trkpt>
      <trkpt lon="-82.151057" lat="33.553498"><ele>94.328384</ele><time>2021-10-17T12:34:52Z</time><extensions><speed>1.712241</speed><course>46.054688</course><hAcc>0.876888</hAcc><vAcc>0.687280</vAcc></extensions></trkpt>
      <trkpt lon="-82.151041" lat="33.553507"><ele>94.189949</ele><time>2021-10-17T12:34:53Z</time><extensions><speed>1.740919</speed><course>44.648438</course><hAcc>0.876884</hAcc><vAcc>0.687277</vAcc></extensions></trkpt>
      <trkpt lon="-82.151025" lat="33.553516"><ele>94.047440</ele><time>2021-10-17T12:34:54Z</time><extensions><speed>1.769695</speed><course>48.164062</course><hAcc>0.876882</hAcc><vAcc>0.687274</vAcc></extensions></trkpt>
      <trkpt lon="-82.151009" lat="33.553524"><ele>93.902122</ele><time>2021-10-17T12:34:55Z</time><extensions><speed>1.797135</speed><course>52.734375</course><hAcc>0.876879</hAcc><vAcc>0.687271</vAcc></extensions></trkpt>
      <trkpt lon="-82.150992" lat="33.553532"><ele>93.755920</ele><time>2021-10-17T12:34:56Z</time><extensions><speed>1.821718</speed><course>59.414062</course><hAcc>0.876877</hAcc><vAcc>0.687268</vAcc></extensions></trkpt>
      <trkpt lon="-82.150975" lat="33.553540"><ele>93.611382</ele><time>2021-10-17T12:34:57Z</time><extensions><speed>1.842026</speed><course>64.335938</course><hAcc>0.876876</hAcc><vAcc>0.687266</vAcc></extensions></trkpt>
      <trkpt lon="-82.150957" lat="33.553547"><ele>93.471252</ele><time>2021-10-17T12:34:58Z</time><extensions><speed>1.856808</speed><course>49.921875</course><hAcc>0.876875</hAcc><vAcc>0.687265</vAcc></extensions></trkpt>
      <trkpt lon="-82.150939" lat="33.553555"><ele>93.338104</ele><time>2021-10-17T12:34:59Z</time><extensions><speed>1.865214</speed><course>53.437500</course><hAcc>0.876874</hAcc><vAcc>0.687263</vAcc></extensions></trkpt>
      <trkpt lon="-82.150921" lat="33.553563"><ele>93.214142</ele><time>2021-10-17T12:35:00Z</time><extensions><speed>1.866956</speed><course>51.328125</course><hAcc>0.876874</hAcc><vAcc>0.687262</vAcc></extensions></trkpt>
      <trkpt lon="-82.150903" lat="33.553570"><ele>93.101082</ele><time>2021-10-17T12:35:01Z</time><extensions><speed>1.862126</speed><course>53.789062</course><hAcc>0.876873</hAcc><vAcc>0.687261</vAcc></extensions></trkpt>
      <trkpt lon="-82.150885" lat="33.553578"><ele>93.000252</ele><time>2021-10-17T12:35:02Z</time><extensions><speed>1.850856</speed><course>51.679688</course><hAcc>0.876873</hAcc><vAcc>0.687261</vAcc></extensions></trkpt>
      <trkpt lon="-82.150868" lat="33.553585"><ele>92.912598</ele><time>2021-10-17T12:35:03Z</time><extensions><speed>1.833110</speed><course>60.820312</course><hAcc>0.876873</hAcc><vAcc>0.687260</vAcc></extensions></trkpt>
      <trkpt lon="-82.150851" lat="33.553593"><ele>92.838745</ele><time>2021-10-17T12:35:04Z</time><extensions><speed>1.808863</speed><course>63.281250</course><hAcc>0.876873</hAcc><vAcc>0.687260</vAcc></extensions></trkpt>
      <trkpt lon="-82.150834" lat="33.553601"><ele>92.778824</ele><time>2021-10-17T12:35:05Z</time><extensions><speed>1.778721</speed><course>41.484375</course><hAcc>0.876873</hAcc><vAcc>0.687260</vAcc></extensions></trkpt>
      <trkpt lon="-82.150817" lat="33.553609"><ele>92.732391</ele><time>2021-10-17T12:35:06Z</time><extensions><speed>1.744169</speed><course>55.898438</course><hAcc>0.876873</hAcc><vAcc>0.687260</vAcc></extensions></trkpt>
      <trkpt lon="-82.150802" lat="33.553618"><ele>92.698677</ele><time>2021-10-17T12:35:07Z</time><extensions><speed>1.706890</speed><course>53.437500</course><hAcc>0.876873</hAcc><vAcc>0.687260</vAcc></extensions></trkpt>
      <trkpt lon="-82.150787" lat="33.553626"><ele>92.676918</ele><time>2021-10-17T12:35:08Z</time><extensions><speed>1.668287</speed><course>78.398438</course><hAcc>0.876873</hAcc><vAcc>0.687260</vAcc></extensions></trkpt>
      <trkpt lon="-82.150772" lat="33.553635"><ele>92.666389</ele><time>2021-10-17T12:35:09Z</time><extensions><speed>1.629724</speed><course>52.031250</course><hAcc>0.876873</hAcc><vAcc>0.687260</vAcc></extensions></trkpt>
      <trkpt lon="-82.150759" lat="33.553644"><ele>92.666313</ele><time>2021-10-17T12:35:10Z</time><extensions><speed>1.592738</speed><course>58.710938</course><hAcc>0.876873</hAcc><vAcc>0.687260</vAcc></extensions></trkpt>
      <trkpt lon="-82.150746" lat="33.553653"><ele>92.675758</ele><time>2021-10-17T12:35:11Z</time><extensions><speed>1.559009</speed><course>50.625000</course><hAcc>0.876873</hAcc><vAcc>0.687260</vAcc></extensions></trkpt>
      <trkpt lon="-82.150734" lat="33.553662"><ele>92.693703</ele><time>2021-10-17T12:35:12Z</time><extensions><speed>1.530236</speed><course>52.734375</course><hAcc>0.876873</hAcc><vAcc>0.687260</vAcc></extensions></trkpt>
      <trkpt lon="-82.150722" lat="33.553672"><ele>92.719063</ele><time>2021-10-17T12:35:13Z</time><extensions><speed>1.507864</speed><course>53.789062</course><hAcc>0.876873</hAcc><vAcc>0.687260</vAcc></extensions></trkpt>
      <trkpt lon="-82.150711" lat="33.553682"><ele>92.750732</ele><time>2021-10-17T12:35:14Z</time><extensions><speed>1.493099</speed><course>53.437500</course><hAcc>0.876873</hAcc><vAcc>0.687260</vAcc></extensions></trkpt>
      <trkpt lon="-82.150701" lat="33.553693"><ele>92.787628</ele><time>2021-10-17T12:35:15Z</time><extensions><speed>1.487009</speed><course>44.648438</course><hAcc>0.876873</hAcc><vAcc>0.687260</vAcc></extensions></trkpt>
      <trkpt lon="-82.150691" lat="33.553703"><ele>92.828682</ele><time>2021-10-17T12:35:16Z</time><extensions><speed>1.490141</speed><course>47.109375</course><hAcc>0.876873</hAcc><vAcc>0.687260</vAcc></extensions></trkpt>
      <trkpt lon="-82.150681" lat="33.553714"><ele>92.872787</ele><time>2021-10-17T12:35:17Z</time><extensions><speed>1.502187</speed><course>38.320312</course><hAcc>0.876873</hAcc><vAcc>0.687260</vAcc></extensions></trkpt>
      <trkpt lon="-82.150672" lat="33.553725"><ele>92.918839</ele><time>2021-10-17T12:35:18Z</time><extensions><speed>1.521954</speed><course>23.203125</course><hAcc>0.876873</hAcc><vAcc>0.687260</vAcc></extensions></trkpt>
      <trkpt lon="-82.150662" lat="33.553736"><ele>92.965622</ele><time>2021-10-17T12:35:19Z</time><extensions><speed>1.547489</speed><course>13.710938</course><hAcc>0.876873</hAcc><vAcc>0.687259</vAcc></extensions></trkpt>
      <trkpt lon="-82.150652" lat="33.553747"><ele>93.011772</ele><time>2021-10-17T12:35:20Z</time><extensions><speed>1.576779</speed><course>13.359375</course><hAcc>0.876873</hAcc><vAcc>0.687259</vAcc></extensions></trkpt>
      <trkpt lon="-82.150641" lat="33.553758"><ele>93.055954</ele><time>2021-10-17T12:35:21Z</time><extensions><speed>1.608577</speed><course>17.929688</course><hAcc>0.876873</hAcc><vAcc>0.687259</vAcc></extensions></trkpt>
      <trkpt lon="-82.150630" lat="33.553769"><ele>93.097214</ele><time>2021-10-17T12:35:22Z</time><extensions><speed>1.642183</speed><course>48.867188</course><hAcc>0.876873</hAcc><vAcc>0.687259</vAcc></extensions></trkpt>
      <trkpt lon="-82.150617" lat="33.553780"><ele>93.135170</ele><time>2021-10-17T12:35:23Z</time><extensions><speed>1.676759</speed><course>43.593750</course><hAcc>0.876873</hAcc><vAcc>0.687259</vAcc></extensions></trkpt>
      <trkpt lon="-82.150605" lat="33.553791"><ele>93.169907</ele><time>2021-10-17T12:35:24Z</time><extensions><speed>1.711261</speed><course>62.226562</course><hAcc>0.876873</hAcc><vAcc>0.687259</vAcc></extensions></trkpt>
      <trkpt lon="-82.150591" lat="33.553802"><ele>93.201851</ele><time>2021-10-17T12:35:25Z</time><extensions><speed>1.744500</speed><course>56.601562</course><hAcc>0.876873</hAcc><vAcc>0.687259</vAcc></extensions></trkpt>
      <trkpt lon="-82.150576" lat="33.553812"><ele>93.231606</ele><time>2021-10-17T12:35:26Z</time><extensions><speed>1.775108</speed><course>54.492188</course><hAcc>0.876873</hAcc><vAcc>0.687259</vAcc></extensions></trkpt>
      <trkpt lon="-82.150561" lat="33.553822"><ele>93.259796</ele><time>2021-10-17T12:35:27Z</time><extensions><speed>1.801710</speed><course>28.828125</course><hAcc>0.876873</hAcc><vAcc>0.687259</vAcc></extensions></trkpt>
      <trkpt lon="-82.150546" lat="33.553832"><ele>93.287003</ele><time>2021-10-17T12:35:28Z</time><extensions><speed>1.823088</speed><course>54.492188</course><hAcc>0.876873</hAcc><vAcc>0.687259</vAcc></extensions></trkpt>
      <trkpt lon="-82.150530" lat="33.553841"><ele>93.313919</ele><time>2021-10-17T12:35:29Z</time><extensions><speed>1.838473</speed><course>43.945312</course><hAcc>0.876873</hAcc><vAcc>0.687259</vAcc></extensions></trkpt>
      <trkpt lon="-82.150513" lat="33.553850"><ele>93.341492</ele><time>2021-10-17T12:35:30Z</time><extensions><speed>1.847737</speed><course>55.546875</course><hAcc>0.876873</hAcc><vAcc>0.687259</vAcc></extensions></trkpt>
      <trkpt lon="-82.150496" lat="33.553859"><ele>93.370926</ele><time>2021-10-17T12:35:31Z</time><extensions><speed>1.851271</speed><course>49.218750</course><hAcc>0.876873</hAcc><vAcc>0.687259</vAcc></extensions></trkpt>
      <trkpt lon="-82.150479" lat="33.553868"><ele>93.403694</ele><time>2021-10-17T12:35:32Z</time><extensions><speed>1.849963</speed><course>43.945312</course><hAcc>0.876873</hAcc><vAcc>0.687259</vAcc></extensions></trkpt>
      <trkpt lon="-82.150462" lat="33.553876"><ele>93.441483</ele><time>2021-10-17T12:35:33Z</time><extensions><speed>1.844930</speed><course>54.140625</course><hAcc>0.876873</hAcc><vAcc>0.687259</vAcc></extensions></trkpt>
      <trkpt lon="-82.150444" lat="33.553884"><ele>93.485809</ele><time>2021-10-17T12:35:34Z</time><extensions><speed>1.836892</speed><course>52.031250</course><hAcc>0.876873</hAcc><vAcc>0.687259</vAcc></extensions></trkpt>
      <trkpt lon="-82.150427" lat="33.553892"><ele>93.537704</ele><time>2021-10-17T12:35:35Z</time><extensions><speed>1.826245</speed><course>54.843750</course><hAcc>0.876873</hAcc><vAcc>0.687259</vAcc></extensions></trkpt>
      <trkpt lon="-82.150410" lat="33.553899"><ele>93.597488</ele><time>2021-10-17T12:35:36Z</time><extensions><speed>1.813462</speed><course>51.679688</course><hAcc>0.876873</hAcc><vAcc>0.687259</vAcc></extensions></trkpt>
      <trkpt lon="-82.150392" lat="33.553907"><ele>93.664734</ele><time>2021-10-17T12:35:37Z</time><extensions><speed>1.799093</speed><course>57.304688</course><hAcc>0.876873</hAcc><vAcc>0.687259</vAcc></extensions></trkpt>
      <trkpt lon="-82.150375" lat="33.553914"><ele>93.738365</ele><time>2021-10-17T12:35:38Z</time><extensions><speed>1.783734</speed><course>52.031250</course><hAcc>0.876874</hAcc><vAcc>0.687259</vAcc></extensions></trkpt>
      <trkpt lon="-82.150357" lat="33.553920"><ele>93.816971</ele><time>2021-10-17T12:35:39Z</time><extensions><speed>1.767862</speed><course>53.437500</course><hAcc>0.876874</hAcc><vAcc>0.687259</vAcc></extensions></trkpt>
      <trkpt lon="-82.150340" lat="33.553927"><ele>93.899086</ele><time>2021-10-17T12:35:40Z</time><extensions><speed>1.751667</speed><course>62.929688</course><hAcc>0.876874</hAcc><vAcc>0.687259</vAcc></extensions></trkpt>
      <trkpt lon="-82.150323" lat="33.553933"><ele>93.983307</ele><time>2021-10-17T12:35:41Z</time><extensions><speed>1.735002</speed><course>65.390625</course><hAcc>0.876874</hAcc><vAcc>0.687259</vAcc></extensions></trkpt>
      <trkpt lon="-82.150306" lat="33.553939"><ele>94.068390</ele><time>2021-10-17T12:35:42Z</time><extensions><speed>1.717427</speed><course>61.875000</course><hAcc>0.876874</hAcc><vAcc>0.687259</vAcc></extensions></trkpt>
      <trkpt lon="-82.150288" lat="33.553944"><ele>94.153015</ele><time>2021-10-17T12:35:43Z</time><extensions><speed>1.698662</speed><course>61.875000</course><hAcc>0.876874</hAcc><vAcc>0.687259</vAcc></extensions></trkpt>
      <trkpt lon="-82.150271" lat="33.553949"><ele>94.235939</ele><time>2021-10-17T12:35:44Z</time><extensions><speed>1.679289</speed><course>59.765625</course><hAcc>0.876874</hAcc><vAcc>0.687259</vAcc></extensions></trkpt>
      <trkpt lon="-82.150254" lat="33.553954"><ele>94.316193</ele><time>2021-10-17T12:35:45Z</time><extensions><speed>1.660840</speed><course>69.960938</course><hAcc>0.876874</hAcc><vAcc>0.687259</vAcc></extensions></trkpt>
      <trkpt lon="-82.150237" lat="33.553959"><ele>94.393242</ele><time>2021-10-17T12:35:46Z</time><extensions><speed>1.645154</speed><course>76.640625</course><hAcc>0.876874</hAcc><vAcc>0.687259</vAcc></extensions></trkpt>
      <trkpt lon="-82.150220" lat="33.553963"><ele>94.466942</ele><time>2021-10-17T12:35:47Z</time><extensions><speed>1.633302</speed><course>76.289062</course><hAcc>0.876874</hAcc><vAcc>0.687259</vAcc></extensions></trkpt>
      <trkpt lon="-82.150204" lat="33.553967"><ele>94.537354</ele><time>2021-10-17T12:35:48Z</time><extensions><speed>1.624905</speed><course>71.015625</course><hAcc>0.876874</hAcc><vAcc>0.687259</vAcc></extensions></trkpt>
      <trkpt lon="-82.150187" lat="33.553971"><ele>94.604645</ele><time>2021-10-17T12:35:49Z</time><extensions><speed>1.618314</speed><course>80.156250</course><hAcc>0.876874</hAcc><vAcc>0.687259</vAcc></extensions></trkpt>
      <trkpt lon="-82.150170" lat="33.553975"><ele>94.669067</ele><time>2021-10-17T12:35:50Z</time><extensions><speed>1.611546</speed><course>90.000000</course><hAcc>0.876874</hAcc><vAcc>0.687259</vAcc></extensions></trkpt>
      <trkpt lon="-82.150153" lat="33.553979"><ele>94.730873</ele><time>2021-10-17T12:35:51Z</time><extensions><speed>1.603158</speed><course>92.109375</course><hAcc>0.876874</hAcc><vAcc>0.687259</vAcc></extensions></trkpt>
      <trkpt lon="-82.150137" lat="33.553983"><ele>94.790283</ele><time>2021-10-17T12:35:52Z</time><extensions><speed>1.592317</speed><course>86.835938</course><hAcc>0.876874</hAcc><vAcc>0.687259</vAcc></extensions></trkpt>
      <trkpt lon="-82.150121" lat="33.553988"><ele>94.847420</ele><time>2021-10-17T12:35:53Z</time><extensions><speed>1.578757</speed><course>82.968750</course><hAcc>0.876874</hAcc><vAcc>0.687259</vAcc></extensions></trkpt>
      <trkpt lon="-82.150105" lat="33.553992"><ele>94.902222</ele><time>2021-10-17T12:35:54Z</time><extensions><speed>1.562539</speed><course>79.101562</course><hAcc>0.876874</hAcc><vAcc>0.687259</vAcc></extensions></trkpt>
      <trkpt lon="-82.150089" lat="33.553997"><ele>94.954384</ele><time>2021-10-17T12:35:55Z</time><extensions><speed>1.543735</speed><course>47.109375</course><hAcc>0.876874</hAcc><vAcc>0.687259</vAcc></extensions></trkpt>
      <trkpt lon="-82.150073" lat="33.554002"><ele>95.003494</ele><time>2021-10-17T12:35:56Z</time><extensions><speed>1.522248</speed><course>52.031250</course><hAcc>0.876874</hAcc><vAcc>0.687259</vAcc></extensions></trkpt>
      <trkpt lon="-82.150058" lat="33.554007"><ele>95.049149</ele><time>2021-10-17T12:35:57Z</time><extensions><speed>1.497690</speed><course>58.007812</course><hAcc>0.876874</hAcc><vAcc>0.687259</vAcc></extensions></trkpt>
      <trkpt lon="-82.150044" lat="33.554012"><ele>95.091064</ele><time>2021-10-17T12:35:58Z</time><extensions><speed>1.469845</speed><course>72.773438</course><hAcc>0.876875</hAcc><vAcc>0.687259</vAcc></extensions></trkpt>
      <trkpt lon="-82.150029" lat="33.554017"><ele>95.128967</ele><time>2021-10-17T12:35:59Z</time><extensions><speed>1.439209</speed><course>81.210938</course><hAcc>0.876875</hAcc><vAcc>0.687259</vAcc></extensions></trkpt>
      <trkpt lon="-82.150015" lat="33.554022"><ele>95.162567</ele><time>2021-10-17T12:36:00Z</time><extensions><speed>1.407113</speed><course>79.453125</course><hAcc>0.876875</hAcc><vAcc>0.687259</vAcc></extensions></trkpt>
      <trkpt lon="-82.150002" lat="33.554028"><ele>95.191513</ele><time>2021-10-17T12:36:01Z</time><extensions><speed>1.375589</speed><course>69.257812</course><hAcc>0.876875</hAcc><vAcc>0.687259</vAcc></extensions></trkpt>
      <trkpt lon="-82.149988" lat="33.554033"><ele>95.215439</ele><time>2021-10-17T12:36:02Z</time><extensions><speed>1.346663</speed><course>143.437500</course><hAcc>0.876875</hAcc><vAcc>0.687259</vAcc></extensions></trkpt>
      <trkpt lon="-82.149975" lat="33.554038"><ele>95.233879</ele><time>2021-10-17T12:36:03Z</time><extensions><speed>1.321296</speed><course>81.210938</course><hAcc>0.876875</hAcc><vAcc>0.687259</vAcc></extensions></trkpt>
      <trkpt lon="-82.149963" lat="33.554043"><ele>95.246178</ele><time>2021-10-17T12:36:04Z</time><extensions><speed>1.299344</speed><course>83.320312</course><hAcc>0.876875</hAcc><vAcc>0.687259</vAcc></extensions></trkpt>
      <trkpt lon="-82.149950" lat="33.554048"><ele>95.251427</ele><time>2021-10-17T12:36:05Z</time><extensions><speed>1.280772</speed><course>70.664062</course><hAcc>0.876876</hAcc><vAcc>0.687260</vAcc></extensions></trkpt>
      <trkpt lon="-82.149938" lat="33.554053"><ele>95.248505</ele><time>2021-10-17T12:36:06Z</time><extensions><speed>1.266345</speed><course>68.203125</course><hAcc>0.876876</hAcc><vAcc>0.687261</vAcc></extensions></trkpt>
      <trkpt lon="-82.149925" lat="33.554057"><ele>95.236343</ele><time>2021-10-17T12:36:07Z</time><extensions><speed>1.257501</speed><course>74.179688</course><hAcc>0.876877</hAcc><vAcc>0.687262</vAcc></extensions></trkpt>
      <trkpt lon="-82.149913" lat="33.554062"><ele>95.214203</ele><time>2021-10-17T12:36:08Z</time><extensions><speed>1.256236</speed><course>69.257812</course><hAcc>0.876879</hAcc><vAcc>0.687265</vAcc></extensions></trkpt>
      <trkpt lon="-82.149900" lat="33.554066"><ele>95.181671</ele><time>2021-10-17T12:36:09Z</time><extensions><speed>1.264799</speed><course>50.625000</course><hAcc>0.876883</hAcc><vAcc>0.687269</vAcc></extensions></trkpt>
      <trkpt lon="-82.149887" lat="33.554070"><ele>95.138649</ele><time>2021-10-17T12:36:10Z</time><extensions><speed>1.285308</speed><course>31.640625</course><hAcc>0.876888</hAcc><vAcc>0.687274</vAcc></extensions></trkpt>
      <trkpt lon="-82.149874" lat="33.554074"><ele>95.085503</ele><time>2021-10-17T12:36:11Z</time><extensions><speed>1.319223</speed><course>7.734375</course><hAcc>0.876897</hAcc><vAcc>0.687282</vAcc></extensions></trkpt>
      <trkpt lon="-82.149860" lat="33.554077"><ele>95.022980</ele><time>2021-10-17T12:36:12Z</time><extensions><speed>1.365962</speed><course>40.429688</course><hAcc>0.876910</hAcc><vAcc>0.687293</vAcc></extensions></trkpt>
      <trkpt lon="-82.149846" lat="33.554081"><ele>94.952110</ele><time>2021-10-17T12:36:13Z</time><extensions><speed>1.422143</speed><course>54.140625</course><hAcc>0.876929</hAcc><vAcc>0.687308</vAcc></extensions></trkpt>
      <trkpt lon="-82.149830" lat="33.554084"><ele>94.874039</ele><time>2021-10-17T12:36:14Z</time><extensions><speed>1.482504</speed><course>82.265625</course><hAcc>0.876956</hAcc><vAcc>0.687326</vAcc></extensions></trkpt>
      <trkpt lon="-82.149815" lat="33.554087"><ele>94.789955</ele><time>2021-10-17T12:36:15Z</time><extensions><speed>1.541839</speed><course>95.625000</course><hAcc>0.876992</hAcc><vAcc>0.687347</vAcc></extensions></trkpt>
      <trkpt lon="-82.149798" lat="33.554090"><ele>94.701111</ele><time>2021-10-17T12:36:16Z</time><extensions><speed>1.596573</speed><course>100.195312</course><hAcc>0.877038</hAcc><vAcc>0.687373</vAcc></extensions></trkpt>
      <trkpt lon="-82.149781" lat="33.554093"><ele>94.609131</ele><time>2021-10-17T12:36:17Z</time><extensions><speed>1.645029</speed><course>73.476562</course><hAcc>0.877095</hAcc><vAcc>0.687400</vAcc></extensions></trkpt>
      <trkpt lon="-82.149764" lat="33.554097"><ele>94.516006</ele><time>2021-10-17T12:36:18Z</time><extensions><speed>1.686892</speed><course>73.828125</course><hAcc>0.877162</hAcc><vAcc>0.687430</vAcc></extensions></trkpt>
      <trkpt lon="-82.149746" lat="33.554101"><ele>94.423790</ele><time>2021-10-17T12:36:19Z</time><extensions><speed>1.722373</speed><course>82.968750</course><hAcc>0.877237</hAcc><vAcc>0.687458</vAcc></extensions></trkpt>
      <trkpt lon="-82.149728" lat="33.554105"><ele>94.334389</ele><time>2021-10-17T12:36:20Z</time><extensions><speed>1.751577</speed><course>76.289062</course><hAcc>0.877315</hAcc><vAcc>0.687482</vAcc></extensions></trkpt>
      <trkpt lon="-82.149709" lat="33.554109"><ele>94.249413</ele><time>2021-10-17T12:36:21Z</time><extensions><speed>1.774976</speed><course>72.773438</course><hAcc>0.877390</hAcc><vAcc>0.687501</vAcc></extensions></trkpt>
      <trkpt lon="-82.149691" lat="33.554114"><ele>94.170174</ele><time>2021-10-17T12:36:22Z</time><extensions><speed>1.794206</speed><course>54.843750</course><hAcc>0.877454</hAcc><vAcc>0.687513</vAcc></extensions></trkpt>
      <trkpt lon="-82.149673" lat="33.554118"><ele>94.097733</ele><time>2021-10-17T12:36:23Z</time><extensions><speed>1.810793</speed><course>51.328125</course><hAcc>0.877501</hAcc><vAcc>0.687518</vAcc></extensions></trkpt>
      <trkpt lon="-82.149654" lat="33.554123"><ele>94.032661</ele><time>2021-10-17T12:36:24Z</time><extensions><speed>1.824805</speed><course>78.046875</course><hAcc>0.877527</hAcc><vAcc>0.687522</vAcc></extensions></trkpt>
      <trkpt lon="-82.149635" lat="33.554129"><ele>93.974884</ele><time>2021-10-17T12:36:25Z</time><extensions><speed>1.835533</speed><course>74.531250</course><hAcc>0.877543</hAcc><vAcc>0.687542</vAcc></extensions></trkpt>
      <trkpt lon="-82.149616" lat="33.554134"><ele>93.923759</ele><time>2021-10-17T12:36:26Z</time><extensions><speed>1.842330</speed><course>77.695312</course><hAcc>0.877579</hAcc><vAcc>0.687603</vAcc></extensions></trkpt>
      <trkpt lon="-82.149598" lat="33.554139"><ele>93.878326</ele><time>2021-10-17T12:36:27Z</time><extensions><speed>1.844779</speed><course>79.453125</course><hAcc>0.877701</hAcc><vAcc>0.687754</vAcc></extensions></trkpt>
      <trkpt lon="-82.149579" lat="33.554144"><ele>93.837570</ele><time>2021-10-17T12:36:28Z</time><extensions><speed>1.843107</speed><course>90.351562</course><hAcc>0.878032</hAcc><vAcc>0.688066</vAcc></extensions></trkpt>
      <trkpt lon="-82.149560" lat="33.554149"><ele>93.800652</ele><time>2021-10-17T12:36:29Z</time><extensions><speed>1.838383</speed><course>92.109375</course><hAcc>0.878770</hAcc><vAcc>0.688646</vAcc></extensions></trkpt>
      <trkpt lon="-82.149541" lat="33.554155"><ele>93.767097</ele><time>2021-10-17T12:36:30Z</time><extensions><speed>1.831604</speed><course>89.296875</course><hAcc>0.880220</hAcc><vAcc>0.689639</vAcc></extensions></trkpt>
      <trkpt lon="-82.149522" lat="33.554160"><ele>93.736717</ele><time>2021-10-17T12:36:31Z</time><extensions><speed>1.823220</speed><course>60.468750</course><hAcc>0.882812</hAcc><vAcc>0.691234</vAcc></extensions></trkpt>
      <trkpt lon="-82.149504" lat="33.554164"><ele>93.709366</ele><time>2021-10-17T12:36:32Z</time><extensions><speed>1.813639</speed><course>55.898438</course><hAcc>0.887120</hAcc><vAcc>0.693664</vAcc></extensions></trkpt>
      <trkpt lon="-82.149485" lat="33.554169"><ele>93.684692</ele><time>2021-10-17T12:36:33Z</time><extensions><speed>1.803230</speed><course>54.492188</course><hAcc>0.893850</hAcc><vAcc>0.697196</vAcc></extensions></trkpt>
      <trkpt lon="-82.149466" lat="33.554173"><ele>93.662239</ele><time>2021-10-17T12:36:34Z</time><extensions><speed>1.791726</speed><course>67.851562</course><hAcc>0.903808</hAcc><vAcc>0.702114</vAcc></extensions></trkpt>
      <trkpt lon="-82.149448" lat="33.554178"><ele>93.641518</ele><time>2021-10-17T12:36:35Z</time><extensions><speed>1.778342</speed><course>71.718750</course><hAcc>0.917811</hAcc><vAcc>0.708682</vAcc></extensions></trkpt>
      <trkpt lon="-82.149429" lat="33.554182"><ele>93.622032</ele><time>2021-10-17T12:36:36Z</time><extensions><speed>1.762580</speed><course>75.585938</course><hAcc>0.936552</hAcc><vAcc>0.717103</vAcc></extensions></trkpt>
      <trkpt lon="-82.149411" lat="33.554185"><ele>93.603310</ele><time>2021-10-17T12:36:37Z</time><extensions><speed>1.744520</speed><course>74.531250</course><hAcc>0.960416</hAcc><vAcc>0.727451</vAcc></extensions></trkpt>
      <trkpt lon="-82.149393" lat="33.554189"><ele>93.584961</ele><time>2021-10-17T12:36:38Z</time><extensions><speed>1.725090</speed><course>71.367188</course><hAcc>0.989280</hAcc><vAcc>0.739611</vAcc></extensions></trkpt>
      <trkpt lon="-82.149375" lat="33.554193"><ele>93.566849</ele><time>2021-10-17T12:36:39Z</time><extensions><speed>1.706174</speed><course>76.992188</course><hAcc>1.022321</hAcc><vAcc>0.753212</vAcc></extensions></trkpt>
      <trkpt lon="-82.149357" lat="33.554196"><ele>93.549034</ele><time>2021-10-17T12:36:40Z</time><extensions><speed>1.689795</speed><course>93.515625</course><hAcc>1.057894</hAcc><vAcc>0.767592</vAcc></extensions></trkpt>
      <trkpt lon="-82.149340" lat="33.554200"><ele>93.531601</ele><time>2021-10-17T12:36:41Z</time><extensions><speed>1.676861</speed><course>102.656250</course><hAcc>1.093865</hAcc><vAcc>0.781917</vAcc></extensions></trkpt>
      <trkpt lon="-82.149322" lat="33.554204"><ele>93.514626</ele><time>2021-10-17T12:36:42Z</time><extensions><speed>1.667165</speed><course>89.648438</course><hAcc>1.128354</hAcc><vAcc>0.795463</vAcc></extensions></trkpt>
      <trkpt lon="-82.149305" lat="33.554208"><ele>93.498222</ele><time>2021-10-17T12:36:43Z</time><extensions><speed>1.660197</speed><course>78.750000</course><hAcc>1.160090</hAcc><vAcc>0.807750</vAcc></extensions></trkpt>
      <trkpt lon="-82.149288" lat="33.554212"><ele>93.482498</ele><time>2021-10-17T12:36:44Z</time><extensions><speed>1.655378</speed><course>79.101562</course><hAcc>1.188329</hAcc><vAcc>0.818513</vAcc></extensions></trkpt>
      <trkpt lon="-82.149271" lat="33.554216"><ele>93.467430</ele><time>2021-10-17T12:36:45Z</time><extensions><speed>1.652156</speed><course>79.804688</course><hAcc>1.212750</hAcc><vAcc>0.827654</vAcc></extensions></trkpt>
      <trkpt lon="-82.149254" lat="33.554221"><ele>93.452888</ele><time>2021-10-17T12:36:46Z</time><extensions><speed>1.649950</speed><course>77.343750</course><hAcc>1.233338</hAcc><vAcc>0.835205</vAcc></extensions></trkpt>
      <trkpt lon="-82.149237" lat="33.554226"><ele>93.438675</ele><time>2021-10-17T12:36:47Z</time><extensions><speed>1.648216</speed><course>71.367188</course><hAcc>1.250288</hAcc><vAcc>0.841280</vAcc></extensions></trkpt>
      <trkpt lon="-82.149220" lat="33.554231"><ele>93.424667</ele><time>2021-10-17T12:36:48Z</time><extensions><speed>1.646668</speed><course>68.906250</course><hAcc>1.263930</hAcc><vAcc>0.846042</vAcc></extensions></trkpt>
      <trkpt lon="-82.149204" lat="33.554236"><ele>93.410889</ele><time>2021-10-17T12:36:49Z</time><extensions><speed>1.645306</speed><course>72.421875</course><hAcc>1.274664</hAcc><vAcc>0.849679</vAcc></extensions></trkpt>
      <trkpt lon="-82.149187" lat="33.554242"><ele>93.397629</ele><time>2021-10-17T12:36:50Z</time><extensions><speed>1.644230</speed><course>35.507812</course><hAcc>1.282917</hAcc><vAcc>0.852383</vAcc></extensions></trkpt>
      <trkpt lon="-82.149171" lat="33.554248"><ele>93.385399</ele><time>2021-10-17T12:36:51Z</time><extensions><speed>1.643382</speed><course>59.765625</course><hAcc>1.289111</hAcc><vAcc>0.854336</vAcc></extensions></trkpt>
      <trkpt lon="-82.149155" lat="33.554253"><ele>93.374817</ele><time>2021-10-17T12:36:52Z</time><extensions><speed>1.642570</speed><course>57.304688</course><hAcc>1.293641</hAcc><vAcc>0.855702</vAcc></extensions></trkpt>
      <trkpt lon="-82.149139" lat="33.554259"><ele>93.366531</ele><time>2021-10-17T12:36:53Z</time><extensions><speed>1.641857</speed><course>63.281250</course><hAcc>1.296860</hAcc><vAcc>0.856625</vAcc></extensions></trkpt>
      <trkpt lon="-82.149122" lat="33.554265"><ele>93.361214</ele><time>2021-10-17T12:36:54Z</time><extensions><speed>1.641749</speed><course>58.710938</course><hAcc>1.299074</hAcc><vAcc>0.857222</vAcc></extensions></trkpt>
      <trkpt lon="-82.149106" lat="33.554271"><ele>93.359558</ele><time>2021-10-17T12:36:55Z</time><extensions><speed>1.642983</speed><course>49.921875</course><hAcc>1.300541</hAcc><vAcc>0.857590</vAcc></extensions></trkpt>
      <trkpt lon="-82.149090" lat="33.554277"><ele>93.362152</ele><time>2021-10-17T12:36:56Z</time><extensions><speed>1.646210</speed><course>53.437500</course><hAcc>1.301470</hAcc><vAcc>0.857802</vAcc></extensions></trkpt>
      <trkpt lon="-82.149073" lat="33.554282"><ele>93.369484</ele><time>2021-10-17T12:36:57Z</time><extensions><speed>1.651708</speed><course>92.109375</course><hAcc>1.302025</hAcc><vAcc>0.857914</vAcc></extensions></trkpt>
      <trkpt lon="-82.149057" lat="33.554288"><ele>93.382004</ele><time>2021-10-17T12:36:58Z</time><extensions><speed>1.659247</speed><course>115.312500</course><hAcc>1.302332</hAcc><vAcc>0.857966</vAcc></extensions></trkpt>
      <trkpt lon="-82.149040" lat="33.554294"><ele>93.400063</ele><time>2021-10-17T12:36:59Z</time><extensions><speed>1.668052</speed><course>90.000000</course><hAcc>1.302484</hAcc><vAcc>0.857986</vAcc></extensions></trkpt>
      <trkpt lon="-82.149024" lat="33.554300"><ele>93.423950</ele><time>2021-10-17T12:37:00Z</time><extensions><speed>1.677005</speed><course>74.882812</course><hAcc>1.302548</hAcc><vAcc>0.857992</vAcc></extensions></trkpt>
      <trkpt lon="-82.149007" lat="33.554306"><ele>93.453957</ele><time>2021-10-17T12:37:01Z</time><extensions><speed>1.685112</speed><course>65.039062</course><hAcc>1.302568</hAcc><vAcc>0.857995</vAcc></extensions></trkpt>
      <trkpt lon="-82.148990" lat="33.554311"><ele>93.490257</ele><time>2021-10-17T12:37:02Z</time><extensions><speed>1.691700</speed><course>25.312500</course><hAcc>1.302573</hAcc><vAcc>0.858000</vAcc></extensions></trkpt>
      <trkpt lon="-82.148973" lat="33.554317"><ele>93.532806</ele><time>2021-10-17T12:37:03Z</time><extensions><speed>1.696531</speed><course>39.375000</course><hAcc>1.302579</hAcc><vAcc>0.858010</vAcc></extensions></trkpt>
      <trkpt lon="-82.148956" lat="33.554322"><ele>93.581398</ele><time>2021-10-17T12:37:04Z</time><extensions><speed>1.699870</speed><course>39.023438</course><hAcc>1.302594</hAcc><vAcc>0.858025</vAcc></extensions></trkpt>
      <trkpt lon="-82.148939" lat="33.554328"><ele>93.635582</ele><time>2021-10-17T12:37:05Z</time><extensions><speed>1.702230</speed><course>54.140625</course><hAcc>1.302622</hAcc><vAcc>0.858044</vAcc></extensions></trkpt>
      <trkpt lon="-82.148922" lat="33.554333"><ele>93.694664</ele><time>2021-10-17T12:37:06Z</time><extensions><speed>1.704036</speed><course>64.687500</course><hAcc>1.302660</hAcc><vAcc>0.858067</vAcc></extensions></trkpt>
      <trkpt lon="-82.148904" lat="33.554338"><ele>93.757721</ele><time>2021-10-17T12:37:07Z</time><extensions><speed>1.705511</speed><course>74.882812</course><hAcc>1.302707</hAcc><vAcc>0.858090</vAcc></extensions></trkpt>
      <trkpt lon="-82.148887" lat="33.554342"><ele>93.823769</ele><time>2021-10-17T12:37:08Z</time><extensions><speed>1.706815</speed><course>75.234375</course><hAcc>1.302759</hAcc><vAcc>0.858114</vAcc></extensions></trkpt>
      <trkpt lon="-82.148869" lat="33.554347"><ele>93.891800</ele><time>2021-10-17T12:37:09Z</time><extensions><speed>1.708184</speed><course>81.562500</course><hAcc>1.302814</hAcc><vAcc>0.858136</vAcc></extensions></trkpt>
      <trkpt lon="-82.148851" lat="33.554351"><ele>93.960655</ele><time>2021-10-17T12:37:10Z</time><extensions><speed>1.709825</speed><course>90.703125</course><hAcc>1.302868</hAcc><vAcc>0.858156</vAcc></extensions></trkpt>
      <trkpt lon="-82.148834" lat="33.554355"><ele>94.029182</ele><time>2021-10-17T12:37:11Z</time><extensions><speed>1.711789</speed><course>74.531250</course><hAcc>1.302919</hAcc><vAcc>0.858174</vAcc></extensions></trkpt>
      <trkpt lon="-82.148816" lat="33.554359"><ele>94.096275</ele><time>2021-10-17T12:37:12Z</time><extensions><speed>1.714020</speed><course>69.960938</course><hAcc>1.302966</hAcc><vAcc>0.858190</vAcc></extensions></trkpt>
      <trkpt lon="-82.148798" lat="33.554362"><ele>94.161011</ele><time>2021-10-17T12:37:13Z</time><extensions><speed>1.716441</speed><course>63.632812</course><hAcc>1.303007</hAcc><vAcc>0.858203</vAcc></extensions></trkpt>
      <trkpt lon="-82.148780" lat="33.554366"><ele>94.222672</ele><time>2021-10-17T12:37:14Z</time><extensions><speed>1.718949</speed><course>72.773438</course><hAcc>1.303043</hAcc><vAcc>0.858213</vAcc></extensions></trkpt>
      <trkpt lon="-82.148762" lat="33.554369"><ele>94.280739</ele><time>2021-10-17T12:37:15Z</time><extensions><speed>1.721469</speed><course>85.781250</course><hAcc>1.303072</hAcc><vAcc>0.858221</vAcc></extensions></trkpt>
      <trkpt lon="-82.148743" lat="33.554372"><ele>94.334831</ele><time>2021-10-17T12:37:16Z</time><extensions><speed>1.724055</speed><course>112.851562</course><hAcc>1.303097</hAcc><vAcc>0.858227</vAcc></extensions></trkpt>
      <trkpt lon="-82.148725" lat="33.554375"><ele>94.384674</ele><time>2021-10-17T12:37:17Z</time><extensions><speed>1.726831</speed><course>74.179688</course><hAcc>1.303116</hAcc><vAcc>0.858232</vAcc></extensions></trkpt>
      <trkpt lon="-82.148707" lat="33.554379"><ele>94.430099</ele><time>2021-10-17T12:37:18Z</time><extensions><speed>1.729890</speed><course>71.367188</course><hAcc>1.303131</hAcc><vAcc>0.858235</vAcc></extensions></trkpt>
      <trkpt lon="-82.148689" lat="33.554382"><ele>94.470978</ele><time>2021-10-17T12:37:19Z</time><extensions><speed>1.733292</speed><course>76.640625</course><hAcc>1.303142</hAcc><vAcc>0.858238</vAcc></extensions></trkpt>
      <trkpt lon="-82.148671" lat="33.554385"><ele>94.507172</ele><time>2021-10-17T12:37:20Z</time><extensions><speed>1.737097</speed><course>93.867188</course><hAcc>1.303151</hAcc><vAcc>0.858240</vAcc></extensions></trkpt>
      <trkpt lon="-82.148652" lat="33.554389"><ele>94.538498</ele><time>2021-10-17T12:37:21Z</time><extensions><speed>1.741359</speed><course>80.859375</course><hAcc>1.303157</hAcc><vAcc>0.858241</vAcc></extensions></trkpt>
      <trkpt lon="-82.148634" lat="33.554393"><ele>94.564774</ele><time>2021-10-17T12:37:22Z</time><extensions><speed>1.746037</speed><course>65.390625</course><hAcc>1.303161</hAcc><vAcc>0.858241</vAcc></extensions></trkpt>
      <trkpt lon="-82.148616" lat="33.554397"><ele>94.585892</ele><time>2021-10-17T12:37:23Z</time><extensions><speed>1.750941</speed><course>72.421875</course><hAcc>1.303164</hAcc><vAcc>0.858242</vAcc></extensions></trkpt>
      <trkpt lon="-82.148598" lat="33.554401"><ele>94.601875</ele><time>2021-10-17T12:37:24Z</time><extensions><speed>1.755729</speed><course>76.640625</course><hAcc>1.303166</hAcc><vAcc>0.858242</vAcc></extensions></trkpt>
      <trkpt lon="-82.148579" lat="33.554405"><ele>94.612831</ele><time>2021-10-17T12:37:25Z</time><extensions><speed>1.760021</speed><course>84.375000</course><hAcc>1.303167</hAcc><vAcc>0.858242</vAcc></extensions></trkpt>
      <trkpt lon="-82.148561" lat="33.554409"><ele>94.618912</ele><time>2021-10-17T12:37:26Z</time><extensions><speed>1.763456</speed><course>79.101562</course><hAcc>1.303167</hAcc><vAcc>0.858242</vAcc></extensions></trkpt>
      <trkpt lon="-82.148543" lat="33.554413"><ele>94.620285</ele><time>2021-10-17T12:37:27Z</time><extensions><speed>1.765652</speed><course>70.312500</course><hAcc>1.303168</hAcc><vAcc>0.858242</vAcc></extensions></trkpt>
      <trkpt lon="-82.148524" lat="33.554418"><ele>94.617134</ele><time>2021-10-17T12:37:28Z</time><extensions><speed>1.766281</speed><course>65.039062</course><hAcc>1.303168</hAcc><vAcc>0.858242</vAcc></extensions></trkpt>
      <trkpt lon="-82.148506" lat="33.554422"><ele>94.609589</ele><time>2021-10-17T12:37:29Z</time><extensions><speed>1.765093</speed><course>64.687500</course><hAcc>1.303168</hAcc><vAcc>0.858242</vAcc></extensions></trkpt>
      <trkpt lon="-82.148488" lat="33.554426"><ele>94.597717</ele><time>2021-10-17T12:37:30Z</time><extensions><speed>1.761905</speed><course>61.171875</course><hAcc>1.303168</hAcc><vAcc>0.858242</vAcc></extensions></trkpt>
      <trkpt lon="-82.148470" lat="33.554431"><ele>94.581566</ele><time>2021-10-17T12:37:31Z</time><extensions><speed>1.756645</speed><course>61.171875</course><hAcc>1.303168</hAcc><vAcc>0.858242</vAcc></extensions></trkpt>
      <trkpt lon="-82.148452" lat="33.554435"><ele>94.561264</ele><time>2021-10-17T12:37:32Z</time><extensions><speed>1.749416</speed><course>63.281250</course><hAcc>1.303168</hAcc><vAcc>0.858243</vAcc></extensions></trkpt>
      <trkpt lon="-82.148433" lat="33.554439"><ele>94.537033</ele><time>2021-10-17T12:37:33Z</time><extensions><speed>1.740520</speed><course>63.281250</course><hAcc>1.303168</hAcc><vAcc>0.858243</vAcc></extensions></trkpt>
      <trkpt lon="-82.148415" lat="33.554443"><ele>94.509178</ele><time>2021-10-17T12:37:34Z</time><extensions><speed>1.730614</speed><course>60.468750</course><hAcc>1.303168</hAcc><vAcc>0.858243</vAcc></extensions></trkpt>
      <trkpt lon="-82.148397" lat="33.554447"><ele>94.478004</ele><time>2021-10-17T12:37:35Z</time><extensions><speed>1.720811</speed><course>44.648438</course><hAcc>1.303168</hAcc><vAcc>0.858243</vAcc></extensions></trkpt>
      <trkpt lon="-82.148379" lat="33.554450"><ele>94.443924</ele><time>2021-10-17T12:37:36Z</time><extensions><speed>1.712330</speed><course>53.437500</course><hAcc>1.303168</hAcc><vAcc>0.858243</vAcc></extensions></trkpt>
      <trkpt lon="-82.148361" lat="33.554454"><ele>94.407455</ele><time>2021-10-17T12:37:37Z</time><extensions><speed>1.706056</speed><course>58.359375</course><hAcc>1.303168</hAcc><vAcc>0.858243</vAcc></extensions></trkpt>
      <trkpt lon="-82.148343" lat="33.554457"><ele>94.369331</ele><time>2021-10-17T12:37:38Z</time><extensions><speed>1.702501</speed><course>68.554688</course><hAcc>1.303168</hAcc><vAcc>0.858243</vAcc></extensions></trkpt>
      <trkpt lon="-82.148325" lat="33.554460"><ele>94.330460</ele><time>2021-10-17T12:37:39Z</time><extensions><speed>1.701998</speed><course>72.773438</course><hAcc>1.303168</hAcc><vAcc>0.858243</vAcc></extensions></trkpt>
      <trkpt lon="-82.148307" lat="33.554462"><ele>94.291771</ele><time>2021-10-17T12:37:40Z</time><extensions><speed>1.704699</speed><course>71.718750</course><hAcc>1.303168</hAcc><vAcc>0.858243</vAcc></extensions></trkpt>
      <trkpt lon="-82.148289" lat="33.554465"><ele>94.254044</ele><time>2021-10-17T12:37:41Z</time><extensions><speed>1.710604</speed><course>64.687500</course><hAcc>1.303168</hAcc><vAcc>0.858243</vAcc></extensions></trkpt>
      <trkpt lon="-82.148271" lat="33.554467"><ele>94.217812</ele><time>2021-10-17T12:37:42Z</time><extensions><speed>1.719573</speed><course>68.203125</course><hAcc>1.303168</hAcc><vAcc>0.858243</vAcc></extensions></trkpt>
      <trkpt lon="-82.148253" lat="33.554470"><ele>94.183403</ele><time>2021-10-17T12:37:43Z</time><extensions><speed>1.731272</speed><course>67.148438</course><hAcc>1.303168</hAcc><vAcc>0.858243</vAcc></extensions></trkpt>
      <trkpt lon="-82.148234" lat="33.554472"><ele>94.151024</ele><time>2021-10-17T12:37:44Z</time><extensions><speed>1.745287</speed><course>71.718750</course><hAcc>1.303168</hAcc><vAcc>0.858243</vAcc></extensions></trkpt>
      <trkpt lon="-82.148215" lat="33.554474"><ele>94.120728</ele><time>2021-10-17T12:37:45Z</time><extensions><speed>1.761294</speed><course>76.289062</course><hAcc>1.303168</hAcc><vAcc>0.858243</vAcc></extensions></trkpt>
      <trkpt lon="-82.148196" lat="33.554476"><ele>94.092476</ele><time>2021-10-17T12:37:46Z</time><extensions><speed>1.779115</speed><course>74.179688</course><hAcc>1.303168</hAcc><vAcc>0.858243</vAcc></extensions></trkpt>
      <trkpt lon="-82.148177" lat="33.554478"><ele>94.066109</ele><time>2021-10-17T12:37:47Z</time><extensions><speed>1.798600</speed><course>74.179688</course><hAcc>1.303168</hAcc><vAcc>0.858243</vAcc></extensions></trkpt>
      <trkpt lon="-82.148158" lat="33.554480"><ele>94.041313</ele><time>2021-10-17T12:37:48Z</time><extensions><speed>1.819411</speed><course>53.789062</course><hAcc>1.303168</hAcc><vAcc>0.858243</vAcc></extensions></trkpt>
      <trkpt lon="-82.148138" lat="33.554482"><ele>94.017601</ele><time>2021-10-17T12:37:49Z</time><extensions><speed>1.840772</speed><course>46.406250</course><hAcc>1.303168</hAcc><vAcc>0.858243</vAcc></extensions></trkpt>
      <trkpt lon="-82.148119" lat="33.554484"><ele>93.994331</ele><time>2021-10-17T12:37:50Z</time><extensions><speed>1.861318</speed><course>41.132812</course><hAcc>1.303168</hAcc><vAcc>0.858243</vAcc></extensions></trkpt>
      <trkpt lon="-82.148099" lat="33.554485"><ele>93.970833</ele><time>2021-10-17T12:37:51Z</time><extensions><speed>1.879187</speed><course>77.343750</course><hAcc>1.303168</hAcc><vAcc>0.858243</vAcc></extensions></trkpt>
      <trkpt lon="-82.148078" lat="33.554487"><ele>93.946449</ele><time>2021-10-17T12:37:52Z</time><extensions><speed>1.892791</speed><course>87.890625</course><hAcc>1.303168</hAcc><vAcc>0.858243</vAcc></extensions></trkpt>
      <trkpt lon="-82.148058" lat="33.554490"><ele>93.920509</ele><time>2021-10-17T12:37:53Z</time><extensions><speed>1.901423</speed><course>94.921875</course><hAcc>1.303168</hAcc><vAcc>0.858243</vAcc></extensions></trkpt>
      <trkpt lon="-82.148038" lat="33.554492"><ele>93.892250</ele><time>2021-10-17T12:37:54Z</time><extensions><speed>1.904928</speed><course>96.679688</course><hAcc>1.303168</hAcc><vAcc>0.858243</vAcc></extensions></trkpt>
      <trkpt lon="-82.148017" lat="33.554494"><ele>93.860870</ele><time>2021-10-17T12:37:55Z</time><extensions><speed>1.903394</speed><course>97.031250</course><hAcc>1.303168</hAcc><vAcc>0.858243</vAcc></extensions></trkpt>
      <trkpt lon="-82.147997" lat="33.554497"><ele>93.825615</ele><time>2021-10-17T12:37:56Z</time><extensions><speed>1.897091</speed><course>99.492188</course><hAcc>1.303167</hAcc><vAcc>0.858243</vAcc></extensions></trkpt>
      <trkpt lon="-82.147977" lat="33.554500"><ele>93.785912</ele><time>2021-10-17T12:37:57Z</time><extensions><speed>1.886475</speed><course>96.328125</course><hAcc>1.303167</hAcc><vAcc>0.858243</vAcc></extensions></trkpt>
      <trkpt lon="-82.147958" lat="33.554504"><ele>93.741333</ele><time>2021-10-17T12:37:58Z</time><extensions><speed>1.872303</speed><course>88.945312</course><hAcc>1.303167</hAcc><vAcc>0.858243</vAcc></extensions></trkpt>
      <trkpt lon="-82.147938" lat="33.554508"><ele>93.691582</ele><time>2021-10-17T12:37:59Z</time><extensions><speed>1.855534</speed><course>82.617188</course><hAcc>1.303167</hAcc><vAcc>0.858243</vAcc></extensions></trkpt>
      <trkpt lon="-82.147919" lat="33.554512"><ele>93.636520</ele><time>2021-10-17T12:38:00Z</time><extensions><speed>1.837052</speed><course>73.476562</course><hAcc>1.303167</hAcc><vAcc>0.858243</vAcc></extensions></trkpt>
      <trkpt lon="-82.147900" lat="33.554517"><ele>93.576225</ele><time>2021-10-17T12:38:01Z</time><extensions><speed>1.817580</speed><course>71.367188</course><hAcc>1.303167</hAcc><vAcc>0.858243</vAcc></extensions></trkpt>
      <trkpt lon="-82.147882" lat="33.554523"><ele>93.511024</ele><time>2021-10-17T12:38:02Z</time><extensions><speed>1.797748</speed><course>73.125000</course><hAcc>1.303167</hAcc><vAcc>0.858243</vAcc></extensions></trkpt>
      <trkpt lon="-82.147864" lat="33.554528"><ele>93.441505</ele><time>2021-10-17T12:38:03Z</time><extensions><speed>1.778197</speed><course>70.312500</course><hAcc>1.303167</hAcc><vAcc>0.858243</vAcc></extensions></trkpt>
      <trkpt lon="-82.147846" lat="33.554534"><ele>93.368500</ele><time>2021-10-17T12:38:04Z</time><extensions><speed>1.759597</speed><course>101.601562</course><hAcc>1.303166</hAcc><vAcc>0.858243</vAcc></extensions></trkpt>
      <trkpt lon="-82.147829" lat="33.554541"><ele>93.292999</ele><time>2021-10-17T12:38:05Z</time><extensions><speed>1.742516</speed><course>69.609375</course><hAcc>1.303165</hAcc><vAcc>0.858243</vAcc></extensions></trkpt>
      <trkpt lon="-82.147812" lat="33.554547"><ele>93.216103</ele><time>2021-10-17T12:38:06Z</time><extensions><speed>1.727365</speed><course>69.257812</course><hAcc>1.303163</hAcc><vAcc>0.858243</vAcc></extensions></trkpt>
      <trkpt lon="-82.147795" lat="33.554554"><ele>93.138924</ele><time>2021-10-17T12:38:07Z</time><extensions><speed>1.714568</speed><course>77.695312</course><hAcc>1.303160</hAcc><vAcc>0.858242</vAcc></extensions></trkpt>
      <trkpt lon="-82.147779" lat="33.554561"><ele>93.062553</ele><time>2021-10-17T12:38:08Z</time><extensions><speed>1.704568</speed><course>71.015625</course><hAcc>1.303156</hAcc><vAcc>0.858242</vAcc></extensions></trkpt>
      <trkpt lon="-82.147763" lat="33.554569"><ele>92.987976</ele><time>2021-10-17T12:38:09Z</time><extensions><speed>1.697593</speed><course>68.906250</course><hAcc>1.303150</hAcc><vAcc>0.858241</vAcc></extensions></trkpt>
      <trkpt lon="-82.147747" lat="33.554576"><ele>92.915894</ele><time>2021-10-17T12:38:10Z</time><extensions><speed>1.693551</speed><course>72.070312</course><hAcc>1.303142</hAcc><vAcc>0.858239</vAcc></extensions></trkpt>
      <trkpt lon="-82.147731" lat="33.554584"><ele>92.846718</ele><time>2021-10-17T12:38:11Z</time><extensions><speed>1.691997</speed><course>70.312500</course><hAcc>1.303130</hAcc><vAcc>0.858237</vAcc></extensions></trkpt>
      <trkpt lon="-82.147716" lat="33.554592"><ele>92.780708</ele><time>2021-10-17T12:38:12Z</time><extensions><speed>1.692278</speed><course>73.125000</course><hAcc>1.303115</hAcc><vAcc>0.858234</vAcc></extensions></trkpt>
      <trkpt lon="-82.147700" lat="33.554599"><ele>92.718102</ele><time>2021-10-17T12:38:13Z</time><extensions><speed>1.693728</speed><course>68.203125</course><hAcc>1.303096</hAcc><vAcc>0.858229</vAcc></extensions></trkpt>
      <trkpt lon="-82.147684" lat="33.554607"><ele>92.659065</ele><time>2021-10-17T12:38:14Z</time><extensions><speed>1.695727</speed><course>67.500000</course><hAcc>1.303071</hAcc><vAcc>0.858223</vAcc></extensions></trkpt>
      <trkpt lon="-82.147669" lat="33.554615"><ele>92.603775</ele><time>2021-10-17T12:38:15Z</time><extensions><speed>1.697677</speed><course>55.898438</course><hAcc>1.303042</hAcc><vAcc>0.858214</vAcc></extensions></trkpt>
      <trkpt lon="-82.147653" lat="33.554623"><ele>92.552391</ele><time>2021-10-17T12:38:16Z</time><extensions><speed>1.699027</speed><course>58.710938</course><hAcc>1.303006</hAcc><vAcc>0.858204</vAcc></extensions></trkpt>
      <trkpt lon="-82.147637" lat="33.554631"><ele>92.505081</ele><time>2021-10-17T12:38:17Z</time><extensions><speed>1.699440</speed><course>56.953125</course><hAcc>1.302965</hAcc><vAcc>0.858191</vAcc></extensions></trkpt>
      <trkpt lon="-82.147622" lat="33.554639"><ele>92.461929</ele><time>2021-10-17T12:38:18Z</time><extensions><speed>1.698858</speed><course>59.062500</course><hAcc>1.302918</hAcc><vAcc>0.858176</vAcc></extensions></trkpt>
      <trkpt lon="-82.147606" lat="33.554647"><ele>92.422867</ele><time>2021-10-17T12:38:19Z</time><extensions><speed>1.697475</speed><course>59.414062</course><hAcc>1.302867</hAcc><vAcc>0.858158</vAcc></extensions></trkpt>
      <trkpt lon="-82.147590" lat="33.554655"><ele>92.387711</ele><time>2021-10-17T12:38:20Z</time><extensions><speed>1.695598</speed><course>63.632812</course><hAcc>1.302813</hAcc><vAcc>0.858138</vAcc></extensions></trkpt>
      <trkpt lon="-82.147574" lat="33.554662"><ele>92.356117</ele><time>2021-10-17T12:38:21Z</time><extensions><speed>1.693434</speed><course>73.476562</course><hAcc>1.302758</hAcc><vAcc>0.858116</vAcc></extensions></trkpt>
      <trkpt lon="-82.147558" lat="33.554670"><ele>92.327682</ele><time>2021-10-17T12:38:22Z</time><extensions><speed>1.690852</speed><course>72.421875</course><hAcc>1.302706</hAcc><vAcc>0.858092</vAcc></extensions></trkpt>
      <trkpt lon="-82.147543" lat="33.554677"><ele>92.302010</ele><time>2021-10-17T12:38:23Z</time><extensions><speed>1.687384</speed><course>68.203125</course><hAcc>1.302659</hAcc><vAcc>0.858069</vAcc></extensions></trkpt>
      <trkpt lon="-82.147527" lat="33.554684"><ele>92.278915</ele><time>2021-10-17T12:38:24Z</time><extensions><speed>1.682528</speed><course>47.460938</course><hAcc>1.302621</hAcc><vAcc>0.858047</vAcc></extensions></trkpt>
      <trkpt lon="-82.147511" lat="33.554691"><ele>92.258438</ele><time>2021-10-17T12:38:25Z</time><extensions><speed>1.675865</speed><course>56.953125</course><hAcc>1.302593</hAcc><vAcc>0.858027</vAcc></extensions></trkpt>
      <trkpt lon="-82.147495" lat="33.554699"><ele>92.240807</ele><time>2021-10-17T12:38:26Z</time><extensions><speed>1.667059</speed><course>50.625000</course><hAcc>1.302578</hAcc><vAcc>0.858012</vAcc></extensions></trkpt>
      <trkpt lon="-82.147479" lat="33.554706"><ele>92.226181</ele><time>2021-10-17T12:38:27Z</time><extensions><speed>1.655860</speed><course>46.757812</course><hAcc>1.302572</hAcc><vAcc>0.858002</vAcc></extensions></trkpt>
      <trkpt lon="-82.147463" lat="33.554713"><ele>92.214539</ele><time>2021-10-17T12:38:28Z</time><extensions><speed>1.642080</speed><course>47.460938</course><hAcc>1.302567</hAcc><vAcc>0.857997</vAcc></extensions></trkpt>
      <trkpt lon="-82.147448" lat="33.554720"><ele>92.205650</ele><time>2021-10-17T12:38:29Z</time><extensions><speed>1.625640</speed><course>48.515625</course><hAcc>1.302547</hAcc><vAcc>0.857995</vAcc></extensions></trkpt>
      <trkpt lon="-82.147433" lat="33.554727"><ele>92.199097</ele><time>2021-10-17T12:38:30Z</time><extensions><speed>1.606704</speed><course>60.820312</course><hAcc>1.302483</hAcc><vAcc>0.857989</vAcc></extensions></trkpt>
      <trkpt lon="-82.147418" lat="33.554734"><ele>92.194244</ele><time>2021-10-17T12:38:31Z</time><extensions><speed>1.585987</speed><course>77.343750</course><hAcc>1.302330</hAcc><vAcc>0.857969</vAcc></extensions></trkpt>
      <trkpt lon="-82.147403" lat="33.554741"><ele>92.190239</ele><time>2021-10-17T12:38:32Z</time><extensions><speed>1.564814</speed><course>83.320312</course><hAcc>1.302024</hAcc><vAcc>0.857917</vAcc></extensions></trkpt>
      <trkpt lon="-82.147389" lat="33.554748"><ele>92.186165</ele><time>2021-10-17T12:38:33Z</time><extensions><speed>1.544836</speed><course>85.078125</course><hAcc>1.301469</hAcc><vAcc>0.857806</vAcc></extensions></trkpt>
      <trkpt lon="-82.147375" lat="33.554756"><ele>92.181061</ele><time>2021-10-17T12:38:34Z</time><extensions><speed>1.527866</speed><course>80.507812</course><hAcc>1.300541</hAcc><vAcc>0.857594</vAcc></extensions></trkpt>
      <trkpt lon="-82.147362" lat="33.554764"><ele>92.173981</ele><time>2021-10-17T12:38:35Z</time><extensions><speed>1.515740</speed><course>83.671875</course><hAcc>1.299075</hAcc><vAcc>0.857228</vAcc></extensions></trkpt>
      <trkpt lon="-82.147350" lat="33.554773"><ele>92.163918</ele><time>2021-10-17T12:38:36Z</time><extensions><speed>1.510011</speed><course>70.312500</course><hAcc>1.296861</hAcc><vAcc>0.856633</vAcc></extensions></trkpt>
      <trkpt lon="-82.147338" lat="33.554783"><ele>92.149963</ele><time>2021-10-17T12:38:37Z</time><extensions><speed>1.511707</speed><course>48.867188</course><hAcc>1.293644</hAcc><vAcc>0.855713</vAcc></extensions></trkpt>
      <trkpt lon="-82.147327" lat="33.554792"><ele>92.131256</ele><time>2021-10-17T12:38:38Z</time><extensions><speed>1.521234</speed><course>40.429688</course><hAcc>1.289117</hAcc><vAcc>0.854349</vAcc></extensions></trkpt>
      <trkpt lon="-82.147316" lat="33.554803"><ele>92.107048</ele><time>2021-10-17T12:38:39Z</time><extensions><speed>1.538308</speed><course>38.671875</course><hAcc>1.282925</hAcc><vAcc>0.852401</vAcc></extensions></trkpt>
      <trkpt lon="-82.147306" lat="33.554814"><ele>92.076675</ele><time>2021-10-17T12:38:40Z</time><extensions><speed>1.562178</speed><course>46.054688</course><hAcc>1.274676</hAcc><vAcc>0.849704</vAcc></extensions></trkpt>
      <trkpt lon="-82.147297" lat="33.554826"><ele>92.039482</ele><time>2021-10-17T12:38:41Z</time><extensions><speed>1.591739</speed><course>43.242188</course><hAcc>1.263946</hAcc><vAcc>0.846074</vAcc></extensions></trkpt>
      <trkpt lon="-82.147288" lat="33.554839"><ele>91.994858</ele><time>2021-10-17T12:38:42Z</time><extensions><speed>1.625510</speed><course>42.890625</course><hAcc>1.250310</hAcc><vAcc>0.841322</vAcc></extensions></trkpt>
      <trkpt lon="-82.147280" lat="33.554852"><ele>91.942261</ele><time>2021-10-17T12:38:43Z</time><extensions><speed>1.661842</speed><course>38.671875</course><hAcc>1.233367</hAcc><vAcc>0.835258</vAcc></extensions></trkpt>
      <trkpt lon="-82.147272" lat="33.554865"><ele>91.881264</ele><time>2021-10-17T12:38:44Z</time><extensions><speed>1.698937</speed><course>37.968750</course><hAcc>1.212787</hAcc><vAcc>0.827720</vAcc></extensions></trkpt>
      <trkpt lon="-82.147265" lat="33.554880"><ele>91.811630</ele><time>2021-10-17T12:38:45Z</time><extensions><speed>1.734742</speed><course>25.664062</course><hAcc>1.188376</hAcc><vAcc>0.818593</vAcc></extensions></trkpt>
      <trkpt lon="-82.147258" lat="33.554894"><ele>91.733452</ele><time>2021-10-17T12:38:46Z</time><extensions><speed>1.767112</speed><course>9.843750</course><hAcc>1.160147</hAcc><vAcc>0.807846</vAcc></extensions></trkpt>
      <trkpt lon="-82.147252" lat="33.554910"><ele>91.647270</ele><time>2021-10-17T12:38:47Z</time><extensions><speed>1.794003</speed><course>12.304688</course><hAcc>1.128422</hAcc><vAcc>0.795575</vAcc></extensions></trkpt>
      <trkpt lon="-82.147245" lat="33.554925"><ele>91.554153</ele><time>2021-10-17T12:38:48Z</time><extensions><speed>1.813813</speed><course>17.929688</course><hAcc>1.093945</hAcc><vAcc>0.782045</vAcc></extensions></trkpt>
      <trkpt lon="-82.147239" lat="33.554941"><ele>91.455544</ele><time>2021-10-17T12:38:49Z</time><extensions><speed>1.825737</speed><course>28.125000</course><hAcc>1.057984</hAcc><vAcc>0.767733</vAcc></extensions></trkpt>
      <trkpt lon="-82.147234" lat="33.554956"><ele>91.352997</ele><time>2021-10-17T12:38:50Z</time><extensions><speed>1.829502</speed><course>21.796875</course><hAcc>1.022420</hAcc><vAcc>0.753363</vAcc></extensions></trkpt>
      <trkpt lon="-82.147228" lat="33.554972"><ele>91.248100</ele><time>2021-10-17T12:38:51Z</time><extensions><speed>1.825243</speed><course>28.125000</course><hAcc>0.989386</hAcc><vAcc>0.739768</vAcc></extensions></trkpt>
      <trkpt lon="-82.147222" lat="33.554988"><ele>91.142479</ele><time>2021-10-17T12:38:52Z</time><extensions><speed>1.813457</speed><course>28.476562</course><hAcc>0.960525</hAcc><vAcc>0.727608</vAcc></extensions></trkpt>
      <trkpt lon="-82.147217" lat="33.555003"><ele>91.037827</ele><time>2021-10-17T12:38:53Z</time><extensions><speed>1.794523</speed><course>21.796875</course><hAcc>0.936660</hAcc><vAcc>0.717256</vAcc></extensions></trkpt>
      <trkpt lon="-82.147211" lat="33.555019"><ele>90.935745</ele><time>2021-10-17T12:38:54Z</time><extensions><speed>1.768625</speed><course>16.523438</course><hAcc>0.917918</hAcc><vAcc>0.708832</vAcc></extensions></trkpt>
      <trkpt lon="-82.147206" lat="33.555034"><ele>90.837723</ele><time>2021-10-17T12:38:55Z</time><extensions><speed>1.736135</speed><course>10.898438</course><hAcc>0.903916</hAcc><vAcc>0.702269</vAcc></extensions></trkpt>
      <trkpt lon="-82.147200" lat="33.555049"><ele>90.745087</ele><time>2021-10-17T12:38:56Z</time><extensions><speed>1.697739</speed><course>10.195312</course><hAcc>0.893973</hAcc><vAcc>0.697382</vAcc></extensions></trkpt>
      <trkpt lon="-82.147194" lat="33.555063"><ele>90.658897</ele><time>2021-10-17T12:38:57Z</time><extensions><speed>1.654311</speed><course>3.867188</course><hAcc>0.887287</hAcc><vAcc>0.693933</vAcc></extensions></trkpt>
      <trkpt lon="-82.147187" lat="33.555076"><ele>90.579727</ele><time>2021-10-17T12:38:58Z</time><extensions><speed>1.606879</speed><course>12.304688</course><hAcc>0.883080</hAcc><vAcc>0.691679</vAcc></extensions></trkpt>
      <trkpt lon="-82.147180" lat="33.555089"><ele>90.507515</ele><time>2021-10-17T12:38:59Z</time><extensions><speed>1.556573</speed><course>23.906250</course><hAcc>0.880679</hAcc><vAcc>0.690409</vAcc></extensions></trkpt>
      <trkpt lon="-82.147173" lat="33.555102"><ele>90.441406</ele><time>2021-10-17T12:39:00Z</time><extensions><speed>1.504576</speed><course>31.289062</course><hAcc>0.879563</hAcc><vAcc>0.689967</vAcc></extensions></trkpt>
      <trkpt lon="-82.147166" lat="33.555114"><ele>90.379578</ele><time>2021-10-17T12:39:01Z</time><extensions><speed>1.452142</speed><course>31.289062</course><hAcc>0.879368</hAcc><vAcc>0.690263</vAcc></extensions></trkpt>
      <trkpt lon="-82.147158" lat="33.555125"><ele>90.319427</ele><time>2021-10-17T12:39:02Z</time><extensions><speed>1.400360</speed><course>26.367188</course><hAcc>0.879872</hAcc><vAcc>0.691272</vAcc></extensions></trkpt>
      <trkpt lon="-82.147150" lat="33.555135"><ele>90.258034</ele><time>2021-10-17T12:39:03Z</time><extensions><speed>1.350199</speed><course>50.625000</course><hAcc>0.880974</hAcc><vAcc>0.693025</vAcc></extensions></trkpt>
      <trkpt lon="-82.147142" lat="33.555145"><ele>90.192673</ele><time>2021-10-17T12:39:04Z</time><extensions><speed>1.302520</speed><course>36.562500</course><hAcc>0.882655</hAcc><vAcc>0.695595</vAcc></extensions></trkpt>
      <trkpt lon="-82.147134" lat="33.555155"><ele>90.121033</ele><time>2021-10-17T12:39:05Z</time><extensions><speed>1.258072</speed><course>51.328125</course><hAcc>0.884954</hAcc><vAcc>0.699074</vAcc></extensions></trkpt>
      <trkpt lon="-82.147126" lat="33.555163"><ele>90.041458</ele><time>2021-10-17T12:39:06Z</time><extensions><speed>1.218066</speed><course>53.789062</course><hAcc>0.887925</hAcc><vAcc>0.703542</vAcc></extensions></trkpt>
      <trkpt lon="-82.147118" lat="33.555172"><ele>89.953072</ele><time>2021-10-17T12:39:07Z</time><extensions><speed>1.184787</speed><course>63.281250</course><hAcc>0.891606</hAcc><vAcc>0.709034</vAcc></extensions></trkpt>
      <trkpt lon="-82.147110" lat="33.555180"><ele>89.855911</ele><time>2021-10-17T12:39:08Z</time><extensions><speed>1.161106</speed><course>86.835938</course><hAcc>0.895980</hAcc><vAcc>0.715500</vAcc></extensions></trkpt>
      <trkpt lon="-82.147103" lat="33.555189"><ele>89.750740</ele><time>2021-10-17T12:39:09Z</time><extensions><speed>1.148990</speed><course>56.953125</course><hAcc>0.900941</hAcc><vAcc>0.722765</vAcc></extensions></trkpt>
      <trkpt lon="-82.147096" lat="33.555197"><ele>89.638840</ele><time>2021-10-17T12:39:10Z</time><extensions><speed>1.148868</speed><course>30.585938</course><hAcc>0.906269</hAcc><vAcc>0.730510</vAcc></extensions></trkpt>
      <trkpt lon="-82.147089" lat="33.555206"><ele>89.521461</ele><time>2021-10-17T12:39:11Z</time><extensions><speed>1.160445</speed><course>17.929688</course><hAcc>0.911690</hAcc><vAcc>0.738342</vAcc></extensions></trkpt>
      <trkpt lon="-82.147082" lat="33.555215"><ele>89.399597</ele><time>2021-10-17T12:39:12Z</time><extensions><speed>1.182478</speed><course>34.101562</course><hAcc>0.916947</hAcc><vAcc>0.745894</vAcc></extensions></trkpt>
      <trkpt lon="-82.147076" lat="33.555224"><ele>89.273972</ele><time>2021-10-17T12:39:13Z</time><extensions><speed>1.213112</speed><course>47.812500</course><hAcc>0.921775</hAcc><vAcc>0.752792</vAcc></extensions></trkpt>
      <trkpt lon="-82.147070" lat="33.555234"><ele>89.145264</ele><time>2021-10-17T12:39:14Z</time><extensions><speed>1.250973</speed><course>52.382812</course><hAcc>0.925967</hAcc><vAcc>0.758738</vAcc></extensions></trkpt>
      <trkpt lon="-82.147064" lat="33.555244"><ele>89.014374</ele><time>2021-10-17T12:39:15Z</time><extensions><speed>1.294429</speed><course>41.835938</course><hAcc>0.929344</hAcc><vAcc>0.763481</vAcc></extensions></trkpt>
      <trkpt lon="-82.147059" lat="33.555256"><ele>88.882484</ele><time>2021-10-17T12:39:16Z</time><extensions><speed>1.341899</speed><course>30.585938</course><hAcc>0.931649</hAcc><vAcc>0.766678</vAcc></extensions></trkpt>
      <trkpt lon="-82.147054" lat="33.555267"><ele>88.750984</ele><time>2021-10-17T12:39:17Z</time><extensions><speed>1.392188</speed><course>20.742188</course><hAcc>0.932629</hAcc><vAcc>0.767997</vAcc></extensions></trkpt>
      <trkpt lon="-82.147050" lat="33.555279"><ele>88.621193</ele><time>2021-10-17T12:39:18Z</time><extensions><speed>1.443951</speed><course>13.359375</course><hAcc>0.932120</hAcc><vAcc>0.767235</vAcc></extensions></trkpt>
      <trkpt lon="-82.147046" lat="33.555292"><ele>88.494240</ele><time>2021-10-17T12:39:19Z</time><extensions><speed>1.495752</speed><course>11.953125</course><hAcc>0.930064</hAcc><vAcc>0.764326</vAcc></extensions></trkpt>
      <trkpt lon="-82.147043" lat="33.555306"><ele>88.371162</ele><time>2021-10-17T12:39:20Z</time><extensions><speed>1.546029</speed><course>13.007812</course><hAcc>0.926521</hAcc><vAcc>0.759362</vAcc></extensions></trkpt>
      <trkpt lon="-82.147041" lat="33.555320"><ele>88.253052</ele><time>2021-10-17T12:39:21Z</time><extensions><speed>1.593328</speed><course>23.906250</course><hAcc>0.921687</hAcc><vAcc>0.752612</vAcc></extensions></trkpt>
      <trkpt lon="-82.147039" lat="33.555334"><ele>88.141197</ele><time>2021-10-17T12:39:22Z</time><extensions><speed>1.636605</speed><course>18.281250</course><hAcc>0.915911</hAcc><vAcc>0.744552</vAcc></extensions></trkpt>
      <trkpt lon="-82.147037" lat="33.555349"><ele>88.037132</ele><time>2021-10-17T12:39:23Z</time><extensions><speed>1.675103</speed><course>14.765625</course><hAcc>0.909712</hAcc><vAcc>0.735878</vAcc></extensions></trkpt>
      <trkpt lon="-82.147036" lat="33.555364"><ele>87.942596</ele><time>2021-10-17T12:39:24Z</time><extensions><speed>1.708249</speed><course>8.085938</course><hAcc>0.903695</hAcc><vAcc>0.727413</vAcc></extensions></trkpt>
      <trkpt lon="-82.147035" lat="33.555380"><ele>87.859352</ele><time>2021-10-17T12:39:25Z</time><extensions><speed>1.735560</speed><course>356.132812</course><hAcc>0.898384</hAcc><vAcc>0.719888</vAcc></extensions></trkpt>
      <trkpt lon="-82.147035" lat="33.555396"><ele>87.788841</ele><time>2021-10-17T12:39:26Z</time><extensions><speed>1.756724</speed><course>1.406250</course><hAcc>0.894152</hAcc><vAcc>0.713845</vAcc></extensions></trkpt>
      <trkpt lon="-82.147034" lat="33.555412"><ele>87.731979</ele><time>2021-10-17T12:39:27Z</time><extensions><speed>1.771510</speed><course>349.453125</course><hAcc>0.891243</hAcc><vAcc>0.709659</vAcc></extensions></trkpt>
      <trkpt lon="-82.147034" lat="33.555428"><ele>87.688980</ele><time>2021-10-17T12:39:28Z</time><extensions><speed>1.779259</speed><course>351.562500</course><hAcc>0.889804</hAcc><vAcc>0.707567</vAcc></extensions></trkpt>
      <trkpt lon="-82.147034" lat="33.555444"><ele>87.659302</ele><time>2021-10-17T12:39:29Z</time><extensions><speed>1.779128</speed><course>351.562500</course><hAcc>0.889911</hAcc><vAcc>0.707697</vAcc></extensions></trkpt>
      <trkpt lon="-82.147033" lat="33.555460"><ele>87.641701</ele><time>2021-10-17T12:39:30Z</time><extensions><speed>1.770881</speed><course>9.492188</course><hAcc>0.891588</hAcc><vAcc>0.710089</vAcc></extensions></trkpt>
      <trkpt lon="-82.147033" lat="33.555475"><ele>87.634453</ele><time>2021-10-17T12:39:31Z</time><extensions><speed>1.755112</speed><course>14.062500</course><hAcc>0.894803</hAcc><vAcc>0.714695</vAcc></extensions></trkpt>
      <trkpt lon="-82.147032" lat="33.555491"><ele>87.635857</ele><time>2021-10-17T12:39:32Z</time><extensions><speed>1.733452</speed><course>14.414062</course><hAcc>0.899462</hAcc><vAcc>0.721363</vAcc></extensions></trkpt>
      <trkpt lon="-82.147031" lat="33.555507"><ele>87.644714</ele><time>2021-10-17T12:39:33Z</time><extensions><speed>1.708079</speed><course>2.109375</course><hAcc>0.905378</hAcc><vAcc>0.729810</vAcc></extensions></trkpt>
      <trkpt lon="-82.147031" lat="33.555522"><ele>87.660454</ele><time>2021-10-17T12:39:34Z</time><extensions><speed>1.680494</speed><course>347.343750</course><hAcc>0.912241</hAcc><vAcc>0.739595</vAcc></extensions></trkpt>
      <trkpt lon="-82.147030" lat="33.555537"><ele>87.682877</ele><time>2021-10-17T12:39:35Z</time><extensions><speed>1.651245</speed><course>344.531250</course><hAcc>0.919601</hAcc><vAcc>0.750095</vAcc></extensions></trkpt>
      <trkpt lon="-82.147030" lat="33.555552"><ele>87.711746</ele><time>2021-10-17T12:39:36Z</time><extensions><speed>1.620446</speed><course>21.796875</course><hAcc>0.926936</hAcc><vAcc>0.760602</vAcc></extensions></trkpt>
      <trkpt lon="-82.147029" lat="33.555566"><ele>87.746529</ele><time>2021-10-17T12:39:37Z</time><extensions><speed>1.588537</speed><course>7.031250</course><hAcc>0.933825</hAcc><vAcc>0.770539</vAcc></extensions></trkpt>
      <trkpt lon="-82.147029" lat="33.555580"><ele>87.786255</ele><time>2021-10-17T12:39:38Z</time><extensions><speed>1.556470</speed><course>13.359375</course><hAcc>0.940029</hAcc><vAcc>0.779551</vAcc></extensions></trkpt>
      <trkpt lon="-82.147030" lat="33.555594"><ele>87.829628</ele><time>2021-10-17T12:39:39Z</time><extensions><speed>1.525435</speed><course>356.484375</course><hAcc>0.945479</hAcc><vAcc>0.787478</vAcc></extensions></trkpt>
      <trkpt lon="-82.147031" lat="33.555608"><ele>87.875252</ele><time>2021-10-17T12:39:40Z</time><extensions><speed>1.496680</speed><course>1.406250</course><hAcc>0.950262</hAcc><vAcc>0.794318</vAcc></extensions></trkpt>
      <trkpt lon="-82.147032" lat="33.555621"><ele>87.921898</ele><time>2021-10-17T12:39:41Z</time><extensions><speed>1.471397</speed><course>354.023438</course><hAcc>0.954605</hAcc><vAcc>0.800187</vAcc></extensions></trkpt>
      <trkpt lon="-82.147034" lat="33.555634"><ele>87.968605</ele><time>2021-10-17T12:39:42Z</time><extensions><speed>1.450674</speed><course>353.671875</course><hAcc>0.958865</hAcc><vAcc>0.805287</vAcc></extensions></trkpt>
      <trkpt lon="-82.147037" lat="33.555647"><ele>88.014702</ele><time>2021-10-17T12:39:43Z</time><extensions><speed>1.435537</speed><course>354.023438</course><hAcc>0.963524</hAcc><vAcc>0.809872</vAcc></extensions></trkpt>
      <trkpt lon="-82.147040" lat="33.555660"><ele>88.059883</ele><time>2021-10-17T12:39:44Z</time><extensions><speed>1.426782</speed><course>346.992188</course><hAcc>0.969178</hAcc><vAcc>0.814230</vAcc></extensions></trkpt>
      <trkpt lon="-82.147043" lat="33.555672"><ele>88.104225</ele><time>2021-10-17T12:39:45Z</time><extensions><speed>1.424645</speed><course>346.289062</course><hAcc>0.976524</hAcc><vAcc>0.818656</vAcc></extensions></trkpt>
      <trkpt lon="-82.147047" lat="33.555685"><ele>88.148094</ele><time>2021-10-17T12:39:46Z</time><extensions><speed>1.428979</speed><course>343.125000</course><hAcc>0.986314</hAcc><vAcc>0.823428</vAcc></extensions></trkpt>
      <trkpt lon="-82.147051" lat="33.555697"><ele>88.192055</ele><time>2021-10-17T12:39:47Z</time><extensions><speed>1.439655</speed><course>348.750000</course><hAcc>0.999292</hAcc><vAcc>0.828789</vAcc></extensions></trkpt>
      <trkpt lon="-82.147056" lat="33.555710"><ele>88.236732</ele><time>2021-10-17T12:39:48Z</time><extensions><speed>1.456785</speed><course>346.640625</course><hAcc>1.016080</hAcc><vAcc>0.834912</vAcc></extensions></trkpt>
      <trkpt lon="-82.147061" lat="33.555722"><ele>88.282791</ele><time>2021-10-17T12:39:49Z</time><extensions><speed>1.480569</speed><course>354.023438</course><hAcc>1.037041</hAcc><vAcc>0.841879</vAcc></extensions></trkpt>
      <trkpt lon="-82.147066" lat="33.555735"><ele>88.330742</ele><time>2021-10-17T12:39:50Z</time><extensions><speed>1.510513</speed><course>338.906250</course><hAcc>1.062110</hAcc><vAcc>0.849642</vAcc></extensions></trkpt>
      <trkpt lon="-82.147071" lat="33.555748"><ele>88.380760</ele><time>2021-10-17T12:39:51Z</time><extensions><speed>1.545112</speed><course>327.656250</course><hAcc>1.090643</hAcc><vAcc>0.858005</vAcc></extensions></trkpt>
      <trkpt lon="-82.147076" lat="33.555762"><ele>88.432594</ele><time>2021-10-17T12:39:52Z</time><extensions><speed>1.582232</speed><course>339.960938</course><hAcc>1.121298</hAcc><vAcc>0.866599</vAcc></extensions></trkpt>
      <trkpt lon="-82.147081" lat="33.555775"><ele>88.485687</ele><time>2021-10-17T12:39:53Z</time><extensions><speed>1.620018</speed><course>353.671875</course><hAcc>1.152300</hAcc><vAcc>0.874966</vAcc></extensions></trkpt>
      <trkpt lon="-82.147086" lat="33.555789"><ele>88.539398</ele><time>2021-10-17T12:39:54Z</time><extensions><speed>1.657081</speed><course>357.187500</course><hAcc>1.182064</hAcc><vAcc>0.882720</vAcc></extensions></trkpt>
      <trkpt lon="-82.147091" lat="33.555804"><ele>88.593155</ele><time>2021-10-17T12:39:55Z</time><extensions><speed>1.691782</speed><course>2.812500</course><hAcc>1.209479</hAcc><vAcc>0.889584</vAcc></extensions></trkpt>
      <trkpt lon="-82.147097" lat="33.555819"><ele>88.646492</ele><time>2021-10-17T12:39:56Z</time><extensions><speed>1.722571</speed><course>351.210938</course><hAcc>1.233837</hAcc><vAcc>0.895331</vAcc></extensions></trkpt>
      <trkpt lon="-82.147102" lat="33.555834"><ele>88.698929</ele><time>2021-10-17T12:39:57Z</time><extensions><speed>1.748331</speed><course>354.375000</course><hAcc>1.254784</hAcc><vAcc>0.899825</vAcc></extensions></trkpt>
      <trkpt lon="-82.147107" lat="33.555849"><ele>88.749924</ele><time>2021-10-17T12:39:58Z</time><extensions><speed>1.768313</speed><course>0.351562</course><hAcc>1.272266</hAcc><vAcc>0.903057</vAcc></extensions></trkpt>
      <trkpt lon="-82.147112" lat="33.555864"><ele>88.798988</ele><time>2021-10-17T12:39:59Z</time><extensions><speed>1.782100</speed><course>357.890625</course><hAcc>1.286446</hAcc><vAcc>0.905127</vAcc></extensions></trkpt>
      <trkpt lon="-82.147118" lat="33.555880"><ele>88.845718</ele><time>2021-10-17T12:40:00Z</time><extensions><speed>1.789558</speed><course>5.273438</course><hAcc>1.297613</hAcc><vAcc>0.906176</vAcc></extensions></trkpt>
      <trkpt lon="-82.147123" lat="33.555895"><ele>88.889931</ele><time>2021-10-17T12:40:01Z</time><extensions><speed>1.790799</speed><course>359.648438</course><hAcc>1.306103</hAcc><vAcc>0.906318</vAcc></extensions></trkpt>
      <trkpt lon="-82.147128" lat="33.555911"><ele>88.931648</ele><time>2021-10-17T12:40:02Z</time><extensions><speed>1.786092</speed><course>1.757812</course><hAcc>1.312289</hAcc><vAcc>0.905681</vAcc></extensions></trkpt>
      <trkpt lon="-82.147133" lat="33.555926"><ele>88.971130</ele><time>2021-10-17T12:40:03Z</time><extensions><speed>1.775894</speed><course>353.671875</course><hAcc>1.316548</hAcc><vAcc>0.904402</vAcc></extensions></trkpt>
      <trkpt lon="-82.147138" lat="33.555942"><ele>89.008812</ele><time>2021-10-17T12:40:04Z</time><extensions><speed>1.760797</speed><course>343.476562</course><hAcc>1.319195</hAcc><vAcc>0.902526</vAcc></extensions></trkpt>
      <trkpt lon="-82.147142" lat="33.555957"><ele>89.045334</ele><time>2021-10-17T12:40:05Z</time><extensions><speed>1.741430</speed><course>342.421875</course><hAcc>1.320482</hAcc><vAcc>0.900020</vAcc></extensions></trkpt>
      <trkpt lon="-82.147147" lat="33.555972"><ele>89.081444</ele><time>2021-10-17T12:40:06Z</time><extensions><speed>1.718544</speed><course>338.906250</course><hAcc>1.320653</hAcc><vAcc>0.896896</vAcc></extensions></trkpt>
      <trkpt lon="-82.147151" lat="33.555987"><ele>89.117889</ele><time>2021-10-17T12:40:07Z</time><extensions><speed>1.693204</speed><course>342.773438</course><hAcc>1.319975</hAcc><vAcc>0.893286</vAcc></extensions></trkpt>
      <trkpt lon="-82.147155" lat="33.556002"><ele>89.155327</ele><time>2021-10-17T12:40:08Z</time><extensions><speed>1.666764</speed><course>344.531250</course><hAcc>1.318750</hAcc><vAcc>0.889454</vAcc></extensions></trkpt>
      <trkpt lon="-82.147158" lat="33.556017"><ele>89.194183</ele><time>2021-10-17T12:40:09Z</time><extensions><speed>1.640871</speed><course>346.289062</course><hAcc>1.317289</hAcc><vAcc>0.885749</vAcc></extensions></trkpt>
      <trkpt lon="-82.147161" lat="33.556031"><ele>89.234612</ele><time>2021-10-17T12:40:10Z</time><extensions><speed>1.617366</speed><course>328.710938</course><hAcc>1.315865</hAcc><vAcc>0.882502</vAcc></extensions></trkpt>
      <trkpt lon="-82.147164" lat="33.556046"><ele>89.276550</ele><time>2021-10-17T12:40:11Z</time><extensions><speed>1.597935</speed><course>306.562500</course><hAcc>1.314683</hAcc><vAcc>0.879969</vAcc></extensions></trkpt>
      <trkpt lon="-82.147165" lat="33.556060"><ele>89.319809</ele><time>2021-10-17T12:40:12Z</time><extensions><speed>1.583877</speed><course>304.453125</course><hAcc>1.313892</hAcc><vAcc>0.878333</vAcc></extensions></trkpt>
      <trkpt lon="-82.147167" lat="33.556074"><ele>89.364197</ele><time>2021-10-17T12:40:13Z</time><extensions><speed>1.575779</speed><course>342.070312</course><hAcc>1.313587</hAcc><vAcc>0.877703</vAcc></extensions></trkpt>
      <trkpt lon="-82.147167" lat="33.556088"><ele>89.409645</ele><time>2021-10-17T12:40:14Z</time><extensions><speed>1.573296</speed><course>32.695312</course><hAcc>1.313815</hAcc><vAcc>0.878125</vAcc></extensions></trkpt>
      <trkpt lon="-82.147167" lat="33.556102"><ele>89.456238</ele><time>2021-10-17T12:40:15Z</time><extensions><speed>1.575264</speed><course>27.773438</course><hAcc>1.314583</hAcc><vAcc>0.879583</vAcc></extensions></trkpt>
      <trkpt lon="-82.147167" lat="33.556117"><ele>89.504128</ele><time>2021-10-17T12:40:16Z</time><extensions><speed>1.580138</speed><course>7.734375</course><hAcc>1.315863</hAcc><vAcc>0.882003</vAcc></extensions></trkpt>
      <trkpt lon="-82.147165" lat="33.556131"><ele>89.553383</ele><time>2021-10-17T12:40:17Z</time><extensions><speed>1.586495</speed><course>3.867188</course><hAcc>1.317590</hAcc><vAcc>0.885256</vAcc></extensions></trkpt>
      <trkpt lon="-82.147164" lat="33.556145"><ele>89.603867</ele><time>2021-10-17T12:40:18Z</time><extensions><speed>1.593118</speed><course>339.609375</course><hAcc>1.319673</hAcc><vAcc>0.889164</vAcc></extensions></trkpt>
      <trkpt lon="-82.147161" lat="33.556159"><ele>89.655098</ele><time>2021-10-17T12:40:19Z</time><extensions><speed>1.599042</speed><course>349.804688</course><hAcc>1.322019</hAcc><vAcc>0.893549</vAcc></extensions></trkpt>
      <trkpt lon="-82.147158" lat="33.556173"><ele>89.706223</ele><time>2021-10-17T12:40:20Z</time><extensions><speed>1.603629</speed><course>346.289062</course><hAcc>1.324580</hAcc><vAcc>0.898327</vAcc></extensions></trkpt>
      <trkpt lon="-82.147154" lat="33.556188"><ele>89.756172</ele><time>2021-10-17T12:40:21Z</time><extensions><speed>1.606551</speed><course>27.773438</course><hAcc>1.327349</hAcc><vAcc>0.903496</vAcc></extensions></trkpt>
      <trkpt lon="-82.147149" lat="33.556202"><ele>89.803726</ele><time>2021-10-17T12:40:22Z</time><extensions><speed>1.607899</speed><course>28.476562</course><hAcc>1.330296</hAcc><vAcc>0.909005</vAcc></extensions></trkpt>
      <trkpt lon="-82.147144" lat="33.556215"><ele>89.847504</ele><time>2021-10-17T12:40:23Z</time><extensions><speed>1.608262</speed><course>60.820312</course><hAcc>1.333333</hAcc><vAcc>0.914686</vAcc></extensions></trkpt>
      <trkpt lon="-82.147138" lat="33.556229"><ele>89.886040</ele><time>2021-10-17T12:40:24Z</time><extensions><speed>1.608252</speed><course>23.906250</course><hAcc>1.336329</hAcc><vAcc>0.920292</vAcc></extensions></trkpt>
      <trkpt lon="-82.147131" lat="33.556242"><ele>89.917999</ele><time>2021-10-17T12:40:25Z</time><extensions><speed>1.607790</speed><course>88.242188</course><hAcc>1.339166</hAcc><vAcc>0.925595</vAcc></extensions></trkpt>
      <trkpt lon="-82.147124" lat="33.556255"><ele>89.942223</ele><time>2021-10-17T12:40:26Z</time><extensions><speed>1.606172</speed><course>46.054688</course><hAcc>1.341760</hAcc><vAcc>0.930437</vAcc></extensions></trkpt>
      <trkpt lon="-82.147116" lat="33.556268"><ele>89.957695</ele><time>2021-10-17T12:40:27Z</time><extensions><speed>1.602751</speed><course>35.859375</course><hAcc>1.344066</hAcc><vAcc>0.934723</vAcc></extensions></trkpt>
      <trkpt lon="-82.147107" lat="33.556280"><ele>89.963631</ele><time>2021-10-17T12:40:28Z</time><extensions><speed>1.597384</speed><course>17.226562</course><hAcc>1.346063</hAcc><vAcc>0.938414</vAcc></extensions></trkpt>
      <trkpt lon="-82.147097" lat="33.556292"><ele>89.959496</ele><time>2021-10-17T12:40:29Z</time><extensions><speed>1.590528</speed><course>11.953125</course><hAcc>1.347760</hAcc><vAcc>0.941513</vAcc></extensions></trkpt>
      <trkpt lon="-82.147087" lat="33.556304"><ele>89.945099</ele><time>2021-10-17T12:40:30Z</time><extensions><speed>1.583001</speed><course>22.851562</course><hAcc>1.349181</hAcc><vAcc>0.944055</vAcc></extensions></trkpt>
      <trkpt lon="-82.147076" lat="33.556315"><ele>89.920509</ele><time>2021-10-17T12:40:31Z</time><extensions><speed>1.575726</speed><course>40.078125</course><hAcc>1.350364</hAcc><vAcc>0.946092</vAcc></extensions></trkpt>
      <trkpt lon="-82.147064" lat="33.556325"><ele>89.885948</ele><time>2021-10-17T12:40:32Z</time><extensions><speed>1.569597</speed><course>53.437500</course><hAcc>1.351354</hAcc><vAcc>0.947686</vAcc></extensions></trkpt>
      <trkpt lon="-82.147052" lat="33.556335"><ele>89.841705</ele><time>2021-10-17T12:40:33Z</time><extensions><speed>1.565437</speed><course>52.734375</course><hAcc>1.352202</hAcc><vAcc>0.948904</vAcc></extensions></trkpt>
      <trkpt lon="-82.147039" lat="33.556344"><ele>89.788185</ele><time>2021-10-17T12:40:34Z</time><extensions><speed>1.563729</speed><course>53.437500</course><hAcc>1.352956</hAcc><vAcc>0.949808</vAcc></extensions></trkpt>
      <trkpt lon="-82.147026" lat="33.556352"><ele>89.725967</ele><time>2021-10-17T12:40:35Z</time><extensions><speed>1.564239</speed><course>74.179688</course><hAcc>1.353667</hAcc><vAcc>0.950454</vAcc></extensions></trkpt>
      <trkpt lon="-82.147012" lat="33.556360"><ele>89.655952</ele><time>2021-10-17T12:40:36Z</time><extensions><speed>1.566223</speed><course>80.156250</course><hAcc>1.354378</hAcc><vAcc>0.950885</vAcc></extensions></trkpt>
      <trkpt lon="-82.146998" lat="33.556368"><ele>89.579361</ele><time>2021-10-17T12:40:37Z</time><extensions><speed>1.568967</speed><course>87.890625</course><hAcc>1.355128</hAcc><vAcc>0.951135</vAcc></extensions></trkpt>
      <trkpt lon="-82.146983" lat="33.556375"><ele>89.497711</ele><time>2021-10-17T12:40:38Z</time><extensions><speed>1.572029</speed><course>91.054688</course><hAcc>1.355945</hAcc><vAcc>0.951225</vAcc></extensions></trkpt>
      <trkpt lon="-82.146968" lat="33.556381"><ele>89.412666</ele><time>2021-10-17T12:40:39Z</time><extensions><speed>1.575245</speed><course>93.164062</course><hAcc>1.356848</hAcc><vAcc>0.951159</vAcc></extensions></trkpt>
      <trkpt lon="-82.146953" lat="33.556388"><ele>89.325928</ele><time>2021-10-17T12:40:40Z</time><extensions><speed>1.578534</speed><course>98.085938</course><hAcc>1.357843</hAcc><vAcc>0.950933</vAcc></extensions></trkpt>
      <trkpt lon="-82.146937" lat="33.556394"><ele>89.239197</ele><time>2021-10-17T12:40:41Z</time><extensions><speed>1.581596</speed><course>118.476562</course><hAcc>1.358917</hAcc><vAcc>0.950527</vAcc></extensions></trkpt>
      <trkpt lon="-82.146922" lat="33.556400"><ele>89.154045</ele><time>2021-10-17T12:40:42Z</time><extensions><speed>1.583818</speed><course>111.445312</course><hAcc>1.360041</hAcc><vAcc>0.949912</vAcc></extensions></trkpt>
      <trkpt lon="-82.146906" lat="33.556405"><ele>89.071922</ele><time>2021-10-17T12:40:43Z</time><extensions><speed>1.584483</speed><course>102.656250</course><hAcc>1.361164</hAcc><vAcc>0.949052</vAcc></extensions></trkpt>
      <trkpt lon="-82.146891" lat="33.556411"><ele>88.994102</ele><time>2021-10-17T12:40:44Z</time><extensions><speed>1.583016</speed><course>97.031250</course><hAcc>1.362216</hAcc><vAcc>0.947905</vAcc></extensions></trkpt>
      <trkpt lon="-82.146875" lat="33.556417"><ele>88.921570</ele><time>2021-10-17T12:40:45Z</time><extensions><speed>1.579101</speed><course>87.187500</course><hAcc>1.363103</hAcc><vAcc>0.946429</vAcc></extensions></trkpt>
      <trkpt lon="-82.146860" lat="33.556423"><ele>88.855072</ele><time>2021-10-17T12:40:46Z</time><extensions><speed>1.572705</speed><course>75.585938</course><hAcc>1.363721</hAcc><vAcc>0.944590</vAcc></extensions></trkpt>
      <trkpt lon="-82.146845" lat="33.556429"><ele>88.795105</ele><time>2021-10-17T12:40:47Z</time><extensions><speed>1.563949</speed><course>59.062500</course><hAcc>1.363960</hAcc><vAcc>0.942368</vAcc></extensions></trkpt>
      <trkpt lon="-82.146830" lat="33.556435"><ele>88.741913</ele><time>2021-10-17T12:40:47Z</time><extensions><speed>1.553003</speed><course>62.226562</course><hAcc>1.363714</hAcc><vAcc>0.939735</vAcc></extensions></trkpt>
      <trkpt lon="-82.146815" lat="33.556442"><ele>88.695274</ele><time>2021-10-17T12:40:48Z</time><extensions><speed>1.540134</speed><course>57.304688</course><hAcc>1.362861</hAcc><vAcc>0.936596</vAcc></extensions></trkpt>
      <trkpt lon="-82.146800" lat="33.556449"><ele>88.654861</ele><time>2021-10-17T12:40:49Z</time><extensions><speed>1.525868</speed><course>80.507812</course><hAcc>1.361336</hAcc><vAcc>0.932908</vAcc></extensions></trkpt>
      <trkpt lon="-82.146786" lat="33.556455"><ele>88.620102</ele><time>2021-10-17T12:40:50Z</time><extensions><speed>1.510905</speed><course>53.085938</course><hAcc>1.359255</hAcc><vAcc>0.928753</vAcc></extensions></trkpt>
      <trkpt lon="-82.146772" lat="33.556462"><ele>88.590317</ele><time>2021-10-17T12:40:51Z</time><extensions><speed>1.496250</speed><course>145.898438</course><hAcc>1.356972</hAcc><vAcc>0.924378</vAcc></extensions></trkpt>
      <trkpt lon="-82.146759" lat="33.556470"><ele>88.564766</ele><time>2021-10-17T12:40:52Z</time><extensions><speed>1.482866</speed><course>79.804688</course><hAcc>1.355254</hAcc><vAcc>0.920361</vAcc></extensions></trkpt>
      <trkpt lon="-82.146746" lat="33.556477"><ele>88.542725</ele><time>2021-10-17T12:40:53Z</time><extensions><speed>1.471307</speed><course>27.773438</course><hAcc>1.355474</hAcc><vAcc>0.917809</vAcc></extensions></trkpt>
      <trkpt lon="-82.146732" lat="33.556484"><ele>88.523590</ele><time>2021-10-17T12:40:54Z</time><extensions><speed>1.461670</speed><course>49.570312</course><hAcc>1.359778</hAcc><vAcc>0.918450</vAcc></extensions></trkpt>
      <trkpt lon="-82.146720" lat="33.556492"><ele>88.506889</ele><time>2021-10-17T12:40:55Z</time><extensions><speed>1.453614</speed><course>25.312500</course><hAcc>1.371205</hAcc><vAcc>0.924665</vAcc></extensions></trkpt>
      <trkpt lon="-82.146707" lat="33.556500"><ele>88.492249</ele><time>2021-10-17T12:40:56Z</time><extensions><speed>1.446641</speed><course>36.562500</course><hAcc>1.393762</hAcc><vAcc>0.939500</vAcc></extensions></trkpt>
      <trkpt lon="-82.146694" lat="33.556507"><ele>88.479309</ele><time>2021-10-17T12:40:57Z</time><extensions><speed>1.440426</speed><course>37.617188</course><hAcc>1.432371</hAcc><vAcc>0.966597</vAcc></extensions></trkpt>
      <trkpt lon="-82.146682" lat="33.556515"><ele>88.467773</ele><time>2021-10-17T12:40:58Z</time><extensions><speed>1.434832</speed><course>39.726562</course><hAcc>1.492562</hAcc><vAcc>1.009941</vAcc></extensions></trkpt>
      <trkpt lon="-82.146670" lat="33.556523"><ele>88.457428</ele><time>2021-10-17T12:40:59Z</time><extensions><speed>1.429844</speed><course>51.679688</course><hAcc>1.579914</hAcc><vAcc>1.073402</vAcc></extensions></trkpt>
      <trkpt lon="-82.146657" lat="33.556531"><ele>88.448082</ele><time>2021-10-17T12:41:00Z</time><extensions><speed>1.425650</speed><course>63.281250</course><hAcc>1.699328</hAcc><vAcc>1.160203</vAcc></extensions></trkpt>
      <trkpt lon="-82.146645" lat="33.556538"><ele>88.439491</ele><time>2021-10-17T12:41:01Z</time><extensions><speed>1.422513</speed><course>85.781250</course><hAcc>1.854420</hAcc><vAcc>1.272554</vAcc></extensions></trkpt>
      <trkpt lon="-82.146633" lat="33.556546"><ele>88.431335</ele><time>2021-10-17T12:41:03Z</time><extensions><speed>1.420475</speed><course>69.960938</course><hAcc>2.047416</hAcc><vAcc>1.411706</vAcc></extensions></trkpt>
      <trkpt lon="-82.146621" lat="33.556554"><ele>88.423409</ele><time>2021-10-17T12:41:04Z</time><extensions><speed>1.419402</speed><course>73.476562</course><hAcc>2.278317</hAcc><vAcc>1.577433</vAcc></extensions></trkpt>
      <trkpt lon="-82.146608" lat="33.556561"><ele>88.415581</ele><time>2021-10-17T12:41:05Z</time><extensions><speed>1.419083</speed><course>69.609375</course><hAcc>2.546173</hAcc><vAcc>1.768948</vAcc></extensions></trkpt>
    </trkseg>
  </trk>
</gpx>