<?xml version="1.0" encoding="UTF-8"?>
<gpx version="1.1" creator="Apple Health Export" xmlns="http://www.topografix.com/GPX/1/1" xmlns:xsi="http://www.w3.org/2001/XMLSchema-instance" xsi:schemaLocation="http://www.topografix.com/GPX/1/1 http://www.topografix.com/GPX/1/1/gpx.xsd">
  <metadata>
    <time>2026-03-14T12:16:00Z</time>
  </metadata>
  <trk>
    <name>Route 2022-06-23 8:37am</name>
    <trkseg>
      <trkpt lon="-82.302765" lat="35.644130"><ele>798.874573</ele><time>2022-06-23T12:32:09Z</time><extensions><speed>1.212945</speed><course>181.218430</course><hAcc>2.154098</hAcc><vAcc>1.269100</vAcc></extensions></trkpt>
      <trkpt lon="-82.302765" lat="35.644126"><ele>798.850586</ele><time>2022-06-23T12:32:09Z</time><extensions><speed>1.145782</speed><course>180.009735</course><hAcc>2.089839</hAcc><vAcc>1.206210</vAcc></extensions></trkpt>
      <trkpt lon="-82.302765" lat="35.644123"><ele>798.832703</ele><time>2022-06-23T12:32:10Z</time><extensions><speed>1.093175</speed><course>177.948883</course><hAcc>2.049129</hAcc><vAcc>1.155607</vAcc></extensions></trkpt>
      <trkpt lon="-82.302763" lat="35.644116"><ele>798.782288</ele><time>2022-06-23T12:32:11Z</time><extensions><speed>0.622647</speed><course>146.871414</course><hAcc>1.928443</hAcc><vAcc>1.032162</vAcc></extensions></trkpt>
      <trkpt lon="-82.302759" lat="35.644113"><ele>798.726013</ele><time>2022-06-23T12:32:12Z</time><extensions><speed>0.448152</speed><course>107.879410</course><hAcc>1.881159</hAcc><vAcc>0.942295</vAcc></extensions></trkpt>
      <trkpt lon="-82.302754" lat="35.644112"><ele>798.664795</ele><time>2022-06-23T12:32:13Z</time><extensions><speed>0.409906</speed><course>104.141159</course><hAcc>1.906401</hAcc><vAcc>0.879680</vAcc></extensions></trkpt>
      <trkpt lon="-82.302751" lat="35.644110"><ele>798.599426</ele><time>2022-06-23T12:32:14Z</time><extensions><speed>0.459915</speed><course>147.107040</course><hAcc>1.931384</hAcc><vAcc>0.838026</vAcc></extensions></trkpt>
      <trkpt lon="-82.302749" lat="35.644106"><ele>798.534363</ele><time>2022-06-23T12:32:15Z</time><extensions><speed>0.632054</speed><course>167.942642</course><hAcc>1.936151</hAcc><vAcc>0.811471</vAcc></extensions></trkpt>
      <trkpt lon="-82.302747" lat="35.644099"><ele>798.472595</ele><time>2022-06-23T12:32:16Z</time><extensions><speed>0.876022</speed><course>171.848434</course><hAcc>1.917807</hAcc><vAcc>0.795096</vAcc></extensions></trkpt>
      <trkpt lon="-82.302745" lat="35.644088"><ele>798.412720</ele><time>2022-06-23T12:32:17Z</time><extensions><speed>1.502666</speed><course>173.566772</course><hAcc>1.858672</hAcc><vAcc>0.785239</vAcc></extensions></trkpt>
      <trkpt lon="-82.302744" lat="35.644074"><ele>798.358032</ele><time>2022-06-23T12:32:18Z</time><extensions><speed>1.774022</speed><course>174.550400</course><hAcc>1.780462</hAcc><vAcc>0.779353</vAcc></extensions></trkpt>
      <trkpt lon="-82.302742" lat="35.644058"><ele>798.314758</ele><time>2022-06-23T12:32:19Z</time><extensions><speed>1.651148</speed><course>174.415237</course><hAcc>1.727709</hAcc><vAcc>0.775729</vAcc></extensions></trkpt>
      <trkpt lon="-82.302740" lat="35.644045"><ele>798.274841</ele><time>2022-06-23T12:32:20Z</time><extensions><speed>1.448840</speed><course>173.319733</course><hAcc>1.703213</hAcc><vAcc>0.773293</vAcc></extensions></trkpt>
      <trkpt lon="-82.302738" lat="35.644032"><ele>798.244080</ele><time>2022-06-23T12:32:21Z</time><extensions><speed>1.306736</speed><course>172.601990</course><hAcc>1.712958</hAcc><vAcc>0.771415</vAcc></extensions></trkpt>
      <trkpt lon="-82.302737" lat="35.644021"><ele>798.214783</ele><time>2022-06-23T12:32:22Z</time><extensions><speed>1.190968</speed><course>174.836639</course><hAcc>1.676749</hAcc><vAcc>0.769763</vAcc></extensions></trkpt>
      <trkpt lon="-82.302736" lat="35.644010"><ele>798.188782</ele><time>2022-06-23T12:32:23Z</time><extensions><speed>1.223389</speed><course>177.282166</course><hAcc>1.643736</hAcc><vAcc>0.768191</vAcc></extensions></trkpt>
      <trkpt lon="-82.302736" lat="35.643999"><ele>798.165894</ele><time>2022-06-23T12:32:24Z</time><extensions><speed>1.251427</speed><course>184.363937</course><hAcc>1.633602</hAcc><vAcc>0.766656</vAcc></extensions></trkpt>
      <trkpt lon="-82.302738" lat="35.643988"><ele>798.143433</ele><time>2022-06-23T12:32:25Z</time><extensions><speed>1.258815</speed><course>187.111389</course><hAcc>1.624863</hAcc><vAcc>0.765170</vAcc></extensions></trkpt>
      <trkpt lon="-82.302739" lat="35.643977"><ele>798.124878</ele><time>2022-06-23T12:32:26Z</time><extensions><speed>1.217479</speed><course>188.133255</course><hAcc>1.604777</hAcc><vAcc>0.763765</vAcc></extensions></trkpt>
      <trkpt lon="-82.302741" lat="35.643966"><ele>798.101929</ele><time>2022-06-23T12:32:27Z</time><extensions><speed>1.311107</speed><course>182.035416</course><hAcc>1.600196</hAcc><vAcc>0.762475</vAcc></extensions></trkpt>
      <trkpt lon="-82.302740" lat="35.643954"><ele>798.089600</ele><time>2022-06-23T12:32:28Z</time><extensions><speed>1.365347</speed><course>173.694550</course><hAcc>1.653849</hAcc><vAcc>0.761326</vAcc></extensions></trkpt>
      <trkpt lon="-82.302742" lat="35.643943"><ele>798.076477</ele><time>2022-06-23T12:32:29Z</time><extensions><speed>1.210717</speed><course>200.183685</course><hAcc>1.627634</hAcc><vAcc>0.760333</vAcc></extensions></trkpt>
      <trkpt lon="-82.302747" lat="35.643933"><ele>798.064636</ele><time>2022-06-23T12:32:30Z</time><extensions><speed>1.209406</speed><course>208.484589</course><hAcc>1.626752</hAcc><vAcc>0.761123</vAcc></extensions></trkpt>
      <trkpt lon="-82.302755" lat="35.643924"><ele>798.049805</ele><time>2022-06-23T12:32:31Z</time><extensions><speed>1.167905</speed><course>220.325363</course><hAcc>1.630228</hAcc><vAcc>0.763125</vAcc></extensions></trkpt>
      <trkpt lon="-82.302762" lat="35.643916"><ele>798.030640</ele><time>2022-06-23T12:32:32Z</time><extensions><speed>1.058789</speed><course>218.984085</course><hAcc>1.647899</hAcc><vAcc>0.766566</vAcc></extensions></trkpt>
      <trkpt lon="-82.302769" lat="35.643908"><ele>798.007874</ele><time>2022-06-23T12:32:33Z</time><extensions><speed>1.132706</speed><course>212.302399</course><hAcc>1.682446</hAcc><vAcc>0.771622</vAcc></extensions></trkpt>
      <trkpt lon="-82.302775" lat="35.643898"><ele>797.976135</ele><time>2022-06-23T12:32:34Z</time><extensions><speed>1.173702</speed><course>204.989014</course><hAcc>1.677809</hAcc><vAcc>0.778416</vAcc></extensions></trkpt>
      <trkpt lon="-82.302780" lat="35.643888"><ele>797.949707</ele><time>2022-06-23T12:32:35Z</time><extensions><speed>1.246748</speed><course>198.174759</course><hAcc>1.665872</hAcc><vAcc>0.787005</vAcc></extensions></trkpt>
      <trkpt lon="-82.302784" lat="35.643877"><ele>797.918457</ele><time>2022-06-23T12:32:36Z</time><extensions><speed>1.316368</speed><course>195.125931</course><hAcc>1.663953</hAcc><vAcc>0.797360</vAcc></extensions></trkpt>
      <trkpt lon="-82.302788" lat="35.643865"><ele>797.873535</ele><time>2022-06-23T12:32:37Z</time><extensions><speed>1.331953</speed><course>193.483078</course><hAcc>1.685213</hAcc><vAcc>0.809346</vAcc></extensions></trkpt>
      <trkpt lon="-82.302791" lat="35.643853"><ele>797.826599</ele><time>2022-06-23T12:32:38Z</time><extensions><speed>1.374094</speed><course>193.257965</course><hAcc>1.656688</hAcc><vAcc>0.822694</vAcc></extensions></trkpt>
      <trkpt lon="-82.302794" lat="35.643841"><ele>797.773132</ele><time>2022-06-23T12:32:39Z</time><extensions><speed>1.394456</speed><course>190.252808</course><hAcc>1.631887</hAcc><vAcc>0.836971</vAcc></extensions></trkpt>
      <trkpt lon="-82.302795" lat="35.643829"><ele>797.723145</ele><time>2022-06-23T12:32:40Z</time><extensions><speed>1.344213</speed><course>182.841888</course><hAcc>1.649306</hAcc><vAcc>0.851559</vAcc></extensions></trkpt>
      <trkpt lon="-82.302795" lat="35.643817"><ele>797.670715</ele><time>2022-06-23T12:32:41Z</time><extensions><speed>1.180753</speed><course>177.493042</course><hAcc>1.642197</hAcc><vAcc>0.865763</vAcc></extensions></trkpt>
      <trkpt lon="-82.302793" lat="35.643809"><ele>797.615295</ele><time>2022-06-23T12:32:42Z</time><extensions><speed>0.664939</speed><course>155.437531</course><hAcc>1.643855</hAcc><vAcc>0.879015</vAcc></extensions></trkpt>
      <trkpt lon="-82.302790" lat="35.643805"><ele>797.564758</ele><time>2022-06-23T12:32:43Z</time><extensions><speed>0.492022</speed><course>144.169739</course><hAcc>1.639894</hAcc><vAcc>0.890960</vAcc></extensions></trkpt>
      <trkpt lon="-82.302786" lat="35.643801"><ele>797.509644</ele><time>2022-06-23T12:32:44Z</time><extensions><speed>0.542300</speed><course>133.066055</course><hAcc>1.618258</hAcc><vAcc>0.901422</vAcc></extensions></trkpt>
      <trkpt lon="-82.302782" lat="35.643798"><ele>797.457397</ele><time>2022-06-23T12:32:45Z</time><extensions><speed>0.466668</speed><course>120.985268</course><hAcc>1.627501</hAcc><vAcc>0.910356</vAcc></extensions></trkpt>
      <trkpt lon="-82.302777" lat="35.643797"><ele>797.407654</ele><time>2022-06-23T12:32:46Z</time><extensions><speed>0.433186</speed><course>107.774612</course><hAcc>1.661156</hAcc><vAcc>0.917815</vAcc></extensions></trkpt>
      <trkpt lon="-82.302773" lat="35.643794"><ele>797.358582</ele><time>2022-06-23T12:32:47Z</time><extensions><speed>0.495091</speed><course>135.251755</course><hAcc>1.677037</hAcc><vAcc>0.923911</vAcc></extensions></trkpt>
      <trkpt lon="-82.302770" lat="35.643790"><ele>797.310364</ele><time>2022-06-23T12:32:48Z</time><extensions><speed>0.623837</speed><course>152.377655</course><hAcc>1.681688</hAcc><vAcc>0.928793</vAcc></extensions></trkpt>
      <trkpt lon="-82.302767" lat="35.643785"><ele>797.268005</ele><time>2022-06-23T12:32:49Z</time><extensions><speed>0.716659</speed><course>155.687515</course><hAcc>1.710336</hAcc><vAcc>0.932626</vAcc></extensions></trkpt>
      <trkpt lon="-82.302763" lat="35.643778"><ele>797.224792</ele><time>2022-06-23T12:32:50Z</time><extensions><speed>0.990604</speed><course>159.105423</course><hAcc>1.685508</hAcc><vAcc>0.935574</vAcc></extensions></trkpt>
      <trkpt lon="-82.302759" lat="35.643768"><ele>797.169373</ele><time>2022-06-23T12:32:51Z</time><extensions><speed>1.168237</speed><course>163.466599</course><hAcc>1.666276</hAcc><vAcc>0.937796</vAcc></extensions></trkpt>
      <trkpt lon="-82.302757" lat="35.643758"><ele>797.112793</ele><time>2022-06-23T12:32:52Z</time><extensions><speed>1.266279</speed><course>172.729797</course><hAcc>1.691206</hAcc><vAcc>0.939434</vAcc></extensions></trkpt>
      <trkpt lon="-82.302756" lat="35.643746"><ele>797.047913</ele><time>2022-06-23T12:32:53Z</time><extensions><speed>1.294616</speed><course>184.670914</course><hAcc>1.744807</hAcc><vAcc>0.940614</vAcc></extensions></trkpt>
      <trkpt lon="-82.302760" lat="35.643735"><ele>796.982422</ele><time>2022-06-23T12:32:54Z</time><extensions><speed>1.414222</speed><course>206.678497</course><hAcc>1.742455</hAcc><vAcc>0.941442</vAcc></extensions></trkpt>
      <trkpt lon="-82.302769" lat="35.643723"><ele>796.916260</ele><time>2022-06-23T12:32:55Z</time><extensions><speed>1.598184</speed><course>218.021332</course><hAcc>1.728641</hAcc><vAcc>0.942006</vAcc></extensions></trkpt>
      <trkpt lon="-82.302781" lat="35.643712"><ele>796.856018</ele><time>2022-06-23T12:32:56Z</time><extensions><speed>1.751603</speed><course>219.774139</course><hAcc>1.736822</hAcc><vAcc>0.942379</vAcc></extensions></trkpt>
      <trkpt lon="-82.302792" lat="35.643700"><ele>796.792114</ele><time>2022-06-23T12:32:57Z</time><extensions><speed>1.540546</speed><course>216.167328</course><hAcc>1.733099</hAcc><vAcc>0.942615</vAcc></extensions></trkpt>
      <trkpt lon="-82.302800" lat="35.643689"><ele>796.718506</ele><time>2022-06-23T12:32:58Z</time><extensions><speed>1.360832</speed><course>211.228897</course><hAcc>1.734182</hAcc><vAcc>0.942757</vAcc></extensions></trkpt>
      <trkpt lon="-82.302807" lat="35.643680"><ele>796.648132</ele><time>2022-06-23T12:32:59Z</time><extensions><speed>1.088373</speed><course>207.210983</course><hAcc>1.753052</hAcc><vAcc>0.936310</vAcc></extensions></trkpt>
      <trkpt lon="-82.302811" lat="35.643672"><ele>796.577576</ele><time>2022-06-23T12:33:00Z</time><extensions><speed>0.758297</speed><course>201.617920</course><hAcc>1.761770</hAcc><vAcc>0.929739</vAcc></extensions></trkpt>
      <trkpt lon="-82.302812" lat="35.643667"><ele>796.513428</ele><time>2022-06-23T12:33:01Z</time><extensions><speed>0.486393</speed><course>174.227249</course><hAcc>1.753414</hAcc><vAcc>0.922612</vAcc></extensions></trkpt>
      <trkpt lon="-82.302809" lat="35.643663"><ele>796.444214</ele><time>2022-06-23T12:33:02Z</time><extensions><speed>0.602476</speed><course>136.691406</course><hAcc>1.737338</hAcc><vAcc>0.914628</vAcc></extensions></trkpt>
      <trkpt lon="-82.302803" lat="35.643659"><ele>796.368530</ele><time>2022-06-23T12:33:03Z</time><extensions><speed>0.809112</speed><course>122.318436</course><hAcc>1.730418</hAcc><vAcc>0.905573</vAcc></extensions></trkpt>
      <trkpt lon="-82.302795" lat="35.643655"><ele>796.290527</ele><time>2022-06-23T12:33:04Z</time><extensions><speed>0.847577</speed><course>114.288216</course><hAcc>1.731701</hAcc><vAcc>0.895307</vAcc></extensions></trkpt>
      <trkpt lon="-82.302787" lat="35.643652"><ele>796.217041</ele><time>2022-06-23T12:33:05Z</time><extensions><speed>0.730536</speed><course>110.446281</course><hAcc>1.754638</hAcc><vAcc>0.883785</vAcc></extensions></trkpt>
      <trkpt lon="-82.302781" lat="35.643652"><ele>796.140320</ele><time>2022-06-23T12:33:06Z</time><extensions><speed>0.512166</speed><course>64.614082</course><hAcc>1.725752</hAcc><vAcc>0.871082</vAcc></extensions></trkpt>
      <trkpt lon="-82.302776" lat="35.643654"><ele>796.066650</ele><time>2022-06-23T12:33:07Z</time><extensions><speed>0.445804</speed><course>71.222305</course><hAcc>1.690623</hAcc><vAcc>0.857418</vAcc></extensions></trkpt>
      <trkpt lon="-82.302772" lat="35.643654"><ele>795.992249</ele><time>2022-06-23T12:33:08Z</time><extensions><speed>0.420523</speed><course>115.089607</course><hAcc>1.685490</hAcc><vAcc>0.843190</vAcc></extensions></trkpt>
      <trkpt lon="-82.302769" lat="35.643651"><ele>795.922119</ele><time>2022-06-23T12:33:09Z</time><extensions><speed>0.398128</speed><course>158.124741</course><hAcc>1.722225</hAcc><vAcc>0.830453</vAcc></extensions></trkpt>
      <trkpt lon="-82.302768" lat="35.643648"><ele>795.857605</ele><time>2022-06-23T12:33:10Z</time><extensions><speed>0.374867</speed><course>186.093781</course><hAcc>1.731250</hAcc><vAcc>0.819454</vAcc></extensions></trkpt>
      <trkpt lon="-82.302770" lat="35.643645"><ele>795.797180</ele><time>2022-06-23T12:33:11Z</time><extensions><speed>0.422980</speed><course>218.817291</course><hAcc>1.724543</hAcc><vAcc>0.811039</vAcc></extensions></trkpt>
      <trkpt lon="-82.302774" lat="35.643643"><ele>795.738953</ele><time>2022-06-23T12:33:12Z</time><extensions><speed>0.428442</speed><course>246.323929</course><hAcc>1.747685</hAcc><vAcc>0.805765</vAcc></extensions></trkpt>
      <trkpt lon="-82.302778" lat="35.643642"><ele>795.684387</ele><time>2022-06-23T12:33:13Z</time><extensions><speed>0.457248</speed><course>273.086975</course><hAcc>1.758933</hAcc><vAcc>0.803921</vAcc></extensions></trkpt>
      <trkpt lon="-82.302784" lat="35.643643"><ele>795.633789</ele><time>2022-06-23T12:33:14Z</time><extensions><speed>0.523460</speed><course>295.032227</course><hAcc>1.794230</hAcc><vAcc>0.805554</vAcc></extensions></trkpt>
      <trkpt lon="-82.302789" lat="35.643646"><ele>795.588013</ele><time>2022-06-23T12:33:15Z</time><extensions><speed>0.621330</speed><course>311.252289</course><hAcc>1.862507</hAcc><vAcc>0.810502</vAcc></extensions></trkpt>
      <trkpt lon="-82.302794" lat="35.643650"><ele>795.548218</ele><time>2022-06-23T12:33:16Z</time><extensions><speed>0.716829</speed><course>324.167175</course><hAcc>1.966435</hAcc><vAcc>0.818424</vAcc></extensions></trkpt>
      <trkpt lon="-82.302798" lat="35.643656"><ele>795.514648</ele><time>2022-06-23T12:33:17Z</time><extensions><speed>0.750810</speed><course>333.906067</course><hAcc>2.108848</hAcc><vAcc>0.828813</vAcc></extensions></trkpt>
      <trkpt lon="-82.302802" lat="35.643661"><ele>795.486450</ele><time>2022-06-23T12:33:18Z</time><extensions><speed>0.670316</speed><course>341.285858</course><hAcc>2.263225</hAcc><vAcc>0.841002</vAcc></extensions></trkpt>
      <trkpt lon="-82.302804" lat="35.643666"><ele>795.464172</ele><time>2022-06-23T12:33:19Z</time><extensions><speed>0.484383</speed><course>350.465607</course><hAcc>2.379529</hAcc><vAcc>0.854161</vAcc></extensions></trkpt>
      <trkpt lon="-82.302804" lat="35.643669"><ele>795.447144</ele><time>2022-06-23T12:33:20Z</time><extensions><speed>0.243629</speed><course>24.794508</course><hAcc>2.429309</hAcc><vAcc>0.867415</vAcc></extensions></trkpt>
      <trkpt lon="-82.302802" lat="35.643669"><ele>795.434692</ele><time>2022-06-23T12:33:21Z</time><extensions><speed>0.372200</speed><course>104.841133</course><hAcc>2.430525</hAcc><vAcc>0.880056</vAcc></extensions></trkpt>
      <trkpt lon="-82.302796" lat="35.643667"><ele>795.429077</ele><time>2022-06-23T12:33:22Z</time><extensions><speed>0.880900</speed><course>117.145149</course><hAcc>2.439353</hAcc><vAcc>0.884813</vAcc></extensions></trkpt>
      <trkpt lon="-82.302786" lat="35.643662"><ele>795.425720</ele><time>2022-06-23T12:33:23Z</time><extensions><speed>1.274708</speed><course>114.364967</course><hAcc>2.456029</hAcc><vAcc>0.888217</vAcc></extensions></trkpt>
      <trkpt lon="-82.302775" lat="35.643658"><ele>795.415649</ele><time>2022-06-23T12:33:24Z</time><extensions><speed>0.949989</speed><course>114.400002</course><hAcc>2.390930</hAcc><vAcc>0.889751</vAcc></extensions></trkpt>
      <trkpt lon="-82.302771" lat="35.643656"><ele>795.410339</ele><time>2022-06-23T12:33:25Z</time><extensions><speed>0.035408</speed><course>124.900909</course><hAcc>2.328288</hAcc><vAcc>0.889116</vAcc></extensions></trkpt>
      <trkpt lon="-82.302771" lat="35.643656"><ele>795.402649</ele><time>2022-06-23T12:33:26Z</time><extensions><speed>0.004564</speed><course>222.892578</course><hAcc>2.276045</hAcc><vAcc>0.886159</vAcc></extensions></trkpt>
      <trkpt lon="-82.302772" lat="35.643654"><ele>795.392639</ele><time>2022-06-23T12:33:27Z</time><extensions><speed>0.008048</speed><course>226.495712</course><hAcc>2.229922</hAcc><vAcc>0.880849</vAcc></extensions></trkpt>
      <trkpt lon="-82.302773" lat="35.643652"><ele>795.377991</ele><time>2022-06-23T12:33:28Z</time><extensions><speed>0.009404</speed><course>220.925232</course><hAcc>2.193250</hAcc><vAcc>0.873269</vAcc></extensions></trkpt>
      <trkpt lon="-82.302773" lat="35.643651"><ele>795.352905</ele><time>2022-06-23T12:33:29Z</time><extensions><speed>0.010496</speed><course>215.964066</course><hAcc>2.165313</hAcc><vAcc>0.863632</vAcc></extensions></trkpt>
      <trkpt lon="-82.302774" lat="35.643649"><ele>795.326477</ele><time>2022-06-23T12:33:30Z</time><extensions><speed>0.009155</speed><course>212.708328</course><hAcc>2.143958</hAcc><vAcc>0.854027</vAcc></extensions></trkpt>
      <trkpt lon="-82.302775" lat="35.643648"><ele>795.295044</ele><time>2022-06-23T12:33:31Z</time><extensions><speed>0.010463</speed><course>210.952194</course><hAcc>2.126938</hAcc><vAcc>0.844183</vAcc></extensions></trkpt>
      <trkpt lon="-82.302776" lat="35.643647"><ele>795.258423</ele><time>2022-06-23T12:33:32Z</time><extensions><speed>0.011066</speed><course>209.455643</course><hAcc>2.113995</hAcc><vAcc>0.835105</vAcc></extensions></trkpt>
      <trkpt lon="-82.302777" lat="35.643646"><ele>795.216614</ele><time>2022-06-23T12:33:33Z</time><extensions><speed>0.028180</speed><course>207.057388</course><hAcc>2.100607</hAcc><vAcc>0.827836</vAcc></extensions></trkpt>
      <trkpt lon="-82.302778" lat="35.643644"><ele>795.169678</ele><time>2022-06-23T12:33:34Z</time><extensions><speed>0.295041</speed><course>205.227112</course><hAcc>2.059740</hAcc><vAcc>0.823209</vAcc></extensions></trkpt>
      <trkpt lon="-82.302781" lat="35.643640"><ele>795.118286</ele><time>2022-06-23T12:33:35Z</time><extensions><speed>0.477056</speed><course>203.176224</course><hAcc>2.083949</hAcc><vAcc>0.821731</vAcc></extensions></trkpt>
      <trkpt lon="-82.302783" lat="35.643635"><ele>795.063110</ele><time>2022-06-23T12:33:36Z</time><extensions><speed>0.510206</speed><course>198.475388</course><hAcc>2.151217</hAcc><vAcc>0.823589</vAcc></extensions></trkpt>
      <trkpt lon="-82.302785" lat="35.643629"><ele>795.005249</ele><time>2022-06-23T12:33:37Z</time><extensions><speed>0.581403</speed><course>187.210449</course><hAcc>2.190727</hAcc><vAcc>0.828671</vAcc></extensions></trkpt>
      <trkpt lon="-82.302785" lat="35.643624"><ele>794.945862</ele><time>2022-06-23T12:33:38Z</time><extensions><speed>0.367741</speed><course>145.829742</course><hAcc>2.228784</hAcc><vAcc>0.836599</vAcc></extensions></trkpt>
      <trkpt lon="-82.302784" lat="35.643622"><ele>794.887573</ele><time>2022-06-23T12:33:39Z</time><extensions><speed>0.170415</speed><course>61.707027</course><hAcc>2.257771</hAcc><vAcc>0.846751</vAcc></extensions></trkpt>
      <trkpt lon="-82.302783" lat="35.643624"><ele>794.823730</ele><time>2022-06-23T12:33:40Z</time><extensions><speed>0.700101</speed><course>25.683157</course><hAcc>2.299050</hAcc><vAcc>0.858288</vAcc></extensions></trkpt>
      <trkpt lon="-82.302781" lat="35.643628"><ele>794.761230</ele><time>2022-06-23T12:33:41Z</time><extensions><speed>0.497896</speed><course>24.996758</course><hAcc>2.252655</hAcc><vAcc>0.870290</vAcc></extensions></trkpt>
      <trkpt lon="-82.302781" lat="35.643630"><ele>794.700806</ele><time>2022-06-23T12:33:42Z</time><extensions><speed>0.007954</speed><course>260.446381</course><hAcc>2.214558</hAcc><vAcc>0.881993</vAcc></extensions></trkpt>
      <trkpt lon="-82.302781" lat="35.643629"><ele>794.643433</ele><time>2022-06-23T12:33:43Z</time><extensions><speed>0.038951</speed><course>215.790344</course><hAcc>2.182543</hAcc><vAcc>0.886116</vAcc></extensions></trkpt>
      <trkpt lon="-82.302782" lat="35.643628"><ele>794.581482</ele><time>2022-06-23T12:33:44Z</time><extensions><speed>0.041846</speed><course>216.386078</course><hAcc>2.154149</hAcc><vAcc>0.894536</vAcc></extensions></trkpt>
      <trkpt lon="-82.302783" lat="35.643627"><ele>794.521484</ele><time>2022-06-23T12:33:45Z</time><extensions><speed>0.084489</speed><course>217.602753</course><hAcc>2.123604</hAcc><vAcc>0.901560</vAcc></extensions></trkpt>
      <trkpt lon="-82.302784" lat="35.643626"><ele>794.456665</ele><time>2022-06-23T12:33:46Z</time><extensions><speed>0.037498</speed><course>219.143250</course><hAcc>2.120684</hAcc><vAcc>0.907166</vAcc></extensions></trkpt>
      <trkpt lon="-82.302785" lat="35.643626"><ele>794.392700</ele><time>2022-06-23T12:33:47Z</time><extensions><speed>0.037099</speed><course>223.806793</course><hAcc>2.102257</hAcc><vAcc>0.911434</vAcc></extensions></trkpt>
      <trkpt lon="-82.302786" lat="35.643626"><ele>794.329956</ele><time>2022-06-23T12:33:48Z</time><extensions><speed>0.122375</speed><course>231.362213</course><hAcc>2.058136</hAcc><vAcc>0.914520</vAcc></extensions></trkpt>
      <trkpt lon="-82.302788" lat="35.643625"><ele>794.269165</ele><time>2022-06-23T12:33:49Z</time><extensions><speed>0.144967</speed><course>247.090302</course><hAcc>2.042926</hAcc><vAcc>0.916640</vAcc></extensions></trkpt>
      <trkpt lon="-82.302789" lat="35.643625"><ele>794.210083</ele><time>2022-06-23T12:33:50Z</time><extensions><speed>0.141623</speed><course>237.386932</course><hAcc>2.088220</hAcc><vAcc>0.918055</vAcc></extensions></trkpt>
      <trkpt lon="-82.302791" lat="35.643624"><ele>794.152588</ele><time>2022-06-23T12:33:51Z</time><extensions><speed>0.028780</speed><course>236.210632</course><hAcc>2.140946</hAcc><vAcc>0.913063</vAcc></extensions></trkpt>
      <trkpt lon="-82.302791" lat="35.643624"><ele>794.097595</ele><time>2022-06-23T12:33:52Z</time><extensions><speed>0.018534</speed><course>238.794510</course><hAcc>2.118219</hAcc><vAcc>0.907683</vAcc></extensions></trkpt>
      <trkpt lon="-82.302792" lat="35.643624"><ele>794.045044</ele><time>2022-06-23T12:33:53Z</time><extensions><speed>0.015748</speed><course>243.742523</course><hAcc>2.091048</hAcc><vAcc>0.901864</vAcc></extensions></trkpt>
      <trkpt lon="-82.302792" lat="35.643624"><ele>793.994873</ele><time>2022-06-23T12:33:54Z</time><extensions><speed>0.009098</speed><course>252.961334</course><hAcc>2.066399</hAcc><vAcc>0.895540</vAcc></extensions></trkpt>
      <trkpt lon="-82.302793" lat="35.643624"><ele>793.947327</ele><time>2022-06-23T12:33:55Z</time><extensions><speed>0.041329</speed><course>269.989349</course><hAcc>2.010366</hAcc><vAcc>0.888473</vAcc></extensions></trkpt>
      <trkpt lon="-82.302793" lat="35.643624"><ele>793.902466</ele><time>2022-06-23T12:33:56Z</time><extensions><speed>0.036845</speed><course>345.889618</course><hAcc>2.002987</hAcc><vAcc>0.880379</vAcc></extensions></trkpt>
      <trkpt lon="-82.302793" lat="35.643625"><ele>793.861084</ele><time>2022-06-23T12:33:57Z</time><extensions><speed>0.198346</speed><course>53.759304</course><hAcc>2.040035</hAcc><vAcc>0.871078</vAcc></extensions></trkpt>
      <trkpt lon="-82.302792" lat="35.643625"><ele>793.823303</ele><time>2022-06-23T12:33:58Z</time><extensions><speed>0.005031</speed><course>10.971976</course><hAcc>2.008890</hAcc><vAcc>0.860533</vAcc></extensions></trkpt>
      <trkpt lon="-82.302792" lat="35.643625"><ele>793.789185</ele><time>2022-06-23T12:33:59Z</time><extensions><speed>0.003551</speed><course>274.065643</course><hAcc>1.976865</hAcc><vAcc>0.848879</vAcc></extensions></trkpt>
      <trkpt lon="-82.302793" lat="35.643625"><ele>793.758972</ele><time>2022-06-23T12:34:00Z</time><extensions><speed>0.003559</speed><course>271.933563</course><hAcc>1.944534</hAcc><vAcc>0.836455</vAcc></extensions></trkpt>
      <trkpt lon="-82.302793" lat="35.643625"><ele>793.732666</ele><time>2022-06-23T12:34:01Z</time><extensions><speed>0.005074</speed><course>271.875946</course><hAcc>1.913287</hAcc><vAcc>0.823820</vAcc></extensions></trkpt>
      <trkpt lon="-82.302793" lat="35.643625"><ele>793.710022</ele><time>2022-06-23T12:34:02Z</time><extensions><speed>0.004939</speed><course>271.874786</course><hAcc>1.886500</hAcc><vAcc>0.811642</vAcc></extensions></trkpt>
      <trkpt lon="-82.302793" lat="35.643625"><ele>793.690979</ele><time>2022-06-23T12:34:03Z</time><extensions><speed>0.004605</speed><course>271.875153</course><hAcc>1.861800</hAcc><vAcc>0.800479</vAcc></extensions></trkpt>
      <trkpt lon="-82.302794" lat="35.643625"><ele>793.675293</ele><time>2022-06-23T12:34:04Z</time><extensions><speed>0.000530</speed><course>271.875549</course><hAcc>1.840373</hAcc><vAcc>0.790674</vAcc></extensions></trkpt>
      <trkpt lon="-82.302794" lat="35.643625"><ele>793.662781</ele><time>2022-06-23T12:34:05Z</time><extensions><speed>0.000501</speed><course>271.875916</course><hAcc>1.812736</hAcc><vAcc>0.782381</vAcc></extensions></trkpt>
      <trkpt lon="-82.302794" lat="35.643625"><ele>793.653076</ele><time>2022-06-23T12:34:06Z</time><extensions><speed>0.002750</speed><course>271.876282</course><hAcc>1.785591</hAcc><vAcc>0.775607</vAcc></extensions></trkpt>
      <trkpt lon="-82.302794" lat="35.643625"><ele>793.645874</ele><time>2022-06-23T12:34:07Z</time><extensions><speed>0.003983</speed><course>271.876587</course><hAcc>1.764646</hAcc><vAcc>0.770251</vAcc></extensions></trkpt>
      <trkpt lon="-82.302794" lat="35.643625"><ele>793.640564</ele><time>2022-06-23T12:34:08Z</time><extensions><speed>0.002658</speed><course>271.876892</course><hAcc>1.748785</hAcc><vAcc>0.766146</vAcc></extensions></trkpt>
      <trkpt lon="-82.302795" lat="35.643625"><ele>793.637024</ele><time>2022-06-23T12:34:09Z</time><extensions><speed>0.003753</speed><course>271.877167</course><hAcc>1.730432</hAcc><vAcc>0.763097</vAcc></extensions></trkpt>
      <trkpt lon="-82.302795" lat="35.643625"><ele>793.635010</ele><time>2022-06-23T12:34:10Z</time><extensions><speed>0.003671</speed><course>271.877411</course><hAcc>1.716447</hAcc><vAcc>0.760904</vAcc></extensions></trkpt>
      <trkpt lon="-82.302795" lat="35.643625"><ele>793.634399</ele><time>2022-06-23T12:34:11Z</time><extensions><speed>0.003503</speed><course>271.877655</course><hAcc>1.703632</hAcc><vAcc>0.759377</vAcc></extensions></trkpt>
      <trkpt lon="-82.302795" lat="35.643625"><ele>793.634766</ele><time>2022-06-23T12:34:12Z</time><extensions><speed>0.002279</speed><course>271.877869</course><hAcc>1.691901</hAcc><vAcc>0.758353</vAcc></extensions></trkpt>
      <trkpt lon="-82.302795" lat="35.643625"><ele>793.635803</ele><time>2022-06-23T12:34:13Z</time><extensions><speed>0.002195</speed><course>271.878082</course><hAcc>1.677301</hAcc><vAcc>0.757694</vAcc></extensions></trkpt>
      <trkpt lon="-82.302795" lat="35.643625"><ele>793.637268</ele><time>2022-06-23T12:34:14Z</time><extensions><speed>0.003145</speed><course>271.878265</course><hAcc>1.663265</hAcc><vAcc>0.757290</vAcc></extensions></trkpt>
      <trkpt lon="-82.302795" lat="35.643625"><ele>793.639160</ele><time>2022-06-23T12:34:15Z</time><extensions><speed>0.003083</speed><course>271.878448</course><hAcc>1.653879</hAcc><vAcc>0.757057</vAcc></extensions></trkpt>
      <trkpt lon="-82.302796" lat="35.643625"><ele>793.641235</ele><time>2022-06-23T12:34:16Z</time><extensions><speed>0.003061</speed><course>271.878632</course><hAcc>1.645193</hAcc><vAcc>0.756933</vAcc></extensions></trkpt>
      <trkpt lon="-82.302796" lat="35.643625"><ele>793.643494</ele><time>2022-06-23T12:34:17Z</time><extensions><speed>0.005117</speed><course>271.878784</course><hAcc>1.637017</hAcc><vAcc>0.756875</vAcc></extensions></trkpt>
      <trkpt lon="-82.302796" lat="35.643625"><ele>793.645752</ele><time>2022-06-23T12:34:18Z</time><extensions><speed>0.002872</speed><course>271.878906</course><hAcc>1.638853</hAcc><vAcc>0.756853</vAcc></extensions></trkpt>
      <trkpt lon="-82.302796" lat="35.643625"><ele>793.648010</ele><time>2022-06-23T12:34:19Z</time><extensions><speed>0.002685</speed><course>271.879059</course><hAcc>1.631731</hAcc><vAcc>0.756848</vAcc></extensions></trkpt>
      <trkpt lon="-82.302796" lat="35.643625"><ele>793.650330</ele><time>2022-06-23T12:34:20Z</time><extensions><speed>0.002591</speed><course>271.879181</course><hAcc>1.624545</hAcc><vAcc>0.756849</vAcc></extensions></trkpt>
      <trkpt lon="-82.302796" lat="35.643625"><ele>793.652588</ele><time>2022-06-23T12:34:21Z</time><extensions><speed>0.002503</speed><course>271.879303</course><hAcc>1.617825</hAcc><vAcc>0.756849</vAcc></extensions></trkpt>
      <trkpt lon="-82.302796" lat="35.643625"><ele>793.654724</ele><time>2022-06-23T12:34:22Z</time><extensions><speed>0.002424</speed><course>271.879395</course><hAcc>1.611552</hAcc><vAcc>0.756847</vAcc></extensions></trkpt>
      <trkpt lon="-82.302796" lat="35.643625"><ele>793.656677</ele><time>2022-06-23T12:34:23Z</time><extensions><speed>0.002470</speed><course>271.879517</course><hAcc>1.605322</hAcc><vAcc>0.756842</vAcc></extensions></trkpt>
      <trkpt lon="-82.302796" lat="35.643625"><ele>793.658630</ele><time>2022-06-23T12:34:24Z</time><extensions><speed>0.005768</speed><course>271.879608</course><hAcc>1.599780</hAcc><vAcc>0.756833</vAcc></extensions></trkpt>
      <trkpt lon="-82.302797" lat="35.643625"><ele>793.660461</ele><time>2022-06-23T12:34:25Z</time><extensions><speed>0.002337</speed><course>271.879700</course><hAcc>1.613629</hAcc><vAcc>0.756823</vAcc></extensions></trkpt>
      <trkpt lon="-82.302797" lat="35.643625"><ele>793.662476</ele><time>2022-06-23T12:34:26Z</time><extensions><speed>0.002123</speed><course>271.879791</course><hAcc>1.608169</hAcc><vAcc>0.756811</vAcc></extensions></trkpt>
      <trkpt lon="-82.302797" lat="35.643625"><ele>793.664429</ele><time>2022-06-23T12:34:27Z</time><extensions><speed>0.002048</speed><course>271.879852</course><hAcc>1.601891</hAcc><vAcc>0.756800</vAcc></extensions></trkpt>
      <trkpt lon="-82.302797" lat="35.643626"><ele>793.666382</ele><time>2022-06-23T12:34:28Z</time><extensions><speed>0.001956</speed><course>271.879944</course><hAcc>1.596013</hAcc><vAcc>0.756789</vAcc></extensions></trkpt>
      <trkpt lon="-82.302797" lat="35.643626"><ele>793.668396</ele><time>2022-06-23T12:34:29Z</time><extensions><speed>0.001154</speed><course>271.880005</course><hAcc>1.590357</hAcc><vAcc>0.756779</vAcc></extensions></trkpt>
      <trkpt lon="-82.302797" lat="35.643626"><ele>793.670532</ele><time>2022-06-23T12:34:30Z</time><extensions><speed>0.001830</speed><course>271.880066</course><hAcc>1.579966</hAcc><vAcc>0.756770</vAcc></extensions></trkpt>
      <trkpt lon="-82.302797" lat="35.643626"><ele>793.672546</ele><time>2022-06-23T12:34:31Z</time><extensions><speed>0.001803</speed><course>271.880127</course><hAcc>1.575084</hAcc><vAcc>0.756763</vAcc></extensions></trkpt>
      <trkpt lon="-82.302797" lat="35.643626"><ele>793.674500</ele><time>2022-06-23T12:34:32Z</time><extensions><speed>0.001749</speed><course>271.880188</course><hAcc>1.570772</hAcc><vAcc>0.756757</vAcc></extensions></trkpt>
      <trkpt lon="-82.302797" lat="35.643626"><ele>793.676453</ele><time>2022-06-23T12:34:33Z</time><extensions><speed>0.001695</speed><course>271.880249</course><hAcc>1.566705</hAcc><vAcc>0.756753</vAcc></extensions></trkpt>
      <trkpt lon="-82.302797" lat="35.643626"><ele>793.678345</ele><time>2022-06-23T12:34:34Z</time><extensions><speed>0.001643</speed><course>271.880310</course><hAcc>1.562856</hAcc><vAcc>0.756750</vAcc></extensions></trkpt>
      <trkpt lon="-82.302797" lat="35.643626"><ele>793.680054</ele><time>2022-06-23T12:34:35Z</time><extensions><speed>0.001593</speed><course>271.880341</course><hAcc>1.559217</hAcc><vAcc>0.756747</vAcc></extensions></trkpt>
      <trkpt lon="-82.302797" lat="35.643626"><ele>793.681458</ele><time>2022-06-23T12:34:36Z</time><extensions><speed>0.001526</speed><course>271.880402</course><hAcc>1.555871</hAcc><vAcc>0.756745</vAcc></extensions></trkpt>
      <trkpt lon="-82.302797" lat="35.643626"><ele>793.682678</ele><time>2022-06-23T12:34:37Z</time><extensions><speed>0.001009</speed><course>271.880432</course><hAcc>1.552534</hAcc><vAcc>0.756744</vAcc></extensions></trkpt>
      <trkpt lon="-82.302797" lat="35.643626"><ele>793.683777</ele><time>2022-06-23T12:34:38Z</time><extensions><speed>0.001431</speed><course>271.880463</course><hAcc>1.545182</hAcc><vAcc>0.756743</vAcc></extensions></trkpt>
      <trkpt lon="-82.302798" lat="35.643626"><ele>793.679260</ele><time>2022-06-23T12:34:39Z</time><extensions><speed>0.001402</speed><course>271.880524</course><hAcc>1.542582</hAcc><vAcc>0.756743</vAcc></extensions></trkpt>
      <trkpt lon="-82.302797" lat="35.643626"><ele>793.674194</ele><time>2022-06-23T12:34:40Z</time><extensions><speed>0.001468</speed><course>327.259857</course><hAcc>1.540760</hAcc><vAcc>0.756742</vAcc></extensions></trkpt>
      <trkpt lon="-82.302797" lat="35.643626"><ele>793.661865</ele><time>2022-06-23T12:34:41Z</time><extensions><speed>0.002019</speed><course>351.980774</course><hAcc>1.538921</hAcc><vAcc>0.756742</vAcc></extensions></trkpt>
      <trkpt lon="-82.302797" lat="35.643626"><ele>793.649597</ele><time>2022-06-23T12:34:42Z</time><extensions><speed>0.002582</speed><course>3.601959</course><hAcc>1.538089</hAcc><vAcc>0.758385</vAcc></extensions></trkpt>
      <trkpt lon="-82.302797" lat="35.643626"><ele>793.634583</ele><time>2022-06-23T12:34:43Z</time><extensions><speed>0.003014</speed><course>11.092184</course><hAcc>1.540032</hAcc><vAcc>0.761085</vAcc></extensions></trkpt>
      <trkpt lon="-82.302797" lat="35.643627"><ele>793.614929</ele><time>2022-06-23T12:34:44Z</time><extensions><speed>0.003569</speed><course>16.452114</course><hAcc>1.543033</hAcc><vAcc>0.762665</vAcc></extensions></trkpt>
      <trkpt lon="-82.302797" lat="35.643627"><ele>793.593445</ele><time>2022-06-23T12:34:45Z</time><extensions><speed>0.006959</speed><course>20.339272</course><hAcc>1.548181</hAcc><vAcc>0.764503</vAcc></extensions></trkpt>
      <trkpt lon="-82.302797" lat="35.643627"><ele>793.570129</ele><time>2022-06-23T12:34:46Z</time><extensions><speed>0.004508</speed><course>23.410744</course><hAcc>1.564560</hAcc><vAcc>0.766592</vAcc></extensions></trkpt>
      <trkpt lon="-82.302797" lat="35.643627"><ele>793.545166</ele><time>2022-06-23T12:34:47Z</time><extensions><speed>0.005159</speed><course>27.056459</course><hAcc>1.570495</hAcc><vAcc>0.768894</vAcc></extensions></trkpt>
      <trkpt lon="-82.302797" lat="35.643627"><ele>793.518860</ele><time>2022-06-23T12:34:48Z</time><extensions><speed>0.014163</speed><course>37.908001</course><hAcc>1.574663</hAcc><vAcc>0.771326</vAcc></extensions></trkpt>
      <trkpt lon="-82.302796" lat="35.643627"><ele>793.491699</ele><time>2022-06-23T12:34:49Z</time><extensions><speed>0.079505</speed><course>53.898495</course><hAcc>1.583417</hAcc><vAcc>0.773748</vAcc></extensions></trkpt>
      <trkpt lon="-82.302795" lat="35.643628"><ele>793.463989</ele><time>2022-06-23T12:34:50Z</time><extensions><speed>0.170358</speed><course>73.319717</course><hAcc>1.680415</hAcc><vAcc>0.775952</vAcc></extensions></trkpt>
      <trkpt lon="-82.302793" lat="35.643628"><ele>793.436279</ele><time>2022-06-23T12:34:51Z</time><extensions><speed>0.176700</speed><course>100.678391</course><hAcc>1.859263</hAcc><vAcc>0.777661</vAcc></extensions></trkpt>
      <trkpt lon="-82.302791" lat="35.643627"><ele>793.409424</ele><time>2022-06-23T12:34:52Z</time><extensions><speed>0.171563</speed><course>132.731049</course><hAcc>1.990757</hAcc><vAcc>0.778536</vAcc></extensions></trkpt>
      <trkpt lon="-82.302790" lat="35.643627"><ele>793.383850</ele><time>2022-06-23T12:34:53Z</time><extensions><speed>0.013454</speed><course>105.265701</course><hAcc>1.967515</hAcc><vAcc>0.778309</vAcc></extensions></trkpt>
      <trkpt lon="-82.302790" lat="35.643627"><ele>793.359741</ele><time>2022-06-23T12:34:54Z</time><extensions><speed>0.006382</speed><course>46.344723</course><hAcc>1.944359</hAcc><vAcc>0.776999</vAcc></extensions></trkpt>
      <trkpt lon="-82.302790" lat="35.643627"><ele>793.337463</ele><time>2022-06-23T12:34:55Z</time><extensions><speed>0.006128</speed><course>38.875546</course><hAcc>1.922963</hAcc><vAcc>0.774915</vAcc></extensions></trkpt>
      <trkpt lon="-82.302790" lat="35.643627"><ele>793.317139</ele><time>2022-06-23T12:34:56Z</time><extensions><speed>0.005865</speed><course>38.314499</course><hAcc>1.902925</hAcc><vAcc>0.772418</vAcc></extensions></trkpt>
      <trkpt lon="-82.302790" lat="35.643627"><ele>793.298767</ele><time>2022-06-23T12:34:57Z</time><extensions><speed>0.005606</speed><course>38.272060</course><hAcc>1.884089</hAcc><vAcc>0.769801</vAcc></extensions></trkpt>
      <trkpt lon="-82.302789" lat="35.643628"><ele>793.282227</ele><time>2022-06-23T12:34:58Z</time><extensions><speed>0.005224</speed><course>38.268856</course><hAcc>1.866802</hAcc><vAcc>0.767278</vAcc></extensions></trkpt>
      <trkpt lon="-82.302789" lat="35.643628"><ele>793.267639</ele><time>2022-06-23T12:34:59Z</time><extensions><speed>0.002810</speed><course>38.268608</course><hAcc>1.852268</hAcc><vAcc>0.764988</vAcc></extensions></trkpt>
      <trkpt lon="-82.302789" lat="35.643628"><ele>793.254944</ele><time>2022-06-23T12:35:00Z</time><extensions><speed>0.002572</speed><course>38.268593</course><hAcc>1.831989</hAcc><vAcc>0.763007</vAcc></extensions></trkpt>
      <trkpt lon="-82.302789" lat="35.643628"><ele>793.243958</ele><time>2022-06-23T12:35:01Z</time><extensions><speed>0.001679</speed><course>38.268593</course><hAcc>1.813478</hAcc><vAcc>0.761363</vAcc></extensions></trkpt>
      <trkpt lon="-82.302789" lat="35.643628"><ele>793.234497</ele><time>2022-06-23T12:35:02Z</time><extensions><speed>0.002356</speed><course>38.268597</course><hAcc>1.792970</hAcc><vAcc>0.760047</vAcc></extensions></trkpt>
      <trkpt lon="-82.302789" lat="35.643628"><ele>793.226440</ele><time>2022-06-23T12:35:03Z</time><extensions><speed>0.002290</speed><course>38.268597</course><hAcc>1.777110</hAcc><vAcc>0.759030</vAcc></extensions></trkpt>
      <trkpt lon="-82.302789" lat="35.643628"><ele>793.219666</ele><time>2022-06-23T12:35:04Z</time><extensions><speed>0.002196</speed><course>38.268600</course><hAcc>1.762853</hAcc><vAcc>0.758270</vAcc></extensions></trkpt>
      <trkpt lon="-82.302789" lat="35.643628"><ele>793.214050</ele><time>2022-06-23T12:35:05Z</time><extensions><speed>0.002107</speed><course>38.268600</course><hAcc>1.749948</hAcc><vAcc>0.757722</vAcc></extensions></trkpt>
      <trkpt lon="-82.302789" lat="35.643628"><ele>793.209534</ele><time>2022-06-23T12:35:06Z</time><extensions><speed>0.002149</speed><course>38.268600</course><hAcc>1.737873</hAcc><vAcc>0.757340</vAcc></extensions></trkpt>
      <trkpt lon="-82.302789" lat="35.643628"><ele>793.205750</ele><time>2022-06-23T12:35:07Z</time><extensions><speed>0.005562</speed><course>38.268604</course><hAcc>1.723861</hAcc><vAcc>0.757086</vAcc></extensions></trkpt>
      <trkpt lon="-82.302789" lat="35.643628"><ele>793.202148</ele><time>2022-06-23T12:35:08Z</time><extensions><speed>0.008736</speed><course>38.268604</course><hAcc>1.728291</hAcc><vAcc>0.756925</vAcc></extensions></trkpt>
      <trkpt lon="-82.302789" lat="35.643628"><ele>793.203491</ele><time>2022-06-23T12:35:09Z</time><extensions><speed>0.005219</speed><course>38.268604</course><hAcc>1.756340</hAcc><vAcc>0.756828</vAcc></extensions></trkpt>
      <trkpt lon="-82.302789" lat="35.643628"><ele>793.206055</ele><time>2022-06-23T12:35:10Z</time><extensions><speed>0.001868</speed><course>38.268608</course><hAcc>1.766500</hAcc><vAcc>0.756776</vAcc></extensions></trkpt>
      <trkpt lon="-82.302789" lat="35.643629"><ele>793.209839</ele><time>2022-06-23T12:35:11Z</time><extensions><speed>0.002843</speed><course>38.268608</course><hAcc>1.756393</hAcc><vAcc>0.756751</vAcc></extensions></trkpt>
      <trkpt lon="-82.302789" lat="35.643629"><ele>793.214661</ele><time>2022-06-23T12:35:12Z</time><extensions><speed>0.001564</speed><course>38.268608</course><hAcc>1.755953</hAcc><vAcc>0.756743</vAcc></extensions></trkpt>
      <trkpt lon="-82.302789" lat="35.643629"><ele>793.220703</ele><time>2022-06-23T12:35:13Z</time><extensions><speed>0.001515</speed><course>38.268608</course><hAcc>1.748560</hAcc><vAcc>0.756743</vAcc></extensions></trkpt>
      <trkpt lon="-82.302788" lat="35.643629"><ele>793.227722</ele><time>2022-06-23T12:35:14Z</time><extensions><speed>0.003635</speed><course>38.268608</course><hAcc>1.741077</hAcc><vAcc>0.756748</vAcc></extensions></trkpt>
      <trkpt lon="-82.302788" lat="35.643629"><ele>793.235840</ele><time>2022-06-23T12:35:15Z</time><extensions><speed>0.003489</speed><course>38.268608</course><hAcc>1.754346</hAcc><vAcc>0.756752</vAcc></extensions></trkpt>
      <trkpt lon="-82.302788" lat="35.643629"><ele>793.244812</ele><time>2022-06-23T12:35:16Z</time><extensions><speed>0.001614</speed><course>38.268612</course><hAcc>1.768056</hAcc><vAcc>0.756757</vAcc></extensions></trkpt>
      <trkpt lon="-82.302788" lat="35.643629"><ele>793.254395</ele><time>2022-06-23T12:35:17Z</time><extensions><speed>0.009990</speed><course>38.268612</course><hAcc>1.747508</hAcc><vAcc>0.756759</vAcc></extensions></trkpt>
      <trkpt lon="-82.302788" lat="35.643629"><ele>793.264404</ele><time>2022-06-23T12:35:18Z</time><extensions><speed>0.014453</speed><course>38.268612</course><hAcc>1.787522</hAcc><vAcc>0.756760</vAcc></extensions></trkpt>
      <trkpt lon="-82.302788" lat="35.643629"><ele>793.274475</ele><time>2022-06-23T12:35:19Z</time><extensions><speed>0.013122</speed><course>38.268612</course><hAcc>1.883431</hAcc><vAcc>0.756760</vAcc></extensions></trkpt>
      <trkpt lon="-82.302788" lat="35.643629"><ele>793.289185</ele><time>2022-06-23T12:35:20Z</time><extensions><speed>0.001441</speed><course>38.268612</course><hAcc>1.970001</hAcc><vAcc>0.758402</vAcc></extensions></trkpt>
      <trkpt lon="-82.302788" lat="35.643629"><ele>793.305176</ele><time>2022-06-23T12:35:21Z</time><extensions><speed>0.000903</speed><course>38.268612</course><hAcc>1.949429</hAcc><vAcc>0.761100</vAcc></extensions></trkpt>
      <trkpt lon="-82.302788" lat="35.643629"><ele>793.322144</ele><time>2022-06-23T12:35:22Z</time><extensions><speed>0.000838</speed><course>38.268612</course><hAcc>1.926256</hAcc><vAcc>0.765093</vAcc></extensions></trkpt>
      <trkpt lon="-82.302788" lat="35.643629"><ele>793.340149</ele><time>2022-06-23T12:35:23Z</time><extensions><speed>0.000800</speed><course>38.268612</course><hAcc>1.905719</hAcc><vAcc>0.770574</vAcc></extensions></trkpt>
      <trkpt lon="-82.302788" lat="35.643629"><ele>793.358887</ele><time>2022-06-23T12:35:24Z</time><extensions><speed>0.000896</speed><course>38.268612</course><hAcc>1.887412</hAcc><vAcc>0.777686</vAcc></extensions></trkpt>
      <trkpt lon="-82.302788" lat="35.643629"><ele>793.377869</ele><time>2022-06-23T12:35:25Z</time><extensions><speed>0.000898</speed><course>38.268612</course><hAcc>1.872627</hAcc><vAcc>0.786505</vAcc></extensions></trkpt>
      <trkpt lon="-82.302788" lat="35.643629"><ele>793.396973</ele><time>2022-06-23T12:35:26Z</time><extensions><speed>0.001840</speed><course>38.268612</course><hAcc>1.857468</hAcc><vAcc>0.797023</vAcc></extensions></trkpt>
      <trkpt lon="-82.302788" lat="35.643629"><ele>793.416382</ele><time>2022-06-23T12:35:27Z</time><extensions><speed>0.001869</speed><course>38.268612</course><hAcc>1.857592</hAcc><vAcc>0.809121</vAcc></extensions></trkpt>
      <trkpt lon="-82.302788" lat="35.643629"><ele>793.435730</ele><time>2022-06-23T12:35:28Z</time><extensions><speed>0.002083</speed><course>38.268612</course><hAcc>1.856826</hAcc><vAcc>0.822544</vAcc></extensions></trkpt>
      <trkpt lon="-82.302788" lat="35.643629"><ele>793.454590</ele><time>2022-06-23T12:35:29Z</time><extensions><speed>0.005157</speed><course>38.268616</course><hAcc>1.842633</hAcc><vAcc>0.836869</vAcc></extensions></trkpt>
      <trkpt lon="-82.302788" lat="35.643629"><ele>793.472961</ele><time>2022-06-23T12:35:30Z</time><extensions><speed>0.006391</speed><course>38.268616</course><hAcc>1.880082</hAcc><vAcc>0.851488</vAcc></extensions></trkpt>
      <trkpt lon="-82.302788" lat="35.643629"><ele>793.490417</ele><time>2022-06-23T12:35:31Z</time><extensions><speed>0.001355</speed><course>38.268616</course><hAcc>1.953651</hAcc><vAcc>0.865710</vAcc></extensions></trkpt>
      <trkpt lon="-82.302788" lat="35.643629"><ele>793.507080</ele><time>2022-06-23T12:35:32Z</time><extensions><speed>0.000907</speed><course>38.268616</course><hAcc>1.942073</hAcc><vAcc>0.878973</vAcc></extensions></trkpt>
      <trkpt lon="-82.302788" lat="35.643629"><ele>793.522156</ele><time>2022-06-23T12:35:33Z</time><extensions><speed>0.000469</speed><course>38.268616</course><hAcc>1.925215</hAcc><vAcc>0.884093</vAcc></extensions></trkpt>
      <trkpt lon="-82.302788" lat="35.643629"><ele>793.536133</ele><time>2022-06-23T12:35:34Z</time><extensions><speed>0.000426</speed><course>38.268616</course><hAcc>1.903107</hAcc><vAcc>0.887729</vAcc></extensions></trkpt>
      <trkpt lon="-82.302788" lat="35.643630"><ele>793.548950</ele><time>2022-06-23T12:35:35Z</time><extensions><speed>0.000303</speed><course>38.268616</course><hAcc>1.882692</hAcc><vAcc>0.889405</vAcc></extensions></trkpt>
      <trkpt lon="-82.302788" lat="35.643630"><ele>793.560547</ele><time>2022-06-23T12:35:36Z</time><extensions><speed>0.001470</speed><course>38.268616</course><hAcc>1.854288</hAcc><vAcc>0.888853</vAcc></extensions></trkpt>
      <trkpt lon="-82.302788" lat="35.643630"><ele>793.570740</ele><time>2022-06-23T12:35:37Z</time><extensions><speed>0.001125</speed><course>38.268616</course><hAcc>1.856012</hAcc><vAcc>0.885945</vAcc></extensions></trkpt>
      <trkpt lon="-82.302788" lat="35.643630"><ele>793.579651</ele><time>2022-06-23T12:35:38Z</time><extensions><speed>0.001043</speed><course>38.268616</course><hAcc>1.851824</hAcc><vAcc>0.880664</vAcc></extensions></trkpt>
      <trkpt lon="-82.302788" lat="35.643630"><ele>793.587219</ele><time>2022-06-23T12:35:39Z</time><extensions><speed>0.000988</speed><course>38.268616</course><hAcc>1.845987</hAcc><vAcc>0.873102</vAcc></extensions></trkpt>
      <trkpt lon="-82.302788" lat="35.643630"><ele>793.593933</ele><time>2022-06-23T12:35:40Z</time><extensions><speed>0.000895</speed><course>38.268616</course><hAcc>1.840674</hAcc><vAcc>0.863478</vAcc></extensions></trkpt>
      <trkpt lon="-82.302788" lat="35.643630"><ele>793.599670</ele><time>2022-06-23T12:35:41Z</time><extensions><speed>0.000335</speed><course>38.268616</course><hAcc>1.837138</hAcc><vAcc>0.852155</vAcc></extensions></trkpt>
      <trkpt lon="-82.302788" lat="35.643630"><ele>793.604431</ele><time>2022-06-23T12:35:42Z</time><extensions><speed>0.000316</speed><course>38.268616</course><hAcc>1.817812</hAcc><vAcc>0.839662</vAcc></extensions></trkpt>
      <trkpt lon="-82.302788" lat="35.643630"><ele>793.608276</ele><time>2022-06-23T12:35:43Z</time><extensions><speed>0.000731</speed><course>38.268616</course><hAcc>1.796474</hAcc><vAcc>0.826712</vAcc></extensions></trkpt>
      <trkpt lon="-82.302788" lat="35.643630"><ele>793.611328</ele><time>2022-06-23T12:35:44Z</time><extensions><speed>0.000296</speed><course>38.268616</course><hAcc>1.793254</hAcc><vAcc>0.814093</vAcc></extensions></trkpt>
      <trkpt lon="-82.302788" lat="35.643630"><ele>793.613647</ele><time>2022-06-23T12:35:45Z</time><extensions><speed>0.000310</speed><course>38.268616</course><hAcc>1.776150</hAcc><vAcc>0.802447</vAcc></extensions></trkpt>
      <trkpt lon="-82.302788" lat="35.643630"><ele>793.615173</ele><time>2022-06-23T12:35:46Z</time><extensions><speed>0.000168</speed><course>38.268616</course><hAcc>1.761800</hAcc><vAcc>0.792177</vAcc></extensions></trkpt>
      <trkpt lon="-82.302788" lat="35.643630"><ele>793.615906</ele><time>2022-06-23T12:35:47Z</time><extensions><speed>0.000029</speed><course>38.268616</course><hAcc>1.744099</hAcc><vAcc>0.783472</vAcc></extensions></trkpt>
      <trkpt lon="-82.302788" lat="35.643630"><ele>793.615967</ele><time>2022-06-23T12:35:48Z</time><extensions><speed>0.000137</speed><course>38.268616</course><hAcc>1.721210</hAcc><vAcc>0.776354</vAcc></extensions></trkpt>
      <trkpt lon="-82.302788" lat="35.643630"><ele>793.615417</ele><time>2022-06-23T12:35:49Z</time><extensions><speed>0.000207</speed><course>38.268616</course><hAcc>1.704151</hAcc><vAcc>0.772233</vAcc></extensions></trkpt>
      <trkpt lon="-82.302788" lat="35.643630"><ele>793.614319</ele><time>2022-06-23T12:35:50Z</time><extensions><speed>0.000274</speed><course>38.268616</course><hAcc>1.691127</hAcc><vAcc>0.770531</vAcc></extensions></trkpt>
      <trkpt lon="-82.302788" lat="35.643630"><ele>793.612671</ele><time>2022-06-23T12:35:51Z</time><extensions><speed>0.000546</speed><course>38.268616</course><hAcc>1.681698</hAcc><vAcc>0.771288</vAcc></extensions></trkpt>
      <trkpt lon="-82.302787" lat="35.643630"><ele>793.610596</ele><time>2022-06-23T12:35:52Z</time><extensions><speed>0.000219</speed><course>38.268616</course><hAcc>1.689340</hAcc><vAcc>0.774482</vAcc></extensions></trkpt>
      <trkpt lon="-82.302787" lat="35.643630"><ele>793.608154</ele><time>2022-06-23T12:35:53Z</time><extensions><speed>0.000198</speed><course>38.268616</course><hAcc>1.679917</hAcc><vAcc>0.780045</vAcc></extensions></trkpt>
      <trkpt lon="-82.302787" lat="35.643630"><ele>793.605408</ele><time>2022-06-23T12:35:54Z</time><extensions><speed>0.000190</speed><course>38.268616</course><hAcc>1.670332</hAcc><vAcc>0.787864</vAcc></extensions></trkpt>
      <trkpt lon="-82.302787" lat="35.643630"><ele>793.602356</ele><time>2022-06-23T12:35:55Z</time><extensions><speed>0.000183</speed><course>38.268616</course><hAcc>1.661614</hAcc><vAcc>0.797772</vAcc></extensions></trkpt>
      <trkpt lon="-82.302787" lat="35.643630"><ele>793.599426</ele><time>2022-06-23T12:35:56Z</time><extensions><speed>0.000177</speed><course>38.268616</course><hAcc>1.653708</hAcc><vAcc>0.809525</vAcc></extensions></trkpt>
      <trkpt lon="-82.302787" lat="35.643630"><ele>793.596741</ele><time>2022-06-23T12:35:57Z</time><extensions><speed>0.000201</speed><course>38.268616</course><hAcc>1.646554</hAcc><vAcc>0.822771</vAcc></extensions></trkpt>
      <trkpt lon="-82.302787" lat="35.643630"><ele>793.594238</ele><time>2022-06-23T12:35:57Z</time><extensions><speed>0.000196</speed><course>38.268616</course><hAcc>1.642343</hAcc><vAcc>0.837021</vAcc></extensions></trkpt>
      <trkpt lon="-82.302787" lat="35.643630"><ele>793.592285</ele><time>2022-06-23T12:35:58Z</time><extensions><speed>0.000198</speed><course>38.268616</course><hAcc>1.638465</hAcc><vAcc>0.845269</vAcc></extensions></trkpt>
      <trkpt lon="-82.302787" lat="35.643630"><ele>793.590515</ele><time>2022-06-23T12:35:59Z</time><extensions><speed>0.000412</speed><course>38.268616</course><hAcc>1.634542</hAcc><vAcc>0.852822</vAcc></extensions></trkpt>
      <trkpt lon="-82.302787" lat="35.643630"><ele>793.588745</ele><time>2022-06-23T12:36:00Z</time><extensions><speed>0.000419</speed><course>38.268616</course><hAcc>1.648477</hAcc><vAcc>0.858841</vAcc></extensions></trkpt>
      <trkpt lon="-82.302787" lat="35.643630"><ele>793.586792</ele><time>2022-06-23T12:36:01Z</time><extensions><speed>0.000403</speed><course>38.268616</course><hAcc>1.663448</hAcc><vAcc>0.862742</vAcc></extensions></trkpt>
      <trkpt lon="-82.302787" lat="35.643630"><ele>793.585083</ele><time>2022-06-23T12:36:02Z</time><extensions><speed>0.000369</speed><course>38.268616</course><hAcc>1.677707</hAcc><vAcc>0.864154</vAcc></extensions></trkpt>
      <trkpt lon="-82.302787" lat="35.643630"><ele>793.583435</ele><time>2022-06-23T12:36:03Z</time><extensions><speed>0.000163</speed><course>38.268616</course><hAcc>1.690261</hAcc><vAcc>0.865577</vAcc></extensions></trkpt>
      <trkpt lon="-82.302787" lat="35.643630"><ele>793.581970</ele><time>2022-06-23T12:36:04Z</time><extensions><speed>0.000147</speed><course>38.268616</course><hAcc>1.684980</hAcc><vAcc>0.862275</vAcc></extensions></trkpt>
      <trkpt lon="-82.302787" lat="35.643630"><ele>793.580811</ele><time>2022-06-23T12:36:05Z</time><extensions><speed>0.000140</speed><course>38.268616</course><hAcc>1.679507</hAcc><vAcc>0.859064</vAcc></extensions></trkpt>
      <trkpt lon="-82.302787" lat="35.643630"><ele>793.580017</ele><time>2022-06-23T12:36:06Z</time><extensions><speed>0.000141</speed><course>38.268616</course><hAcc>1.674668</hAcc><vAcc>0.852072</vAcc></extensions></trkpt>
      <trkpt lon="-82.302787" lat="35.643630"><ele>793.579529</ele><time>2022-06-23T12:36:07Z</time><extensions><speed>0.000292</speed><course>38.268616</course><hAcc>1.670036</hAcc><vAcc>0.843736</vAcc></extensions></trkpt>
      <trkpt lon="-82.302787" lat="35.643630"><ele>793.579346</ele><time>2022-06-23T12:36:08Z</time><extensions><speed>0.000295</speed><course>38.268616</course><hAcc>1.683315</hAcc><vAcc>0.834754</vAcc></extensions></trkpt>
      <trkpt lon="-82.302787" lat="35.643630"><ele>793.579285</ele><time>2022-06-23T12:36:09Z</time><extensions><speed>0.000283</speed><course>38.268616</course><hAcc>1.698331</hAcc><vAcc>0.825875</vAcc></extensions></trkpt>
      <trkpt lon="-82.302787" lat="35.643630"><ele>793.579468</ele><time>2022-06-23T12:36:10Z</time><extensions><speed>0.000269</speed><course>38.268616</course><hAcc>1.712476</hAcc><vAcc>0.817664</vAcc></extensions></trkpt>
      <trkpt lon="-82.302787" lat="35.643630"><ele>793.579773</ele><time>2022-06-23T12:36:11Z</time><extensions><speed>0.000257</speed><course>38.268616</course><hAcc>1.725457</hAcc><vAcc>0.810388</vAcc></extensions></trkpt>
      <trkpt lon="-82.302787" lat="35.643630"><ele>793.580200</ele><time>2022-06-23T12:36:12Z</time><extensions><speed>0.000259</speed><course>38.268616</course><hAcc>1.736141</hAcc><vAcc>0.804039</vAcc></extensions></trkpt>
      <trkpt lon="-82.302787" lat="35.643630"><ele>793.580627</ele><time>2022-06-23T12:36:13Z</time><extensions><speed>0.000402</speed><course>38.268612</course><hAcc>1.744163</hAcc><vAcc>0.798381</vAcc></extensions></trkpt>
      <trkpt lon="-82.302787" lat="35.643630"><ele>793.581116</ele><time>2022-06-23T12:36:14Z</time><extensions><speed>0.000387</speed><course>38.268612</course><hAcc>1.772460</hAcc><vAcc>0.793119</vAcc></extensions></trkpt>
      <trkpt lon="-82.302787" lat="35.643630"><ele>793.581543</ele><time>2022-06-23T12:36:15Z</time><extensions><speed>0.000226</speed><course>38.268612</course><hAcc>1.801096</hAcc><vAcc>0.789678</vAcc></extensions></trkpt>
      <trkpt lon="-82.302787" lat="35.643630"><ele>793.581970</ele><time>2022-06-23T12:36:16Z</time><extensions><speed>0.000200</speed><course>38.268612</course><hAcc>1.806056</hAcc><vAcc>0.787433</vAcc></extensions></trkpt>
      <trkpt lon="-82.302787" lat="35.643630"><ele>793.582397</ele><time>2022-06-23T12:36:17Z</time><extensions><speed>0.000189</speed><course>38.268612</course><hAcc>1.806890</hAcc><vAcc>0.786737</vAcc></extensions></trkpt>
      <trkpt lon="-82.302787" lat="35.643630"><ele>793.583008</ele><time>2022-06-23T12:36:18Z</time><extensions><speed>0.000180</speed><course>38.268612</course><hAcc>1.806750</hAcc><vAcc>0.785134</vAcc></extensions></trkpt>
      <trkpt lon="-82.302787" lat="35.643630"><ele>793.583618</ele><time>2022-06-23T12:36:19Z</time><extensions><speed>0.000164</speed><course>38.268612</course><hAcc>1.806838</hAcc><vAcc>0.784416</vAcc></extensions></trkpt>
      <trkpt lon="-82.302787" lat="35.643630"><ele>793.584106</ele><time>2022-06-23T12:36:20Z</time><extensions><speed>0.000076</speed><course>38.268612</course><hAcc>1.807255</hAcc><vAcc>0.784590</vAcc></extensions></trkpt>
      <trkpt lon="-82.302787" lat="35.643630"><ele>793.584412</ele><time>2022-06-23T12:36:21Z</time><extensions><speed>0.000148</speed><course>38.268612</course><hAcc>1.790360</hAcc><vAcc>0.785561</vAcc></extensions></trkpt>
      <trkpt lon="-82.302787" lat="35.643630"><ele>793.584534</ele><time>2022-06-23T12:36:22Z</time><extensions><speed>0.000143</speed><course>38.268616</course><hAcc>1.788071</hAcc><vAcc>0.787123</vAcc></extensions></trkpt>
      <trkpt lon="-82.302787" lat="35.643630"><ele>793.584656</ele><time>2022-06-23T12:36:23Z</time><extensions><speed>0.000064</speed><course>38.268616</course><hAcc>1.788828</hAcc><vAcc>0.788953</vAcc></extensions></trkpt>
      <trkpt lon="-82.302787" lat="35.643630"><ele>793.584961</ele><time>2022-06-23T12:36:24Z</time><extensions><speed>0.000057</speed><course>38.268616</course><hAcc>1.774783</hAcc><vAcc>0.790616</vAcc></extensions></trkpt>
      <trkpt lon="-82.302787" lat="35.643630"><ele>793.585144</ele><time>2022-06-23T12:36:25Z</time><extensions><speed>0.000055</speed><course>38.268616</course><hAcc>1.760606</hAcc><vAcc>0.791580</vAcc></extensions></trkpt>
      <trkpt lon="-82.302787" lat="35.643630"><ele>793.585388</ele><time>2022-06-23T12:36:26Z</time><extensions><speed>0.000052</speed><course>38.268616</course><hAcc>1.747380</hAcc><vAcc>0.791349</vAcc></extensions></trkpt>
      <trkpt lon="-82.302787" lat="35.643630"><ele>793.585571</ele><time>2022-06-23T12:36:27Z</time><extensions><speed>0.000039</speed><course>38.268616</course><hAcc>1.735281</hAcc><vAcc>0.789704</vAcc></extensions></trkpt>
      <trkpt lon="-82.302787" lat="35.643630"><ele>793.585815</ele><time>2022-06-23T12:36:28Z</time><extensions><speed>0.000041</speed><course>38.268616</course><hAcc>1.721114</hAcc><vAcc>0.786816</vAcc></extensions></trkpt>
      <trkpt lon="-82.302787" lat="35.643630"><ele>793.586060</ele><time>2022-06-23T12:36:29Z</time><extensions><speed>0.000042</speed><course>38.268616</course><hAcc>1.708357</hAcc><vAcc>0.783124</vAcc></extensions></trkpt>
      <trkpt lon="-82.302787" lat="35.643630"><ele>793.586304</ele><time>2022-06-23T12:36:30Z</time><extensions><speed>0.000097</speed><course>38.268616</course><hAcc>1.695657</hAcc><vAcc>0.779089</vAcc></extensions></trkpt>
      <trkpt lon="-82.302787" lat="35.643630"><ele>793.581238</ele><time>2022-06-23T12:36:31Z</time><extensions><speed>0.000894</speed><course>6.748079</course><hAcc>1.702026</hAcc><vAcc>0.775076</vAcc></extensions></trkpt>
      <trkpt lon="-82.302787" lat="35.643630"><ele>793.577087</ele><time>2022-06-23T12:36:32Z</time><extensions><speed>0.001649</speed><course>6.359919</course><hAcc>1.692504</hAcc><vAcc>0.771337</vAcc></extensions></trkpt>
      <trkpt lon="-82.302787" lat="35.643631"><ele>793.568604</ele><time>2022-06-23T12:36:33Z</time><extensions><speed>0.002394</speed><course>6.413279</course><hAcc>1.683818</hAcc><vAcc>0.768028</vAcc></extensions></trkpt>
      <trkpt lon="-82.302787" lat="35.643631"><ele>793.554749</ele><time>2022-06-23T12:36:34Z</time><extensions><speed>0.002111</speed><course>6.481087</course><hAcc>1.677197</hAcc><vAcc>0.765223</vAcc></extensions></trkpt>
      <trkpt lon="-82.302787" lat="35.643631"><ele>793.540771</ele><time>2022-06-23T12:36:35Z</time><extensions><speed>0.002559</speed><course>6.541928</course><hAcc>1.668818</hAcc><vAcc>0.764521</vAcc></extensions></trkpt>
      <trkpt lon="-82.302787" lat="35.643632"><ele>793.524170</ele><time>2022-06-23T12:36:36Z</time><extensions><speed>0.003265</speed><course>6.576894</course><hAcc>1.661988</hAcc><vAcc>0.765375</vAcc></extensions></trkpt>
      <trkpt lon="-82.302787" lat="35.643632"><ele>793.505188</ele><time>2022-06-23T12:36:37Z</time><extensions><speed>0.014203</speed><course>6.580848</course><hAcc>1.656550</hAcc><vAcc>0.767969</vAcc></extensions></trkpt>
      <trkpt lon="-82.302787" lat="35.643632"><ele>793.483948</ele><time>2022-06-23T12:36:38Z</time><extensions><speed>0.017122</speed><course>6.415699</course><hAcc>1.677500</hAcc><vAcc>0.772431</vAcc></extensions></trkpt>
      <trkpt lon="-82.302787" lat="35.643632"><ele>793.460693</ele><time>2022-06-23T12:36:39Z</time><extensions><speed>0.019259</speed><course>4.834816</course><hAcc>1.702025</hAcc><vAcc>0.778831</vAcc></extensions></trkpt>
      <trkpt lon="-82.302787" lat="35.643633"><ele>793.435730</ele><time>2022-06-23T12:36:40Z</time><extensions><speed>0.023831</speed><course>352.502197</course><hAcc>1.722152</hAcc><vAcc>0.787174</vAcc></extensions></trkpt>
      <trkpt lon="-82.302787" lat="35.643633"><ele>793.409546</ele><time>2022-06-23T12:36:41Z</time><extensions><speed>0.073229</speed><course>316.875549</course><hAcc>1.734703</hAcc><vAcc>0.797391</vAcc></extensions></trkpt>
      <trkpt lon="-82.302788" lat="35.643634"><ele>793.382935</ele><time>2022-06-23T12:36:42Z</time><extensions><speed>0.083662</speed><course>354.296234</course><hAcc>1.824669</hAcc><vAcc>0.809311</vAcc></extensions></trkpt>
      <trkpt lon="-82.302788" lat="35.643635"><ele>793.356506</ele><time>2022-06-23T12:36:43Z</time><extensions><speed>0.077036</speed><course>2.856378</course><hAcc>1.928306</hAcc><vAcc>0.822640</vAcc></extensions></trkpt>
      <trkpt lon="-82.302787" lat="35.643636"><ele>793.330566</ele><time>2022-06-23T12:36:45Z</time><extensions><speed>0.039957</speed><course>5.720266</course><hAcc>2.006788</hAcc><vAcc>0.836933</vAcc></extensions></trkpt>
      <trkpt lon="-82.302787" lat="35.643636"><ele>793.305908</ele><time>2022-06-23T12:36:46Z</time><extensions><speed>0.031662</speed><course>6.828470</course><hAcc>2.022534</hAcc><vAcc>0.851530</vAcc></extensions></trkpt>
      <trkpt lon="-82.302787" lat="35.643637"><ele>793.283752</ele><time>2022-06-23T12:36:47Z</time><extensions><speed>0.028647</speed><course>7.077091</course><hAcc>2.022770</hAcc><vAcc>0.859164</vAcc></extensions></trkpt>
      <trkpt lon="-82.302787" lat="35.643637"><ele>793.263306</ele><time>2022-06-23T12:36:48Z</time><extensions><speed>0.026670</speed><course>7.124633</course><hAcc>2.019420</hAcc><vAcc>0.865665</vAcc></extensions></trkpt>
      <trkpt lon="-82.302787" lat="35.643637"><ele>793.244568</ele><time>2022-06-23T12:36:49Z</time><extensions><speed>0.024799</speed><course>7.133409</course><hAcc>2.014895</hAcc><vAcc>0.870348</vAcc></extensions></trkpt>
      <trkpt lon="-82.302787" lat="35.643638"><ele>793.233826</ele><time>2022-06-23T12:36:50Z</time><extensions><speed>0.021846</speed><course>7.135014</course><hAcc>2.012259</hAcc><vAcc>0.872771</vAcc></extensions></trkpt>
      <trkpt lon="-82.302787" lat="35.643638"><ele>793.224121</ele><time>2022-06-23T12:36:51Z</time><extensions><speed>0.011863</speed><course>6.984120</course><hAcc>2.015038</hAcc><vAcc>0.872674</vAcc></extensions></trkpt>
      <trkpt lon="-82.302787" lat="35.643638"><ele>793.216309</ele><time>2022-06-23T12:36:52Z</time><extensions><speed>0.005295</speed><course>8.890096</course><hAcc>2.006212</hAcc><vAcc>0.869954</vAcc></extensions></trkpt>
      <trkpt lon="-82.302787" lat="35.643639"><ele>793.210571</ele><time>2022-06-23T12:36:53Z</time><extensions><speed>0.005306</speed><course>11.491206</course><hAcc>1.986953</hAcc><vAcc>0.864655</vAcc></extensions></trkpt>
      <trkpt lon="-82.302787" lat="35.643639"><ele>793.206970</ele><time>2022-06-23T12:36:54Z</time><extensions><speed>0.012040</speed><course>14.454754</course><hAcc>1.965453</hAcc><vAcc>0.856973</vAcc></extensions></trkpt>
      <trkpt lon="-82.302786" lat="35.643639"><ele>793.205383</ele><time>2022-06-23T12:36:55Z</time><extensions><speed>0.022418</speed><course>17.186609</course><hAcc>1.953020</hAcc><vAcc>0.847274</vAcc></extensions></trkpt>
      <trkpt lon="-82.302786" lat="35.643640"><ele>793.205750</ele><time>2022-06-23T12:36:56Z</time><extensions><speed>0.024927</speed><course>19.557991</course><hAcc>1.961069</hAcc><vAcc>0.836101</vAcc></extensions></trkpt>
      <trkpt lon="-82.302786" lat="35.643640"><ele>793.207886</ele><time>2022-06-23T12:36:57Z</time><extensions><speed>0.025882</speed><course>21.039572</course><hAcc>1.973364</hAcc><vAcc>0.824195</vAcc></extensions></trkpt>
      <trkpt lon="-82.302786" lat="35.643641"><ele>793.211548</ele><time>2022-06-23T12:36:58Z</time><extensions><speed>0.025540</speed><course>17.813921</course><hAcc>1.984225</hAcc><vAcc>0.812375</vAcc></extensions></trkpt>
      <trkpt lon="-82.302785" lat="35.643641"><ele>793.216431</ele><time>2022-06-23T12:36:59Z</time><extensions><speed>0.023800</speed><course>341.771240</course><hAcc>1.988552</hAcc><vAcc>0.801322</vAcc></extensions></trkpt>
      <trkpt lon="-82.302786" lat="35.643641"><ele>793.222107</ele><time>2022-06-23T12:37:00Z</time><extensions><speed>0.103042</speed><course>275.848541</course><hAcc>1.986434</hAcc><vAcc>0.791475</vAcc></extensions></trkpt>
      <trkpt lon="-82.302789" lat="35.643641"><ele>793.228271</ele><time>2022-06-23T12:37:01Z</time><extensions><speed>0.399952</speed><course>256.567535</course><hAcc>2.024505</hAcc><vAcc>0.783059</vAcc></extensions></trkpt>
      <trkpt lon="-82.302793" lat="35.643640"><ele>793.234375</ele><time>2022-06-23T12:37:02Z</time><extensions><speed>0.392742</speed><course>256.059509</course><hAcc>2.029938</hAcc><vAcc>0.776130</vAcc></extensions></trkpt>
      <trkpt lon="-82.302795" lat="35.643640"><ele>793.235291</ele><time>2022-06-23T12:37:03Z</time><extensions><speed>0.052106</speed><course>272.687653</course><hAcc>2.027478</hAcc><vAcc>0.770619</vAcc></extensions></trkpt>
      <trkpt lon="-82.302795" lat="35.643640"><ele>793.234375</ele><time>2022-06-23T12:37:04Z</time><extensions><speed>0.011101</speed><course>9.863232</course><hAcc>2.027585</hAcc><vAcc>0.766378</vAcc></extensions></trkpt>
      <trkpt lon="-82.302795" lat="35.643640"><ele>793.231506</ele><time>2022-06-23T12:37:05Z</time><extensions><speed>0.013204</speed><course>32.337456</course><hAcc>2.013814</hAcc><vAcc>0.763220</vAcc></extensions></trkpt>
      <trkpt lon="-82.302795" lat="35.643641"><ele>793.226868</ele><time>2022-06-23T12:37:06Z</time><extensions><speed>0.012789</speed><course>34.198475</course><hAcc>2.000050</hAcc><vAcc>0.760945</vAcc></extensions></trkpt>
      <trkpt lon="-82.302795" lat="35.643641"><ele>793.220337</ele><time>2022-06-23T12:37:07Z</time><extensions><speed>0.012070</speed><course>34.397854</course><hAcc>1.988675</hAcc><vAcc>0.759364</vAcc></extensions></trkpt>
      <trkpt lon="-82.302794" lat="35.643641"><ele>793.209534</ele><time>2022-06-23T12:37:08Z</time><extensions><speed>0.011560</speed><course>34.419884</course><hAcc>1.979629</hAcc><vAcc>0.758306</vAcc></extensions></trkpt>
      <trkpt lon="-82.302794" lat="35.643641"><ele>793.192993</ele><time>2022-06-23T12:37:09Z</time><extensions><speed>0.013326</speed><course>34.422279</course><hAcc>1.972234</hAcc><vAcc>0.759254</vAcc></extensions></trkpt>
      <trkpt lon="-82.302794" lat="35.643641"><ele>793.176941</ele><time>2022-06-23T12:37:10Z</time><extensions><speed>0.013254</speed><course>34.422539</course><hAcc>1.972693</hAcc><vAcc>0.761540</vAcc></extensions></trkpt>
      <trkpt lon="-82.302794" lat="35.643642"><ele>793.157715</ele><time>2022-06-23T12:37:11Z</time><extensions><speed>0.022741</speed><course>27.132484</course><hAcc>1.974828</hAcc><vAcc>0.765307</vAcc></extensions></trkpt>
      <trkpt lon="-82.302794" lat="35.643643"><ele>793.139038</ele><time>2022-06-23T12:37:12Z</time><extensions><speed>0.031088</speed><course>22.847050</course><hAcc>1.987445</hAcc><vAcc>0.770684</vAcc></extensions></trkpt>
      <trkpt lon="-82.302793" lat="35.643644"><ele>793.119507</ele><time>2022-06-23T12:37:13Z</time><extensions><speed>0.057363</speed><course>20.088369</course><hAcc>2.006965</hAcc><vAcc>0.777761</vAcc></extensions></trkpt>
      <trkpt lon="-82.302793" lat="35.643645"><ele>793.099731</ele><time>2022-06-23T12:37:14Z</time><extensions><speed>0.024656</speed><course>17.913179</course><hAcc>2.072942</hAcc><vAcc>0.786581</vAcc></extensions></trkpt>
      <trkpt lon="-82.302793" lat="35.643646"><ele>793.080383</ele><time>2022-06-23T12:37:15Z</time><extensions><speed>0.038185</speed><course>15.862491</course><hAcc>2.083110</hAcc><vAcc>0.797115</vAcc></extensions></trkpt>
      <trkpt lon="-82.302793" lat="35.643646"><ele>793.061768</ele><time>2022-06-23T12:37:16Z</time><extensions><speed>0.050815</speed><course>14.289722</course><hAcc>2.099893</hAcc><vAcc>0.809230</vAcc></extensions></trkpt>
      <trkpt lon="-82.302792" lat="35.643647"><ele>793.044250</ele><time>2022-06-23T12:37:17Z</time><extensions><speed>0.100201</speed><course>13.104946</course><hAcc>2.109595</hAcc><vAcc>0.822666</vAcc></extensions></trkpt>
      <trkpt lon="-82.302792" lat="35.643649"><ele>793.029419</ele><time>2022-06-23T12:37:18Z</time><extensions><speed>0.174748</speed><course>12.396884</course><hAcc>2.130039</hAcc><vAcc>0.830963</vAcc></extensions></trkpt>
      <trkpt lon="-82.302791" lat="35.643651"><ele>793.015991</ele><time>2022-06-23T12:37:19Z</time><extensions><speed>0.237736</speed><course>12.086145</course><hAcc>2.169128</hAcc><vAcc>0.839063</vAcc></extensions></trkpt>
      <trkpt lon="-82.302791" lat="35.643654"><ele>793.004333</ele><time>2022-06-23T12:37:20Z</time><extensions><speed>0.273372</speed><course>12.323615</course><hAcc>2.207965</hAcc><vAcc>0.846078</vAcc></extensions></trkpt>
      <trkpt lon="-82.302790" lat="35.643658"><ele>793.002136</ele><time>2022-06-23T12:37:21Z</time><extensions><speed>0.274363</speed><course>12.239556</course><hAcc>2.242866</hAcc><vAcc>0.851270</vAcc></extensions></trkpt>
      <trkpt lon="-82.302790" lat="35.643661"><ele>793.003906</ele><time>2022-06-23T12:37:22Z</time><extensions><speed>0.232438</speed><course>9.497297</course><hAcc>2.303227</hAcc><vAcc>0.854131</vAcc></extensions></trkpt>
      <trkpt lon="-82.302789" lat="35.643664"><ele>793.020142</ele><time>2022-06-23T12:37:23Z</time><extensions><speed>0.022864</speed><course>7.284909</course><hAcc>2.361613</hAcc><vAcc>0.857059</vAcc></extensions></trkpt>
      <trkpt lon="-82.302789" lat="35.643666"><ele>793.046143</ele><time>2022-06-23T12:37:24Z</time><extensions><speed>0.018137</speed><course>4.888332</course><hAcc>2.330460</hAcc><vAcc>0.858031</vAcc></extensions></trkpt>
      <trkpt lon="-82.302789" lat="35.643668"><ele>793.083923</ele><time>2022-06-23T12:37:25Z</time><extensions><speed>0.044015</speed><course>3.478464</course><hAcc>2.296082</hAcc><vAcc>0.857399</vAcc></extensions></trkpt>
      <trkpt lon="-82.302789" lat="35.643669"><ele>793.139404</ele><time>2022-06-23T12:37:26Z</time><extensions><speed>0.081894</speed><course>3.014243</course><hAcc>2.270438</hAcc><vAcc>0.855702</vAcc></extensions></trkpt>
      <trkpt lon="-82.302789" lat="35.643671"><ele>793.203552</ele><time>2022-06-23T12:37:27Z</time><extensions><speed>0.094684</speed><course>2.790434</course><hAcc>2.264143</hAcc><vAcc>0.853665</vAcc></extensions></trkpt>
      <trkpt lon="-82.302789" lat="35.643673"><ele>793.276917</ele><time>2022-06-23T12:37:28Z</time><extensions><speed>0.104467</speed><course>2.133189</course><hAcc>2.269522</hAcc><vAcc>0.852170</vAcc></extensions></trkpt>
      <trkpt lon="-82.302788" lat="35.643675"><ele>793.359009</ele><time>2022-06-23T12:37:29Z</time><extensions><speed>0.125649</speed><course>358.986053</course><hAcc>2.277046</hAcc><vAcc>0.852108</vAcc></extensions></trkpt>
      <trkpt lon="-82.302788" lat="35.643677"><ele>793.449341</ele><time>2022-06-23T12:37:30Z</time><extensions><speed>0.224392</speed><course>350.176147</course><hAcc>2.273542</hAcc><vAcc>0.854111</vAcc></extensions></trkpt>
      <trkpt lon="-82.302789" lat="35.643680"><ele>793.546753</ele><time>2022-06-23T12:37:31Z</time><extensions><speed>0.360288</speed><course>331.279846</course><hAcc>2.276936</hAcc><vAcc>0.858410</vAcc></extensions></trkpt>
      <trkpt lon="-82.302792" lat="35.643684"><ele>793.649231</ele><time>2022-06-23T12:37:32Z</time><extensions><speed>0.528713</speed><course>319.891663</course><hAcc>2.311776</hAcc><vAcc>0.864840</vAcc></extensions></trkpt>
      <trkpt lon="-82.302796" lat="35.643688"><ele>793.755249</ele><time>2022-06-23T12:37:33Z</time><extensions><speed>0.590333</speed><course>324.470642</course><hAcc>2.352717</hAcc><vAcc>0.872864</vAcc></extensions></trkpt>
      <trkpt lon="-82.302799" lat="35.643693"><ele>793.869324</ele><time>2022-06-23T12:37:34Z</time><extensions><speed>0.419772</speed><course>327.335785</course><hAcc>2.379719</hAcc><vAcc>0.881732</vAcc></extensions></trkpt>
      <trkpt lon="-82.302800" lat="35.643697"><ele>793.982300</ele><time>2022-06-23T12:37:35Z</time><extensions><speed>0.383613</speed><course>348.001740</course><hAcc>2.387022</hAcc><vAcc>0.890755</vAcc></extensions></trkpt>
      <trkpt lon="-82.302801" lat="35.643700"><ele>794.092712</ele><time>2022-06-23T12:37:36Z</time><extensions><speed>0.233030</speed><course>347.852600</course><hAcc>2.406730</hAcc><vAcc>0.899421</vAcc></extensions></trkpt>
      <trkpt lon="-82.302801" lat="35.643702"><ele>794.187622</ele><time>2022-06-23T12:37:37Z</time><extensions><speed>0.082675</speed><course>233.411316</course><hAcc>2.441678</hAcc><vAcc>0.907394</vAcc></extensions></trkpt>
      <trkpt lon="-82.302802" lat="35.643703"><ele>794.271973</ele><time>2022-06-23T12:37:38Z</time><extensions><speed>0.053968</speed><course>228.245895</course><hAcc>2.410023</hAcc><vAcc>0.914477</vAcc></extensions></trkpt>
      <trkpt lon="-82.302802" lat="35.643703"><ele>794.363159</ele><time>2022-06-23T12:37:39Z</time><extensions><speed>0.052728</speed><course>6.357202</course><hAcc>2.410624</hAcc><vAcc>0.932728</vAcc></extensions></trkpt>
      <trkpt lon="-82.302802" lat="35.643703"><ele>794.449768</ele><time>2022-06-23T12:37:40Z</time><extensions><speed>0.062425</speed><course>11.000228</course><hAcc>2.415952</hAcc><vAcc>0.955884</vAcc></extensions></trkpt>
      <trkpt lon="-82.302802" lat="35.643704"><ele>794.531860</ele><time>2022-06-23T12:37:41Z</time><extensions><speed>0.057208</speed><course>11.142333</course><hAcc>2.429474</hAcc><vAcc>0.986129</vAcc></extensions></trkpt>
      <trkpt lon="-82.302802" lat="35.643704"><ele>794.609436</ele><time>2022-06-23T12:37:42Z</time><extensions><speed>0.045950</speed><course>10.592464</course><hAcc>2.454368</hAcc><vAcc>1.026076</vAcc></extensions></trkpt>
      <trkpt lon="-82.302802" lat="35.643704"><ele>794.682739</ele><time>2022-06-23T12:37:43Z</time><extensions><speed>0.012414</speed><course>9.458216</course><hAcc>2.486182</hAcc><vAcc>1.078630</vAcc></extensions></trkpt>
      <trkpt lon="-82.302802" lat="35.643705"><ele>794.752258</ele><time>2022-06-23T12:37:44Z</time><extensions><speed>0.057242</speed><course>8.476053</course><hAcc>2.492670</hAcc><vAcc>1.146768</vAcc></extensions></trkpt>
      <trkpt lon="-82.302801" lat="35.643705"><ele>794.818481</ele><time>2022-06-23T12:37:45Z</time><extensions><speed>0.017349</speed><course>11.230391</course><hAcc>2.564125</hAcc><vAcc>1.233288</vAcc></extensions></trkpt>
      <trkpt lon="-82.302801" lat="35.643705"><ele>794.882019</ele><time>2022-06-23T12:37:46Z</time><extensions><speed>0.018835</speed><course>143.497604</course><hAcc>2.609590</hAcc><vAcc>1.340560</vAcc></extensions></trkpt>
      <trkpt lon="-82.302801" lat="35.643704"><ele>794.943665</ele><time>2022-06-23T12:37:47Z</time><extensions><speed>0.180614</speed><course>168.309372</course><hAcc>2.730738</hAcc><vAcc>1.470358</vAcc></extensions></trkpt>
      <trkpt lon="-82.302801" lat="35.643703"><ele>795.004333</ele><time>2022-06-23T12:37:48Z</time><extensions><speed>0.073761</speed><course>166.617737</course><hAcc>2.966306</hAcc><vAcc>1.623778</vAcc></extensions></trkpt>
    </trkseg>
  </trk>
</gpx>