<?xml version="1.0" encoding="UTF-8"?>
<gpx version="1.1" creator="Apple Health Export" xmlns="http://www.topografix.com/GPX/1/1" xmlns:xsi="http://www.w3.org/2001/XMLSchema-instance" xsi:schemaLocation="http://www.topografix.com/GPX/1/1 http://www.topografix.com/GPX/1/1/gpx.xsd">
  <metadata>
    <time>2026-03-14T12:17:09Z</time>
  </metadata>
  <trk>
    <name>Route 2025-11-18 4:21pm</name>
    <trkseg>
      <trkpt lon="-114.417368" lat="41.659863"><ele>1660.217471</ele><time>2025-11-18T21:19:19Z</time><extensions><speed>0.964167</speed><course>50.534251</course><hAcc>1.336009</hAcc><vAcc>1.438630</vAcc></extensions></trkpt>
      <trkpt lon="-114.417358" lat="41.659868"><ele>1660.173209</ele><time>2025-11-18T21:19:20Z</time><extensions><speed>1.067665</speed><course>53.462941</course><hAcc>1.059007</hAcc><vAcc>1.252903</vAcc></extensions></trkpt>
      <trkpt lon="-114.417347" lat="41.659874"><ele>1660.168316</ele><time>2025-11-18T21:19:21Z</time><extensions><speed>1.158563</speed><course>53.186029</course><hAcc>0.967773</hAcc><vAcc>1.108417</vAcc></extensions></trkpt>
      <trkpt lon="-114.417336" lat="41.659881"><ele>1660.193919</ele><time>2025-11-18T21:19:22Z</time><extensions><speed>1.155677</speed><course>51.079661</course><hAcc>0.947472</hAcc><vAcc>0.999256</vAcc></extensions></trkpt>
      <trkpt lon="-114.417326" lat="41.659887"><ele>1660.240897</ele><time>2025-11-18T21:19:23Z</time><extensions><speed>1.032055</speed><course>48.066296</course><hAcc>0.944521</hAcc><vAcc>0.919664</vAcc></extensions></trkpt>
      <trkpt lon="-114.417318" lat="41.659893"><ele>1660.304813</ele><time>2025-11-18T21:19:24Z</time><extensions><speed>0.950903</speed><course>41.592906</course><hAcc>0.928170</hAcc><vAcc>0.863920</vAcc></extensions></trkpt>
      <trkpt lon="-114.417310" lat="41.659900"><ele>1660.390521</ele><time>2025-11-18T21:19:25Z</time><extensions><speed>1.106796</speed><course>39.681425</course><hAcc>0.940028</hAcc><vAcc>0.826519</vAcc></extensions></trkpt>
      <trkpt lon="-114.417301" lat="41.659908"><ele>1660.484919</ele><time>2025-11-18T21:19:26Z</time><extensions><speed>1.189555</speed><course>41.691236</course><hAcc>0.945798</hAcc><vAcc>0.802501</vAcc></extensions></trkpt>
      <trkpt lon="-114.417292" lat="41.659915"><ele>1660.587147</ele><time>2025-11-18T21:19:27Z</time><extensions><speed>0.995659</speed><course>45.698209</course><hAcc>0.952639</hAcc><vAcc>0.787723</vAcc></extensions></trkpt>
      <trkpt lon="-114.417284" lat="41.659921"><ele>1660.691133</ele><time>2025-11-18T21:19:28Z</time><extensions><speed>0.853430</speed><course>49.581828</course><hAcc>0.944801</hAcc><vAcc>0.778975</vAcc></extensions></trkpt>
      <trkpt lon="-114.417276" lat="41.659926"><ele>1660.816347</ele><time>2025-11-18T21:19:29Z</time><extensions><speed>0.918210</speed><course>47.195636</course><hAcc>0.950564</hAcc><vAcc>0.773932</vAcc></extensions></trkpt>
      <trkpt lon="-114.417267" lat="41.659932"><ele>1660.945088</ele><time>2025-11-18T21:19:30Z</time><extensions><speed>1.075481</speed><course>43.102078</course><hAcc>0.953529</hAcc><vAcc>0.771012</vAcc></extensions></trkpt>
      <trkpt lon="-114.417259" lat="41.659940"><ele>1661.075437</ele><time>2025-11-18T21:19:31Z</time><extensions><speed>1.066943</speed><course>40.282280</course><hAcc>0.953902</hAcc><vAcc>0.769205</vAcc></extensions></trkpt>
      <trkpt lon="-114.417251" lat="41.659947"><ele>1661.184520</ele><time>2025-11-18T21:19:32Z</time><extensions><speed>0.983038</speed><course>36.259627</course><hAcc>0.950170</hAcc><vAcc>0.767909</vAcc></extensions></trkpt>
      <trkpt lon="-114.417244" lat="41.659954"><ele>1661.321083</ele><time>2025-11-18T21:19:33Z</time><extensions><speed>0.935827</speed><course>37.201278</course><hAcc>0.958763</hAcc><vAcc>0.766800</vAcc></extensions></trkpt>
      <trkpt lon="-114.417237" lat="41.659960"><ele>1661.443065</ele><time>2025-11-18T21:19:34Z</time><extensions><speed>0.911313</speed><course>40.911259</course><hAcc>0.955812</hAcc><vAcc>0.765728</vAcc></extensions></trkpt>
      <trkpt lon="-114.417230" lat="41.659966"><ele>1661.549891</ele><time>2025-11-18T21:19:35Z</time><extensions><speed>0.838276</speed><course>42.821297</course><hAcc>0.957721</hAcc><vAcc>0.764644</vAcc></extensions></trkpt>
      <trkpt lon="-114.417224" lat="41.659971"><ele>1661.655705</ele><time>2025-11-18T21:19:36Z</time><extensions><speed>0.744470</speed><course>39.951847</course><hAcc>0.963447</hAcc><vAcc>0.763557</vAcc></extensions></trkpt>
      <trkpt lon="-114.417218" lat="41.659977"><ele>1661.767451</ele><time>2025-11-18T21:19:37Z</time><extensions><speed>0.796294</speed><course>33.927219</course><hAcc>0.962674</hAcc><vAcc>0.762497</vAcc></extensions></trkpt>
      <trkpt lon="-114.417213" lat="41.659983"><ele>1661.891316</ele><time>2025-11-18T21:19:38Z</time><extensions><speed>0.898139</speed><course>32.607227</course><hAcc>0.961388</hAcc><vAcc>0.761496</vAcc></extensions></trkpt>
      <trkpt lon="-114.417206" lat="41.659991"><ele>1661.995721</ele><time>2025-11-18T21:19:39Z</time><extensions><speed>1.013347</speed><course>34.554107</course><hAcc>0.967020</hAcc><vAcc>0.760585</vAcc></extensions></trkpt>
      <trkpt lon="-114.417200" lat="41.659997"><ele>1662.091639</ele><time>2025-11-18T21:19:40Z</time><extensions><speed>0.810944</speed><course>36.215447</course><hAcc>0.967832</hAcc><vAcc>0.759782</vAcc></extensions></trkpt>
      <trkpt lon="-114.417195" lat="41.660002"><ele>1662.178200</ele><time>2025-11-18T21:19:41Z</time><extensions><speed>0.596276</speed><course>45.023921</course><hAcc>0.959049</hAcc><vAcc>0.759096</vAcc></extensions></trkpt>
      <trkpt lon="-114.417190" lat="41.660005"><ele>1662.276358</ele><time>2025-11-18T21:19:42Z</time><extensions><speed>0.544737</speed><course>53.069262</course><hAcc>0.963411</hAcc><vAcc>0.758525</vAcc></extensions></trkpt>
      <trkpt lon="-114.417184" lat="41.660009"><ele>1662.346707</ele><time>2025-11-18T21:19:43Z</time><extensions><speed>0.621504</speed><course>50.724476</course><hAcc>0.970981</hAcc><vAcc>0.758065</vAcc></extensions></trkpt>
      <trkpt lon="-114.417178" lat="41.660012"><ele>1662.419409</ele><time>2025-11-18T21:19:44Z</time><extensions><speed>0.630807</speed><course>51.191544</course><hAcc>0.960930</hAcc><vAcc>0.757702</vAcc></extensions></trkpt>
      <trkpt lon="-114.417172" lat="41.660016"><ele>1662.484107</ele><time>2025-11-18T21:19:45Z</time><extensions><speed>0.690262</speed><course>47.833721</course><hAcc>0.953899</hAcc><vAcc>0.757424</vAcc></extensions></trkpt>
      <trkpt lon="-114.417165" lat="41.660021"><ele>1662.533279</ele><time>2025-11-18T21:19:46Z</time><extensions><speed>0.879984</speed><course>46.473178</course><hAcc>0.963010</hAcc><vAcc>0.757217</vAcc></extensions></trkpt>
      <trkpt lon="-114.417157" lat="41.660027"><ele>1662.580002</ele><time>2025-11-18T21:19:47Z</time><extensions><speed>0.978538</speed><course>49.903915</course><hAcc>0.949121</hAcc><vAcc>0.757066</vAcc></extensions></trkpt>
      <trkpt lon="-114.417148" lat="41.660031"><ele>1662.644071</ele><time>2025-11-18T21:19:48Z</time><extensions><speed>0.849381</speed><course>56.277453</course><hAcc>0.937446</hAcc><vAcc>0.756959</vAcc></extensions></trkpt>
      <trkpt lon="-114.417140" lat="41.660036"><ele>1662.672791</ele><time>2025-11-18T21:19:49Z</time><extensions><speed>0.781960</speed><course>56.296298</course><hAcc>0.950913</hAcc><vAcc>0.756885</vAcc></extensions></trkpt>
      <trkpt lon="-114.417133" lat="41.660040"><ele>1662.707032</ele><time>2025-11-18T21:19:50Z</time><extensions><speed>0.769721</speed><course>46.551785</course><hAcc>0.951739</hAcc><vAcc>0.756836</vAcc></extensions></trkpt>
      <trkpt lon="-114.417126" lat="41.660045"><ele>1662.735089</ele><time>2025-11-18T21:19:51Z</time><extensions><speed>0.791515</speed><course>45.328872</course><hAcc>0.946501</hAcc><vAcc>0.756805</vAcc></extensions></trkpt>
      <trkpt lon="-114.417118" lat="41.660050"><ele>1662.764181</ele><time>2025-11-18T21:19:52Z</time><extensions><speed>0.923473</speed><course>51.114066</course><hAcc>0.945732</hAcc><vAcc>0.756786</vAcc></extensions></trkpt>
      <trkpt lon="-114.417109" lat="41.660055"><ele>1662.791640</ele><time>2025-11-18T21:19:53Z</time><extensions><speed>0.996335</speed><course>56.686654</course><hAcc>0.955789</hAcc><vAcc>0.756776</vAcc></extensions></trkpt>
      <trkpt lon="-114.417099" lat="41.660059"><ele>1662.811921</ele><time>2025-11-18T21:19:54Z</time><extensions><speed>0.950040</speed><course>61.001926</course><hAcc>0.966235</hAcc><vAcc>0.756771</vAcc></extensions></trkpt>
      <trkpt lon="-114.417090" lat="41.660063"><ele>1662.831615</ele><time>2025-11-18T21:19:55Z</time><extensions><speed>0.864430</speed><course>60.777883</course><hAcc>0.950726</hAcc><vAcc>0.756768</vAcc></extensions></trkpt>
      <trkpt lon="-114.417081" lat="41.660067"><ele>1662.853903</ele><time>2025-11-18T21:19:56Z</time><extensions><speed>0.852031</speed><course>56.973148</course><hAcc>0.954717</hAcc><vAcc>0.756763</vAcc></extensions></trkpt>
      <trkpt lon="-114.417072" lat="41.660072"><ele>1662.869932</ele><time>2025-11-18T21:19:57Z</time><extensions><speed>0.937504</speed><course>50.357018</course><hAcc>0.964617</hAcc><vAcc>0.756760</vAcc></extensions></trkpt>
      <trkpt lon="-114.417064" lat="41.660078"><ele>1662.890598</ele><time>2025-11-18T21:19:58Z</time><extensions><speed>0.961497</speed><course>41.373958</course><hAcc>0.946817</hAcc><vAcc>0.756757</vAcc></extensions></trkpt>
      <trkpt lon="-114.417057" lat="41.660085"><ele>1662.912526</ele><time>2025-11-18T21:19:59Z</time><extensions><speed>0.987392</speed><course>34.337121</course><hAcc>0.937767</hAcc><vAcc>0.756755</vAcc></extensions></trkpt>
      <trkpt lon="-114.417050" lat="41.660093"><ele>1662.938105</ele><time>2025-11-18T21:20:00Z</time><extensions><speed>1.070517</speed><course>34.387832</course><hAcc>0.947501</hAcc><vAcc>0.756753</vAcc></extensions></trkpt>
      <trkpt lon="-114.417042" lat="41.660101"><ele>1662.964649</ele><time>2025-11-18T21:20:01Z</time><extensions><speed>1.087603</speed><course>37.548908</course><hAcc>0.953893</hAcc><vAcc>0.756752</vAcc></extensions></trkpt>
      <trkpt lon="-114.417035" lat="41.660108"><ele>1662.986852</ele><time>2025-11-18T21:20:02Z</time><extensions><speed>0.944617</speed><course>37.010380</course><hAcc>0.946559</hAcc><vAcc>0.756750</vAcc></extensions></trkpt>
      <trkpt lon="-114.417029" lat="41.660114"><ele>1663.014114</ele><time>2025-11-18T21:20:03Z</time><extensions><speed>0.799344</speed><course>35.658316</course><hAcc>0.945072</hAcc><vAcc>0.756749</vAcc></extensions></trkpt>
      <trkpt lon="-114.417023" lat="41.660120"><ele>1663.040872</ele><time>2025-11-18T21:20:04Z</time><extensions><speed>0.706632</speed><course>36.479773</course><hAcc>0.955733</hAcc><vAcc>0.756748</vAcc></extensions></trkpt>
      <trkpt lon="-114.417019" lat="41.660124"><ele>1663.065707</ele><time>2025-11-18T21:20:05Z</time><extensions><speed>0.623062</speed><course>35.860194</course><hAcc>0.965737</hAcc><vAcc>0.756747</vAcc></extensions></trkpt>
      <trkpt lon="-114.417015" lat="41.660128"><ele>1663.088139</ele><time>2025-11-18T21:20:06Z</time><extensions><speed>0.423562</speed><course>31.444137</course><hAcc>0.976726</hAcc><vAcc>0.756746</vAcc></extensions></trkpt>
      <trkpt lon="-114.417014" lat="41.660131"><ele>1663.107491</ele><time>2025-11-18T21:20:07Z</time><extensions><speed>0.110799</speed><course>1.453185</course><hAcc>0.975813</hAcc><vAcc>0.756745</vAcc></extensions></trkpt>
      <trkpt lon="-114.417014" lat="41.660131"><ele>1663.123457</ele><time>2025-11-18T21:20:08Z</time><extensions><speed>0.089073</speed><course>284.029446</course><hAcc>0.977623</hAcc><vAcc>0.756744</vAcc></extensions></trkpt>
      <trkpt lon="-114.417015" lat="41.660131"><ele>1663.135378</ele><time>2025-11-18T21:20:09Z</time><extensions><speed>0.101326</speed><course>285.262653</course><hAcc>0.983529</hAcc><vAcc>0.756743</vAcc></extensions></trkpt>
      <trkpt lon="-114.417017" lat="41.660132"><ele>1663.142986</ele><time>2025-11-18T21:20:10Z</time><extensions><speed>0.112813</speed><course>290.779585</course><hAcc>0.988440</hAcc><vAcc>0.756743</vAcc></extensions></trkpt>
      <trkpt lon="-114.417018" lat="41.660132"><ele>1663.143440</ele><time>2025-11-18T21:20:11Z</time><extensions><speed>0.133680</speed><course>295.329469</course><hAcc>0.993089</hAcc><vAcc>0.756743</vAcc></extensions></trkpt>
      <trkpt lon="-114.417020" lat="41.660133"><ele>1663.136175</ele><time>2025-11-18T21:20:12Z</time><extensions><speed>0.158507</speed><course>298.493221</course><hAcc>0.998060</hAcc><vAcc>0.756742</vAcc></extensions></trkpt>
      <trkpt lon="-114.417021" lat="41.660133"><ele>1663.123151</ele><time>2025-11-18T21:20:13Z</time><extensions><speed>0.159416</speed><course>293.169195</course><hAcc>1.001467</hAcc><vAcc>0.756742</vAcc></extensions></trkpt>
      <trkpt lon="-114.417023" lat="41.660134"><ele>1663.105043</ele><time>2025-11-18T21:20:14Z</time><extensions><speed>0.123875</speed><course>289.800204</course><hAcc>1.001512</hAcc><vAcc>0.756742</vAcc></extensions></trkpt>
      <trkpt lon="-114.417024" lat="41.660134"><ele>1663.082126</ele><time>2025-11-18T21:20:15Z</time><extensions><speed>0.071258</speed><course>282.489800</course><hAcc>1.001038</hAcc><vAcc>0.756742</vAcc></extensions></trkpt>
      <trkpt lon="-114.417024" lat="41.660134"><ele>1663.058783</ele><time>2025-11-18T21:20:16Z</time><extensions><speed>0.017027</speed><course>304.271039</course><hAcc>1.000267</hAcc><vAcc>0.756742</vAcc></extensions></trkpt>
      <trkpt lon="-114.417024" lat="41.660134"><ele>1663.028745</ele><time>2025-11-18T21:20:17Z</time><extensions><speed>0.046363</speed><course>60.321767</course><hAcc>0.999304</hAcc><vAcc>0.756742</vAcc></extensions></trkpt>
      <trkpt lon="-114.417024" lat="41.660135"><ele>1662.994098</ele><time>2025-11-18T21:20:18Z</time><extensions><speed>0.078914</speed><course>62.536606</course><hAcc>0.998223</hAcc><vAcc>0.756742</vAcc></extensions></trkpt>
      <trkpt lon="-114.417023" lat="41.660135"><ele>1662.957110</ele><time>2025-11-18T21:20:19Z</time><extensions><speed>0.066756</speed><course>61.597414</course><hAcc>0.997044</hAcc><vAcc>0.756742</vAcc></extensions></trkpt>
      <trkpt lon="-114.417022" lat="41.660135"><ele>1662.918690</ele><time>2025-11-18T21:20:20Z</time><extensions><speed>0.022049</speed><course>74.718894</course><hAcc>0.996626</hAcc><vAcc>0.756742</vAcc></extensions></trkpt>
      <trkpt lon="-114.417022" lat="41.660135"><ele>1662.879763</ele><time>2025-11-18T21:20:21Z</time><extensions><speed>0.007789</speed><course>37.246804</course><hAcc>0.994123</hAcc><vAcc>0.756742</vAcc></extensions></trkpt>
      <trkpt lon="-114.417022" lat="41.660135"><ele>1662.841223</ele><time>2025-11-18T21:20:22Z</time><extensions><speed>0.006248</speed><course>250.694601</course><hAcc>0.991912</hAcc><vAcc>0.756742</vAcc></extensions></trkpt>
      <trkpt lon="-114.417022" lat="41.660135"><ele>1662.803853</ele><time>2025-11-18T21:20:23Z</time><extensions><speed>0.017668</speed><course>195.614679</course><hAcc>0.990013</hAcc><vAcc>0.756742</vAcc></extensions></trkpt>
      <trkpt lon="-114.417022" lat="41.660135"><ele>1662.768243</ele><time>2025-11-18T21:20:24Z</time><extensions><speed>0.032287</speed><course>166.583254</course><hAcc>0.988231</hAcc><vAcc>0.756742</vAcc></extensions></trkpt>
      <trkpt lon="-114.417022" lat="41.660134"><ele>1662.734783</ele><time>2025-11-18T21:20:25Z</time><extensions><speed>0.054477</speed><course>155.561543</course><hAcc>0.987272</hAcc><vAcc>0.756742</vAcc></extensions></trkpt>
      <trkpt lon="-114.417022" lat="41.660134"><ele>1662.703695</ele><time>2025-11-18T21:20:26Z</time><extensions><speed>0.069077</speed><course>154.317672</course><hAcc>0.988919</hAcc><vAcc>0.756742</vAcc></extensions></trkpt>
      <trkpt lon="-114.417021" lat="41.660133"><ele>1662.675121</ele><time>2025-11-18T21:20:27Z</time><extensions><speed>0.060785</speed><course>155.129509</course><hAcc>0.987222</hAcc><vAcc>0.756742</vAcc></extensions></trkpt>
      <trkpt lon="-114.417021" lat="41.660133"><ele>1662.649197</ele><time>2025-11-18T21:20:28Z</time><extensions><speed>0.046588</speed><course>173.725493</course><hAcc>0.989556</hAcc><vAcc>0.756742</vAcc></extensions></trkpt>
      <trkpt lon="-114.417021" lat="41.660133"><ele>1662.626031</ele><time>2025-11-18T21:20:29Z</time><extensions><speed>0.027912</speed><course>184.038584</course><hAcc>0.990851</hAcc><vAcc>0.756742</vAcc></extensions></trkpt>
      <trkpt lon="-114.417021" lat="41.660132"><ele>1662.605636</ele><time>2025-11-18T21:20:30Z</time><extensions><speed>0.013596</speed><course>193.087939</course><hAcc>0.990989</hAcc><vAcc>0.756742</vAcc></extensions></trkpt>
      <trkpt lon="-114.417021" lat="41.660132"><ele>1662.587943</ele><time>2025-11-18T21:20:31Z</time><extensions><speed>0.005327</speed><course>205.215466</course><hAcc>0.990607</hAcc><vAcc>0.756742</vAcc></extensions></trkpt>
      <trkpt lon="-114.417021" lat="41.660132"><ele>1662.572822</ele><time>2025-11-18T21:20:32Z</time><extensions><speed>0.001614</speed><course>232.125233</course><hAcc>0.988788</hAcc><vAcc>0.756742</vAcc></extensions></trkpt>
      <trkpt lon="-114.417021" lat="41.660132"><ele>1662.560099</ele><time>2025-11-18T21:20:33Z</time><extensions><speed>0.000663</speed><course>300.351128</course><hAcc>0.987448</hAcc><vAcc>0.756742</vAcc></extensions></trkpt>
      <trkpt lon="-114.417021" lat="41.660132"><ele>1662.549569</ele><time>2025-11-18T21:20:34Z</time><extensions><speed>0.000587</speed><course>340.969917</course><hAcc>0.986244</hAcc><vAcc>0.756742</vAcc></extensions></trkpt>
      <trkpt lon="-114.417021" lat="41.660132"><ele>1662.541016</ele><time>2025-11-18T21:20:35Z</time><extensions><speed>0.000418</speed><course>356.253383</course><hAcc>0.983846</hAcc><vAcc>0.756742</vAcc></extensions></trkpt>
      <trkpt lon="-114.417021" lat="41.660132"><ele>1662.534215</ele><time>2025-11-18T21:20:36Z</time><extensions><speed>0.000234</speed><course>5.866378</course><hAcc>0.982344</hAcc><vAcc>0.756742</vAcc></extensions></trkpt>
      <trkpt lon="-114.417021" lat="41.660132"><ele>1662.528947</ele><time>2025-11-18T21:20:37Z</time><extensions><speed>0.000108</speed><course>15.188993</course><hAcc>0.979731</hAcc><vAcc>0.756742</vAcc></extensions></trkpt>
      <trkpt lon="-114.417021" lat="41.660132"><ele>1662.524998</ele><time>2025-11-18T21:20:38Z</time><extensions><speed>0.000040</speed><course>28.704534</course><hAcc>0.978754</hAcc><vAcc>0.756742</vAcc></extensions></trkpt>
      <trkpt lon="-114.417021" lat="41.660132"><ele>1662.522167</ele><time>2025-11-18T21:20:39Z</time><extensions><speed>0.000012</speed><course>60.761435</course><hAcc>0.976498</hAcc><vAcc>0.756742</vAcc></extensions></trkpt>
      <trkpt lon="-114.417021" lat="41.660132"><ele>1662.520271</ele><time>2025-11-18T21:20:40Z</time><extensions><speed>0.000006</speed><course>127.832159</course><hAcc>0.975627</hAcc><vAcc>0.756742</vAcc></extensions></trkpt>
      <trkpt lon="-114.417021" lat="41.660132"><ele>1662.525634</ele><time>2025-11-18T21:20:41Z</time><extensions><speed>0.000085</speed><course>8.335957</course><hAcc>0.979322</hAcc><vAcc>0.756742</vAcc></extensions></trkpt>
      <trkpt lon="-114.417021" lat="41.660132"><ele>1662.532974</ele><time>2025-11-18T21:20:42Z</time><extensions><speed>0.000206</speed><course>7.170523</course><hAcc>0.986325</hAcc><vAcc>0.756742</vAcc></extensions></trkpt>
      <trkpt lon="-114.417021" lat="41.660132"><ele>1662.542166</ele><time>2025-11-18T21:20:43Z</time><extensions><speed>0.000405</speed><course>7.019462</course><hAcc>0.972862</hAcc><vAcc>0.756742</vAcc></extensions></trkpt>
      <trkpt lon="-114.417021" lat="41.660132"><ele>1662.553097</ele><time>2025-11-18T21:20:44Z</time><extensions><speed>0.000461</speed><course>6.996254</course><hAcc>0.972923</hAcc><vAcc>0.756742</vAcc></extensions></trkpt>
      <trkpt lon="-114.417021" lat="41.660132"><ele>1662.564928</ele><time>2025-11-18T21:20:45Z</time><extensions><speed>0.000063</speed><course>99.273588</course><hAcc>0.978874</hAcc><vAcc>0.756742</vAcc></extensions></trkpt>
      <trkpt lon="-114.417021" lat="41.660132"><ele>1662.577738</ele><time>2025-11-18T21:20:46Z</time><extensions><speed>0.001789</speed><course>183.551503</course><hAcc>0.995475</hAcc><vAcc>0.756742</vAcc></extensions></trkpt>
      <trkpt lon="-114.417021" lat="41.660132"><ele>1662.591668</ele><time>2025-11-18T21:20:47Z</time><extensions><speed>0.007237</speed><course>185.932799</course><hAcc>0.981434</hAcc><vAcc>0.756742</vAcc></extensions></trkpt>
      <trkpt lon="-114.417021" lat="41.660132"><ele>1662.606182</ele><time>2025-11-18T21:20:48Z</time><extensions><speed>0.017586</speed><course>187.258609</course><hAcc>0.981484</hAcc><vAcc>0.756742</vAcc></extensions></trkpt>
      <trkpt lon="-114.417021" lat="41.660132"><ele>1662.618332</ele><time>2025-11-18T21:20:49Z</time><extensions><speed>0.033792</speed><course>188.384162</course><hAcc>0.983207</hAcc><vAcc>0.756742</vAcc></extensions></trkpt>
      <trkpt lon="-114.417022" lat="41.660132"><ele>1662.630124</ele><time>2025-11-18T21:20:50Z</time><extensions><speed>0.050835</speed><course>189.777806</course><hAcc>0.979423</hAcc><vAcc>0.756742</vAcc></extensions></trkpt>
      <trkpt lon="-114.417022" lat="41.660131"><ele>1662.641123</ele><time>2025-11-18T21:20:51Z</time><extensions><speed>0.048206</speed><course>193.511686</course><hAcc>0.975965</hAcc><vAcc>0.756742</vAcc></extensions></trkpt>
      <trkpt lon="-114.417022" lat="41.660131"><ele>1662.650851</ele><time>2025-11-18T21:20:52Z</time><extensions><speed>0.032042</speed><course>206.341016</course><hAcc>0.966818</hAcc><vAcc>0.756742</vAcc></extensions></trkpt>
      <trkpt lon="-114.417022" lat="41.660131"><ele>1662.658923</ele><time>2025-11-18T21:20:53Z</time><extensions><speed>0.021493</speed><course>239.020969</course><hAcc>0.966571</hAcc><vAcc>0.756742</vAcc></extensions></trkpt>
      <trkpt lon="-114.417022" lat="41.660131"><ele>1662.665110</ele><time>2025-11-18T21:20:54Z</time><extensions><speed>0.021361</speed><course>276.843271</course><hAcc>0.971500</hAcc><vAcc>0.756742</vAcc></extensions></trkpt>
      <trkpt lon="-114.417022" lat="41.660131"><ele>1662.669325</ele><time>2025-11-18T21:20:55Z</time><extensions><speed>0.020285</speed><course>318.952734</course><hAcc>0.957792</hAcc><vAcc>0.756742</vAcc></extensions></trkpt>
      <trkpt lon="-114.417022" lat="41.660131"><ele>1662.671609</ele><time>2025-11-18T21:20:56Z</time><extensions><speed>0.021213</speed><course>25.593467</course><hAcc>0.965772</hAcc><vAcc>0.756742</vAcc></extensions></trkpt>
      <trkpt lon="-114.417022" lat="41.660131"><ele>1662.672105</ele><time>2025-11-18T21:20:57Z</time><extensions><speed>0.050712</speed><course>50.961813</course><hAcc>0.970695</hAcc><vAcc>0.756742</vAcc></extensions></trkpt>
      <trkpt lon="-114.417022" lat="41.660131"><ele>1662.671040</ele><time>2025-11-18T21:20:58Z</time><extensions><speed>0.075004</speed><course>50.328622</course><hAcc>0.979995</hAcc><vAcc>0.756742</vAcc></extensions></trkpt>
      <trkpt lon="-114.417021" lat="41.660132"><ele>1662.668717</ele><time>2025-11-18T21:20:59Z</time><extensions><speed>0.070530</speed><course>48.433371</course><hAcc>0.975249</hAcc><vAcc>0.756742</vAcc></extensions></trkpt>
      <trkpt lon="-114.417020" lat="41.660132"><ele>1662.665479</ele><time>2025-11-18T21:21:00Z</time><extensions><speed>0.044597</speed><course>47.618599</course><hAcc>0.978796</hAcc><vAcc>0.756742</vAcc></extensions></trkpt>
      <trkpt lon="-114.417020" lat="41.660132"><ele>1662.661639</ele><time>2025-11-18T21:21:01Z</time><extensions><speed>0.022175</speed><course>46.958271</course><hAcc>0.983894</hAcc><vAcc>0.756742</vAcc></extensions></trkpt>
      <trkpt lon="-114.417020" lat="41.660132"><ele>1662.657452</ele><time>2025-11-18T21:21:02Z</time><extensions><speed>0.008672</speed><course>46.092133</course><hAcc>0.986271</hAcc><vAcc>0.756742</vAcc></extensions></trkpt>
      <trkpt lon="-114.417020" lat="41.660132"><ele>1662.653122</ele><time>2025-11-18T21:21:03Z</time><extensions><speed>0.002170</speed><course>43.831163</course><hAcc>0.987709</hAcc><vAcc>0.756742</vAcc></extensions></trkpt>
      <trkpt lon="-114.417020" lat="41.660133"><ele>1662.648810</ele><time>2025-11-18T21:21:04Z</time><extensions><speed>0.000269</speed><course>242.829671</course><hAcc>0.988184</hAcc><vAcc>0.756742</vAcc></extensions></trkpt>
      <trkpt lon="-114.417020" lat="41.660132"><ele>1662.644637</ele><time>2025-11-18T21:21:05Z</time><extensions><speed>0.000789</speed><course>229.588903</course><hAcc>0.987508</hAcc><vAcc>0.756742</vAcc></extensions></trkpt>
      <trkpt lon="-114.417020" lat="41.660132"><ele>1662.640691</ele><time>2025-11-18T21:21:06Z</time><extensions><speed>0.000647</speed><course>228.192985</course><hAcc>0.985588</hAcc><vAcc>0.756742</vAcc></extensions></trkpt>
      <trkpt lon="-114.417020" lat="41.660132"><ele>1662.637032</ele><time>2025-11-18T21:21:07Z</time><extensions><speed>0.000382</speed><course>227.457450</course><hAcc>0.982584</hAcc><vAcc>0.756742</vAcc></extensions></trkpt>
      <trkpt lon="-114.417020" lat="41.660132"><ele>1662.633699</ele><time>2025-11-18T21:21:08Z</time><extensions><speed>0.000178</speed><course>226.781395</course><hAcc>0.978071</hAcc><vAcc>0.756742</vAcc></extensions></trkpt>
      <trkpt lon="-114.417020" lat="41.660132"><ele>1662.630710</ele><time>2025-11-18T21:21:09Z</time><extensions><speed>0.000064</speed><course>225.769275</course><hAcc>0.970256</hAcc><vAcc>0.756742</vAcc></extensions></trkpt>
      <trkpt lon="-114.417020" lat="41.660132"><ele>1662.628070</ele><time>2025-11-18T21:21:10Z</time><extensions><speed>0.000013</speed><course>222.322237</course><hAcc>0.966153</hAcc><vAcc>0.756742</vAcc></extensions></trkpt>
      <trkpt lon="-114.417020" lat="41.660132"><ele>1662.625773</ele><time>2025-11-18T21:21:11Z</time><extensions><speed>0.000004</speed><course>54.943853</course><hAcc>0.963355</hAcc><vAcc>0.756742</vAcc></extensions></trkpt>
      <trkpt lon="-114.417020" lat="41.660132"><ele>1662.623672</ele><time>2025-11-18T21:21:12Z</time><extensions><speed>0.000007</speed><course>49.336533</course><hAcc>0.956154</hAcc><vAcc>0.761841</vAcc></extensions></trkpt>
      <trkpt lon="-114.417020" lat="41.660132"><ele>1662.621822</ele><time>2025-11-18T21:21:13Z</time><extensions><speed>0.000005</speed><course>48.257923</course><hAcc>0.945504</hAcc><vAcc>0.770611</vAcc></extensions></trkpt>
      <trkpt lon="-114.417020" lat="41.660132"><ele>1662.620191</ele><time>2025-11-18T21:21:14Z</time><extensions><speed>0.000003</speed><course>47.688410</course><hAcc>0.944046</hAcc><vAcc>0.785223</vAcc></extensions></trkpt>
      <trkpt lon="-114.417020" lat="41.660132"><ele>1662.618747</ele><time>2025-11-18T21:21:15Z</time><extensions><speed>0.000001</speed><course>47.195644</course><hAcc>0.944304</hAcc><vAcc>0.808550</vAcc></extensions></trkpt>
      <trkpt lon="-114.417020" lat="41.660132"><ele>1662.617457</ele><time>2025-11-18T21:21:16Z</time><extensions><speed>0.000001</speed><course>46.616958</course><hAcc>0.933823</hAcc><vAcc>0.844090</vAcc></extensions></trkpt>
      <trkpt lon="-114.417020" lat="41.660132"><ele>1662.616289</ele><time>2025-11-18T21:21:17Z</time><extensions><speed>0.000000</speed><course>45.779463</course><hAcc>0.939646</hAcc><vAcc>0.895687</vAcc></extensions></trkpt>
      <trkpt lon="-114.417020" lat="41.660132"><ele>1662.615213</ele><time>2025-11-18T21:21:18Z</time><extensions><speed>0.000000</speed><course>43.794968</course><hAcc>0.951200</hAcc><vAcc>0.967093</vAcc></extensions></trkpt>
      <trkpt lon="-114.417020" lat="41.660132"><ele>1662.614199</ele><time>2025-11-18T21:21:19Z</time><extensions><speed>0.000000</speed><course>5.866685</course><hAcc>0.975890</hAcc><vAcc>1.061477</vAcc></extensions></trkpt>
      <trkpt lon="-114.417020" lat="41.660132"><ele>1662.613225</ele><time>2025-11-18T21:21:20Z</time><extensions><speed>0.000000</speed><course>231.550837</course><hAcc>1.052194</hAcc><vAcc>1.181048</vAcc></extensions></trkpt>
      <trkpt lon="-114.417020" lat="41.660132"><ele>1662.612269</ele><time>2025-11-18T21:21:21Z</time><extensions><speed>0.000000</speed><course>229.744605</course><hAcc>1.402319</hAcc><vAcc>1.326894</vAcc></extensions></trkpt>
    </trkseg>
  </trk>
</gpx>