<?xml version="1.0" encoding="UTF-8"?>
<gpx version="1.1" creator="Apple Health Export" xmlns="http://www.topografix.com/GPX/1/1" xmlns:xsi="http://www.w3.org/2001/XMLSchema-instance" xsi:schemaLocation="http://www.topografix.com/GPX/1/1 http://www.topografix.com/GPX/1/1/gpx.xsd">
  <metadata>
    <time>2026-03-14T12:16:21Z</time>
  </metadata>
  <trk>
    <name>Route 2023-08-21 7:28am</name>
    <trkseg>
      <trkpt lon="-82.146414" lat="33.556459"><ele>88.408419</ele><time>2023-08-21T11:23:24Z</time><extensions><speed>0.985076</speed><course>232.136875</course><hAcc>3.848056</hAcc><vAcc>2.874633</vAcc></extensions></trkpt>
      <trkpt lon="-82.146424" lat="33.556453"><ele>88.355564</ele><time>2023-08-21T11:23:25Z</time><extensions><speed>1.030356</speed><course>234.687597</course><hAcc>3.526660</hAcc><vAcc>2.660873</vAcc></extensions></trkpt>
      <trkpt lon="-82.146435" lat="33.556448"><ele>88.276896</ele><time>2023-08-21T11:23:26Z</time><extensions><speed>1.050199</speed><course>239.835943</course><hAcc>3.258797</hAcc><vAcc>2.481466</vAcc></extensions></trkpt>
      <trkpt lon="-82.146447" lat="33.556443"><ele>88.200037</ele><time>2023-08-21T11:23:27Z</time><extensions><speed>1.092165</speed><course>245.227032</course><hAcc>3.065050</hAcc><vAcc>2.331264</vAcc></extensions></trkpt>
      <trkpt lon="-82.146459" lat="33.556439"><ele>88.132819</ele><time>2023-08-21T11:23:28Z</time><extensions><speed>1.028251</speed><course>248.949471</course><hAcc>2.958472</hAcc><vAcc>2.206023</vAcc></extensions></trkpt>
      <trkpt lon="-82.146471" lat="33.556435"><ele>87.975042</ele><time>2023-08-21T11:23:29Z</time><extensions><speed>1.192592</speed><course>245.831921</course><hAcc>2.846876</hAcc><vAcc>2.080075</vAcc></extensions></trkpt>
      <trkpt lon="-82.146484" lat="33.556429"><ele>87.853510</ele><time>2023-08-21T11:23:30Z</time><extensions><speed>1.401376</speed><course>239.290577</course><hAcc>2.751820</hAcc><vAcc>1.972364</vAcc></extensions></trkpt>
      <trkpt lon="-82.146499" lat="33.556422"><ele>87.766315</ele><time>2023-08-21T11:23:31Z</time><extensions><speed>1.601023</speed><course>233.298696</course><hAcc>2.694117</hAcc><vAcc>1.880080</vAcc></extensions></trkpt>
      <trkpt lon="-82.146512" lat="33.556414"><ele>87.740814</ele><time>2023-08-21T11:23:32Z</time><extensions><speed>1.399719</speed><course>228.372795</course><hAcc>2.642582</hAcc><vAcc>1.800820</vAcc></extensions></trkpt>
      <trkpt lon="-82.146523" lat="33.556406"><ele>87.754406</ele><time>2023-08-21T11:23:33Z</time><extensions><speed>1.247308</speed><course>224.809336</course><hAcc>2.611275</hAcc><vAcc>1.732512</vAcc></extensions></trkpt>
      <trkpt lon="-82.146533" lat="33.556398"><ele>87.784729</ele><time>2023-08-21T11:23:34Z</time><extensions><speed>1.281459</speed><course>227.869310</course><hAcc>2.574885</hAcc><vAcc>1.673375</vAcc></extensions></trkpt>
      <trkpt lon="-82.146545" lat="33.556391"><ele>87.796393</ele><time>2023-08-21T11:23:35Z</time><extensions><speed>1.343229</speed><course>233.893705</course><hAcc>2.563873</hAcc><vAcc>1.621899</vAcc></extensions></trkpt>
      <trkpt lon="-82.146557" lat="33.556385"><ele>87.815456</ele><time>2023-08-21T11:23:36Z</time><extensions><speed>1.397382</speed><course>242.764327</course><hAcc>2.544092</hAcc><vAcc>1.576839</vAcc></extensions></trkpt>
      <trkpt lon="-82.146572" lat="33.556379"><ele>87.842465</ele><time>2023-08-21T11:23:37Z</time><extensions><speed>1.564360</speed><course>245.688680</course><hAcc>2.502577</hAcc><vAcc>1.537204</vAcc></extensions></trkpt>
      <trkpt lon="-82.146588" lat="33.556373"><ele>87.870628</ele><time>2023-08-21T11:23:39Z</time><extensions><speed>1.748466</speed><course>246.277092</course><hAcc>2.487876</hAcc><vAcc>1.502247</vAcc></extensions></trkpt>
      <trkpt lon="-82.146606" lat="33.556367"><ele>87.933901</ele><time>2023-08-21T11:23:40Z</time><extensions><speed>1.754829</speed><course>246.319090</course><hAcc>2.500650</hAcc><vAcc>1.471447</vAcc></extensions></trkpt>
      <trkpt lon="-82.146623" lat="33.556361"><ele>88.023618</ele><time>2023-08-21T11:23:41Z</time><extensions><speed>1.616892</speed><course>243.225295</course><hAcc>2.524994</hAcc><vAcc>1.444451</vAcc></extensions></trkpt>
      <trkpt lon="-82.146638" lat="33.556355"><ele>88.149072</ele><time>2023-08-21T11:23:42Z</time><extensions><speed>1.400557</speed><course>244.749149</course><hAcc>2.520970</hAcc><vAcc>1.420959</vAcc></extensions></trkpt>
      <trkpt lon="-82.146651" lat="33.556349"><ele>88.265631</ele><time>2023-08-21T11:23:43Z</time><extensions><speed>1.341915</speed><course>245.656380</course><hAcc>2.510350</hAcc><vAcc>1.400674</vAcc></extensions></trkpt>
      <trkpt lon="-82.146665" lat="33.556344"><ele>88.353818</ele><time>2023-08-21T11:23:44Z</time><extensions><speed>1.323755</speed><course>242.024028</course><hAcc>2.530018</hAcc><vAcc>1.383301</vAcc></extensions></trkpt>
      <trkpt lon="-82.146677" lat="33.556339"><ele>88.418785</ele><time>2023-08-21T11:23:45Z</time><extensions><speed>1.116658</speed><course>241.679292</course><hAcc>2.518337</hAcc><vAcc>1.368545</vAcc></extensions></trkpt>
      <trkpt lon="-82.146687" lat="33.556336"><ele>88.482763</ele><time>2023-08-21T11:23:46Z</time><extensions><speed>0.813290</speed><course>247.855840</course><hAcc>2.500492</hAcc><vAcc>1.356118</vAcc></extensions></trkpt>
      <trkpt lon="-82.146696" lat="33.556333"><ele>88.544388</ele><time>2023-08-21T11:23:47Z</time><extensions><speed>0.941577</speed><course>249.783946</course><hAcc>2.509551</hAcc><vAcc>1.345740</vAcc></extensions></trkpt>
      <trkpt lon="-82.146706" lat="33.556331"><ele>88.635953</ele><time>2023-08-21T11:23:48Z</time><extensions><speed>1.065391</speed><course>248.720153</course><hAcc>2.553233</hAcc><vAcc>1.337146</vAcc></extensions></trkpt>
      <trkpt lon="-82.146717" lat="33.556327"><ele>88.723603</ele><time>2023-08-21T11:23:49Z</time><extensions><speed>1.161382</speed><course>245.334008</course><hAcc>2.581160</hAcc><vAcc>1.330088</vAcc></extensions></trkpt>
      <trkpt lon="-82.146730" lat="33.556323"><ele>88.797515</ele><time>2023-08-21T11:23:50Z</time><extensions><speed>1.458191</speed><course>242.767793</course><hAcc>2.561644</hAcc><vAcc>1.324340</vAcc></extensions></trkpt>
      <trkpt lon="-82.146745" lat="33.556317"><ele>88.887720</ele><time>2023-08-21T11:23:51Z</time><extensions><speed>1.567648</speed><course>241.825949</course><hAcc>2.539760</hAcc><vAcc>1.319696</vAcc></extensions></trkpt>
      <trkpt lon="-82.146760" lat="33.556311"><ele>89.002202</ele><time>2023-08-21T11:23:52Z</time><extensions><speed>1.539820</speed><course>247.249243</course><hAcc>2.519146</hAcc><vAcc>1.315974</vAcc></extensions></trkpt>
      <trkpt lon="-82.146774" lat="33.556307"><ele>89.092253</ele><time>2023-08-21T11:23:53Z</time><extensions><speed>1.231191</speed><course>257.804104</course><hAcc>2.519281</hAcc><vAcc>1.313014</vAcc></extensions></trkpt>
      <trkpt lon="-82.146787" lat="33.556307"><ele>89.180913</ele><time>2023-08-21T11:23:54Z</time><extensions><speed>1.161844</speed><course>274.848494</course><hAcc>2.528794</hAcc><vAcc>1.310678</vAcc></extensions></trkpt>
      <trkpt lon="-82.146800" lat="33.556308"><ele>89.276158</ele><time>2023-08-21T11:23:55Z</time><extensions><speed>1.275582</speed><course>278.884738</course><hAcc>2.520060</hAcc><vAcc>1.308847</vAcc></extensions></trkpt>
      <trkpt lon="-82.146813" lat="33.556310"><ele>89.373786</ele><time>2023-08-21T11:23:56Z</time><extensions><speed>1.301042</speed><course>276.781437</course><hAcc>2.493987</hAcc><vAcc>1.307422</vAcc></extensions></trkpt>
      <trkpt lon="-82.146827" lat="33.556311"><ele>89.463003</ele><time>2023-08-21T11:23:57Z</time><extensions><speed>1.283670</speed><course>271.347849</course><hAcc>2.493899</hAcc><vAcc>1.306320</vAcc></extensions></trkpt>
      <trkpt lon="-82.146842" lat="33.556311"><ele>89.550129</ele><time>2023-08-21T11:23:58Z</time><extensions><speed>1.394238</speed><course>265.824826</course><hAcc>2.479367</hAcc><vAcc>1.305473</vAcc></extensions></trkpt>
      <trkpt lon="-82.146860" lat="33.556309"><ele>89.662826</ele><time>2023-08-21T11:23:59Z</time><extensions><speed>1.956809</speed><course>260.905743</course><hAcc>2.470009</hAcc><vAcc>1.304825</vAcc></extensions></trkpt>
      <trkpt lon="-82.146881" lat="33.556306"><ele>89.794318</ele><time>2023-08-21T11:24:00Z</time><extensions><speed>1.993541</speed><course>258.871607</course><hAcc>2.462984</hAcc><vAcc>1.279165</vAcc></extensions></trkpt>
      <trkpt lon="-82.146899" lat="33.556304"><ele>89.941249</ele><time>2023-08-21T11:24:01Z</time><extensions><speed>1.463552</speed><course>259.890044</course><hAcc>2.477301</hAcc><vAcc>1.257215</vAcc></extensions></trkpt>
      <trkpt lon="-82.146913" lat="33.556302"><ele>90.091172</ele><time>2023-08-21T11:24:02Z</time><extensions><speed>1.178216</speed><course>264.586158</course><hAcc>2.493616</hAcc><vAcc>1.236901</vAcc></extensions></trkpt>
      <trkpt lon="-82.146927" lat="33.556301"><ele>90.219735</ele><time>2023-08-21T11:24:03Z</time><extensions><speed>1.372901</speed><course>269.856882</course><hAcc>2.500330</hAcc><vAcc>1.217100</vAcc></extensions></trkpt>
      <trkpt lon="-82.146941" lat="33.556302"><ele>90.340532</ele><time>2023-08-21T11:24:04Z</time><extensions><speed>1.391254</speed><course>274.234992</course><hAcc>2.497800</hAcc><vAcc>1.197156</vAcc></extensions></trkpt>
      <trkpt lon="-82.146955" lat="33.556302"><ele>90.447078</ele><time>2023-08-21T11:24:05Z</time><extensions><speed>1.264795</speed><course>274.264203</course><hAcc>2.483548</hAcc><vAcc>1.176696</vAcc></extensions></trkpt>
      <trkpt lon="-82.146967" lat="33.556303"><ele>90.533497</ele><time>2023-08-21T11:24:06Z</time><extensions><speed>1.046783</speed><course>273.738284</course><hAcc>2.475108</hAcc><vAcc>1.155555</vAcc></extensions></trkpt>
      <trkpt lon="-82.146977" lat="33.556303"><ele>90.620921</ele><time>2023-08-21T11:24:07Z</time><extensions><speed>0.947329</speed><course>277.282524</course><hAcc>2.486028</hAcc><vAcc>1.133755</vAcc></extensions></trkpt>
      <trkpt lon="-82.146987" lat="33.556305"><ele>90.699701</ele><time>2023-08-21T11:24:08Z</time><extensions><speed>0.978743</speed><course>285.739036</course><hAcc>2.488650</hAcc><vAcc>1.111499</vAcc></extensions></trkpt>
      <trkpt lon="-82.146996" lat="33.556307"><ele>90.776213</ele><time>2023-08-21T11:24:09Z</time><extensions><speed>0.909630</speed><course>293.913180</course><hAcc>2.513087</hAcc><vAcc>1.089181</vAcc></extensions></trkpt>
      <trkpt lon="-82.147004" lat="33.556310"><ele>90.830878</ele><time>2023-08-21T11:24:10Z</time><extensions><speed>0.820583</speed><course>292.246202</course><hAcc>2.536600</hAcc><vAcc>1.067386</vAcc></extensions></trkpt>
      <trkpt lon="-82.147011" lat="33.556310"><ele>90.886204</ele><time>2023-08-21T11:24:11Z</time><extensions><speed>0.521198</speed><course>261.697292</course><hAcc>2.523405</hAcc><vAcc>1.046785</vAcc></extensions></trkpt>
      <trkpt lon="-82.147016" lat="33.556307"><ele>90.929663</ele><time>2023-08-21T11:24:12Z</time><extensions><speed>0.752724</speed><course>220.353035</course><hAcc>2.534505</hAcc><vAcc>1.027935</vAcc></extensions></trkpt>
      <trkpt lon="-82.147018" lat="33.556300"><ele>90.961081</ele><time>2023-08-21T11:24:13Z</time><extensions><speed>0.956159</speed><course>179.031207</course><hAcc>2.530253</hAcc><vAcc>1.011184</vAcc></extensions></trkpt>
      <trkpt lon="-82.147015" lat="33.556290"><ele>90.979178</ele><time>2023-08-21T11:24:14Z</time><extensions><speed>1.191080</speed><course>155.614412</course><hAcc>2.503583</hAcc><vAcc>0.996696</vAcc></extensions></trkpt>
      <trkpt lon="-82.147008" lat="33.556280"><ele>90.976562</ele><time>2023-08-21T11:24:15Z</time><extensions><speed>1.400997</speed><course>145.840264</course><hAcc>2.478686</hAcc><vAcc>0.984478</vAcc></extensions></trkpt>
      <trkpt lon="-82.147000" lat="33.556268"><ele>90.976417</ele><time>2023-08-21T11:24:16Z</time><extensions><speed>1.513802</speed><course>149.847768</course><hAcc>2.483014</hAcc><vAcc>0.974420</vAcc></extensions></trkpt>
      <trkpt lon="-82.146994" lat="33.556255"><ele>90.985566</ele><time>2023-08-21T11:24:17Z</time><extensions><speed>1.485958</speed><course>162.039728</course><hAcc>2.526456</hAcc><vAcc>0.966330</vAcc></extensions></trkpt>
      <trkpt lon="-82.146992" lat="33.556241"><ele>90.998129</ele><time>2023-08-21T11:24:18Z</time><extensions><speed>1.475847</speed><course>178.946862</course><hAcc>2.537313</hAcc><vAcc>0.959970</vAcc></extensions></trkpt>
      <trkpt lon="-82.146993" lat="33.556228"><ele>91.024489</ele><time>2023-08-21T11:24:19Z</time><extensions><speed>1.457499</speed><course>188.123796</course><hAcc>2.536309</hAcc><vAcc>0.948862</vAcc></extensions></trkpt>
      <trkpt lon="-82.146994" lat="33.556213"><ele>91.035230</ele><time>2023-08-21T11:24:20Z</time><extensions><speed>1.784045</speed><course>179.200888</course><hAcc>2.516093</hAcc><vAcc>0.943713</vAcc></extensions></trkpt>
      <trkpt lon="-82.146993" lat="33.556197"><ele>91.042581</ele><time>2023-08-21T11:24:21Z</time><extensions><speed>1.715723</speed><course>169.737127</course><hAcc>2.497247</hAcc><vAcc>0.939428</vAcc></extensions></trkpt>
      <trkpt lon="-82.146989" lat="33.556181"><ele>91.048273</ele><time>2023-08-21T11:24:22Z</time><extensions><speed>1.652146</speed><course>165.689284</course><hAcc>2.491983</hAcc><vAcc>0.935809</vAcc></extensions></trkpt>
      <trkpt lon="-82.146985" lat="33.556167"><ele>91.045603</ele><time>2023-08-21T11:24:23Z</time><extensions><speed>1.495917</speed><course>165.626078</course><hAcc>2.510705</hAcc><vAcc>0.932707</vAcc></extensions></trkpt>
      <trkpt lon="-82.146982" lat="33.556153"><ele>91.053908</ele><time>2023-08-21T11:24:24Z</time><extensions><speed>1.447190</speed><course>170.038510</course><hAcc>2.524970</hAcc><vAcc>0.930022</vAcc></extensions></trkpt>
      <trkpt lon="-82.146980" lat="33.556140"><ele>91.052345</ele><time>2023-08-21T11:24:25Z</time><extensions><speed>1.442588</speed><course>175.427758</course><hAcc>2.534377</hAcc><vAcc>0.927714</vAcc></extensions></trkpt>
      <trkpt lon="-82.146978" lat="33.556126"><ele>91.049165</ele><time>2023-08-21T11:24:26Z</time><extensions><speed>1.563233</speed><course>173.981460</course><hAcc>2.530414</hAcc><vAcc>0.925801</vAcc></extensions></trkpt>
      <trkpt lon="-82.146976" lat="33.556114"><ele>91.041671</ele><time>2023-08-21T11:24:27Z</time><extensions><speed>1.094205</speed><course>171.661952</course><hAcc>2.532130</hAcc><vAcc>0.924361</vAcc></extensions></trkpt>
      <trkpt lon="-82.146974" lat="33.556104"><ele>91.033522</ele><time>2023-08-21T11:24:28Z</time><extensions><speed>1.116817</speed><course>163.332005</course><hAcc>2.517224</hAcc><vAcc>0.923523</vAcc></extensions></trkpt>
      <trkpt lon="-82.146970" lat="33.556094"><ele>91.013777</ele><time>2023-08-21T11:24:29Z</time><extensions><speed>1.149695</speed><course>164.695578</course><hAcc>2.513867</hAcc><vAcc>0.917328</vAcc></extensions></trkpt>
      <trkpt lon="-82.146967" lat="33.556084"><ele>90.974897</ele><time>2023-08-21T11:24:30Z</time><extensions><speed>1.231256</speed><course>169.293977</course><hAcc>2.515207</hAcc><vAcc>0.911644</vAcc></extensions></trkpt>
      <trkpt lon="-82.146966" lat="33.556071"><ele>90.944006</ele><time>2023-08-21T11:24:31Z</time><extensions><speed>1.557234</speed><course>180.980782</course><hAcc>2.508603</hAcc><vAcc>0.905966</vAcc></extensions></trkpt>
      <trkpt lon="-82.146967" lat="33.556056"><ele>90.907998</ele><time>2023-08-21T11:24:32Z</time><extensions><speed>1.604875</speed><course>184.939063</course><hAcc>2.509405</hAcc><vAcc>0.899795</vAcc></extensions></trkpt>
      <trkpt lon="-82.146968" lat="33.556042"><ele>90.862742</ele><time>2023-08-21T11:24:33Z</time><extensions><speed>1.482164</speed><course>183.135039</course><hAcc>2.525421</hAcc><vAcc>0.895647</vAcc></extensions></trkpt>
      <trkpt lon="-82.146967" lat="33.556030"><ele>90.816010</ele><time>2023-08-21T11:24:34Z</time><extensions><speed>1.279574</speed><course>173.671936</course><hAcc>2.507190</hAcc><vAcc>0.891110</vAcc></extensions></trkpt>
      <trkpt lon="-82.146964" lat="33.556018"><ele>90.767678</ele><time>2023-08-21T11:24:35Z</time><extensions><speed>1.242008</speed><course>165.876974</course><hAcc>2.484420</hAcc><vAcc>0.886270</vAcc></extensions></trkpt>
      <trkpt lon="-82.146960" lat="33.556007"><ele>90.712871</ele><time>2023-08-21T11:24:36Z</time><extensions><speed>1.268151</speed><course>164.212460</course><hAcc>2.474144</hAcc><vAcc>0.881341</vAcc></extensions></trkpt>
      <trkpt lon="-82.146956" lat="33.555996"><ele>90.655381</ele><time>2023-08-21T11:24:37Z</time><extensions><speed>1.241106</speed><course>164.105309</course><hAcc>2.491405</hAcc><vAcc>0.876679</vAcc></extensions></trkpt>
      <trkpt lon="-82.146953" lat="33.555985"><ele>90.597738</ele><time>2023-08-21T11:24:38Z</time><extensions><speed>1.179265</speed><course>164.911680</course><hAcc>2.533844</hAcc><vAcc>0.872788</vAcc></extensions></trkpt>
      <trkpt lon="-82.146949" lat="33.555975"><ele>90.538857</ele><time>2023-08-21T11:24:39Z</time><extensions><speed>1.013977</speed><course>163.368245</course><hAcc>2.531959</hAcc><vAcc>0.870305</vAcc></extensions></trkpt>
      <trkpt lon="-82.146945" lat="33.555967"><ele>90.483788</ele><time>2023-08-21T11:24:40Z</time><extensions><speed>0.978621</speed><course>160.902091</course><hAcc>2.506744</hAcc><vAcc>0.869848</vAcc></extensions></trkpt>
      <trkpt lon="-82.146943" lat="33.555958"><ele>90.435344</ele><time>2023-08-21T11:24:41Z</time><extensions><speed>1.017073</speed><course>172.270393</course><hAcc>2.481646</hAcc><vAcc>0.871756</vAcc></extensions></trkpt>
      <trkpt lon="-82.146941" lat="33.555947"><ele>90.400092</ele><time>2023-08-21T11:24:42Z</time><extensions><speed>1.233185</speed><course>176.543206</course><hAcc>2.453160</hAcc><vAcc>0.870238</vAcc></extensions></trkpt>
      <trkpt lon="-82.146940" lat="33.555935"><ele>90.375233</ele><time>2023-08-21T11:24:43Z</time><extensions><speed>1.387784</speed><course>177.961318</course><hAcc>2.425527</hAcc><vAcc>0.869922</vAcc></extensions></trkpt>
      <trkpt lon="-82.146940" lat="33.555923"><ele>90.355403</ele><time>2023-08-21T11:24:44Z</time><extensions><speed>1.361648</speed><course>182.349995</course><hAcc>2.418050</hAcc><vAcc>0.869908</vAcc></extensions></trkpt>
      <trkpt lon="-82.146941" lat="33.555912"><ele>90.343279</ele><time>2023-08-21T11:24:45Z</time><extensions><speed>1.128110</speed><course>196.374203</course><hAcc>2.409005</hAcc><vAcc>0.869358</vAcc></extensions></trkpt>
      <trkpt lon="-82.146945" lat="33.555903"><ele>90.336561</ele><time>2023-08-21T11:24:46Z</time><extensions><speed>0.816938</speed><course>209.227318</course><hAcc>2.404320</hAcc><vAcc>0.867617</vAcc></extensions></trkpt>
      <trkpt lon="-82.146948" lat="33.555896"><ele>90.333754</ele><time>2023-08-21T11:24:47Z</time><extensions><speed>0.986019</speed><course>193.879473</course><hAcc>2.399797</hAcc><vAcc>0.864226</vAcc></extensions></trkpt>
      <trkpt lon="-82.146949" lat="33.555886"><ele>90.337356</ele><time>2023-08-21T11:24:48Z</time><extensions><speed>1.224427</speed><course>187.535013</course><hAcc>2.396488</hAcc><vAcc>0.858929</vAcc></extensions></trkpt>
      <trkpt lon="-82.146949" lat="33.555874"><ele>90.345304</ele><time>2023-08-21T11:24:49Z</time><extensions><speed>1.260383</speed><course>174.232391</course><hAcc>2.405515</hAcc><vAcc>0.851681</vAcc></extensions></trkpt>
      <trkpt lon="-82.146948" lat="33.555862"><ele>90.365104</ele><time>2023-08-21T11:24:50Z</time><extensions><speed>1.286056</speed><course>172.501770</course><hAcc>2.399088</hAcc><vAcc>0.842658</vAcc></extensions></trkpt>
      <trkpt lon="-82.146946" lat="33.555851"><ele>90.389614</ele><time>2023-08-21T11:24:51Z</time><extensions><speed>1.267877</speed><course>172.211994</course><hAcc>2.413090</hAcc><vAcc>0.832266</vAcc></extensions></trkpt>
      <trkpt lon="-82.146943" lat="33.555839"><ele>90.416343</ele><time>2023-08-21T11:24:52Z</time><extensions><speed>1.291406</speed><course>167.344963</course><hAcc>2.405819</hAcc><vAcc>0.821147</vAcc></extensions></trkpt>
      <trkpt lon="-82.146941" lat="33.555827"><ele>90.452861</ele><time>2023-08-21T11:24:53Z</time><extensions><speed>1.277500</speed><course>168.366753</course><hAcc>2.426278</hAcc><vAcc>0.810056</vAcc></extensions></trkpt>
      <trkpt lon="-82.146937" lat="33.555816"><ele>90.497377</ele><time>2023-08-21T11:24:54Z</time><extensions><speed>1.324935</speed><course>162.229953</course><hAcc>2.409299</hAcc><vAcc>0.799636</vAcc></extensions></trkpt>
      <trkpt lon="-82.146932" lat="33.555803"><ele>90.548138</ele><time>2023-08-21T11:24:55Z</time><extensions><speed>1.563204</speed><course>160.198541</course><hAcc>2.404334</hAcc><vAcc>0.790310</vAcc></extensions></trkpt>
      <trkpt lon="-82.146925" lat="33.555789"><ele>90.606090</ele><time>2023-08-21T11:24:56Z</time><extensions><speed>1.591800</speed><course>156.617418</course><hAcc>2.418778</hAcc><vAcc>0.782302</vAcc></extensions></trkpt>
      <trkpt lon="-82.146919" lat="33.555776"><ele>90.671002</ele><time>2023-08-21T11:24:57Z</time><extensions><speed>1.357913</speed><course>164.973520</course><hAcc>2.439189</hAcc><vAcc>0.775677</vAcc></extensions></trkpt>
      <trkpt lon="-82.146918" lat="33.555764"><ele>90.742790</ele><time>2023-08-21T11:24:58Z</time><extensions><speed>1.292723</speed><course>183.940187</course><hAcc>2.439607</hAcc><vAcc>0.770381</vAcc></extensions></trkpt>
      <trkpt lon="-82.146920" lat="33.555752"><ele>90.831846</ele><time>2023-08-21T11:24:59Z</time><extensions><speed>1.362352</speed><course>197.642573</course><hAcc>2.406977</hAcc><vAcc>0.766284</vAcc></extensions></trkpt>
      <trkpt lon="-82.146926" lat="33.555740"><ele>90.923529</ele><time>2023-08-21T11:25:00Z</time><extensions><speed>1.457459</speed><course>208.459117</course><hAcc>2.401485</hAcc><vAcc>0.763214</vAcc></extensions></trkpt>
      <trkpt lon="-82.146932" lat="33.555729"><ele>91.021737</ele><time>2023-08-21T11:25:01Z</time><extensions><speed>1.317320</speed><course>205.915163</course><hAcc>2.414796</hAcc><vAcc>0.760987</vAcc></extensions></trkpt>
      <trkpt lon="-82.146936" lat="33.555718"><ele>91.121494</ele><time>2023-08-21T11:25:02Z</time><extensions><speed>1.185789</speed><course>192.989240</course><hAcc>2.421192</hAcc><vAcc>0.759427</vAcc></extensions></trkpt>
      <trkpt lon="-82.146936" lat="33.555707"><ele>91.228964</ele><time>2023-08-21T11:25:03Z</time><extensions><speed>1.312350</speed><course>169.616630</course><hAcc>2.418684</hAcc><vAcc>0.758374</vAcc></extensions></trkpt>
      <trkpt lon="-82.146931" lat="33.555695"><ele>91.331989</ele><time>2023-08-21T11:25:04Z</time><extensions><speed>1.416547</speed><course>157.683031</course><hAcc>2.386866</hAcc><vAcc>0.757692</vAcc></extensions></trkpt>
      <trkpt lon="-82.146925" lat="33.555683"><ele>91.430643</ele><time>2023-08-21T11:25:05Z</time><extensions><speed>1.416019</speed><course>156.007029</course><hAcc>2.391427</hAcc><vAcc>0.757273</vAcc></extensions></trkpt>
      <trkpt lon="-82.146919" lat="33.555671"><ele>91.518596</ele><time>2023-08-21T11:25:06Z</time><extensions><speed>1.418297</speed><course>156.584492</course><hAcc>2.387657</hAcc><vAcc>0.757031</vAcc></extensions></trkpt>
      <trkpt lon="-82.146913" lat="33.555659"><ele>91.598711</ele><time>2023-08-21T11:25:07Z</time><extensions><speed>1.395127</speed><course>160.080018</course><hAcc>2.378170</hAcc><vAcc>0.756904</vAcc></extensions></trkpt>
      <trkpt lon="-82.146909" lat="33.555647"><ele>91.674138</ele><time>2023-08-21T11:25:08Z</time><extensions><speed>1.331320</speed><course>166.657431</course><hAcc>2.398213</hAcc><vAcc>0.756846</vAcc></extensions></trkpt>
      <trkpt lon="-82.146906" lat="33.555636"><ele>91.746512</ele><time>2023-08-21T11:25:09Z</time><extensions><speed>1.256798</speed><course>173.224709</course><hAcc>2.402298</hAcc><vAcc>0.756827</vAcc></extensions></trkpt>
      <trkpt lon="-82.146904" lat="33.555625"><ele>91.810397</ele><time>2023-08-21T11:25:10Z</time><extensions><speed>1.145903</speed><course>170.747449</course><hAcc>2.401656</hAcc><vAcc>0.756826</vAcc></extensions></trkpt>
      <trkpt lon="-82.146900" lat="33.555614"><ele>91.857741</ele><time>2023-08-21T11:25:11Z</time><extensions><speed>1.282086</speed><course>151.633920</course><hAcc>2.404080</hAcc><vAcc>0.756832</vAcc></extensions></trkpt>
      <trkpt lon="-82.146893" lat="33.555604"><ele>91.896087</ele><time>2023-08-21T11:25:12Z</time><extensions><speed>1.311736</speed><course>146.546044</course><hAcc>2.400960</hAcc><vAcc>0.756837</vAcc></extensions></trkpt>
      <trkpt lon="-82.146886" lat="33.555593"><ele>91.926496</ele><time>2023-08-21T11:25:13Z</time><extensions><speed>1.256809</speed><course>154.716051</course><hAcc>2.407500</hAcc><vAcc>0.756839</vAcc></extensions></trkpt>
      <trkpt lon="-82.146882" lat="33.555582"><ele>91.951820</ele><time>2023-08-21T11:25:14Z</time><extensions><speed>1.179297</speed><course>174.176334</course><hAcc>2.412411</hAcc><vAcc>0.756838</vAcc></extensions></trkpt>
      <trkpt lon="-82.146882" lat="33.555571"><ele>91.970714</ele><time>2023-08-21T11:25:15Z</time><extensions><speed>1.198142</speed><course>182.070966</course><hAcc>2.413191</hAcc><vAcc>0.756832</vAcc></extensions></trkpt>
      <trkpt lon="-82.146882" lat="33.555560"><ele>91.981518</ele><time>2023-08-21T11:25:16Z</time><extensions><speed>1.183124</speed><course>183.517771</course><hAcc>2.449212</hAcc><vAcc>0.756824</vAcc></extensions></trkpt>
      <trkpt lon="-82.146882" lat="33.555549"><ele>91.985027</ele><time>2023-08-21T11:25:17Z</time><extensions><speed>1.121795</speed><course>176.674415</course><hAcc>2.481120</hAcc><vAcc>0.756815</vAcc></extensions></trkpt>
      <trkpt lon="-82.146880" lat="33.555538"><ele>91.988413</ele><time>2023-08-21T11:25:18Z</time><extensions><speed>1.135482</speed><course>172.002876</course><hAcc>2.479970</hAcc><vAcc>0.756805</vAcc></extensions></trkpt>
      <trkpt lon="-82.146877" lat="33.555527"><ele>91.993680</ele><time>2023-08-21T11:25:19Z</time><extensions><speed>1.287792</speed><course>169.290087</course><hAcc>2.458317</hAcc><vAcc>0.756795</vAcc></extensions></trkpt>
      <trkpt lon="-82.146874" lat="33.555514"><ele>91.994507</ele><time>2023-08-21T11:25:20Z</time><extensions><speed>1.531477</speed><course>168.545231</course><hAcc>2.457611</hAcc><vAcc>0.756785</vAcc></extensions></trkpt>
      <trkpt lon="-82.146870" lat="33.555500"><ele>92.001029</ele><time>2023-08-21T11:25:21Z</time><extensions><speed>1.628538</speed><course>170.218811</course><hAcc>2.483996</hAcc><vAcc>0.756777</vAcc></extensions></trkpt>
      <trkpt lon="-82.146867" lat="33.555485"><ele>92.012815</ele><time>2023-08-21T11:25:22Z</time><extensions><speed>1.657415</speed><course>171.033157</course><hAcc>2.517496</hAcc><vAcc>0.756770</vAcc></extensions></trkpt>
      <trkpt lon="-82.146865" lat="33.555471"><ele>92.028120</ele><time>2023-08-21T11:25:23Z</time><extensions><speed>1.592371</speed><course>171.111422</course><hAcc>2.578033</hAcc><vAcc>0.756765</vAcc></extensions></trkpt>
      <trkpt lon="-82.146861" lat="33.555456"><ele>92.046021</ele><time>2023-08-21T11:25:24Z</time><extensions><speed>1.560355</speed><course>164.860671</course><hAcc>2.613718</hAcc><vAcc>0.756760</vAcc></extensions></trkpt>
      <trkpt lon="-82.146857" lat="33.555442"><ele>92.070363</ele><time>2023-08-21T11:25:25Z</time><extensions><speed>1.631690</speed><course>166.339276</course><hAcc>2.566566</hAcc><vAcc>0.756757</vAcc></extensions></trkpt>
      <trkpt lon="-82.146853" lat="33.555427"><ele>92.100860</ele><time>2023-08-21T11:25:26Z</time><extensions><speed>1.759426</speed><course>165.004375</course><hAcc>2.523840</hAcc><vAcc>0.756754</vAcc></extensions></trkpt>
      <trkpt lon="-82.146848" lat="33.555412"><ele>92.121868</ele><time>2023-08-21T11:25:27Z</time><extensions><speed>1.595091</speed><course>164.387926</course><hAcc>2.495639</hAcc><vAcc>0.756752</vAcc></extensions></trkpt>
      <trkpt lon="-82.146844" lat="33.555398"><ele>92.147487</ele><time>2023-08-21T11:25:28Z</time><extensions><speed>1.538011</speed><course>166.398868</course><hAcc>2.482073</hAcc><vAcc>0.756751</vAcc></extensions></trkpt>
      <trkpt lon="-82.146840" lat="33.555385"><ele>92.184575</ele><time>2023-08-21T11:25:29Z</time><extensions><speed>1.477940</speed><course>170.059226</course><hAcc>2.484811</hAcc><vAcc>0.756750</vAcc></extensions></trkpt>
      <trkpt lon="-82.146838" lat="33.555372"><ele>92.225016</ele><time>2023-08-21T11:25:30Z</time><extensions><speed>1.450428</speed><course>176.493932</course><hAcc>2.508938</hAcc><vAcc>0.756750</vAcc></extensions></trkpt>
      <trkpt lon="-82.146838" lat="33.555358"><ele>92.265996</ele><time>2023-08-21T11:25:31Z</time><extensions><speed>1.493253</speed><course>181.767715</course><hAcc>2.504300</hAcc><vAcc>0.756749</vAcc></extensions></trkpt>
      <trkpt lon="-82.146839" lat="33.555345"><ele>92.311185</ele><time>2023-08-21T11:25:32Z</time><extensions><speed>1.483853</speed><course>185.158220</course><hAcc>2.517960</hAcc><vAcc>0.756749</vAcc></extensions></trkpt>
      <trkpt lon="-82.146840" lat="33.555331"><ele>92.355981</ele><time>2023-08-21T11:25:33Z</time><extensions><speed>1.454695</speed><course>182.926001</course><hAcc>2.479544</hAcc><vAcc>0.756749</vAcc></extensions></trkpt>
      <trkpt lon="-82.146841" lat="33.555318"><ele>92.408480</ele><time>2023-08-21T11:25:34Z</time><extensions><speed>1.439516</speed><course>183.814122</course><hAcc>2.467922</hAcc><vAcc>0.756749</vAcc></extensions></trkpt>
      <trkpt lon="-82.146842" lat="33.555305"><ele>92.463294</ele><time>2023-08-21T11:25:35Z</time><extensions><speed>1.528467</speed><course>186.399971</course><hAcc>2.425900</hAcc><vAcc>0.756749</vAcc></extensions></trkpt>
      <trkpt lon="-82.146844" lat="33.555291"><ele>92.524549</ele><time>2023-08-21T11:25:36Z</time><extensions><speed>1.538102</speed><course>184.910900</course><hAcc>2.406804</hAcc><vAcc>0.756749</vAcc></extensions></trkpt>
      <trkpt lon="-82.146845" lat="33.555277"><ele>92.589188</ele><time>2023-08-21T11:25:37Z</time><extensions><speed>1.487528</speed><course>184.698243</course><hAcc>2.436130</hAcc><vAcc>0.756749</vAcc></extensions></trkpt>
      <trkpt lon="-82.146846" lat="33.555264"><ele>92.652312</ele><time>2023-08-21T11:25:38Z</time><extensions><speed>1.460397</speed><course>182.286999</course><hAcc>2.449030</hAcc><vAcc>0.756749</vAcc></extensions></trkpt>
      <trkpt lon="-82.146847" lat="33.555251"><ele>92.712337</ele><time>2023-08-21T11:25:39Z</time><extensions><speed>1.453688</speed><course>181.302702</course><hAcc>2.484310</hAcc><vAcc>0.756749</vAcc></extensions></trkpt>
      <trkpt lon="-82.146848" lat="33.555238"><ele>92.767483</ele><time>2023-08-21T11:25:40Z</time><extensions><speed>1.469424</speed><course>185.133424</course><hAcc>2.457111</hAcc><vAcc>0.756749</vAcc></extensions></trkpt>
      <trkpt lon="-82.146849" lat="33.555225"><ele>92.813993</ele><time>2023-08-21T11:25:41Z</time><extensions><speed>1.521865</speed><course>186.542292</course><hAcc>2.444190</hAcc><vAcc>0.756749</vAcc></extensions></trkpt>
      <trkpt lon="-82.146852" lat="33.555211"><ele>92.855608</ele><time>2023-08-21T11:25:42Z</time><extensions><speed>1.681288</speed><course>190.113335</course><hAcc>2.442338</hAcc><vAcc>0.756749</vAcc></extensions></trkpt>
      <trkpt lon="-82.146856" lat="33.555197"><ele>92.902401</ele><time>2023-08-21T11:25:43Z</time><extensions><speed>1.630830</speed><course>193.068609</course><hAcc>2.437107</hAcc><vAcc>0.756749</vAcc></extensions></trkpt>
      <trkpt lon="-82.146860" lat="33.555183"><ele>92.947547</ele><time>2023-08-21T11:25:44Z</time><extensions><speed>1.605164</speed><course>194.877002</course><hAcc>2.431227</hAcc><vAcc>0.756749</vAcc></extensions></trkpt>
      <trkpt lon="-82.146865" lat="33.555170"><ele>92.984643</ele><time>2023-08-21T11:25:45Z</time><extensions><speed>1.585489</speed><course>193.627246</course><hAcc>2.452245</hAcc><vAcc>0.756749</vAcc></extensions></trkpt>
      <trkpt lon="-82.146869" lat="33.555156"><ele>93.017000</ele><time>2023-08-21T11:25:46Z</time><extensions><speed>1.594034</speed><course>189.644844</course><hAcc>2.478972</hAcc><vAcc>0.756749</vAcc></extensions></trkpt>
      <trkpt lon="-82.146872" lat="33.555142"><ele>93.045027</ele><time>2023-08-21T11:25:47Z</time><extensions><speed>1.640859</speed><course>190.989287</course><hAcc>2.493310</hAcc><vAcc>0.756749</vAcc></extensions></trkpt>
      <trkpt lon="-82.146876" lat="33.555129"><ele>93.072745</ele><time>2023-08-21T11:25:48Z</time><extensions><speed>1.572694</speed><course>195.064160</course><hAcc>2.482984</hAcc><vAcc>0.756749</vAcc></extensions></trkpt>
      <trkpt lon="-82.146882" lat="33.555117"><ele>93.105648</ele><time>2023-08-21T11:25:49Z</time><extensions><speed>1.297782</speed><course>202.403510</course><hAcc>2.483668</hAcc><vAcc>0.756749</vAcc></extensions></trkpt>
      <trkpt lon="-82.146889" lat="33.555107"><ele>93.137257</ele><time>2023-08-21T11:25:50Z</time><extensions><speed>1.272391</speed><course>210.280606</course><hAcc>2.477081</hAcc><vAcc>0.756749</vAcc></extensions></trkpt>
      <trkpt lon="-82.146898" lat="33.555097"><ele>93.174333</ele><time>2023-08-21T11:25:51Z</time><extensions><speed>1.509597</speed><course>225.451953</course><hAcc>2.454090</hAcc><vAcc>0.756749</vAcc></extensions></trkpt>
      <trkpt lon="-82.146911" lat="33.555087"><ele>93.216792</ele><time>2023-08-21T11:25:52Z</time><extensions><speed>1.625543</speed><course>223.590333</course><hAcc>2.449075</hAcc><vAcc>0.756749</vAcc></extensions></trkpt>
      <trkpt lon="-82.146923" lat="33.555076"><ele>93.262465</ele><time>2023-08-21T11:25:53Z</time><extensions><speed>1.506737</speed><course>218.520633</course><hAcc>2.454853</hAcc><vAcc>0.756749</vAcc></extensions></trkpt>
      <trkpt lon="-82.146932" lat="33.555066"><ele>93.311145</ele><time>2023-08-21T11:25:54Z</time><extensions><speed>1.254848</speed><course>214.663479</course><hAcc>2.475077</hAcc><vAcc>0.756749</vAcc></extensions></trkpt>
      <trkpt lon="-82.146940" lat="33.555059"><ele>93.362853</ele><time>2023-08-21T11:25:55Z</time><extensions><speed>0.701324</speed><course>226.080253</course><hAcc>2.484207</hAcc><vAcc>0.756749</vAcc></extensions></trkpt>
      <trkpt lon="-82.146945" lat="33.555054"><ele>93.416805</ele><time>2023-08-21T11:25:56Z</time><extensions><speed>0.529242</speed><course>219.372948</course><hAcc>2.495415</hAcc><vAcc>0.756749</vAcc></extensions></trkpt>
      <trkpt lon="-82.146950" lat="33.555050"><ele>93.473240</ele><time>2023-08-21T11:25:57Z</time><extensions><speed>0.591773</speed><course>224.835721</course><hAcc>2.480428</hAcc><vAcc>0.756749</vAcc></extensions></trkpt>
      <trkpt lon="-82.146956" lat="33.555045"><ele>93.527302</ele><time>2023-08-21T11:25:58Z</time><extensions><speed>0.740403</speed><course>223.509934</course><hAcc>2.466054</hAcc><vAcc>0.756749</vAcc></extensions></trkpt>
      <trkpt lon="-82.146962" lat="33.555041"><ele>93.585480</ele><time>2023-08-21T11:25:59Z</time><extensions><speed>0.545606</speed><course>224.523782</course><hAcc>2.472510</hAcc><vAcc>0.756749</vAcc></extensions></trkpt>
      <trkpt lon="-82.146967" lat="33.555036"><ele>93.647140</ele><time>2023-08-21T11:26:00Z</time><extensions><speed>0.769054</speed><course>220.771070</course><hAcc>2.498971</hAcc><vAcc>0.756749</vAcc></extensions></trkpt>
      <trkpt lon="-82.146973" lat="33.555029"><ele>93.714169</ele><time>2023-08-21T11:26:01Z</time><extensions><speed>0.848379</speed><course>213.794585</course><hAcc>2.526723</hAcc><vAcc>0.756749</vAcc></extensions></trkpt>
      <trkpt lon="-82.146979" lat="33.555022"><ele>93.782140</ele><time>2023-08-21T11:26:02Z</time><extensions><speed>1.007675</speed><course>211.324026</course><hAcc>2.521811</hAcc><vAcc>0.756749</vAcc></extensions></trkpt>
      <trkpt lon="-82.146985" lat="33.555014"><ele>93.848387</ele><time>2023-08-21T11:26:03Z</time><extensions><speed>0.858071</speed><course>212.132605</course><hAcc>2.528668</hAcc><vAcc>0.756749</vAcc></extensions></trkpt>
      <trkpt lon="-82.146991" lat="33.555007"><ele>93.903162</ele><time>2023-08-21T11:26:04Z</time><extensions><speed>0.882527</speed><course>216.484981</course><hAcc>2.521102</hAcc><vAcc>0.756749</vAcc></extensions></trkpt>
      <trkpt lon="-82.146997" lat="33.555000"><ele>93.947773</ele><time>2023-08-21T11:26:05Z</time><extensions><speed>0.972065</speed><course>222.579236</course><hAcc>2.514062</hAcc><vAcc>0.756749</vAcc></extensions></trkpt>
      <trkpt lon="-82.147006" lat="33.554992"><ele>93.982525</ele><time>2023-08-21T11:26:06Z</time><extensions><speed>1.254917</speed><course>222.903037</course><hAcc>2.499271</hAcc><vAcc>0.756749</vAcc></extensions></trkpt>
      <trkpt lon="-82.147017" lat="33.554982"><ele>94.017133</ele><time>2023-08-21T11:26:07Z</time><extensions><speed>1.639329</speed><course>219.710909</course><hAcc>2.505037</hAcc><vAcc>0.756749</vAcc></extensions></trkpt>
      <trkpt lon="-82.147028" lat="33.554969"><ele>94.041538</ele><time>2023-08-21T11:26:08Z</time><extensions><speed>1.723092</speed><course>217.362673</course><hAcc>2.513667</hAcc><vAcc>0.756749</vAcc></extensions></trkpt>
      <trkpt lon="-82.147039" lat="33.554957"><ele>94.058471</ele><time>2023-08-21T11:26:09Z</time><extensions><speed>1.587854</speed><course>216.098491</course><hAcc>2.521954</hAcc><vAcc>0.756749</vAcc></extensions></trkpt>
      <trkpt lon="-82.147049" lat="33.554946"><ele>94.075659</ele><time>2023-08-21T11:26:10Z</time><extensions><speed>1.442168</speed><course>217.520630</course><hAcc>2.520804</hAcc><vAcc>0.756749</vAcc></extensions></trkpt>
      <trkpt lon="-82.147059" lat="33.554935"><ele>94.088933</ele><time>2023-08-21T11:26:11Z</time><extensions><speed>1.333094</speed><course>217.098087</course><hAcc>2.529594</hAcc><vAcc>0.758392</vAcc></extensions></trkpt>
      <trkpt lon="-82.147067" lat="33.554925"><ele>94.095605</ele><time>2023-08-21T11:26:12Z</time><extensions><speed>1.289627</speed><course>209.520102</course><hAcc>2.538565</hAcc><vAcc>0.761092</vAcc></extensions></trkpt>
      <trkpt lon="-82.147072" lat="33.554914"><ele>94.095356</ele><time>2023-08-21T11:26:13Z</time><extensions><speed>1.257112</speed><course>197.610885</course><hAcc>2.551103</hAcc><vAcc>0.765086</vAcc></extensions></trkpt>
      <trkpt lon="-82.147077" lat="33.554902"><ele>94.097076</ele><time>2023-08-21T11:26:14Z</time><extensions><speed>1.460505</speed><course>196.936610</course><hAcc>2.526651</hAcc><vAcc>0.770569</vAcc></extensions></trkpt>
      <trkpt lon="-82.147082" lat="33.554890"><ele>94.100010</ele><time>2023-08-21T11:26:15Z</time><extensions><speed>1.485490</speed><course>203.417291</course><hAcc>2.510965</hAcc><vAcc>0.777683</vAcc></extensions></trkpt>
      <trkpt lon="-82.147089" lat="33.554877"><ele>94.102838</ele><time>2023-08-21T11:26:16Z</time><extensions><speed>1.483307</speed><course>206.668077</course><hAcc>2.500085</hAcc><vAcc>0.786505</vAcc></extensions></trkpt>
      <trkpt lon="-82.147097" lat="33.554865"><ele>94.101256</ele><time>2023-08-21T11:26:17Z</time><extensions><speed>1.400035</speed><course>212.032830</course><hAcc>2.488223</hAcc><vAcc>0.797025</vAcc></extensions></trkpt>
      <trkpt lon="-82.147105" lat="33.554855"><ele>94.110243</ele><time>2023-08-21T11:26:18Z</time><extensions><speed>1.223575</speed><course>212.833066</course><hAcc>2.487244</hAcc><vAcc>0.803979</vAcc></extensions></trkpt>
      <trkpt lon="-82.147113" lat="33.554846"><ele>94.118348</ele><time>2023-08-21T11:26:19Z</time><extensions><speed>1.192273</speed><course>217.090440</course><hAcc>2.500994</hAcc><vAcc>0.815946</vAcc></extensions></trkpt>
      <trkpt lon="-82.147121" lat="33.554837"><ele>94.135779</ele><time>2023-08-21T11:26:20Z</time><extensions><speed>1.208912</speed><course>220.149908</course><hAcc>2.482373</hAcc><vAcc>0.828716</vAcc></extensions></trkpt>
      <trkpt lon="-82.147130" lat="33.554828"><ele>94.165676</ele><time>2023-08-21T11:26:21Z</time><extensions><speed>1.190341</speed><course>224.452681</course><hAcc>2.480384</hAcc><vAcc>0.836463</vAcc></extensions></trkpt>
      <trkpt lon="-82.147140" lat="33.554820"><ele>94.195186</ele><time>2023-08-21T11:26:22Z</time><extensions><speed>1.250434</speed><course>222.580398</course><hAcc>2.470235</hAcc><vAcc>0.843151</vAcc></extensions></trkpt>
      <trkpt lon="-82.147149" lat="33.554810"><ele>94.215081</ele><time>2023-08-21T11:26:23Z</time><extensions><speed>1.399339</speed><course>219.357148</course><hAcc>2.468531</hAcc><vAcc>0.848075</vAcc></extensions></trkpt>
      <trkpt lon="-82.147159" lat="33.554800"><ele>94.238484</ele><time>2023-08-21T11:26:24Z</time><extensions><speed>1.423559</speed><course>216.978807</course><hAcc>2.452688</hAcc><vAcc>0.850775</vAcc></extensions></trkpt>
      <trkpt lon="-82.147169" lat="33.554789"><ele>94.245773</ele><time>2023-08-21T11:26:25Z</time><extensions><speed>1.365926</speed><course>219.323431</course><hAcc>2.413955</hAcc><vAcc>0.851011</vAcc></extensions></trkpt>
      <trkpt lon="-82.147179" lat="33.554779"><ele>94.256204</ele><time>2023-08-21T11:26:26Z</time><extensions><speed>1.364096</speed><course>223.821751</course><hAcc>2.412542</hAcc><vAcc>0.848756</vAcc></extensions></trkpt>
      <trkpt lon="-82.147190" lat="33.554770"><ele>94.268791</ele><time>2023-08-21T11:26:27Z</time><extensions><speed>1.370679</speed><course>226.113668</course><hAcc>2.456195</hAcc><vAcc>0.844187</vAcc></extensions></trkpt>
      <trkpt lon="-82.147200" lat="33.554761"><ele>94.283868</ele><time>2023-08-21T11:26:28Z</time><extensions><speed>1.414548</speed><course>220.718201</course><hAcc>2.477658</hAcc><vAcc>0.837671</vAcc></extensions></trkpt>
      <trkpt lon="-82.147211" lat="33.554751"><ele>94.303423</ele><time>2023-08-21T11:26:29Z</time><extensions><speed>1.420237</speed><course>224.444701</course><hAcc>2.435993</hAcc><vAcc>0.829659</vAcc></extensions></trkpt>
      <trkpt lon="-82.147222" lat="33.554742"><ele>94.319276</ele><time>2023-08-21T11:26:30Z</time><extensions><speed>1.426365</speed><course>228.176930</course><hAcc>2.425326</hAcc><vAcc>0.820576</vAcc></extensions></trkpt>
      <trkpt lon="-82.147234" lat="33.554732"><ele>94.337275</ele><time>2023-08-21T11:26:31Z</time><extensions><speed>1.446980</speed><course>222.772698</course><hAcc>2.446585</hAcc><vAcc>0.810950</vAcc></extensions></trkpt>
      <trkpt lon="-82.147245" lat="33.554722"><ele>94.357904</ele><time>2023-08-21T11:26:32Z</time><extensions><speed>1.634969</speed><course>223.943279</course><hAcc>2.448637</hAcc><vAcc>0.801420</vAcc></extensions></trkpt>
      <trkpt lon="-82.147258" lat="33.554711"><ele>94.374133</ele><time>2023-08-21T11:26:33Z</time><extensions><speed>1.589159</speed><course>222.235559</course><hAcc>2.468979</hAcc><vAcc>0.792528</vAcc></extensions></trkpt>
      <trkpt lon="-82.147269" lat="33.554700"><ele>94.383021</ele><time>2023-08-21T11:26:34Z</time><extensions><speed>1.621844</speed><course>222.000450</course><hAcc>2.476497</hAcc><vAcc>0.784620</vAcc></extensions></trkpt>
      <trkpt lon="-82.147281" lat="33.554689"><ele>94.391294</ele><time>2023-08-21T11:26:35Z</time><extensions><speed>1.722686</speed><course>220.843762</course><hAcc>2.478389</hAcc><vAcc>0.779366</vAcc></extensions></trkpt>
      <trkpt lon="-82.147293" lat="33.554677"><ele>94.395389</ele><time>2023-08-21T11:26:36Z</time><extensions><speed>1.714812</speed><course>222.091978</course><hAcc>2.487608</hAcc><vAcc>0.776393</vAcc></extensions></trkpt>
      <trkpt lon="-82.147305" lat="33.554666"><ele>94.396461</ele><time>2023-08-21T11:26:37Z</time><extensions><speed>1.621789</speed><course>223.185947</course><hAcc>2.488091</hAcc><vAcc>0.775896</vAcc></extensions></trkpt>
      <trkpt lon="-82.147318" lat="33.554655"><ele>94.393392</ele><time>2023-08-21T11:26:38Z</time><extensions><speed>1.564006</speed><course>226.446325</course><hAcc>2.501571</hAcc><vAcc>0.777954</vAcc></extensions></trkpt>
      <trkpt lon="-82.147330" lat="33.554646"><ele>94.387196</ele><time>2023-08-21T11:26:39Z</time><extensions><speed>1.499687</speed><course>230.650146</course><hAcc>2.530049</hAcc><vAcc>0.782553</vAcc></extensions></trkpt>
      <trkpt lon="-82.147342" lat="33.554638"><ele>94.381255</ele><time>2023-08-21T11:26:40Z</time><extensions><speed>1.489483</speed><course>231.537946</course><hAcc>2.528101</hAcc><vAcc>0.789595</vAcc></extensions></trkpt>
      <trkpt lon="-82.147355" lat="33.554629"><ele>94.381841</ele><time>2023-08-21T11:26:41Z</time><extensions><speed>1.432579</speed><course>230.393762</course><hAcc>2.524602</hAcc><vAcc>0.798907</vAcc></extensions></trkpt>
      <trkpt lon="-82.147366" lat="33.554620"><ele>94.378486</ele><time>2023-08-21T11:26:42Z</time><extensions><speed>1.380154</speed><course>223.797827</course><hAcc>2.501842</hAcc><vAcc>0.810223</vAcc></extensions></trkpt>
      <trkpt lon="-82.147375" lat="33.554611"><ele>94.371640</ele><time>2023-08-21T11:26:43Z</time><extensions><speed>1.283974</speed><course>221.488286</course><hAcc>2.502033</hAcc><vAcc>0.817569</vAcc></extensions></trkpt>
      <trkpt lon="-82.147384" lat="33.554603"><ele>94.364205</ele><time>2023-08-21T11:26:44Z</time><extensions><speed>1.211511</speed><course>221.575768</course><hAcc>2.499423</hAcc><vAcc>0.825322</vAcc></extensions></trkpt>
      <trkpt lon="-82.147393" lat="33.554595"><ele>94.366079</ele><time>2023-08-21T11:26:45Z</time><extensions><speed>1.074491</speed><course>223.893477</course><hAcc>2.473555</hAcc><vAcc>0.832682</vAcc></extensions></trkpt>
      <trkpt lon="-82.147401" lat="33.554588"><ele>94.367422</ele><time>2023-08-21T11:26:46Z</time><extensions><speed>1.121841</speed><course>224.118538</course><hAcc>2.475024</hAcc><vAcc>0.842413</vAcc></extensions></trkpt>
      <trkpt lon="-82.147411" lat="33.554580"><ele>94.366957</ele><time>2023-08-21T11:26:47Z</time><extensions><speed>1.438138</speed><course>221.471720</course><hAcc>2.487525</hAcc><vAcc>0.850915</vAcc></extensions></trkpt>
      <trkpt lon="-82.147421" lat="33.554569"><ele>94.377171</ele><time>2023-08-21T11:26:48Z</time><extensions><speed>1.520545</speed><course>220.223322</course><hAcc>2.477155</hAcc><vAcc>0.857899</vAcc></extensions></trkpt>
      <trkpt lon="-82.147433" lat="33.554559"><ele>94.387953</ele><time>2023-08-21T11:26:49Z</time><extensions><speed>1.521517</speed><course>222.082895</course><hAcc>2.476973</hAcc><vAcc>0.863321</vAcc></extensions></trkpt>
      <trkpt lon="-82.147444" lat="33.554550"><ele>94.400600</ele><time>2023-08-21T11:26:50Z</time><extensions><speed>1.426837</speed><course>227.638614</course><hAcc>2.478693</hAcc><vAcc>0.867360</vAcc></extensions></trkpt>
      <trkpt lon="-82.147456" lat="33.554542"><ele>94.411107</ele><time>2023-08-21T11:26:51Z</time><extensions><speed>1.390358</speed><course>234.589438</course><hAcc>2.495582</hAcc><vAcc>0.870389</vAcc></extensions></trkpt>
      <trkpt lon="-82.147470" lat="33.554535"><ele>94.432251</ele><time>2023-08-21T11:26:52Z</time><extensions><speed>1.381611</speed><course>240.126859</course><hAcc>2.467644</hAcc><vAcc>0.872954</vAcc></extensions></trkpt>
      <trkpt lon="-82.147483" lat="33.554530"><ele>94.466594</ele><time>2023-08-21T11:26:53Z</time><extensions><speed>1.336702</speed><course>242.800909</course><hAcc>2.465744</hAcc><vAcc>0.875723</vAcc></extensions></trkpt>
      <trkpt lon="-82.147496" lat="33.554524"><ele>94.513733</ele><time>2023-08-21T11:26:54Z</time><extensions><speed>1.305013</speed><course>246.492295</course><hAcc>2.470076</hAcc><vAcc>0.879332</vAcc></extensions></trkpt>
      <trkpt lon="-82.147510" lat="33.554520"><ele>94.560592</ele><time>2023-08-21T11:26:55Z</time><extensions><speed>1.214769</speed><course>248.699952</course><hAcc>2.486721</hAcc><vAcc>0.884101</vAcc></extensions></trkpt>
      <trkpt lon="-82.147523" lat="33.554516"><ele>94.613888</ele><time>2023-08-21T11:26:56Z</time><extensions><speed>1.233196</speed><course>252.567449</course><hAcc>2.492903</hAcc><vAcc>0.889910</vAcc></extensions></trkpt>
      <trkpt lon="-82.147536" lat="33.554513"><ele>94.676590</ele><time>2023-08-21T11:26:57Z</time><extensions><speed>1.251339</speed><course>252.357467</course><hAcc>2.496043</hAcc><vAcc>0.896335</vAcc></extensions></trkpt>
      <trkpt lon="-82.147550" lat="33.554509"><ele>94.741247</ele><time>2023-08-21T11:26:58Z</time><extensions><speed>1.287966</speed><course>250.924190</course><hAcc>2.485120</hAcc><vAcc>0.902917</vAcc></extensions></trkpt>
      <trkpt lon="-82.147563" lat="33.554505"><ele>94.811626</ele><time>2023-08-21T11:26:59Z</time><extensions><speed>1.193861</speed><course>248.045502</course><hAcc>2.471356</hAcc><vAcc>0.909298</vAcc></extensions></trkpt>
      <trkpt lon="-82.147575" lat="33.554500"><ele>94.911343</ele><time>2023-08-21T11:27:00Z</time><extensions><speed>1.136864</speed><course>245.126530</course><hAcc>2.490817</hAcc><vAcc>0.908583</vAcc></extensions></trkpt>
      <trkpt lon="-82.147586" lat="33.554496"><ele>94.999478</ele><time>2023-08-21T11:27:01Z</time><extensions><speed>1.015068</speed><course>241.147781</course><hAcc>2.548455</hAcc><vAcc>0.907188</vAcc></extensions></trkpt>
      <trkpt lon="-82.147596" lat="33.554491"><ele>95.088845</ele><time>2023-08-21T11:27:02Z</time><extensions><speed>1.064735</speed><course>240.339366</course><hAcc>2.567195</hAcc><vAcc>0.904616</vAcc></extensions></trkpt>
      <trkpt lon="-82.147609" lat="33.554485"><ele>95.183657</ele><time>2023-08-21T11:27:03Z</time><extensions><speed>1.444036</speed><course>240.496648</course><hAcc>2.542618</hAcc><vAcc>0.900545</vAcc></extensions></trkpt>
      <trkpt lon="-82.147624" lat="33.554478"><ele>95.288564</ele><time>2023-08-21T11:27:04Z</time><extensions><speed>1.679693</speed><course>239.448272</course><hAcc>2.522686</hAcc><vAcc>0.894772</vAcc></extensions></trkpt>
      <trkpt lon="-82.147639" lat="33.554470"><ele>95.392809</ele><time>2023-08-21T11:27:05Z</time><extensions><speed>1.606525</speed><course>236.256146</course><hAcc>2.516447</hAcc><vAcc>0.887201</vAcc></extensions></trkpt>
      <trkpt lon="-82.147654" lat="33.554462"><ele>95.495446</ele><time>2023-08-21T11:27:06Z</time><extensions><speed>1.560083</speed><course>233.319799</course><hAcc>2.499048</hAcc><vAcc>0.880014</vAcc></extensions></trkpt>
      <trkpt lon="-82.147668" lat="33.554454"><ele>95.598827</ele><time>2023-08-21T11:27:07Z</time><extensions><speed>1.516633</speed><course>232.904780</course><hAcc>2.504185</hAcc><vAcc>0.872035</vAcc></extensions></trkpt>
      <trkpt lon="-82.147681" lat="33.554446"><ele>95.700356</ele><time>2023-08-21T11:27:08Z</time><extensions><speed>1.413924</speed><course>234.164387</course><hAcc>2.537304</hAcc><vAcc>0.861273</vAcc></extensions></trkpt>
      <trkpt lon="-82.147693" lat="33.554438"><ele>95.808407</ele><time>2023-08-21T11:27:09Z</time><extensions><speed>1.356176</speed><course>228.034815</course><hAcc>2.535213</hAcc><vAcc>0.849915</vAcc></extensions></trkpt>
      <trkpt lon="-82.147705" lat="33.554431"><ele>95.917297</ele><time>2023-08-21T11:27:10Z</time><extensions><speed>1.327999</speed><course>237.599627</course><hAcc>2.509851</hAcc><vAcc>0.838594</vAcc></extensions></trkpt>
      <trkpt lon="-82.147718" lat="33.554425"><ele>96.023228</ele><time>2023-08-21T11:27:11Z</time><extensions><speed>1.381569</speed><course>245.390811</course><hAcc>2.478754</hAcc><vAcc>0.827988</vAcc></extensions></trkpt>
      <trkpt lon="-82.147732" lat="33.554420"><ele>96.128800</ele><time>2023-08-21T11:27:12Z</time><extensions><speed>1.440430</speed><course>245.905935</course><hAcc>2.455340</hAcc><vAcc>0.818602</vAcc></extensions></trkpt>
      <trkpt lon="-82.147746" lat="33.554414"><ele>96.229324</ele><time>2023-08-21T11:27:13Z</time><extensions><speed>1.368315</speed><course>242.159405</course><hAcc>2.462270</hAcc><vAcc>0.810644</vAcc></extensions></trkpt>
      <trkpt lon="-82.147759" lat="33.554409"><ele>96.323797</ele><time>2023-08-21T11:27:14Z</time><extensions><speed>1.310172</speed><course>247.901503</course><hAcc>2.485000</hAcc><vAcc>0.804060</vAcc></extensions></trkpt>
      <trkpt lon="-82.147773" lat="33.554405"><ele>96.411116</ele><time>2023-08-21T11:27:15Z</time><extensions><speed>1.320607</speed><course>251.280209</course><hAcc>2.482498</hAcc><vAcc>0.798563</vAcc></extensions></trkpt>
      <trkpt lon="-82.147787" lat="33.554403"><ele>96.498160</ele><time>2023-08-21T11:27:16Z</time><extensions><speed>1.339376</speed><course>263.088100</course><hAcc>2.466673</hAcc><vAcc>0.793704</vAcc></extensions></trkpt>
      <trkpt lon="-82.147802" lat="33.554402"><ele>96.584106</ele><time>2023-08-21T11:27:17Z</time><extensions><speed>1.413219</speed><course>265.881335</course><hAcc>2.420835</hAcc><vAcc>0.789034</vAcc></extensions></trkpt>
      <trkpt lon="-82.147818" lat="33.554401"><ele>96.660723</ele><time>2023-08-21T11:27:18Z</time><extensions><speed>1.505351</speed><course>266.286366</course><hAcc>2.403006</hAcc><vAcc>0.784375</vAcc></extensions></trkpt>
      <trkpt lon="-82.147835" lat="33.554400"><ele>96.738472</ele><time>2023-08-21T11:27:19Z</time><extensions><speed>1.638363</speed><course>264.991477</course><hAcc>2.427771</hAcc><vAcc>0.779836</vAcc></extensions></trkpt>
      <trkpt lon="-82.147853" lat="33.554399"><ele>96.817194</ele><time>2023-08-21T11:27:20Z</time><extensions><speed>1.650190</speed><course>268.870921</course><hAcc>2.457105</hAcc><vAcc>0.775594</vAcc></extensions></trkpt>
      <trkpt lon="-82.147871" lat="33.554399"><ele>96.893840</ele><time>2023-08-21T11:27:21Z</time><extensions><speed>1.542141</speed><course>266.866161</course><hAcc>2.480802</hAcc><vAcc>0.771779</vAcc></extensions></trkpt>
      <trkpt lon="-82.147886" lat="33.554397"><ele>96.975041</ele><time>2023-08-21T11:27:22Z</time><extensions><speed>1.254754</speed><course>259.619873</course><hAcc>2.458932</hAcc><vAcc>0.768465</vAcc></extensions></trkpt>
      <trkpt lon="-82.147899" lat="33.554393"><ele>97.058356</ele><time>2023-08-21T11:27:23Z</time><extensions><speed>1.261301</speed><course>238.383250</course><hAcc>2.424685</hAcc><vAcc>0.765676</vAcc></extensions></trkpt>
      <trkpt lon="-82.147913" lat="33.554387"><ele>97.138669</ele><time>2023-08-21T11:27:24Z</time><extensions><speed>1.469171</speed><course>239.159711</course><hAcc>2.418230</hAcc><vAcc>0.763398</vAcc></extensions></trkpt>
      <trkpt lon="-82.147926" lat="33.554381"><ele>97.229246</ele><time>2023-08-21T11:27:25Z</time><extensions><speed>1.293736</speed><course>238.759740</course><hAcc>2.444947</hAcc><vAcc>0.761589</vAcc></extensions></trkpt>
      <trkpt lon="-82.147938" lat="33.554375"><ele>97.319183</ele><time>2023-08-21T11:27:26Z</time><extensions><speed>1.236717</speed><course>244.393862</course><hAcc>2.465320</hAcc><vAcc>0.760192</vAcc></extensions></trkpt>
      <trkpt lon="-82.147951" lat="33.554371"><ele>97.410405</ele><time>2023-08-21T11:27:27Z</time><extensions><speed>1.202523</speed><course>253.059734</course><hAcc>2.492932</hAcc><vAcc>0.759141</vAcc></extensions></trkpt>
      <trkpt lon="-82.147964" lat="33.554368"><ele>97.501981</ele><time>2023-08-21T11:27:28Z</time><extensions><speed>1.217511</speed><course>256.053414</course><hAcc>2.476717</hAcc><vAcc>0.758371</vAcc></extensions></trkpt>
      <trkpt lon="-82.147977" lat="33.554365"><ele>97.592733</ele><time>2023-08-21T11:27:29Z</time><extensions><speed>1.188545</speed><course>253.219893</course><hAcc>2.470102</hAcc><vAcc>0.757824</vAcc></extensions></trkpt>
      <trkpt lon="-82.147990" lat="33.554361"><ele>97.691108</ele><time>2023-08-21T11:27:30Z</time><extensions><speed>1.220891</speed><course>244.598721</course><hAcc>2.490494</hAcc><vAcc>0.757446</vAcc></extensions></trkpt>
      <trkpt lon="-82.148003" lat="33.554356"><ele>97.785119</ele><time>2023-08-21T11:27:31Z</time><extensions><speed>1.385746</speed><course>245.205392</course><hAcc>2.516580</hAcc><vAcc>0.757192</vAcc></extensions></trkpt>
      <trkpt lon="-82.148018" lat="33.554351"><ele>97.882124</ele><time>2023-08-21T11:27:32Z</time><extensions><speed>1.509872</speed><course>248.759920</course><hAcc>2.556323</hAcc><vAcc>0.757028</vAcc></extensions></trkpt>
      <trkpt lon="-82.148033" lat="33.554348"><ele>97.976136</ele><time>2023-08-21T11:27:33Z</time><extensions><speed>1.443431</speed><course>254.822601</course><hAcc>2.603371</hAcc><vAcc>0.756926</vAcc></extensions></trkpt>
      <trkpt lon="-82.148049" lat="33.554345"><ele>98.064542</ele><time>2023-08-21T11:27:34Z</time><extensions><speed>1.475417</speed><course>260.113079</course><hAcc>2.627755</hAcc><vAcc>0.756865</vAcc></extensions></trkpt>
      <trkpt lon="-82.148065" lat="33.554343"><ele>98.153537</ele><time>2023-08-21T11:27:35Z</time><extensions><speed>1.584347</speed><course>260.691159</course><hAcc>2.654575</hAcc><vAcc>0.758472</vAcc></extensions></trkpt>
      <trkpt lon="-82.148083" lat="33.554341"><ele>98.244283</ele><time>2023-08-21T11:27:36Z</time><extensions><speed>1.744326</speed><course>259.180208</course><hAcc>2.626918</hAcc><vAcc>0.759168</vAcc></extensions></trkpt>
      <trkpt lon="-82.148101" lat="33.554338"><ele>98.330830</ele><time>2023-08-21T11:27:37Z</time><extensions><speed>1.758006</speed><course>256.222337</course><hAcc>2.605673</hAcc><vAcc>0.760003</vAcc></extensions></trkpt>
      <trkpt lon="-82.148120" lat="33.554334"><ele>98.419496</ele><time>2023-08-21T11:27:38Z</time><extensions><speed>1.819070</speed><course>254.307339</course><hAcc>2.605380</hAcc><vAcc>0.760976</vAcc></extensions></trkpt>
      <trkpt lon="-82.148139" lat="33.554330"><ele>98.508371</ele><time>2023-08-21T11:27:39Z</time><extensions><speed>1.846398</speed><course>253.499652</course><hAcc>2.599830</hAcc><vAcc>0.762070</vAcc></extensions></trkpt>
      <trkpt lon="-82.148158" lat="33.554325"><ele>98.593401</ele><time>2023-08-21T11:27:40Z</time><extensions><speed>1.795682</speed><course>256.564268</course><hAcc>2.597628</hAcc><vAcc>0.763257</vAcc></extensions></trkpt>
      <trkpt lon="-82.148177" lat="33.554322"><ele>98.678471</ele><time>2023-08-21T11:27:41Z</time><extensions><speed>1.659254</speed><course>262.858351</course><hAcc>2.608288</hAcc><vAcc>0.764480</vAcc></extensions></trkpt>
      <trkpt lon="-82.148195" lat="33.554322"><ele>98.760788</ele><time>2023-08-21T11:27:42Z</time><extensions><speed>1.641089</speed><course>272.463667</course><hAcc>2.626397</hAcc><vAcc>0.765656</vAcc></extensions></trkpt>
      <trkpt lon="-82.148214" lat="33.554323"><ele>98.840209</ele><time>2023-08-21T11:27:43Z</time><extensions><speed>1.869964</speed><course>279.110944</course><hAcc>2.604865</hAcc><vAcc>0.766662</vAcc></extensions></trkpt>
      <trkpt lon="-82.148234" lat="33.554325"><ele>98.922697</ele><time>2023-08-21T11:27:44Z</time><extensions><speed>1.837039</speed><course>279.642059</course><hAcc>2.579596</hAcc><vAcc>0.767346</vAcc></extensions></trkpt>
      <trkpt lon="-82.148253" lat="33.554327"><ele>98.990774</ele><time>2023-08-21T11:27:45Z</time><extensions><speed>1.590459</speed><course>272.577082</course><hAcc>2.576670</hAcc><vAcc>0.767528</vAcc></extensions></trkpt>
      <trkpt lon="-82.148268" lat="33.554326"><ele>99.053168</ele><time>2023-08-21T11:27:46Z</time><extensions><speed>1.276778</speed><course>260.884120</course><hAcc>2.587394</hAcc><vAcc>0.767120</vAcc></extensions></trkpt>
      <trkpt lon="-82.148282" lat="33.554322"><ele>99.108857</ele><time>2023-08-21T11:27:47Z</time><extensions><speed>1.184474</speed><course>250.027155</course><hAcc>2.567285</hAcc><vAcc>0.767891</vAcc></extensions></trkpt>
      <trkpt lon="-82.148294" lat="33.554318"><ele>99.157653</ele><time>2023-08-21T11:27:48Z</time><extensions><speed>1.335905</speed><course>244.573588</course><hAcc>2.545979</hAcc><vAcc>0.769418</vAcc></extensions></trkpt>
      <trkpt lon="-82.148307" lat="33.554312"><ele>99.190356</ele><time>2023-08-21T11:27:49Z</time><extensions><speed>1.331592</speed><course>242.775235</course><hAcc>2.523122</hAcc><vAcc>0.769711</vAcc></extensions></trkpt>
      <trkpt lon="-82.148320" lat="33.554306"><ele>99.205545</ele><time>2023-08-21T11:27:50Z</time><extensions><speed>1.335013</speed><course>244.525645</course><hAcc>2.533357</hAcc><vAcc>0.770271</vAcc></extensions></trkpt>
      <trkpt lon="-82.148332" lat="33.554301"><ele>99.205633</ele><time>2023-08-21T11:27:51Z</time><extensions><speed>1.162333</speed><course>244.154138</course><hAcc>2.553057</hAcc><vAcc>0.771176</vAcc></extensions></trkpt>
      <trkpt lon="-82.148344" lat="33.554296"><ele>99.181291</ele><time>2023-08-21T11:27:52Z</time><extensions><speed>1.258555</speed><course>238.769855</course><hAcc>2.543840</hAcc><vAcc>0.772436</vAcc></extensions></trkpt>
      <trkpt lon="-82.148356" lat="33.554289"><ele>99.132519</ele><time>2023-08-21T11:27:53Z</time><extensions><speed>1.319102</speed><course>233.994320</course><hAcc>2.552111</hAcc><vAcc>0.773989</vAcc></extensions></trkpt>
      <trkpt lon="-82.148369" lat="33.554282"><ele>99.076552</ele><time>2023-08-21T11:27:54Z</time><extensions><speed>1.586601</speed><course>237.563894</course><hAcc>2.531942</hAcc><vAcc>0.775696</vAcc></extensions></trkpt>
      <trkpt lon="-82.148385" lat="33.554274"><ele>99.024589</ele><time>2023-08-21T11:27:55Z</time><extensions><speed>1.907976</speed><course>237.199584</course><hAcc>2.536710</hAcc><vAcc>0.783357</vAcc></extensions></trkpt>
      <trkpt lon="-82.148401" lat="33.554264"><ele>98.961641</ele><time>2023-08-21T11:27:56Z</time><extensions><speed>1.945771</speed><course>228.961257</course><hAcc>2.563493</hAcc><vAcc>0.794475</vAcc></extensions></trkpt>
      <trkpt lon="-82.148415" lat="33.554251"><ele>98.889086</ele><time>2023-08-21T11:27:57Z</time><extensions><speed>1.710637</speed><course>215.294064</course><hAcc>2.613496</hAcc><vAcc>0.810743</vAcc></extensions></trkpt>
      <trkpt lon="-82.148423" lat="33.554238"><ele>98.808435</ele><time>2023-08-21T11:27:58Z</time><extensions><speed>1.680850</speed><course>201.250131</course><hAcc>2.671852</hAcc><vAcc>0.834592</vAcc></extensions></trkpt>
      <trkpt lon="-82.148429" lat="33.554222"><ele>98.721231</ele><time>2023-08-21T11:27:59Z</time><extensions><speed>1.951397</speed><course>192.660395</course><hAcc>2.736230</hAcc><vAcc>0.869395</vAcc></extensions></trkpt>
      <trkpt lon="-82.148434" lat="33.554205"><ele>98.629062</ele><time>2023-08-21T11:28:00Z</time><extensions><speed>2.031391</speed><course>198.091438</course><hAcc>2.829377</hAcc><vAcc>0.919243</vAcc></extensions></trkpt>
      <trkpt lon="-82.148443" lat="33.554189"><ele>98.533572</ele><time>2023-08-21T11:28:01Z</time><extensions><speed>1.912184</speed><course>211.686975</course><hAcc>2.941946</hAcc><vAcc>0.988274</vAcc></extensions></trkpt>
      <trkpt lon="-82.148455" lat="33.554177"><ele>98.436348</ele><time>2023-08-21T11:28:02Z</time><extensions><speed>1.566802</speed><course>230.591809</course><hAcc>3.072143</hAcc><vAcc>1.080021</vAcc></extensions></trkpt>
      <trkpt lon="-82.148469" lat="33.554170"><ele>98.338705</ele><time>2023-08-21T11:28:03Z</time><extensions><speed>1.489768</speed><course>245.247188</course><hAcc>3.224688</hAcc><vAcc>1.196985</vAcc></extensions></trkpt>
      <trkpt lon="-82.148484" lat="33.554165"><ele>98.241368</ele><time>2023-08-21T11:28:04Z</time><extensions><speed>1.483999</speed><course>250.155187</course><hAcc>3.378833</hAcc><vAcc>1.340443</vAcc></extensions></trkpt>
    </trkseg>
  </trk>
</gpx>