<?xml version="1.0" encoding="UTF-8"?>
<gpx version="1.1" creator="Apple Health Export" xmlns="http://www.topografix.com/GPX/1/1" xmlns:xsi="http://www.w3.org/2001/XMLSchema-instance" xsi:schemaLocation="http://www.topografix.com/GPX/1/1 http://www.topografix.com/GPX/1/1/gpx.xsd">
  <metadata>
    <time>2026-03-14T12:16:00Z</time>
  </metadata>
  <trk>
    <name>Route 2022-06-18 1:28pm</name>
    <trkseg>
      <trkpt lon="-82.311088" lat="35.643048"><ele>798.343384</ele><time>2022-06-18T17:28:06Z</time><extensions><speed>0.260000</speed><course>142.734375</course><hAcc>10.000000</hAcc><vAcc>6.000000</vAcc></extensions></trkpt>
      <trkpt lon="-82.311070" lat="35.643094"><ele>798.499634</ele><time>2022-06-18T17:28:06Z</time><extensions><speed>0.200000</speed><course>142.734375</course><hAcc>10.000000</hAcc><vAcc>6.000000</vAcc></extensions></trkpt>
      <trkpt lon="-82.311070" lat="35.643094"><ele>798.640259</ele><time>2022-06-18T17:28:06Z</time><extensions><speed>0.000000</speed><course>142.734375</course><hAcc>10.000000</hAcc><vAcc>6.000000</vAcc></extensions></trkpt>
      <trkpt lon="-82.311070" lat="35.643094"><ele>798.716309</ele><time>2022-06-18T17:28:07Z</time><extensions><speed>0.000000</speed><course>142.734375</course><hAcc>10.000000</hAcc><vAcc>6.000000</vAcc></extensions></trkpt>
      <trkpt lon="-82.311070" lat="35.643094"><ele>798.787109</ele><time>2022-06-18T17:28:08Z</time><extensions><speed>0.000000</speed><course>142.734375</course><hAcc>10.000000</hAcc><vAcc>6.000000</vAcc></extensions></trkpt>
    </trkseg>
  </trk>
</gpx>