<?xml version="1.0" encoding="UTF-8"?>
<gpx version="1.1" creator="Apple Health Export" xmlns="http://www.topografix.com/GPX/1/1" xmlns:xsi="http://www.w3.org/2001/XMLSchema-instance" xsi:schemaLocation="http://www.topografix.com/GPX/1/1 http://www.topografix.com/GPX/1/1/gpx.xsd">
  <metadata>
    <time>2026-03-14T12:16:43Z</time>
  </metadata>
  <trk>
    <name>Route 2024-11-07 9:01am</name>
    <trkseg>
      <trkpt lon="-82.145962" lat="33.556903"><ele>82.019735</ele><time>2024-11-07T14:01:36Z</time><extensions><speed>1.137055</speed><course>21.104926</course><hAcc>23.998740</hAcc><vAcc>4.498514</vAcc></extensions></trkpt>
      <trkpt lon="-82.145961" lat="33.556919"><ele>81.922978</ele><time>2024-11-07T14:01:37Z</time><extensions><speed>1.227770</speed><course>9.427437</course><hAcc>23.998740</hAcc><vAcc>4.500358</vAcc></extensions></trkpt>
      <trkpt lon="-82.145958" lat="33.556933"><ele>81.825194</ele><time>2024-11-07T14:01:38Z</time><extensions><speed>1.227770</speed><course>11.914135</course><hAcc>23.998740</hAcc><vAcc>4.494432</vAcc></extensions></trkpt>
      <trkpt lon="-82.145976" lat="33.556965"><ele>81.704500</ele><time>2024-11-07T14:01:39Z</time><extensions><speed>1.227770</speed><course>328.383911</course><hAcc>23.998740</hAcc><vAcc>4.481301</vAcc></extensions></trkpt>
    </trkseg>
  </trk>
</gpx>