<?xml version="1.0" encoding="UTF-8"?>
<gpx version="1.1" creator="Apple Health Export" xmlns="http://www.topografix.com/GPX/1/1" xmlns:xsi="http://www.w3.org/2001/XMLSchema-instance" xsi:schemaLocation="http://www.topografix.com/GPX/1/1 http://www.topografix.com/GPX/1/1/gpx.xsd">
  <metadata>
    <time>2026-03-14T12:15:42Z</time>
  </metadata>
  <trk>
    <name>Route 2021-09-02 9:21am</name>
    <trkseg>
      <trkpt lon="-82.147603" lat="33.554623"><ele>97.197594</ele><time>2021-09-02T13:15:35Z</time><extensions><speed>0.085211</speed><course>153.281250</course><hAcc>2.339482</hAcc><vAcc>1.641668</vAcc></extensions></trkpt>
      <trkpt lon="-82.147603" lat="33.554622"><ele>97.216972</ele><time>2021-09-02T13:15:36Z</time><extensions><speed>0.085534</speed><course>153.281250</course><hAcc>2.099582</hAcc><vAcc>1.471669</vAcc></extensions></trkpt>
      <trkpt lon="-82.147602" lat="33.554622"><ele>97.236000</ele><time>2021-09-02T13:15:37Z</time><extensions><speed>0.086713</speed><course>176.835938</course><hAcc>1.899446</hAcc><vAcc>1.329610</vAcc></extensions></trkpt>
      <trkpt lon="-82.147601" lat="33.554621"><ele>97.254425</ele><time>2021-09-02T13:15:38Z</time><extensions><speed>0.089364</speed><course>91.054688</course><hAcc>1.737367</hAcc><vAcc>1.214276</vAcc></extensions></trkpt>
      <trkpt lon="-82.147600" lat="33.554621"><ele>97.271835</ele><time>2021-09-02T13:15:39Z</time><extensions><speed>0.094628</speed><course>91.054688</course><hAcc>1.611033</hAcc><vAcc>1.124044</vAcc></extensions></trkpt>
      <trkpt lon="-82.147599" lat="33.554620"><ele>97.287148</ele><time>2021-09-02T13:15:40Z</time><extensions><speed>0.103722</speed><course>91.054688</course><hAcc>1.519714</hAcc><vAcc>1.058478</vAcc></extensions></trkpt>
      <trkpt lon="-82.147598" lat="33.554620"><ele>97.299934</ele><time>2021-09-02T13:15:41Z</time><extensions><speed>0.118665</speed><course>91.054688</course><hAcc>1.456157</hAcc><vAcc>1.012518</vAcc></extensions></trkpt>
      <trkpt lon="-82.147597" lat="33.554620"><ele>97.309227</ele><time>2021-09-02T13:15:42Z</time><extensions><speed>0.141114</speed><course>235.195312</course><hAcc>1.414843</hAcc><vAcc>0.982371</vAcc></extensions></trkpt>
      <trkpt lon="-82.147595" lat="33.554620"><ele>97.313988</ele><time>2021-09-02T13:15:43Z</time><extensions><speed>0.171140</speed><course>201.796875</course><hAcc>1.390507</hAcc><vAcc>0.964408</vAcc></extensions></trkpt>
      <trkpt lon="-82.147593" lat="33.554620"><ele>97.313110</ele><time>2021-09-02T13:15:44Z</time><extensions><speed>0.211471</speed><course>188.437500</course><hAcc>1.377184</hAcc><vAcc>0.954415</vAcc></extensions></trkpt>
      <trkpt lon="-82.147591" lat="33.554620"><ele>97.305260</ele><time>2021-09-02T13:15:45Z</time><extensions><speed>0.259717</speed><course>188.437500</course><hAcc>1.371144</hAcc><vAcc>0.949789</vAcc></extensions></trkpt>
      <trkpt lon="-82.147588" lat="33.554621"><ele>97.289284</ele><time>2021-09-02T13:15:46Z</time><extensions><speed>0.316173</speed><course>271.054688</course><hAcc>1.369267</hAcc><vAcc>0.948365</vAcc></extensions></trkpt>
      <trkpt lon="-82.147584" lat="33.554622"><ele>97.264313</ele><time>2021-09-02T13:15:47Z</time><extensions><speed>0.379181</speed><course>92.460938</course><hAcc>1.369478</hAcc><vAcc>0.948753</vAcc></extensions></trkpt>
      <trkpt lon="-82.147580" lat="33.554624"><ele>97.229950</ele><time>2021-09-02T13:15:48Z</time><extensions><speed>0.446747</speed><course>58.359375</course><hAcc>1.370560</hAcc><vAcc>0.950156</vAcc></extensions></trkpt>
      <trkpt lon="-82.147575" lat="33.554625"><ele>97.185936</ele><time>2021-09-02T13:15:49Z</time><extensions><speed>0.518258</speed><course>74.882812</course><hAcc>1.371713</hAcc><vAcc>0.951994</vAcc></extensions></trkpt>
      <trkpt lon="-82.147570" lat="33.554628"><ele>97.133385</ele><time>2021-09-02T13:15:50Z</time><extensions><speed>0.590753</speed><course>67.851562</course><hAcc>1.372471</hAcc><vAcc>0.953816</vAcc></extensions></trkpt>
      <trkpt lon="-82.147564" lat="33.554630"><ele>97.073006</ele><time>2021-09-02T13:15:51Z</time><extensions><speed>0.663828</speed><course>68.554688</course><hAcc>1.372705</hAcc><vAcc>0.955413</vAcc></extensions></trkpt>
      <trkpt lon="-82.147558" lat="33.554634"><ele>97.005302</ele><time>2021-09-02T13:15:52Z</time><extensions><speed>0.737338</speed><course>61.171875</course><hAcc>1.372234</hAcc><vAcc>0.956561</vAcc></extensions></trkpt>
      <trkpt lon="-82.147551" lat="33.554637"><ele>96.932076</ele><time>2021-09-02T13:15:53Z</time><extensions><speed>0.808545</speed><course>65.039062</course><hAcc>1.371053</hAcc><vAcc>0.957158</vAcc></extensions></trkpt>
      <trkpt lon="-82.147543" lat="33.554641"><ele>96.854736</ele><time>2021-09-02T13:15:54Z</time><extensions><speed>0.875924</speed><course>45.703125</course><hAcc>1.369451</hAcc><vAcc>0.957348</vAcc></extensions></trkpt>
      <trkpt lon="-82.147535" lat="33.554646"><ele>96.774132</ele><time>2021-09-02T13:15:55Z</time><extensions><speed>0.938821</speed><course>46.757812</course><hAcc>1.367716</hAcc><vAcc>0.957304</vAcc></extensions></trkpt>
      <trkpt lon="-82.147526" lat="33.554651"><ele>96.690208</ele><time>2021-09-02T13:15:56Z</time><extensions><speed>0.997582</speed><course>45.000000</course><hAcc>1.365885</hAcc><vAcc>0.957045</vAcc></extensions></trkpt>
      <trkpt lon="-82.147517" lat="33.554656"><ele>96.604370</ele><time>2021-09-02T13:15:57Z</time><extensions><speed>1.050387</speed><course>47.460938</course><hAcc>1.363944</hAcc><vAcc>0.956544</vAcc></extensions></trkpt>
      <trkpt lon="-82.147508" lat="33.554662"><ele>96.518211</ele><time>2021-09-02T13:15:58Z</time><extensions><speed>1.095724</speed><course>41.132812</course><hAcc>1.362119</hAcc><vAcc>0.955962</vAcc></extensions></trkpt>
      <trkpt lon="-82.147498" lat="33.554668"><ele>96.431602</ele><time>2021-09-02T13:15:59Z</time><extensions><speed>1.134407</speed><course>50.976562</course><hAcc>1.360558</hAcc><vAcc>0.955425</vAcc></extensions></trkpt>
      <trkpt lon="-82.147488" lat="33.554674"><ele>96.345093</ele><time>2021-09-02T13:16:00Z</time><extensions><speed>1.166581</speed><course>61.875000</course><hAcc>1.359247</hAcc><vAcc>0.954938</vAcc></extensions></trkpt>
      <trkpt lon="-82.147478" lat="33.554681"><ele>96.257874</ele><time>2021-09-02T13:16:01Z</time><extensions><speed>1.193191</speed><course>49.218750</course><hAcc>1.357901</hAcc><vAcc>0.954323</vAcc></extensions></trkpt>
      <trkpt lon="-82.147468" lat="33.554687"><ele>96.173279</ele><time>2021-09-02T13:16:02Z</time><extensions><speed>1.212612</speed><course>60.820312</course><hAcc>1.356673</hAcc><vAcc>0.953700</vAcc></extensions></trkpt>
      <trkpt lon="-82.147458" lat="33.554694"><ele>96.088982</ele><time>2021-09-02T13:16:03Z</time><extensions><speed>1.226315</speed><course>60.468750</course><hAcc>1.355836</hAcc><vAcc>0.953294</vAcc></extensions></trkpt>
      <trkpt lon="-82.147447" lat="33.554701"><ele>96.004112</ele><time>2021-09-02T13:16:04Z</time><extensions><speed>1.234577</speed><course>59.765625</course><hAcc>1.355202</hAcc><vAcc>0.952993</vAcc></extensions></trkpt>
      <trkpt lon="-82.147437" lat="33.554708"><ele>95.919144</ele><time>2021-09-02T13:16:05Z</time><extensions><speed>1.237651</speed><course>47.109375</course><hAcc>1.354721</hAcc><vAcc>0.952785</vAcc></extensions></trkpt>
      <trkpt lon="-82.147426" lat="33.554715"><ele>95.832336</ele><time>2021-09-02T13:16:06Z</time><extensions><speed>1.236255</speed><course>37.617188</course><hAcc>1.354346</hAcc><vAcc>0.952663</vAcc></extensions></trkpt>
      <trkpt lon="-82.147416" lat="33.554722"><ele>95.744690</ele><time>2021-09-02T13:16:07Z</time><extensions><speed>1.231237</speed><course>36.914062</course><hAcc>1.354123</hAcc><vAcc>0.952681</vAcc></extensions></trkpt>
      <trkpt lon="-82.147406" lat="33.554729"><ele>95.654175</ele><time>2021-09-02T13:16:08Z</time><extensions><speed>1.223248</speed><course>43.242188</course><hAcc>1.354024</hAcc><vAcc>0.952854</vAcc></extensions></trkpt>
      <trkpt lon="-82.147395" lat="33.554735"><ele>95.562988</ele><time>2021-09-02T13:16:09Z</time><extensions><speed>1.213564</speed><course>38.671875</course><hAcc>1.354067</hAcc><vAcc>0.953215</vAcc></extensions></trkpt>
      <trkpt lon="-82.147385" lat="33.554742"><ele>95.470879</ele><time>2021-09-02T13:16:10Z</time><extensions><speed>1.203052</speed><course>35.859375</course><hAcc>1.354530</hAcc><vAcc>0.953989</vAcc></extensions></trkpt>
      <trkpt lon="-82.147375" lat="33.554749"><ele>95.376015</ele><time>2021-09-02T13:16:11Z</time><extensions><speed>1.191910</speed><course>35.859375</course><hAcc>1.355213</hAcc><vAcc>0.955078</vAcc></extensions></trkpt>
      <trkpt lon="-82.147365" lat="33.554756"><ele>95.281776</ele><time>2021-09-02T13:16:12Z</time><extensions><speed>1.181211</speed><course>51.328125</course><hAcc>1.356019</hAcc><vAcc>0.956423</vAcc></extensions></trkpt>
      <trkpt lon="-82.147356" lat="33.554763"><ele>95.187035</ele><time>2021-09-02T13:16:13Z</time><extensions><speed>1.170900</speed><course>55.546875</course><hAcc>1.357171</hAcc><vAcc>0.958210</vAcc></extensions></trkpt>
      <trkpt lon="-82.147346" lat="33.554769"><ele>95.091171</ele><time>2021-09-02T13:16:14Z</time><extensions><speed>1.161077</speed><course>61.523438</course><hAcc>1.358560</hAcc><vAcc>0.960384</vAcc></extensions></trkpt>
      <trkpt lon="-82.147336" lat="33.554776"><ele>94.995056</ele><time>2021-09-02T13:16:15Z</time><extensions><speed>1.151862</speed><course>47.109375</course><hAcc>1.360123</hAcc><vAcc>0.962890</vAcc></extensions></trkpt>
      <trkpt lon="-82.147327" lat="33.554783"><ele>94.898186</ele><time>2021-09-02T13:16:16Z</time><extensions><speed>1.142797</speed><course>40.429688</course><hAcc>1.361927</hAcc><vAcc>0.965757</vAcc></extensions></trkpt>
      <trkpt lon="-82.147318" lat="33.554790"><ele>94.799965</ele><time>2021-09-02T13:16:17Z</time><extensions><speed>1.133505</speed><course>52.382812</course><hAcc>1.363901</hAcc><vAcc>0.968899</vAcc></extensions></trkpt>
      <trkpt lon="-82.147309" lat="33.554796"><ele>94.700546</ele><time>2021-09-02T13:16:18Z</time><extensions><speed>1.124022</speed><course>30.585938</course><hAcc>1.365897</hAcc><vAcc>0.972135</vAcc></extensions></trkpt>
      <trkpt lon="-82.147300" lat="33.554803"><ele>94.600983</ele><time>2021-09-02T13:16:19Z</time><extensions><speed>1.114796</speed><course>33.046875</course><hAcc>1.367893</hAcc><vAcc>0.975325</vAcc></extensions></trkpt>
      <trkpt lon="-82.147292" lat="33.554810"><ele>94.499855</ele><time>2021-09-02T13:16:20Z</time><extensions><speed>1.105862</speed><course>47.812500</course><hAcc>1.369730</hAcc><vAcc>0.978239</vAcc></extensions></trkpt>
      <trkpt lon="-82.147283" lat="33.554818"><ele>94.399506</ele><time>2021-09-02T13:16:21Z</time><extensions><speed>1.097877</speed><course>37.265625</course><hAcc>1.371141</hAcc><vAcc>0.980475</vAcc></extensions></trkpt>
      <trkpt lon="-82.147275" lat="33.554825"><ele>94.299789</ele><time>2021-09-02T13:16:22Z</time><extensions><speed>1.091052</speed><course>17.929688</course><hAcc>1.372052</hAcc><vAcc>0.981785</vAcc></extensions></trkpt>
      <trkpt lon="-82.147267" lat="33.554832"><ele>94.200745</ele><time>2021-09-02T13:16:23Z</time><extensions><speed>1.085680</speed><course>27.773438</course><hAcc>1.372202</hAcc><vAcc>0.981784</vAcc></extensions></trkpt>
      <trkpt lon="-82.147260" lat="33.554839"><ele>94.102997</ele><time>2021-09-02T13:16:24Z</time><extensions><speed>1.082011</speed><course>27.070312</course><hAcc>1.371365</hAcc><vAcc>0.980200</vAcc></extensions></trkpt>
      <trkpt lon="-82.147253" lat="33.554847"><ele>94.007523</ele><time>2021-09-02T13:16:25Z</time><extensions><speed>1.080096</speed><course>45.000000</course><hAcc>1.369583</hAcc><vAcc>0.977102</vAcc></extensions></trkpt>
      <trkpt lon="-82.147245" lat="33.554855"><ele>93.914520</ele><time>2021-09-02T13:16:26Z</time><extensions><speed>1.079885</speed><course>56.601562</course><hAcc>1.367057</hAcc><vAcc>0.972768</vAcc></extensions></trkpt>
      <trkpt lon="-82.147238" lat="33.554863"><ele>93.823662</ele><time>2021-09-02T13:16:27Z</time><extensions><speed>1.081318</speed><course>49.218750</course><hAcc>1.363815</hAcc><vAcc>0.967342</vAcc></extensions></trkpt>
      <trkpt lon="-82.147232" lat="33.554871"><ele>93.736832</ele><time>2021-09-02T13:16:28Z</time><extensions><speed>1.084082</speed><course>34.453125</course><hAcc>1.360081</hAcc><vAcc>0.961167</vAcc></extensions></trkpt>
      <trkpt lon="-82.147225" lat="33.554879"><ele>93.654350</ele><time>2021-09-02T13:16:29Z</time><extensions><speed>1.087778</speed><course>28.125000</course><hAcc>1.356256</hAcc><vAcc>0.954638</vAcc></extensions></trkpt>
      <trkpt lon="-82.147219" lat="33.554887"><ele>93.575661</ele><time>2021-09-02T13:16:30Z</time><extensions><speed>1.092014</speed><course>22.148438</course><hAcc>1.352412</hAcc><vAcc>0.947836</vAcc></extensions></trkpt>
      <trkpt lon="-82.147213" lat="33.554895"><ele>93.501778</ele><time>2021-09-02T13:16:31Z</time><extensions><speed>1.096148</speed><course>22.851562</course><hAcc>1.348532</hAcc><vAcc>0.940836</vAcc></extensions></trkpt>
      <trkpt lon="-82.147207" lat="33.554904"><ele>93.433067</ele><time>2021-09-02T13:16:32Z</time><extensions><speed>1.099689</speed><course>22.148438</course><hAcc>1.344635</hAcc><vAcc>0.933715</vAcc></extensions></trkpt>
      <trkpt lon="-82.147201" lat="33.554913"><ele>93.369728</ele><time>2021-09-02T13:16:33Z</time><extensions><speed>1.102312</speed><course>24.960938</course><hAcc>1.340666</hAcc><vAcc>0.926499</vAcc></extensions></trkpt>
      <trkpt lon="-82.147195" lat="33.554921"><ele>93.312584</ele><time>2021-09-02T13:16:34Z</time><extensions><speed>1.103733</speed><course>26.367188</course><hAcc>1.336702</hAcc><vAcc>0.919371</vAcc></extensions></trkpt>
      <trkpt lon="-82.147190" lat="33.554930"><ele>93.261871</ele><time>2021-09-02T13:16:35Z</time><extensions><speed>1.103802</speed><course>26.015625</course><hAcc>1.332925</hAcc><vAcc>0.912552</vAcc></extensions></trkpt>
      <trkpt lon="-82.147184" lat="33.554939"><ele>93.217499</ele><time>2021-09-02T13:16:36Z</time><extensions><speed>1.102535</speed><course>24.960938</course><hAcc>1.329380</hAcc><vAcc>0.906103</vAcc></extensions></trkpt>
      <trkpt lon="-82.147179" lat="33.554948"><ele>93.179695</ele><time>2021-09-02T13:16:37Z</time><extensions><speed>1.100160</speed><course>38.671875</course><hAcc>1.325955</hAcc><vAcc>0.899963</vAcc></extensions></trkpt>
      <trkpt lon="-82.147174" lat="33.554957"><ele>93.149467</ele><time>2021-09-02T13:16:38Z</time><extensions><speed>1.097242</speed><course>32.343750</course><hAcc>1.322969</hAcc><vAcc>0.894433</vAcc></extensions></trkpt>
      <trkpt lon="-82.147169" lat="33.554966"><ele>93.125694</ele><time>2021-09-02T13:16:39Z</time><extensions><speed>1.093915</speed><course>39.023438</course><hAcc>1.320197</hAcc><vAcc>0.889155</vAcc></extensions></trkpt>
      <trkpt lon="-82.147163" lat="33.554975"><ele>93.109352</ele><time>2021-09-02T13:16:40Z</time><extensions><speed>1.090616</speed><course>17.578125</course><hAcc>1.317419</hAcc><vAcc>0.884078</vAcc></extensions></trkpt>
      <trkpt lon="-82.147158" lat="33.554983"><ele>93.100090</ele><time>2021-09-02T13:16:41Z</time><extensions><speed>1.087569</speed><course>19.687500</course><hAcc>1.314891</hAcc><vAcc>0.879455</vAcc></extensions></trkpt>
      <trkpt lon="-82.147153" lat="33.554992"><ele>93.097328</ele><time>2021-09-02T13:16:42Z</time><extensions><speed>1.084965</speed><course>24.960938</course><hAcc>1.312614</hAcc><vAcc>0.875322</vAcc></extensions></trkpt>
      <trkpt lon="-82.147148" lat="33.555001"><ele>93.100449</ele><time>2021-09-02T13:16:43Z</time><extensions><speed>1.083207</speed><course>10.898438</course><hAcc>1.310714</hAcc><vAcc>0.871865</vAcc></extensions></trkpt>
      <trkpt lon="-82.147143" lat="33.555010"><ele>93.108582</ele><time>2021-09-02T13:16:44Z</time><extensions><speed>1.082570</speed><course>41.484375</course><hAcc>1.309352</hAcc><vAcc>0.869205</vAcc></extensions></trkpt>
      <trkpt lon="-82.147138" lat="33.555019"><ele>93.120964</ele><time>2021-09-02T13:16:45Z</time><extensions><speed>1.083375</speed><course>10.546875</course><hAcc>1.308468</hAcc><vAcc>0.867315</vAcc></extensions></trkpt>
      <trkpt lon="-82.147133" lat="33.555027"><ele>93.136917</ele><time>2021-09-02T13:16:46Z</time><extensions><speed>1.085863</speed><course>20.039062</course><hAcc>1.307797</hAcc><vAcc>0.866021</vAcc></extensions></trkpt>
      <trkpt lon="-82.147128" lat="33.555036"><ele>93.155045</ele><time>2021-09-02T13:16:47Z</time><extensions><speed>1.089906</speed><course>8.437500</course><hAcc>1.307435</hAcc><vAcc>0.865427</vAcc></extensions></trkpt>
      <trkpt lon="-82.147122" lat="33.555045"><ele>93.174919</ele><time>2021-09-02T13:16:48Z</time><extensions><speed>1.095682</speed><course>24.257812</course><hAcc>1.307498</hAcc><vAcc>0.865618</vAcc></extensions></trkpt>
      <trkpt lon="-82.147116" lat="33.555054"><ele>93.195518</ele><time>2021-09-02T13:16:49Z</time><extensions><speed>1.103082</speed><course>26.367188</course><hAcc>1.307916</hAcc><vAcc>0.866565</vAcc></extensions></trkpt>
      <trkpt lon="-82.147111" lat="33.555062"><ele>93.216286</ele><time>2021-09-02T13:16:50Z</time><extensions><speed>1.112198</speed><course>36.210938</course><hAcc>1.308735</hAcc><vAcc>0.868330</vAcc></extensions></trkpt>
      <trkpt lon="-82.147105" lat="33.555071"><ele>93.236359</ele><time>2021-09-02T13:16:51Z</time><extensions><speed>1.122534</speed><course>31.992188</course><hAcc>1.310001</hAcc><vAcc>0.870954</vAcc></extensions></trkpt>
      <trkpt lon="-82.147099" lat="33.555080"><ele>93.255264</ele><time>2021-09-02T13:16:52Z</time><extensions><speed>1.133606</speed><course>41.484375</course><hAcc>1.311858</hAcc><vAcc>0.874550</vAcc></extensions></trkpt>
      <trkpt lon="-82.147092" lat="33.555089"><ele>93.272751</ele><time>2021-09-02T13:16:53Z</time><extensions><speed>1.145240</speed><course>45.351562</course><hAcc>1.314261</hAcc><vAcc>0.879101</vAcc></extensions></trkpt>
      <trkpt lon="-82.147086" lat="33.555097"><ele>93.288239</ele><time>2021-09-02T13:16:54Z</time><extensions><speed>1.156997</speed><course>40.781250</course><hAcc>1.317189</hAcc><vAcc>0.884510</vAcc></extensions></trkpt>
      <trkpt lon="-82.147080" lat="33.555107"><ele>93.301628</ele><time>2021-09-02T13:16:55Z</time><extensions><speed>1.169448</speed><course>30.234375</course><hAcc>1.320606</hAcc><vAcc>0.890736</vAcc></extensions></trkpt>
      <trkpt lon="-82.147073" lat="33.555116"><ele>93.312370</ele><time>2021-09-02T13:16:56Z</time><extensions><speed>1.182570</speed><course>21.796875</course><hAcc>1.324132</hAcc><vAcc>0.897358</vAcc></extensions></trkpt>
      <trkpt lon="-82.147067" lat="33.555125"><ele>93.319962</ele><time>2021-09-02T13:16:57Z</time><extensions><speed>1.196079</speed><course>9.492188</course><hAcc>1.327626</hAcc><vAcc>0.904023</vAcc></extensions></trkpt>
      <trkpt lon="-82.147060" lat="33.555134"><ele>93.324226</ele><time>2021-09-02T13:16:58Z</time><extensions><speed>1.210335</speed><course>4.218750</course><hAcc>1.331042</hAcc><vAcc>0.910521</vAcc></extensions></trkpt>
      <trkpt lon="-82.147054" lat="33.555144"><ele>93.324913</ele><time>2021-09-02T13:16:59Z</time><extensions><speed>1.225148</speed><course>6.328125</course><hAcc>1.334171</hAcc><vAcc>0.916496</vAcc></extensions></trkpt>
      <trkpt lon="-82.147047" lat="33.555153"><ele>93.321960</ele><time>2021-09-02T13:17:00Z</time><extensions><speed>1.240231</speed><course>14.062500</course><hAcc>1.336993</hAcc><vAcc>0.921800</vAcc></extensions></trkpt>
      <trkpt lon="-82.147041" lat="33.555163"><ele>93.315247</ele><time>2021-09-02T13:17:01Z</time><extensions><speed>1.255869</speed><course>28.476562</course><hAcc>1.339391</hAcc><vAcc>0.926332</vAcc></extensions></trkpt>
      <trkpt lon="-82.147034" lat="33.555174"><ele>93.304855</ele><time>2021-09-02T13:17:02Z</time><extensions><speed>1.271351</speed><course>31.640625</course><hAcc>1.341193</hAcc><vAcc>0.929915</vAcc></extensions></trkpt>
      <trkpt lon="-82.147028" lat="33.555184"><ele>93.291100</ele><time>2021-09-02T13:17:03Z</time><extensions><speed>1.286199</speed><course>42.890625</course><hAcc>1.342666</hAcc><vAcc>0.932770</vAcc></extensions></trkpt>
      <trkpt lon="-82.147022" lat="33.555194"><ele>93.273933</ele><time>2021-09-02T13:17:04Z</time><extensions><speed>1.300909</speed><course>50.273438</course><hAcc>1.343924</hAcc><vAcc>0.935085</vAcc></extensions></trkpt>
      <trkpt lon="-82.147017" lat="33.555205"><ele>93.254028</ele><time>2021-09-02T13:17:05Z</time><extensions><speed>1.315046</speed><course>54.843750</course><hAcc>1.345026</hAcc><vAcc>0.936971</vAcc></extensions></trkpt>
      <trkpt lon="-82.147012" lat="33.555216"><ele>93.231445</ele><time>2021-09-02T13:17:06Z</time><extensions><speed>1.329382</speed><course>50.273438</course><hAcc>1.346046</hAcc><vAcc>0.938622</vAcc></extensions></trkpt>
      <trkpt lon="-82.147007" lat="33.555228"><ele>93.207024</ele><time>2021-09-02T13:17:07Z</time><extensions><speed>1.343737</speed><course>52.382812</course><hAcc>1.346888</hAcc><vAcc>0.940079</vAcc></extensions></trkpt>
      <trkpt lon="-82.147003" lat="33.555239"><ele>93.181839</ele><time>2021-09-02T13:17:08Z</time><extensions><speed>1.357894</speed><course>53.789062</course><hAcc>1.347811</hAcc><vAcc>0.941613</vAcc></extensions></trkpt>
      <trkpt lon="-82.147000" lat="33.555251"><ele>93.156082</ele><time>2021-09-02T13:17:09Z</time><extensions><speed>1.372958</speed><course>56.250000</course><hAcc>1.348771</hAcc><vAcc>0.943241</vAcc></extensions></trkpt>
      <trkpt lon="-82.146997" lat="33.555263"><ele>93.131508</ele><time>2021-09-02T13:17:10Z</time><extensions><speed>1.388423</speed><course>39.375000</course><hAcc>1.349659</hAcc><vAcc>0.944847</vAcc></extensions></trkpt>
      <trkpt lon="-82.146995" lat="33.555276"><ele>93.108818</ele><time>2021-09-02T13:17:11Z</time><extensions><speed>1.404785</speed><course>30.585938</course><hAcc>1.350710</hAcc><vAcc>0.946592</vAcc></extensions></trkpt>
      <trkpt lon="-82.146994" lat="33.555289"><ele>93.088631</ele><time>2021-09-02T13:17:12Z</time><extensions><speed>1.422690</speed><course>24.257812</course><hAcc>1.351854</hAcc><vAcc>0.948423</vAcc></extensions></trkpt>
      <trkpt lon="-82.146994" lat="33.555302"><ele>93.071640</ele><time>2021-09-02T13:17:13Z</time><extensions><speed>1.442280</speed><course>29.531250</course><hAcc>1.352927</hAcc><vAcc>0.950212</vAcc></extensions></trkpt>
      <trkpt lon="-82.146995" lat="33.555315"><ele>93.058228</ele><time>2021-09-02T13:17:14Z</time><extensions><speed>1.463426</speed><course>22.500000</course><hAcc>1.353813</hAcc><vAcc>0.951872</vAcc></extensions></trkpt>
      <trkpt lon="-82.146996" lat="33.555328"><ele>93.048767</ele><time>2021-09-02T13:17:15Z</time><extensions><speed>1.484531</speed><course>10.546875</course><hAcc>1.354686</hAcc><vAcc>0.953503</vAcc></extensions></trkpt>
      <trkpt lon="-82.146999" lat="33.555341"><ele>93.043045</ele><time>2021-09-02T13:17:16Z</time><extensions><speed>1.505843</speed><course>1.054688</course><hAcc>1.355579</hAcc><vAcc>0.955152</vAcc></extensions></trkpt>
      <trkpt lon="-82.147002" lat="33.555355"><ele>93.041222</ele><time>2021-09-02T13:17:17Z</time><extensions><speed>1.525036</speed><course>357.187500</course><hAcc>1.356354</hAcc><vAcc>0.956686</vAcc></extensions></trkpt>
      <trkpt lon="-82.147005" lat="33.555368"><ele>93.043182</ele><time>2021-09-02T13:17:18Z</time><extensions><speed>1.540860</speed><course>11.250000</course><hAcc>1.357216</hAcc><vAcc>0.958241</vAcc></extensions></trkpt>
      <trkpt lon="-82.147009" lat="33.555382"><ele>93.049019</ele><time>2021-09-02T13:17:19Z</time><extensions><speed>1.552215</speed><course>13.710938</course><hAcc>1.358122</hAcc><vAcc>0.959770</vAcc></extensions></trkpt>
      <trkpt lon="-82.147014" lat="33.555395"><ele>93.058876</ele><time>2021-09-02T13:17:20Z</time><extensions><speed>1.557683</speed><course>13.710938</course><hAcc>1.358945</hAcc><vAcc>0.961145</vAcc></extensions></trkpt>
      <trkpt lon="-82.147018" lat="33.555409"><ele>93.072952</ele><time>2021-09-02T13:17:21Z</time><extensions><speed>1.556603</speed><course>358.242188</course><hAcc>1.359623</hAcc><vAcc>0.962286</vAcc></extensions></trkpt>
      <trkpt lon="-82.147023" lat="33.555422"><ele>93.091064</ele><time>2021-09-02T13:17:22Z</time><extensions><speed>1.549088</speed><course>340.312500</course><hAcc>1.360216</hAcc><vAcc>0.963187</vAcc></extensions></trkpt>
      <trkpt lon="-82.147028" lat="33.555435"><ele>93.113594</ele><time>2021-09-02T13:17:23Z</time><extensions><speed>1.535362</speed><course>341.367188</course><hAcc>1.360650</hAcc><vAcc>0.963804</vAcc></extensions></trkpt>
      <trkpt lon="-82.147033" lat="33.555449"><ele>93.140091</ele><time>2021-09-02T13:17:24Z</time><extensions><speed>1.517033</speed><course>349.101562</course><hAcc>1.360782</hAcc><vAcc>0.964100</vAcc></extensions></trkpt>
      <trkpt lon="-82.147038" lat="33.555461"><ele>93.169914</ele><time>2021-09-02T13:17:25Z</time><extensions><speed>1.496172</speed><course>358.945312</course><hAcc>1.360880</hAcc><vAcc>0.964375</vAcc></extensions></trkpt>
      <trkpt lon="-82.147043" lat="33.555474"><ele>93.202492</ele><time>2021-09-02T13:17:26Z</time><extensions><speed>1.474341</speed><course>1.054688</course><hAcc>1.361279</hAcc><vAcc>0.964968</vAcc></extensions></trkpt>
      <trkpt lon="-82.147047" lat="33.555487"><ele>93.237762</ele><time>2021-09-02T13:17:27Z</time><extensions><speed>1.452182</speed><course>22.500000</course><hAcc>1.361994</hAcc><vAcc>0.965986</vAcc></extensions></trkpt>
      <trkpt lon="-82.147051" lat="33.555499"><ele>93.274452</ele><time>2021-09-02T13:17:28Z</time><extensions><speed>1.431651</speed><course>16.523438</course><hAcc>1.362957</hAcc><vAcc>0.967454</vAcc></extensions></trkpt>
      <trkpt lon="-82.147055" lat="33.555512"><ele>93.311943</ele><time>2021-09-02T13:17:29Z</time><extensions><speed>1.413405</speed><course>20.039062</course><hAcc>1.364196</hAcc><vAcc>0.969451</vAcc></extensions></trkpt>
      <trkpt lon="-82.147059" lat="33.555524"><ele>93.348541</ele><time>2021-09-02T13:17:30Z</time><extensions><speed>1.398705</speed><course>48.164062</course><hAcc>1.365844</hAcc><vAcc>0.972075</vAcc></extensions></trkpt>
      <trkpt lon="-82.147062" lat="33.555536"><ele>93.384323</ele><time>2021-09-02T13:17:31Z</time><extensions><speed>1.386935</speed><course>25.664062</course><hAcc>1.367950</hAcc><vAcc>0.975398</vAcc></extensions></trkpt>
      <trkpt lon="-82.147066" lat="33.555549"><ele>93.417793</ele><time>2021-09-02T13:17:32Z</time><extensions><speed>1.378397</speed><course>5.976562</course><hAcc>1.370291</hAcc><vAcc>0.979203</vAcc></extensions></trkpt>
      <trkpt lon="-82.147069" lat="33.555561"><ele>93.448395</ele><time>2021-09-02T13:17:33Z</time><extensions><speed>1.372336</speed><course>2.109375</course><hAcc>1.372878</hAcc><vAcc>0.983432</vAcc></extensions></trkpt>
      <trkpt lon="-82.147072" lat="33.555573"><ele>93.475815</ele><time>2021-09-02T13:17:34Z</time><extensions><speed>1.367619</speed><course>3.164062</course><hAcc>1.375546</hAcc><vAcc>0.987877</vAcc></extensions></trkpt>
      <trkpt lon="-82.147074" lat="33.555585"><ele>93.499283</ele><time>2021-09-02T13:17:35Z</time><extensions><speed>1.363161</speed><course>1.406250</course><hAcc>1.378231</hAcc><vAcc>0.992304</vAcc></extensions></trkpt>
      <trkpt lon="-82.147077" lat="33.555597"><ele>93.519051</ele><time>2021-09-02T13:17:36Z</time><extensions><speed>1.357609</speed><course>0.000000</course><hAcc>1.380954</hAcc><vAcc>0.996649</vAcc></extensions></trkpt>
      <trkpt lon="-82.147080" lat="33.555609"><ele>93.534645</ele><time>2021-09-02T13:17:37Z</time><extensions><speed>1.350051</speed><course>354.726562</course><hAcc>1.383511</hAcc><vAcc>1.000698</vAcc></extensions></trkpt>
      <trkpt lon="-82.147083" lat="33.555621"><ele>93.545815</ele><time>2021-09-02T13:17:38Z</time><extensions><speed>1.339564</speed><course>351.914062</course><hAcc>1.385896</hAcc><vAcc>1.004465</vAcc></extensions></trkpt>
      <trkpt lon="-82.147085" lat="33.555633"><ele>93.552475</ele><time>2021-09-02T13:17:39Z</time><extensions><speed>1.325557</speed><course>352.617188</course><hAcc>1.388143</hAcc><vAcc>1.007969</vAcc></extensions></trkpt>
      <trkpt lon="-82.147088" lat="33.555644"><ele>93.554878</ele><time>2021-09-02T13:17:40Z</time><extensions><speed>1.307649</speed><course>356.132812</course><hAcc>1.390188</hAcc><vAcc>1.011117</vAcc></extensions></trkpt>
      <trkpt lon="-82.147090" lat="33.555656"><ele>93.553421</ele><time>2021-09-02T13:17:41Z</time><extensions><speed>1.285918</speed><course>357.890625</course><hAcc>1.391708</hAcc><vAcc>1.013549</vAcc></extensions></trkpt>
      <trkpt lon="-82.147093" lat="33.555667"><ele>93.548790</ele><time>2021-09-02T13:17:42Z</time><extensions><speed>1.261350</speed><course>350.507812</course><hAcc>1.392466</hAcc><vAcc>1.014919</vAcc></extensions></trkpt>
      <trkpt lon="-82.147095" lat="33.555678"><ele>93.541885</ele><time>2021-09-02T13:17:43Z</time><extensions><speed>1.234579</speed><course>349.101562</course><hAcc>1.392555</hAcc><vAcc>1.015161</vAcc></extensions></trkpt>
      <trkpt lon="-82.147098" lat="33.555689"><ele>93.533295</ele><time>2021-09-02T13:17:44Z</time><extensions><speed>1.204151</speed><course>354.023438</course><hAcc>1.391823</hAcc><vAcc>1.014060</vAcc></extensions></trkpt>
      <trkpt lon="-82.147100" lat="33.555700"><ele>93.523827</ele><time>2021-09-02T13:17:45Z</time><extensions><speed>1.170393</speed><course>355.781250</course><hAcc>1.390195</hAcc><vAcc>1.011537</vAcc></extensions></trkpt>
      <trkpt lon="-82.147102" lat="33.555710"><ele>93.513916</ele><time>2021-09-02T13:17:46Z</time><extensions><speed>1.131757</speed><course>349.453125</course><hAcc>1.387846</hAcc><vAcc>1.007806</vAcc></extensions></trkpt>
      <trkpt lon="-82.147104" lat="33.555720"><ele>93.503960</ele><time>2021-09-02T13:17:47Z</time><extensions><speed>1.087201</speed><course>347.343750</course><hAcc>1.384869</hAcc><vAcc>1.003146</vAcc></extensions></trkpt>
      <trkpt lon="-82.147106" lat="33.555729"><ele>93.494377</ele><time>2021-09-02T13:17:48Z</time><extensions><speed>1.037520</speed><course>349.453125</course><hAcc>1.381669</hAcc><vAcc>0.998199</vAcc></extensions></trkpt>
      <trkpt lon="-82.147108" lat="33.555738"><ele>93.485321</ele><time>2021-09-02T13:17:49Z</time><extensions><speed>0.983539</speed><course>351.562500</course><hAcc>1.378807</hAcc><vAcc>0.993685</vAcc></extensions></trkpt>
      <trkpt lon="-82.147109" lat="33.555747"><ele>93.476692</ele><time>2021-09-02T13:17:50Z</time><extensions><speed>0.925608</speed><course>351.914062</course><hAcc>1.376481</hAcc><vAcc>0.989997</vAcc></extensions></trkpt>
      <trkpt lon="-82.147111" lat="33.555755"><ele>93.468575</ele><time>2021-09-02T13:17:51Z</time><extensions><speed>0.867545</speed><course>354.726562</course><hAcc>1.374820</hAcc><vAcc>0.987507</vAcc></extensions></trkpt>
      <trkpt lon="-82.147112" lat="33.555762"><ele>93.460793</ele><time>2021-09-02T13:17:52Z</time><extensions><speed>0.812235</speed><course>357.187500</course><hAcc>1.374044</hAcc><vAcc>0.986575</vAcc></extensions></trkpt>
      <trkpt lon="-82.147113" lat="33.555769"><ele>93.453117</ele><time>2021-09-02T13:17:53Z</time><extensions><speed>0.762378</speed><course>1.757812</course><hAcc>1.374359</hAcc><vAcc>0.987498</vAcc></extensions></trkpt>
      <trkpt lon="-82.147114" lat="33.555776"><ele>93.445358</ele><time>2021-09-02T13:17:54Z</time><extensions><speed>0.720610</speed><course>3.867188</course><hAcc>1.376067</hAcc><vAcc>0.990556</vAcc></extensions></trkpt>
      <trkpt lon="-82.147114" lat="33.555782"><ele>93.437126</ele><time>2021-09-02T13:17:55Z</time><extensions><speed>0.686588</speed><course>357.187500</course><hAcc>1.379305</hAcc><vAcc>0.995920</vAcc></extensions></trkpt>
      <trkpt lon="-82.147115" lat="33.555788"><ele>93.428215</ele><time>2021-09-02T13:17:56Z</time><extensions><speed>0.661904</speed><course>356.132812</course><hAcc>1.383902</hAcc><vAcc>1.003467</vAcc></extensions></trkpt>
      <trkpt lon="-82.147115" lat="33.555794"><ele>93.418503</ele><time>2021-09-02T13:17:57Z</time><extensions><speed>0.647553</speed><course>356.484375</course><hAcc>1.389768</hAcc><vAcc>1.013027</vAcc></extensions></trkpt>
      <trkpt lon="-82.147116" lat="33.555800"><ele>93.407890</ele><time>2021-09-02T13:17:58Z</time><extensions><speed>0.643758</speed><course>11.953125</course><hAcc>1.396783</hAcc><vAcc>1.024407</vAcc></extensions></trkpt>
      <trkpt lon="-82.147116" lat="33.555806"><ele>93.396461</ele><time>2021-09-02T13:17:59Z</time><extensions><speed>0.651013</speed><course>16.523438</course><hAcc>1.404567</hAcc><vAcc>1.037131</vAcc></extensions></trkpt>
      <trkpt lon="-82.147117" lat="33.555812"><ele>93.384537</ele><time>2021-09-02T13:18:00Z</time><extensions><speed>0.669586</speed><course>28.828125</course><hAcc>1.412605</hAcc><vAcc>1.050531</vAcc></extensions></trkpt>
      <trkpt lon="-82.147117" lat="33.555818"><ele>93.372948</ele><time>2021-09-02T13:18:01Z</time><extensions><speed>0.697856</speed><course>23.203125</course><hAcc>1.420524</hAcc><vAcc>1.063796</vAcc></extensions></trkpt>
      <trkpt lon="-82.147118" lat="33.555824"><ele>93.362198</ele><time>2021-09-02T13:18:02Z</time><extensions><speed>0.735477</speed><course>17.578125</course><hAcc>1.428472</hAcc><vAcc>1.076837</vAcc></extensions></trkpt>
      <trkpt lon="-82.147119" lat="33.555831"><ele>93.352882</ele><time>2021-09-02T13:18:03Z</time><extensions><speed>0.782650</speed><course>319.921875</course><hAcc>1.436202</hAcc><vAcc>1.089367</vAcc></extensions></trkpt>
      <trkpt lon="-82.147119" lat="33.555838"><ele>93.345886</ele><time>2021-09-02T13:18:04Z</time><extensions><speed>0.836695</speed><course>337.148438</course><hAcc>1.443312</hAcc><vAcc>1.100845</vAcc></extensions></trkpt>
      <trkpt lon="-82.147121" lat="33.555846"><ele>93.341812</ele><time>2021-09-02T13:18:05Z</time><extensions><speed>0.898073</speed><course>351.562500</course><hAcc>1.449624</hAcc><vAcc>1.111161</vAcc></extensions></trkpt>
      <trkpt lon="-82.147122" lat="33.555854"><ele>93.341240</ele><time>2021-09-02T13:18:06Z</time><extensions><speed>0.962144</speed><course>4.218750</course><hAcc>1.454869</hAcc><vAcc>1.119926</vAcc></extensions></trkpt>
      <trkpt lon="-82.147123" lat="33.555863"><ele>93.344292</ele><time>2021-09-02T13:18:07Z</time><extensions><speed>1.028099</speed><course>354.375000</course><hAcc>1.459359</hAcc><vAcc>1.127403</vAcc></extensions></trkpt>
      <trkpt lon="-82.147125" lat="33.555873"><ele>93.350922</ele><time>2021-09-02T13:18:08Z</time><extensions><speed>1.095794</speed><course>345.937500</course><hAcc>1.463180</hAcc><vAcc>1.133706</vAcc></extensions></trkpt>
      <trkpt lon="-82.147126" lat="33.555883"><ele>93.360847</ele><time>2021-09-02T13:18:09Z</time><extensions><speed>1.164445</speed><course>339.257812</course><hAcc>1.466200</hAcc><vAcc>1.138777</vAcc></extensions></trkpt>
      <trkpt lon="-82.147128" lat="33.555894"><ele>93.373482</ele><time>2021-09-02T13:18:10Z</time><extensions><speed>1.232172</speed><course>345.937500</course><hAcc>1.468315</hAcc><vAcc>1.142555</vAcc></extensions></trkpt>
      <trkpt lon="-82.147130" lat="33.555905"><ele>93.387848</ele><time>2021-09-02T13:18:11Z</time><extensions><speed>1.296066</speed><course>353.320312</course><hAcc>1.469778</hAcc><vAcc>1.145234</vAcc></extensions></trkpt>
      <trkpt lon="-82.147133" lat="33.555917"><ele>93.403374</ele><time>2021-09-02T13:18:12Z</time><extensions><speed>1.357741</speed><course>4.218750</course><hAcc>1.470872</hAcc><vAcc>1.147085</vAcc></extensions></trkpt>
      <trkpt lon="-82.147135" lat="33.555929"><ele>93.419579</ele><time>2021-09-02T13:18:13Z</time><extensions><speed>1.418287</speed><course>6.328125</course><hAcc>1.471322</hAcc><vAcc>1.147940</vAcc></extensions></trkpt>
      <trkpt lon="-82.147137" lat="33.555942"><ele>93.435143</ele><time>2021-09-02T13:18:14Z</time><extensions><speed>1.472368</speed><course>4.921875</course><hAcc>1.471223</hAcc><vAcc>1.147863</vAcc></extensions></trkpt>
      <trkpt lon="-82.147140" lat="33.555955"><ele>93.450066</ele><time>2021-09-02T13:18:15Z</time><extensions><speed>1.523660</speed><course>350.156250</course><hAcc>1.470706</hAcc><vAcc>1.146952</vAcc></extensions></trkpt>
      <trkpt lon="-82.147143" lat="33.555969"><ele>93.463593</ele><time>2021-09-02T13:18:16Z</time><extensions><speed>1.570136</speed><course>343.828125</course><hAcc>1.469494</hAcc><vAcc>1.144996</vAcc></extensions></trkpt>
      <trkpt lon="-82.147146" lat="33.555983"><ele>93.475174</ele><time>2021-09-02T13:18:17Z</time><extensions><speed>1.610041</speed><course>328.359375</course><hAcc>1.467842</hAcc><vAcc>1.142181</vAcc></extensions></trkpt>
      <trkpt lon="-82.147148" lat="33.555997"><ele>93.484901</ele><time>2021-09-02T13:18:18Z</time><extensions><speed>1.645371</speed><course>337.851562</course><hAcc>1.465779</hAcc><vAcc>1.138457</vAcc></extensions></trkpt>
      <trkpt lon="-82.147151" lat="33.556012"><ele>93.492638</ele><time>2021-09-02T13:18:19Z</time><extensions><speed>1.676036</speed><course>349.804688</course><hAcc>1.462762</hAcc><vAcc>1.133360</vAcc></extensions></trkpt>
      <trkpt lon="-82.147154" lat="33.556028"><ele>93.498123</ele><time>2021-09-02T13:18:20Z</time><extensions><speed>1.699617</speed><course>357.890625</course><hAcc>1.458799</hAcc><vAcc>1.126951</vAcc></extensions></trkpt>
      <trkpt lon="-82.147156" lat="33.556043"><ele>93.501610</ele><time>2021-09-02T13:18:21Z</time><extensions><speed>1.716331</speed><course>354.023438</course><hAcc>1.454244</hAcc><vAcc>1.119443</vAcc></extensions></trkpt>
      <trkpt lon="-82.147158" lat="33.556058"><ele>93.503395</ele><time>2021-09-02T13:18:22Z</time><extensions><speed>1.726268</speed><course>346.640625</course><hAcc>1.449043</hAcc><vAcc>1.110715</vAcc></extensions></trkpt>
      <trkpt lon="-82.147160" lat="33.556074"><ele>93.503784</ele><time>2021-09-02T13:18:23Z</time><extensions><speed>1.728973</speed><course>346.992188</course><hAcc>1.442986</hAcc><vAcc>1.100608</vAcc></extensions></trkpt>
      <trkpt lon="-82.147162" lat="33.556089"><ele>93.503189</ele><time>2021-09-02T13:18:24Z</time><extensions><speed>1.724366</speed><course>351.562500</course><hAcc>1.436087</hAcc><vAcc>1.089201</vAcc></extensions></trkpt>
      <trkpt lon="-82.147164" lat="33.556105"><ele>93.502052</ele><time>2021-09-02T13:18:25Z</time><extensions><speed>1.712632</speed><course>354.375000</course><hAcc>1.428475</hAcc><vAcc>1.076661</vAcc></extensions></trkpt>
      <trkpt lon="-82.147165" lat="33.556120"><ele>93.500732</ele><time>2021-09-02T13:18:26Z</time><extensions><speed>1.693788</speed><course>356.132812</course><hAcc>1.420311</hAcc><vAcc>1.063222</vAcc></extensions></trkpt>
      <trkpt lon="-82.147165" lat="33.556135"><ele>93.499458</ele><time>2021-09-02T13:18:27Z</time><extensions><speed>1.667854</speed><course>354.726562</course><hAcc>1.411867</hAcc><vAcc>1.049293</vAcc></extensions></trkpt>
      <trkpt lon="-82.147166" lat="33.556150"><ele>93.498352</ele><time>2021-09-02T13:18:28Z</time><extensions><speed>1.634298</speed><course>357.187500</course><hAcc>1.403339</hAcc><vAcc>1.035225</vAcc></extensions></trkpt>
      <trkpt lon="-82.147166" lat="33.556164"><ele>93.497543</ele><time>2021-09-02T13:18:29Z</time><extensions><speed>1.593597</speed><course>2.460938</course><hAcc>1.395121</hAcc><vAcc>1.021676</vAcc></extensions></trkpt>
      <trkpt lon="-82.147165" lat="33.556178"><ele>93.496994</ele><time>2021-09-02T13:18:30Z</time><extensions><speed>1.546490</speed><course>3.515625</course><hAcc>1.387731</hAcc><vAcc>1.009303</vAcc></extensions></trkpt>
      <trkpt lon="-82.147165" lat="33.556192"><ele>93.496536</ele><time>2021-09-02T13:18:31Z</time><extensions><speed>1.491325</speed><course>3.164062</course><hAcc>1.381140</hAcc><vAcc>0.998115</vAcc></extensions></trkpt>
      <trkpt lon="-82.147164" lat="33.556205"><ele>93.495872</ele><time>2021-09-02T13:18:32Z</time><extensions><speed>1.430429</speed><course>2.812500</course><hAcc>1.375391</hAcc><vAcc>0.988359</vAcc></extensions></trkpt>
      <trkpt lon="-82.147163" lat="33.556218"><ele>93.494598</ele><time>2021-09-02T13:18:33Z</time><extensions><speed>1.363769</speed><course>5.976562</course><hAcc>1.370412</hAcc><vAcc>0.979983</vAcc></extensions></trkpt>
      <trkpt lon="-82.147161" lat="33.556230"><ele>93.492172</ele><time>2021-09-02T13:18:34Z</time><extensions><speed>1.293091</speed><course>8.789062</course><hAcc>1.366136</hAcc><vAcc>0.972959</vAcc></extensions></trkpt>
      <trkpt lon="-82.147160" lat="33.556241"><ele>93.488113</ele><time>2021-09-02T13:18:35Z</time><extensions><speed>1.221963</speed><course>5.625000</course><hAcc>1.362864</hAcc><vAcc>0.967485</vAcc></extensions></trkpt>
      <trkpt lon="-82.147158" lat="33.556252"><ele>93.481636</ele><time>2021-09-02T13:18:36Z</time><extensions><speed>1.146174</speed><course>5.976562</course><hAcc>1.360383</hAcc><vAcc>0.963206</vAcc></extensions></trkpt>
      <trkpt lon="-82.147156" lat="33.556262"><ele>93.472237</ele><time>2021-09-02T13:18:37Z</time><extensions><speed>1.071152</speed><course>3.867188</course><hAcc>1.358463</hAcc><vAcc>0.959938</vAcc></extensions></trkpt>
      <trkpt lon="-82.147154" lat="33.556271"><ele>93.459358</ele><time>2021-09-02T13:18:38Z</time><extensions><speed>0.997967</speed><course>5.625000</course><hAcc>1.357086</hAcc><vAcc>0.957551</vAcc></extensions></trkpt>
      <trkpt lon="-82.147152" lat="33.556279"><ele>93.442413</ele><time>2021-09-02T13:18:39Z</time><extensions><speed>0.927705</speed><course>0.000000</course><hAcc>1.356034</hAcc><vAcc>0.955788</vAcc></extensions></trkpt>
      <trkpt lon="-82.147149" lat="33.556287"><ele>93.421257</ele><time>2021-09-02T13:18:40Z</time><extensions><speed>0.864212</speed><course>1.406250</course><hAcc>1.355234</hAcc><vAcc>0.954522</vAcc></extensions></trkpt>
      <trkpt lon="-82.147147" lat="33.556294"><ele>93.395279</ele><time>2021-09-02T13:18:41Z</time><extensions><speed>0.807431</speed><course>357.890625</course><hAcc>1.354610</hAcc><vAcc>0.953611</vAcc></extensions></trkpt>
      <trkpt lon="-82.147145" lat="33.556301"><ele>93.364426</ele><time>2021-09-02T13:18:42Z</time><extensions><speed>0.759682</speed><course>4.218750</course><hAcc>1.354064</hAcc><vAcc>0.952928</vAcc></extensions></trkpt>
      <trkpt lon="-82.147142" lat="33.556308"><ele>93.328476</ele><time>2021-09-02T13:18:43Z</time><extensions><speed>0.721364</speed><course>1.054688</course><hAcc>1.353664</hAcc><vAcc>0.952468</vAcc></extensions></trkpt>
      <trkpt lon="-82.147140" lat="33.556314"><ele>93.286911</ele><time>2021-09-02T13:18:44Z</time><extensions><speed>0.691939</speed><course>1.054688</course><hAcc>1.353391</hAcc><vAcc>0.952177</vAcc></extensions></trkpt>
      <trkpt lon="-82.147138" lat="33.556319"><ele>93.240158</ele><time>2021-09-02T13:18:45Z</time><extensions><speed>0.671520</speed><course>1.406250</course><hAcc>1.353404</hAcc><vAcc>0.952138</vAcc></extensions></trkpt>
      <trkpt lon="-82.147135" lat="33.556325"><ele>93.185677</ele><time>2021-09-02T13:18:46Z</time><extensions><speed>0.657708</speed><course>2.812500</course><hAcc>1.353466</hAcc><vAcc>0.952162</vAcc></extensions></trkpt>
      <trkpt lon="-82.147133" lat="33.556331"><ele>93.124969</ele><time>2021-09-02T13:18:47Z</time><extensions><speed>0.650663</speed><course>356.132812</course><hAcc>1.353335</hAcc><vAcc>0.952063</vAcc></extensions></trkpt>
      <trkpt lon="-82.147131" lat="33.556336"><ele>93.057159</ele><time>2021-09-02T13:18:48Z</time><extensions><speed>0.648606</speed><course>352.617188</course><hAcc>1.353264</hAcc><vAcc>0.952013</vAcc></extensions></trkpt>
      <trkpt lon="-82.147128" lat="33.556342"><ele>92.980934</ele><time>2021-09-02T13:18:49Z</time><extensions><speed>0.649992</speed><course>354.375000</course><hAcc>1.353176</hAcc><vAcc>0.951951</vAcc></extensions></trkpt>
      <trkpt lon="-82.147126" lat="33.556347"><ele>92.897102</ele><time>2021-09-02T13:18:50Z</time><extensions><speed>0.653076</speed><course>8.085938</course><hAcc>1.353131</hAcc><vAcc>0.951916</vAcc></extensions></trkpt>
      <trkpt lon="-82.147123" lat="33.556353"><ele>92.802910</ele><time>2021-09-02T13:18:51Z</time><extensions><speed>0.656284</speed><course>6.679688</course><hAcc>1.353073</hAcc><vAcc>0.951867</vAcc></extensions></trkpt>
      <trkpt lon="-82.147121" lat="33.556358"><ele>92.699760</ele><time>2021-09-02T13:18:52Z</time><extensions><speed>0.657951</speed><course>6.679688</course><hAcc>1.352886</hAcc><vAcc>0.951724</vAcc></extensions></trkpt>
      <trkpt lon="-82.147118" lat="33.556364"><ele>92.588623</ele><time>2021-09-02T13:18:53Z</time><extensions><speed>0.656867</speed><course>2.109375</course><hAcc>1.352923</hAcc><vAcc>0.951736</vAcc></extensions></trkpt>
      <trkpt lon="-82.147116" lat="33.556369"><ele>92.465813</ele><time>2021-09-02T13:18:54Z</time><extensions><speed>0.651866</speed><course>2.109375</course><hAcc>1.353173</hAcc><vAcc>0.951897</vAcc></extensions></trkpt>
      <trkpt lon="-82.147113" lat="33.556375"><ele>92.330986</ele><time>2021-09-02T13:18:55Z</time><extensions><speed>0.641883</speed><course>2.460938</course><hAcc>1.353167</hAcc><vAcc>0.951875</vAcc></extensions></trkpt>
      <trkpt lon="-82.147110" lat="33.556380"><ele>92.187744</ele><time>2021-09-02T13:18:56Z</time><extensions><speed>0.626906</speed><course>4.570312</course><hAcc>1.352922</hAcc><vAcc>0.951685</vAcc></extensions></trkpt>
      <trkpt lon="-82.147107" lat="33.556385"><ele>92.035492</ele><time>2021-09-02T13:18:57Z</time><extensions><speed>0.606591</speed><course>1.757812</course><hAcc>1.352764</hAcc><vAcc>0.951557</vAcc></extensions></trkpt>
      <trkpt lon="-82.147105" lat="33.556390"><ele>91.874725</ele><time>2021-09-02T13:18:58Z</time><extensions><speed>0.581001</speed><course>5.273438</course><hAcc>1.352866</hAcc><vAcc>0.951614</vAcc></extensions></trkpt>
      <trkpt lon="-82.147101" lat="33.556394"><ele>91.701553</ele><time>2021-09-02T13:18:59Z</time><extensions><speed>0.548958</speed><course>4.218750</course><hAcc>1.352953</hAcc><vAcc>0.951662</vAcc></extensions></trkpt>
      <trkpt lon="-82.147098" lat="33.556398"><ele>91.521530</ele><time>2021-09-02T13:19:00Z</time><extensions><speed>0.513038</speed><course>18.984375</course><hAcc>1.352743</hAcc><vAcc>0.951501</vAcc></extensions></trkpt>
      <trkpt lon="-82.147095" lat="33.556402"><ele>91.338051</ele><time>2021-09-02T13:19:01Z</time><extensions><speed>0.475845</speed><course>28.828125</course><hAcc>1.352550</hAcc><vAcc>0.951354</vAcc></extensions></trkpt>
      <trkpt lon="-82.147092" lat="33.556405"><ele>91.150810</ele><time>2021-09-02T13:19:02Z</time><extensions><speed>0.439343</speed><course>21.445312</course><hAcc>1.352640</hAcc><vAcc>0.951409</vAcc></extensions></trkpt>
      <trkpt lon="-82.147088" lat="33.556407"><ele>90.957443</ele><time>2021-09-02T13:19:03Z</time><extensions><speed>0.406309</speed><course>8.085938</course><hAcc>1.352791</hAcc><vAcc>0.951508</vAcc></extensions></trkpt>
      <trkpt lon="-82.147084" lat="33.556409"><ele>90.762428</ele><time>2021-09-02T13:19:04Z</time><extensions><speed>0.383699</speed><course>1.054688</course><hAcc>1.352708</hAcc><vAcc>0.951443</vAcc></extensions></trkpt>
      <trkpt lon="-82.147081" lat="33.556410"><ele>90.567719</ele><time>2021-09-02T13:19:05Z</time><extensions><speed>0.377036</speed><course>15.468750</course><hAcc>1.352389</hAcc><vAcc>0.951211</vAcc></extensions></trkpt>
      <trkpt lon="-82.147076" lat="33.556410"><ele>90.375908</ele><time>2021-09-02T13:19:06Z</time><extensions><speed>0.388312</speed><course>35.507812</course><hAcc>1.351957</hAcc><vAcc>0.950900</vAcc></extensions></trkpt>
      <trkpt lon="-82.147072" lat="33.556410"><ele>90.186508</ele><time>2021-09-02T13:19:07Z</time><extensions><speed>0.415251</speed><course>98.437500</course><hAcc>1.351472</hAcc><vAcc>0.950552</vAcc></extensions></trkpt>
      <trkpt lon="-82.147068" lat="33.556409"><ele>90.002396</ele><time>2021-09-02T13:19:08Z</time><extensions><speed>0.451725</speed><course>158.203125</course><hAcc>1.351017</hAcc><vAcc>0.950226</vAcc></extensions></trkpt>
      <trkpt lon="-82.147063" lat="33.556407"><ele>89.821457</ele><time>2021-09-02T13:19:09Z</time><extensions><speed>0.492922</speed><course>168.750000</course><hAcc>1.350566</hAcc><vAcc>0.949903</vAcc></extensions></trkpt>
      <trkpt lon="-82.147058" lat="33.556405"><ele>89.644730</ele><time>2021-09-02T13:19:10Z</time><extensions><speed>0.534208</speed><course>160.664062</course><hAcc>1.349846</hAcc><vAcc>0.949390</vAcc></extensions></trkpt>
      <trkpt lon="-82.147053" lat="33.556403"><ele>89.478500</ele><time>2021-09-02T13:19:11Z</time><extensions><speed>0.570105</speed><course>161.718750</course><hAcc>1.349179</hAcc><vAcc>0.948915</vAcc></extensions></trkpt>
      <trkpt lon="-82.147047" lat="33.556400"><ele>89.312683</ele><time>2021-09-02T13:19:12Z</time><extensions><speed>0.603787</speed><course>165.937500</course><hAcc>1.348334</hAcc><vAcc>0.948314</vAcc></extensions></trkpt>
      <trkpt lon="-82.147042" lat="33.556397"><ele>89.168472</ele><time>2021-09-02T13:19:13Z</time><extensions><speed>0.627174</speed><course>170.156250</course><hAcc>1.348247</hAcc><vAcc>0.948251</vAcc></extensions></trkpt>
      <trkpt lon="-82.147036" lat="33.556394"><ele>89.018105</ele><time>2021-09-02T13:19:14Z</time><extensions><speed>0.650236</speed><course>155.039062</course><hAcc>1.349172</hAcc><vAcc>0.948906</vAcc></extensions></trkpt>
      <trkpt lon="-82.147030" lat="33.556391"><ele>88.874733</ele><time>2021-09-02T13:19:15Z</time><extensions><speed>0.669284</speed><course>104.062500</course><hAcc>1.349924</hAcc><vAcc>0.949438</vAcc></extensions></trkpt>
      <trkpt lon="-82.147024" lat="33.556388"><ele>88.738274</ele><time>2021-09-02T13:19:16Z</time><extensions><speed>0.685282</speed><course>80.859375</course><hAcc>1.350536</hAcc><vAcc>0.949873</vAcc></extensions></trkpt>
      <trkpt lon="-82.147017" lat="33.556385"><ele>88.608429</ele><time>2021-09-02T13:19:17Z</time><extensions><speed>0.699097</speed><course>119.531250</course><hAcc>1.351033</hAcc><vAcc>0.950228</vAcc></extensions></trkpt>
      <trkpt lon="-82.147010" lat="33.556383"><ele>88.484756</ele><time>2021-09-02T13:19:18Z</time><extensions><speed>0.711479</speed><course>136.054688</course><hAcc>1.351437</hAcc><vAcc>0.950516</vAcc></extensions></trkpt>
      <trkpt lon="-82.147003" lat="33.556380"><ele>88.366661</ele><time>2021-09-02T13:19:19Z</time><extensions><speed>0.723195</speed><course>131.484375</course><hAcc>1.351763</hAcc><vAcc>0.950746</vAcc></extensions></trkpt>
      <trkpt lon="-82.146996" lat="33.556378"><ele>88.253456</ele><time>2021-09-02T13:19:20Z</time><extensions><speed>0.734994</speed><course>112.851562</course><hAcc>1.352023</hAcc><vAcc>0.950923</vAcc></extensions></trkpt>
      <trkpt lon="-82.146988" lat="33.556376"><ele>88.144371</ele><time>2021-09-02T13:19:21Z</time><extensions><speed>0.747583</speed><course>110.039062</course><hAcc>1.352223</hAcc><vAcc>0.951048</vAcc></extensions></trkpt>
      <trkpt lon="-82.146980" lat="33.556374"><ele>88.038780</ele><time>2021-09-02T13:19:22Z</time><extensions><speed>0.761646</speed><course>93.164062</course><hAcc>1.352366</hAcc><vAcc>0.951115</vAcc></extensions></trkpt>
      <trkpt lon="-82.146972" lat="33.556373"><ele>87.936279</ele><time>2021-09-02T13:19:23Z</time><extensions><speed>0.777687</speed><course>62.929688</course><hAcc>1.352454</hAcc><vAcc>0.951115</vAcc></extensions></trkpt>
      <trkpt lon="-82.146964" lat="33.556372"><ele>87.836571</ele><time>2021-09-02T13:19:24Z</time><extensions><speed>0.795889</speed><course>49.218750</course><hAcc>1.352480</hAcc><vAcc>0.951034</vAcc></extensions></trkpt>
      <trkpt lon="-82.146955" lat="33.556371"><ele>87.739487</ele><time>2021-09-02T13:19:25Z</time><extensions><speed>0.816192</speed><course>114.960938</course><hAcc>1.352439</hAcc><vAcc>0.950850</vAcc></extensions></trkpt>
      <trkpt lon="-82.146946" lat="33.556371"><ele>87.644836</ele><time>2021-09-02T13:19:26Z</time><extensions><speed>0.838581</speed><course>132.890625</course><hAcc>1.352319</hAcc><vAcc>0.950536</vAcc></extensions></trkpt>
      <trkpt lon="-82.146937" lat="33.556371"><ele>87.552361</ele><time>2021-09-02T13:19:27Z</time><extensions><speed>0.863146</speed><course>144.140625</course><hAcc>1.352104</hAcc><vAcc>0.950061</vAcc></extensions></trkpt>
      <trkpt lon="-82.146928" lat="33.556372"><ele>87.461655</ele><time>2021-09-02T13:19:28Z</time><extensions><speed>0.889878</speed><course>113.906250</course><hAcc>1.351777</hAcc><vAcc>0.949388</vAcc></extensions></trkpt>
      <trkpt lon="-82.146918" lat="33.556373"><ele>87.372360</ele><time>2021-09-02T13:19:29Z</time><extensions><speed>0.918651</speed><course>97.382812</course><hAcc>1.351319</hAcc><vAcc>0.948475</vAcc></extensions></trkpt>
      <trkpt lon="-82.146908" lat="33.556374"><ele>87.284203</ele><time>2021-09-02T13:19:30Z</time><extensions><speed>0.949278</speed><course>91.406250</course><hAcc>1.350709</hAcc><vAcc>0.947281</vAcc></extensions></trkpt>
      <trkpt lon="-82.146898" lat="33.556376"><ele>87.196938</ele><time>2021-09-02T13:19:31Z</time><extensions><speed>0.981471</speed><course>111.796875</course><hAcc>1.349928</hAcc><vAcc>0.945770</vAcc></extensions></trkpt>
      <trkpt lon="-82.146888" lat="33.556379"><ele>87.110298</ele><time>2021-09-02T13:19:32Z</time><extensions><speed>1.014797</speed><course>120.234375</course><hAcc>1.348963</hAcc><vAcc>0.943910</vAcc></extensions></trkpt>
      <trkpt lon="-82.146877" lat="33.556382"><ele>87.023964</ele><time>2021-09-02T13:19:33Z</time><extensions><speed>1.048538</speed><course>115.664062</course><hAcc>1.347806</hAcc><vAcc>0.941685</vAcc></extensions></trkpt>
      <trkpt lon="-82.146867" lat="33.556385"><ele>86.937569</ele><time>2021-09-02T13:19:34Z</time><extensions><speed>1.081706</speed><course>86.484375</course><hAcc>1.346461</hAcc><vAcc>0.939101</vAcc></extensions></trkpt>
      <trkpt lon="-82.146856" lat="33.556390"><ele>86.850761</ele><time>2021-09-02T13:19:35Z</time><extensions><speed>1.113403</speed><course>73.476562</course><hAcc>1.344950</hAcc><vAcc>0.936197</vAcc></extensions></trkpt>
      <trkpt lon="-82.146845" lat="33.556395"><ele>86.763115</ele><time>2021-09-02T13:19:36Z</time><extensions><speed>1.143259</speed><course>69.609375</course><hAcc>1.343312</hAcc><vAcc>0.933046</vAcc></extensions></trkpt>
      <trkpt lon="-82.146835" lat="33.556400"><ele>86.674194</ele><time>2021-09-02T13:19:37Z</time><extensions><speed>1.171313</speed><course>72.773438</course><hAcc>1.341613</hAcc><vAcc>0.929775</vAcc></extensions></trkpt>
      <trkpt lon="-82.146824" lat="33.556406"><ele>86.583542</ele><time>2021-09-02T13:19:38Z</time><extensions><speed>1.197638</speed><course>79.453125</course><hAcc>1.339945</hAcc><vAcc>0.926558</vAcc></extensions></trkpt>
      <trkpt lon="-82.146813" lat="33.556412"><ele>86.490730</ele><time>2021-09-02T13:19:39Z</time><extensions><speed>1.222240</speed><course>77.695312</course><hAcc>1.338426</hAcc><vAcc>0.923625</vAcc></extensions></trkpt>
      <trkpt lon="-82.146803" lat="33.556419"><ele>86.395439</ele><time>2021-09-02T13:19:40Z</time><extensions><speed>1.245028</speed><course>74.882812</course><hAcc>1.337170</hAcc><vAcc>0.921197</vAcc></extensions></trkpt>
      <trkpt lon="-82.146792" lat="33.556426"><ele>86.297684</ele><time>2021-09-02T13:19:41Z</time><extensions><speed>1.265690</speed><course>71.367188</course><hAcc>1.336236</hAcc><vAcc>0.919390</vAcc></extensions></trkpt>
      <trkpt lon="-82.146782" lat="33.556434"><ele>86.197876</ele><time>2021-09-02T13:19:42Z</time><extensions><speed>1.283773</speed><course>62.578125</course><hAcc>1.335627</hAcc><vAcc>0.918212</vAcc></extensions></trkpt>
      <trkpt lon="-82.146772" lat="33.556442"><ele>86.096680</ele><time>2021-09-02T13:19:43Z</time><extensions><speed>1.298820</speed><course>59.414062</course><hAcc>1.335353</hAcc><vAcc>0.917679</vAcc></extensions></trkpt>
      <trkpt lon="-82.146762" lat="33.556450"><ele>85.994873</ele><time>2021-09-02T13:19:44Z</time><extensions><speed>1.310357</speed><course>45.703125</course><hAcc>1.335456</hAcc><vAcc>0.917875</vAcc></extensions></trkpt>
      <trkpt lon="-82.146752" lat="33.556458"><ele>85.893471</ele><time>2021-09-02T13:19:45Z</time><extensions><speed>1.317862</speed><course>35.507812</course><hAcc>1.335983</hAcc><vAcc>0.918893</vAcc></extensions></trkpt>
      <trkpt lon="-82.146742" lat="33.556467"><ele>85.793709</ele><time>2021-09-02T13:19:46Z</time><extensions><speed>1.320817</speed><course>31.640625</course><hAcc>1.336932</hAcc><vAcc>0.920725</vAcc></extensions></trkpt>
      <trkpt lon="-82.146732" lat="33.556475"><ele>85.696945</ele><time>2021-09-02T13:19:47Z</time><extensions><speed>1.318994</speed><course>32.343750</course><hAcc>1.338241</hAcc><vAcc>0.923251</vAcc></extensions></trkpt>
      <trkpt lon="-82.146722" lat="33.556484"><ele>85.604591</ele><time>2021-09-02T13:19:48Z</time><extensions><speed>1.312587</speed><course>28.828125</course><hAcc>1.339818</hAcc><vAcc>0.926293</vAcc></extensions></trkpt>
      <trkpt lon="-82.146713" lat="33.556492"><ele>85.518044</ele><time>2021-09-02T13:19:49Z</time><extensions><speed>1.302006</speed><course>5.625000</course><hAcc>1.341542</hAcc><vAcc>0.929613</vAcc></extensions></trkpt>
      <trkpt lon="-82.146703" lat="33.556501"><ele>85.438560</ele><time>2021-09-02T13:19:50Z</time><extensions><speed>1.287576</speed><course>24.960938</course><hAcc>1.343291</hAcc><vAcc>0.932975</vAcc></extensions></trkpt>
      <trkpt lon="-82.146693" lat="33.556509"><ele>85.367302</ele><time>2021-09-02T13:19:51Z</time><extensions><speed>1.269466</speed><course>63.984375</course><hAcc>1.344971</hAcc><vAcc>0.936198</vAcc></extensions></trkpt>
      <trkpt lon="-82.146684" lat="33.556517"><ele>85.305290</ele><time>2021-09-02T13:19:52Z</time><extensions><speed>1.247970</speed><course>75.585938</course><hAcc>1.346519</hAcc><vAcc>0.939160</vAcc></extensions></trkpt>
      <trkpt lon="-82.146674" lat="33.556525"><ele>85.253281</ele><time>2021-09-02T13:19:53Z</time><extensions><speed>1.223608</speed><course>75.585938</course><hAcc>1.347892</hAcc><vAcc>0.941785</vAcc></extensions></trkpt>
      <trkpt lon="-82.146664" lat="33.556532"><ele>85.211662</ele><time>2021-09-02T13:19:54Z</time><extensions><speed>1.196891</speed><course>69.257812</course><hAcc>1.349073</hAcc><vAcc>0.944038</vAcc></extensions></trkpt>
      <trkpt lon="-82.146655" lat="33.556539"><ele>85.180374</ele><time>2021-09-02T13:19:55Z</time><extensions><speed>1.168203</speed><course>57.304688</course><hAcc>1.350059</hAcc><vAcc>0.945917</vAcc></extensions></trkpt>
      <trkpt lon="-82.146645" lat="33.556546"><ele>85.158966</ele><time>2021-09-02T13:19:56Z</time><extensions><speed>1.137829</speed><course>51.328125</course><hAcc>1.350860</hAcc><vAcc>0.947441</vAcc></extensions></trkpt>
      <trkpt lon="-82.146636" lat="33.556552"><ele>85.146660</ele><time>2021-09-02T13:19:57Z</time><extensions><speed>1.106251</speed><course>30.234375</course><hAcc>1.351493</hAcc><vAcc>0.948644</vAcc></extensions></trkpt>
      <trkpt lon="-82.146626" lat="33.556558"><ele>85.142464</ele><time>2021-09-02T13:19:58Z</time><extensions><speed>1.074332</speed><course>29.882812</course><hAcc>1.351980</hAcc><vAcc>0.949569</vAcc></extensions></trkpt>
      <trkpt lon="-82.146617" lat="33.556563"><ele>85.145233</ele><time>2021-09-02T13:19:59Z</time><extensions><speed>1.043065</speed><course>23.554688</course><hAcc>1.352345</hAcc><vAcc>0.950261</vAcc></extensions></trkpt>
      <trkpt lon="-82.146607" lat="33.556568"><ele>85.153786</ele><time>2021-09-02T13:20:00Z</time><extensions><speed>1.013354</speed><course>39.726562</course><hAcc>1.352613</hAcc><vAcc>0.950768</vAcc></extensions></trkpt>
      <trkpt lon="-82.146598" lat="33.556572"><ele>85.166985</ele><time>2021-09-02T13:20:01Z</time><extensions><speed>0.985831</speed><course>41.835938</course><hAcc>1.352807</hAcc><vAcc>0.951132</vAcc></extensions></trkpt>
      <trkpt lon="-82.146588" lat="33.556575"><ele>85.183853</ele><time>2021-09-02T13:20:02Z</time><extensions><speed>0.960730</speed><course>45.351562</course><hAcc>1.352949</hAcc><vAcc>0.951396</vAcc></extensions></trkpt>
      <trkpt lon="-82.146579" lat="33.556579"><ele>85.203667</ele><time>2021-09-02T13:20:03Z</time><extensions><speed>0.937938</speed><course>54.492188</course><hAcc>1.353060</hAcc><vAcc>0.951597</vAcc></extensions></trkpt>
      <trkpt lon="-82.146569" lat="33.556581"><ele>85.225990</ele><time>2021-09-02T13:20:04Z</time><extensions><speed>0.917192</speed><course>58.359375</course><hAcc>1.353159</hAcc><vAcc>0.951768</vAcc></extensions></trkpt>
      <trkpt lon="-82.146560" lat="33.556584"><ele>85.250557</ele><time>2021-09-02T13:20:05Z</time><extensions><speed>0.898364</speed><course>65.390625</course><hAcc>1.353262</hAcc><vAcc>0.951940</vAcc></extensions></trkpt>
      <trkpt lon="-82.146551" lat="33.556586"><ele>85.277161</ele><time>2021-09-02T13:20:06Z</time><extensions><speed>0.881123</speed><course>74.882812</course><hAcc>1.353387</hAcc><vAcc>0.952143</vAcc></extensions></trkpt>
      <trkpt lon="-82.146541" lat="33.556588"><ele>85.305664</ele><time>2021-09-02T13:20:07Z</time><extensions><speed>0.864906</speed><course>89.648438</course><hAcc>1.353547</hAcc><vAcc>0.952401</vAcc></extensions></trkpt>
      <trkpt lon="-82.146532" lat="33.556590"><ele>85.335846</ele><time>2021-09-02T13:20:08Z</time><extensions><speed>0.849337</speed><course>85.781250</course><hAcc>1.353757</hAcc><vAcc>0.952737</vAcc></extensions></trkpt>
      <trkpt lon="-82.146524" lat="33.556591"><ele>85.367409</ele><time>2021-09-02T13:20:09Z</time><extensions><speed>0.834310</speed><course>76.289062</course><hAcc>1.354029</hAcc><vAcc>0.953172</vAcc></extensions></trkpt>
      <trkpt lon="-82.146515" lat="33.556593"><ele>85.399887</ele><time>2021-09-02T13:20:10Z</time><extensions><speed>0.820025</speed><course>79.804688</course><hAcc>1.354372</hAcc><vAcc>0.953722</vAcc></extensions></trkpt>
      <trkpt lon="-82.146507" lat="33.556595"><ele>85.432663</ele><time>2021-09-02T13:20:11Z</time><extensions><speed>0.806872</speed><course>75.234375</course><hAcc>1.354792</hAcc><vAcc>0.954397</vAcc></extensions></trkpt>
      <trkpt lon="-82.146498" lat="33.556597"><ele>85.465027</ele><time>2021-09-02T13:20:12Z</time><extensions><speed>0.795241</speed><course>75.234375</course><hAcc>1.355293</hAcc><vAcc>0.955200</vAcc></extensions></trkpt>
      <trkpt lon="-82.146490" lat="33.556600"><ele>85.496216</ele><time>2021-09-02T13:20:13Z</time><extensions><speed>0.785392</speed><course>67.851562</course><hAcc>1.355868</hAcc><vAcc>0.956121</vAcc></extensions></trkpt>
      <trkpt lon="-82.146483" lat="33.556602"><ele>85.525505</ele><time>2021-09-02T13:20:14Z</time><extensions><speed>0.777297</speed><course>59.414062</course><hAcc>1.356503</hAcc><vAcc>0.957139</vAcc></extensions></trkpt>
      <trkpt lon="-82.146475" lat="33.556605"><ele>85.552231</ele><time>2021-09-02T13:20:15Z</time><extensions><speed>0.770426</speed><course>53.085938</course><hAcc>1.357174</hAcc><vAcc>0.958210</vAcc></extensions></trkpt>
      <trkpt lon="-82.146468" lat="33.556608"><ele>85.575806</ele><time>2021-09-02T13:20:16Z</time><extensions><speed>0.763933</speed><course>60.820312</course><hAcc>1.357842</hAcc><vAcc>0.959273</vAcc></extensions></trkpt>
      <trkpt lon="-82.146461" lat="33.556612"><ele>85.595749</ele><time>2021-09-02T13:20:17Z</time><extensions><speed>0.757004</speed><course>48.515625</course><hAcc>1.358455</hAcc><vAcc>0.960242</vAcc></extensions></trkpt>
      <trkpt lon="-82.146454" lat="33.556615"><ele>85.611664</ele><time>2021-09-02T13:20:18Z</time><extensions><speed>0.749208</speed><course>39.023438</course><hAcc>1.358945</hAcc><vAcc>0.961006</vAcc></extensions></trkpt>
      <trkpt lon="-82.146447" lat="33.556619"><ele>85.623199</ele><time>2021-09-02T13:20:19Z</time><extensions><speed>0.740762</speed><course>39.023438</course><hAcc>1.359234</hAcc><vAcc>0.961437</vAcc></extensions></trkpt>
      <trkpt lon="-82.146441" lat="33.556623"><ele>85.630074</ele><time>2021-09-02T13:20:20Z</time><extensions><speed>0.732275</speed><course>39.023438</course><hAcc>1.359234</hAcc><vAcc>0.961392</vAcc></extensions></trkpt>
      <trkpt lon="-82.146434" lat="33.556627"><ele>85.632111</ele><time>2021-09-02T13:20:21Z</time><extensions><speed>0.724156</speed><course>39.023438</course><hAcc>1.358896</hAcc><vAcc>0.960790</vAcc></extensions></trkpt>
      <trkpt lon="-82.146428" lat="33.556631"><ele>85.629242</ele><time>2021-09-02T13:20:22Z</time><extensions><speed>0.716461</speed><course>36.562500</course><hAcc>1.358252</hAcc><vAcc>0.959679</vAcc></extensions></trkpt>
      <trkpt lon="-82.146423" lat="33.556635"><ele>85.621506</ele><time>2021-09-02T13:20:23Z</time><extensions><speed>0.708982</speed><course>116.367188</course><hAcc>1.357373</hAcc><vAcc>0.958170</vAcc></extensions></trkpt>
      <trkpt lon="-82.146417" lat="33.556640"><ele>85.609001</ele><time>2021-09-02T13:20:24Z</time><extensions><speed>0.701150</speed><course>129.726562</course><hAcc>1.356325</hAcc><vAcc>0.956366</vAcc></extensions></trkpt>
      <trkpt lon="-82.146411" lat="33.556644"><ele>85.591812</ele><time>2021-09-02T13:20:25Z</time><extensions><speed>0.692145</speed><course>104.414062</course><hAcc>1.355165</hAcc><vAcc>0.954358</vAcc></extensions></trkpt>
      <trkpt lon="-82.146406" lat="33.556648"><ele>85.569954</ele><time>2021-09-02T13:20:26Z</time><extensions><speed>0.680929</speed><course>87.539062</course><hAcc>1.353944</hAcc><vAcc>0.952226</vAcc></extensions></trkpt>
      <trkpt lon="-82.146401" lat="33.556652"><ele>85.543335</ele><time>2021-09-02T13:20:27Z</time><extensions><speed>0.666250</speed><course>66.445312</course><hAcc>1.352701</hAcc><vAcc>0.950037</vAcc></extensions></trkpt>
      <trkpt lon="-82.146396" lat="33.556657"><ele>85.511787</ele><time>2021-09-02T13:20:28Z</time><extensions><speed>0.646889</speed><course>62.578125</course><hAcc>1.351475</hAcc><vAcc>0.947859</vAcc></extensions></trkpt>
      <trkpt lon="-82.146391" lat="33.556661"><ele>85.475197</ele><time>2021-09-02T13:20:29Z</time><extensions><speed>0.621836</speed><course>50.625000</course><hAcc>1.350304</hAcc><vAcc>0.945759</vAcc></extensions></trkpt>
      <trkpt lon="-82.146387" lat="33.556665"><ele>85.433487</ele><time>2021-09-02T13:20:30Z</time><extensions><speed>0.590403</speed><course>44.296875</course><hAcc>1.349227</hAcc><vAcc>0.943813</vAcc></extensions></trkpt>
      <trkpt lon="-82.146383" lat="33.556669"><ele>85.386650</ele><time>2021-09-02T13:20:31Z</time><extensions><speed>0.552354</speed><course>31.992188</course><hAcc>1.348288</hAcc><vAcc>0.942109</vAcc></extensions></trkpt>
      <trkpt lon="-82.146379" lat="33.556673"><ele>85.334816</ele><time>2021-09-02T13:20:32Z</time><extensions><speed>0.508062</speed><course>19.335938</course><hAcc>1.347537</hAcc><vAcc>0.940743</vAcc></extensions></trkpt>
      <trkpt lon="-82.146376" lat="33.556676"><ele>85.278206</ele><time>2021-09-02T13:20:33Z</time><extensions><speed>0.458740</speed><course>21.093750</course><hAcc>1.346998</hAcc><vAcc>0.939768</vAcc></extensions></trkpt>
      <trkpt lon="-82.146373" lat="33.556679"><ele>85.217133</ele><time>2021-09-02T13:20:34Z</time><extensions><speed>0.405940</speed><course>34.101562</course><hAcc>1.346649</hAcc><vAcc>0.939144</vAcc></extensions></trkpt>
      <trkpt lon="-82.146371" lat="33.556682"><ele>85.152000</ele><time>2021-09-02T13:20:35Z</time><extensions><speed>0.351021</speed><course>76.992188</course><hAcc>1.346450</hAcc><vAcc>0.938793</vAcc></extensions></trkpt>
      <trkpt lon="-82.146369" lat="33.556684"><ele>85.083450</ele><time>2021-09-02T13:20:36Z</time><extensions><speed>0.295138</speed><course>53.085938</course><hAcc>1.346373</hAcc><vAcc>0.938669</vAcc></extensions></trkpt>
      <trkpt lon="-82.146367" lat="33.556686"><ele>85.012283</ele><time>2021-09-02T13:20:37Z</time><extensions><speed>0.239345</speed><course>37.617188</course><hAcc>1.346412</hAcc><vAcc>0.938758</vAcc></extensions></trkpt>
      <trkpt lon="-82.146365" lat="33.556687"><ele>84.939362</ele><time>2021-09-02T13:20:38Z</time><extensions><speed>0.184897</speed><course>25.312500</course><hAcc>1.346577</hAcc><vAcc>0.939085</vAcc></extensions></trkpt>
      <trkpt lon="-82.146364" lat="33.556688"><ele>84.865532</ele><time>2021-09-02T13:20:39Z</time><extensions><speed>0.133668</speed><course>26.015625</course><hAcc>1.346895</hAcc><vAcc>0.939703</vAcc></extensions></trkpt>
      <trkpt lon="-82.146363" lat="33.556689"><ele>84.791664</ele><time>2021-09-02T13:20:40Z</time><extensions><speed>0.089605</speed><course>23.203125</course><hAcc>1.347376</hAcc><vAcc>0.940634</vAcc></extensions></trkpt>
      <trkpt lon="-82.146362" lat="33.556689"><ele>84.718697</ele><time>2021-09-02T13:20:41Z</time><extensions><speed>0.063486</speed><course>207.773438</course><hAcc>1.347986</hAcc><vAcc>0.941811</vAcc></extensions></trkpt>
      <trkpt lon="-82.146361" lat="33.556689"><ele>84.647575</ele><time>2021-09-02T13:20:42Z</time><extensions><speed>0.071100</speed><course>217.265625</course><hAcc>1.348672</hAcc><vAcc>0.943129</vAcc></extensions></trkpt>
      <trkpt lon="-82.146361" lat="33.556688"><ele>84.579193</ele><time>2021-09-02T13:20:43Z</time><extensions><speed>0.102424</speed><course>236.601562</course><hAcc>1.349389</hAcc><vAcc>0.944505</vAcc></extensions></trkpt>
      <trkpt lon="-82.146361" lat="33.556687"><ele>84.514252</ele><time>2021-09-02T13:20:44Z</time><extensions><speed>0.141956</speed><course>236.601562</course><hAcc>1.350108</hAcc><vAcc>0.945878</vAcc></extensions></trkpt>
      <trkpt lon="-82.146360" lat="33.556685"><ele>84.453285</ele><time>2021-09-02T13:20:45Z</time><extensions><speed>0.184817</speed><course>236.601562</course><hAcc>1.350810</hAcc><vAcc>0.947209</vAcc></extensions></trkpt>
      <trkpt lon="-82.146360" lat="33.556684"><ele>84.396652</ele><time>2021-09-02T13:20:45Z</time><extensions><speed>0.229337</speed><course>236.601562</course><hAcc>1.351506</hAcc><vAcc>0.948494</vAcc></extensions></trkpt>
      <trkpt lon="-82.146359" lat="33.556681"><ele>84.344414</ele><time>2021-09-02T13:20:46Z</time><extensions><speed>0.274812</speed><course>236.601562</course><hAcc>1.352201</hAcc><vAcc>0.949738</vAcc></extensions></trkpt>
      <trkpt lon="-82.146359" lat="33.556679"><ele>84.296638</ele><time>2021-09-02T13:20:47Z</time><extensions><speed>0.320400</speed><course>236.601562</course><hAcc>1.352891</hAcc><vAcc>0.950944</vAcc></extensions></trkpt>
      <trkpt lon="-82.146358" lat="33.556676"><ele>84.253242</ele><time>2021-09-02T13:20:48Z</time><extensions><speed>0.365244</speed><course>313.593750</course><hAcc>1.353595</hAcc><vAcc>0.952138</vAcc></extensions></trkpt>
      <trkpt lon="-82.146358" lat="33.556672"><ele>84.214066</ele><time>2021-09-02T13:20:49Z</time><extensions><speed>0.408299</speed><course>65.742188</course><hAcc>1.354335</hAcc><vAcc>0.953346</vAcc></extensions></trkpt>
      <trkpt lon="-82.146357" lat="33.556668"><ele>84.178894</ele><time>2021-09-02T13:20:50Z</time><extensions><speed>0.448334</speed><course>60.468750</course><hAcc>1.355132</hAcc><vAcc>0.954598</vAcc></extensions></trkpt>
      <trkpt lon="-82.146356" lat="33.556664"><ele>84.147461</ele><time>2021-09-02T13:20:51Z</time><extensions><speed>0.484030</speed><course>51.679688</course><hAcc>1.356008</hAcc><vAcc>0.955913</vAcc></extensions></trkpt>
      <trkpt lon="-82.146355" lat="33.556660"><ele>84.119530</ele><time>2021-09-02T13:20:52Z</time><extensions><speed>0.514087</speed><course>45.000000</course><hAcc>1.356977</hAcc><vAcc>0.957301</vAcc></extensions></trkpt>
      <trkpt lon="-82.146355" lat="33.556655"><ele>84.094833</ele><time>2021-09-02T13:20:53Z</time><extensions><speed>0.537078</speed><course>187.382812</course><hAcc>1.358047</hAcc><vAcc>0.958756</vAcc></extensions></trkpt>
      <trkpt lon="-82.146354" lat="33.556650"><ele>84.073135</ele><time>2021-09-02T13:20:54Z</time><extensions><speed>0.552164</speed><course>184.570312</course><hAcc>1.359215</hAcc><vAcc>0.960249</vAcc></extensions></trkpt>
      <trkpt lon="-82.146353" lat="33.556645"><ele>84.054253</ele><time>2021-09-02T13:20:55Z</time><extensions><speed>0.559078</speed><course>357.890625</course><hAcc>1.360468</hAcc><vAcc>0.961733</vAcc></extensions></trkpt>
      <trkpt lon="-82.146352" lat="33.556640"><ele>84.038048</ele><time>2021-09-02T13:20:56Z</time><extensions><speed>0.557217</speed><course>182.460938</course><hAcc>1.361775</hAcc><vAcc>0.963133</vAcc></extensions></trkpt>
      <trkpt lon="-82.146352" lat="33.556635"><ele>84.024422</ele><time>2021-09-02T13:20:57Z</time><extensions><speed>0.545636</speed><course>155.039062</course><hAcc>1.363098</hAcc><vAcc>0.964353</vAcc></extensions></trkpt>
      <trkpt lon="-82.146351" lat="33.556630"><ele>84.013214</ele><time>2021-09-02T13:20:58Z</time><extensions><speed>0.524634</speed><course>155.039062</course><hAcc>1.364382</hAcc><vAcc>0.965284</vAcc></extensions></trkpt>
      <trkpt lon="-82.146350" lat="33.556626"><ele>84.004196</ele><time>2021-09-02T13:20:59Z</time><extensions><speed>0.495782</speed><course>155.039062</course><hAcc>1.365608</hAcc><vAcc>0.965868</vAcc></extensions></trkpt>
      <trkpt lon="-82.146349" lat="33.556622"><ele>83.997025</ele><time>2021-09-02T13:21:00Z</time><extensions><speed>0.460813</speed><course>155.039062</course><hAcc>1.366824</hAcc><vAcc>0.966171</vAcc></extensions></trkpt>
      <trkpt lon="-82.146349" lat="33.556618"><ele>83.991325</ele><time>2021-09-02T13:21:01Z</time><extensions><speed>0.421626</speed><course>155.039062</course><hAcc>1.368102</hAcc><vAcc>0.966309</vAcc></extensions></trkpt>
      <trkpt lon="-82.146348" lat="33.556614"><ele>83.986702</ele><time>2021-09-02T13:21:02Z</time><extensions><speed>0.379873</speed><course>155.039062</course><hAcc>1.369488</hAcc><vAcc>0.966374</vAcc></extensions></trkpt>
      <trkpt lon="-82.146347" lat="33.556611"><ele>83.982758</ele><time>2021-09-02T13:21:03Z</time><extensions><speed>0.337003</speed><course>155.039062</course><hAcc>1.370989</hAcc><vAcc>0.966422</vAcc></extensions></trkpt>
      <trkpt lon="-82.146347" lat="33.556608"><ele>83.979088</ele><time>2021-09-02T13:21:04Z</time><extensions><speed>0.294320</speed><course>155.039062</course><hAcc>1.372576</hAcc><vAcc>0.966474</vAcc></extensions></trkpt>
      <trkpt lon="-82.146346" lat="33.556606"><ele>83.975281</ele><time>2021-09-02T13:21:05Z</time><extensions><speed>0.253066</speed><course>155.039062</course><hAcc>1.374174</hAcc><vAcc>0.966513</vAcc></extensions></trkpt>
      <trkpt lon="-82.146345" lat="33.556604"><ele>83.970940</ele><time>2021-09-02T13:21:06Z</time><extensions><speed>0.214542</speed><course>155.039062</course><hAcc>1.375677</hAcc><vAcc>0.966492</vAcc></extensions></trkpt>
      <trkpt lon="-82.146344" lat="33.556602"><ele>83.965637</ele><time>2021-09-02T13:21:07Z</time><extensions><speed>0.180275</speed><course>155.039062</course><hAcc>1.376952</hAcc><vAcc>0.966348</vAcc></extensions></trkpt>
      <trkpt lon="-82.146343" lat="33.556601"><ele>83.958969</ele><time>2021-09-02T13:21:08Z</time><extensions><speed>0.152210</speed><course>155.039062</course><hAcc>1.377870</hAcc><vAcc>0.966020</vAcc></extensions></trkpt>
      <trkpt lon="-82.146342" lat="33.556600"><ele>83.950516</ele><time>2021-09-02T13:21:09Z</time><extensions><speed>0.132690</speed><course>155.039062</course><hAcc>1.378332</hAcc><vAcc>0.965473</vAcc></extensions></trkpt>
      <trkpt lon="-82.146341" lat="33.556600"><ele>83.939880</ele><time>2021-09-02T13:21:10Z</time><extensions><speed>0.123673</speed><course>155.039062</course><hAcc>1.378327</hAcc><vAcc>0.964743</vAcc></extensions></trkpt>
      <trkpt lon="-82.146339" lat="33.556599"><ele>83.926666</ele><time>2021-09-02T13:21:11Z</time><extensions><speed>0.125103</speed><course>3.867188</course><hAcc>1.377998</hAcc><vAcc>0.963981</vAcc></extensions></trkpt>
      <trkpt lon="-82.146338" lat="33.556599"><ele>83.910530</ele><time>2021-09-02T13:21:12Z</time><extensions><speed>0.134348</speed><course>3.867188</course><hAcc>1.377741</hAcc><vAcc>0.963519</vAcc></extensions></trkpt>
      <trkpt lon="-82.146336" lat="33.556599"><ele>83.891220</ele><time>2021-09-02T13:21:13Z</time><extensions><speed>0.147747</speed><course>339.960938</course><hAcc>1.378297</hAcc><vAcc>0.963901</vAcc></extensions></trkpt>
      <trkpt lon="-82.146335" lat="33.556600"><ele>83.868622</ele><time>2021-09-02T13:21:14Z</time><extensions><speed>0.162154</speed><course>39.375000</course><hAcc>1.380888</hAcc><vAcc>0.965940</vAcc></extensions></trkpt>
      <trkpt lon="-82.146333" lat="33.556601"><ele>83.842781</ele><time>2021-09-02T13:21:15Z</time><extensions><speed>0.175673</speed><course>39.375000</course><hAcc>1.387418</hAcc><vAcc>0.970897</vAcc></extensions></trkpt>
      <trkpt lon="-82.146331" lat="33.556601"><ele>83.813828</ele><time>2021-09-02T13:21:16Z</time><extensions><speed>0.187650</speed><course>27.421875</course><hAcc>1.400676</hAcc><vAcc>0.980664</vAcc></extensions></trkpt>
      <trkpt lon="-82.146330" lat="33.556602"><ele>83.781998</ele><time>2021-09-02T13:21:17Z</time><extensions><speed>0.198024</speed><course>27.421875</course><hAcc>1.424447</hAcc><vAcc>0.997847</vAcc></extensions></trkpt>
      <trkpt lon="-82.146328" lat="33.556603"><ele>83.747665</ele><time>2021-09-02T13:21:18Z</time><extensions><speed>0.206863</speed><course>5.976562</course><hAcc>1.463479</hAcc><vAcc>1.025748</vAcc></extensions></trkpt>
      <trkpt lon="-82.146326" lat="33.556604"><ele>83.711296</ele><time>2021-09-02T13:21:19Z</time><extensions><speed>0.214250</speed><course>5.976562</course><hAcc>1.523218</hAcc><vAcc>1.068181</vAcc></extensions></trkpt>
      <trkpt lon="-82.146324" lat="33.556605"><ele>83.673409</ele><time>2021-09-02T13:21:20Z</time><extensions><speed>0.220217</speed><course>356.835938</course><hAcc>1.609280</hAcc><vAcc>1.129101</vAcc></extensions></trkpt>
      <trkpt lon="-82.146322" lat="33.556606"><ele>83.634476</ele><time>2021-09-02T13:21:21Z</time><extensions><speed>0.224710</speed><course>156.093750</course><hAcc>1.726753</hAcc><vAcc>1.212110</vAcc></extensions></trkpt>
      <trkpt lon="-82.146320" lat="33.556607"><ele>83.594925</ele><time>2021-09-02T13:21:22Z</time><extensions><speed>0.227564</speed><course>156.093750</course><hAcc>1.879542</hAcc><vAcc>1.319988</vAcc></extensions></trkpt>
      <trkpt lon="-82.146318" lat="33.556609"><ele>83.555054</ele><time>2021-09-02T13:21:23Z</time><extensions><speed>0.228979</speed><course>156.093750</course><hAcc>2.069946</hAcc><vAcc>1.454386</vAcc></extensions></trkpt>
      <trkpt lon="-82.146316" lat="33.556610"><ele>83.515038</ele><time>2021-09-02T13:21:24Z</time><extensions><speed>0.229523</speed><course>156.093750</course><hAcc>2.298553</hAcc><vAcc>1.615748</vAcc></extensions></trkpt>
      <trkpt lon="-82.146314" lat="33.556611"><ele>83.474976</ele><time>2021-09-02T13:21:25Z</time><extensions><speed>0.229642</speed><course>156.093750</course><hAcc>2.564354</hAcc><vAcc>1.803381</vAcc></extensions></trkpt>
    </trkseg>
  </trk>
</gpx>