<?xml version="1.0" encoding="UTF-8"?>
<gpx version="1.1" creator="Apple Health Export" xmlns="http://www.topografix.com/GPX/1/1" xmlns:xsi="http://www.w3.org/2001/XMLSchema-instance" xsi:schemaLocation="http://www.topografix.com/GPX/1/1 http://www.topografix.com/GPX/1/1/gpx.xsd">
  <metadata>
    <time>2026-03-14T12:15:29Z</time>
  </metadata>
  <trk>
    <name>Route 2020-03-22 10:49am</name>
    <trkseg>
      <trkpt lon="-82.145859" lat="33.556863"><ele>97.398460</ele><time>2020-03-22T14:46:37Z</time><extensions><speed>0.122865</speed><course>5.976562</course><hAcc>1.968275</hAcc><vAcc>1.855175</vAcc></extensions></trkpt>
      <trkpt lon="-82.145859" lat="33.556861"><ele>97.427475</ele><time>2020-03-22T14:46:38Z</time><extensions><speed>0.123468</speed><course>5.976562</course><hAcc>1.721539</hAcc><vAcc>1.650227</vAcc></extensions></trkpt>
      <trkpt lon="-82.145859" lat="33.556860"><ele>97.447884</ele><time>2020-03-22T14:46:39Z</time><extensions><speed>0.124379</speed><course>5.976562</course><hAcc>1.579396</hAcc><vAcc>1.526423</vAcc></extensions></trkpt>
      <trkpt lon="-82.145860" lat="33.556859"><ele>97.471939</ele><time>2020-03-22T14:46:40Z</time><extensions><speed>0.126634</speed><course>5.976562</course><hAcc>1.444481</hAcc><vAcc>1.402076</vAcc></extensions></trkpt>
      <trkpt lon="-82.145860" lat="33.556858"><ele>97.495216</ele><time>2020-03-22T14:46:41Z</time><extensions><speed>0.129814</speed><course>5.976562</course><hAcc>1.345107</hAcc><vAcc>1.303438</vAcc></extensions></trkpt>
      <trkpt lon="-82.145860" lat="33.556857"><ele>97.517731</ele><time>2020-03-22T14:46:42Z</time><extensions><speed>0.133725</speed><course>359.296875</course><hAcc>1.275882</hAcc><vAcc>1.228390</vAcc></extensions></trkpt>
      <trkpt lon="-82.145861" lat="33.556856"><ele>97.539780</ele><time>2020-03-22T14:46:43Z</time><extensions><speed>0.138068</speed><course>355.429688</course><hAcc>1.230560</hAcc><vAcc>1.173927</vAcc></extensions></trkpt>
      <trkpt lon="-82.145861" lat="33.556855"><ele>97.562012</ele><time>2020-03-22T14:46:44Z</time><extensions><speed>0.142448</speed><course>262.617188</course><hAcc>1.202943</hAcc><vAcc>1.136476</vAcc></extensions></trkpt>
      <trkpt lon="-82.145861" lat="33.556853"><ele>97.585320</ele><time>2020-03-22T14:46:45Z</time><extensions><speed>0.146462</speed><course>217.617188</course><hAcc>1.187601</hAcc><vAcc>1.112314</vAcc></extensions></trkpt>
      <trkpt lon="-82.145862" lat="33.556852"><ele>97.610611</ele><time>2020-03-22T14:46:46Z</time><extensions><speed>0.149705</speed><course>171.914062</course><hAcc>1.180230</hAcc><vAcc>1.097940</vAcc></extensions></trkpt>
      <trkpt lon="-82.145862" lat="33.556851"><ele>97.638702</ele><time>2020-03-22T14:46:47Z</time><extensions><speed>0.151676</speed><course>138.515625</course><hAcc>1.177678</hAcc><vAcc>1.090343</vAcc></extensions></trkpt>
      <trkpt lon="-82.145863" lat="33.556849"><ele>97.670334</ele><time>2020-03-22T14:46:48Z</time><extensions><speed>0.151770</speed><course>138.515625</course><hAcc>1.177786</hAcc><vAcc>1.087114</vAcc></extensions></trkpt>
      <trkpt lon="-82.145864" lat="33.556848"><ele>97.706192</ele><time>2020-03-22T14:46:49Z</time><extensions><speed>0.149279</speed><course>135.351562</course><hAcc>1.179139</hAcc><vAcc>1.086438</vAcc></extensions></trkpt>
      <trkpt lon="-82.145864" lat="33.556847"><ele>97.746849</ele><time>2020-03-22T14:46:50Z</time><extensions><speed>0.143426</speed><course>209.179688</course><hAcc>1.180837</hAcc><vAcc>1.087031</vAcc></extensions></trkpt>
      <trkpt lon="-82.145865" lat="33.556846"><ele>97.792793</ele><time>2020-03-22T14:46:51Z</time><extensions><speed>0.133323</speed><course>224.296875</course><hAcc>1.182299</hAcc><vAcc>1.088026</vAcc></extensions></trkpt>
      <trkpt lon="-82.145865" lat="33.556845"><ele>97.844330</ele><time>2020-03-22T14:46:52Z</time><extensions><speed>0.118585</speed><course>200.742188</course><hAcc>1.183120</hAcc><vAcc>1.088884</vAcc></extensions></trkpt>
      <trkpt lon="-82.145866" lat="33.556844"><ele>97.901543</ele><time>2020-03-22T14:46:53Z</time><extensions><speed>0.099614</speed><course>172.265625</course><hAcc>1.182999</hAcc><vAcc>1.089292</vAcc></extensions></trkpt>
      <trkpt lon="-82.145866" lat="33.556843"><ele>97.964226</ele><time>2020-03-22T14:46:54Z</time><extensions><speed>0.077403</speed><course>206.367188</course><hAcc>1.181880</hAcc><vAcc>1.089133</vAcc></extensions></trkpt>
      <trkpt lon="-82.145867" lat="33.556843"><ele>98.031868</ele><time>2020-03-22T14:46:55Z</time><extensions><speed>0.055796</speed><course>218.671875</course><hAcc>1.180114</hAcc><vAcc>1.088455</vAcc></extensions></trkpt>
      <trkpt lon="-82.145868" lat="33.556843"><ele>98.103523</ele><time>2020-03-22T14:46:56Z</time><extensions><speed>0.047635</speed><course>230.273438</course><hAcc>1.178218</hAcc><vAcc>1.087393</vAcc></extensions></trkpt>
      <trkpt lon="-82.145868" lat="33.556843"><ele>98.177841</ele><time>2020-03-22T14:46:57Z</time><extensions><speed>0.065727</speed><course>211.992188</course><hAcc>1.176637</hAcc><vAcc>1.086096</vAcc></extensions></trkpt>
      <trkpt lon="-82.145869" lat="33.556844"><ele>98.253159</ele><time>2020-03-22T14:46:58Z</time><extensions><speed>0.099613</speed><course>122.695312</course><hAcc>1.175693</hAcc><vAcc>1.084703</vAcc></extensions></trkpt>
      <trkpt lon="-82.145869" lat="33.556844"><ele>98.327621</ele><time>2020-03-22T14:46:59Z</time><extensions><speed>0.139862</speed><course>103.710938</course><hAcc>1.175561</hAcc><vAcc>1.083323</vAcc></extensions></trkpt>
      <trkpt lon="-82.145870" lat="33.556846"><ele>98.399277</ele><time>2020-03-22T14:47:00Z</time><extensions><speed>0.182102</speed><course>48.515625</course><hAcc>1.176250</hAcc><vAcc>1.082024</vAcc></extensions></trkpt>
      <trkpt lon="-82.145871" lat="33.556847"><ele>98.466225</ele><time>2020-03-22T14:47:01Z</time><extensions><speed>0.222590</speed><course>336.093750</course><hAcc>1.177586</hAcc><vAcc>1.080825</vAcc></extensions></trkpt>
      <trkpt lon="-82.145872" lat="33.556849"><ele>98.526894</ele><time>2020-03-22T14:47:02Z</time><extensions><speed>0.258137</speed><course>331.171875</course><hAcc>1.179207</hAcc><vAcc>1.079701</vAcc></extensions></trkpt>
      <trkpt lon="-82.145874" lat="33.556851"><ele>98.580292</ele><time>2020-03-22T14:47:03Z</time><extensions><speed>0.286340</speed><course>335.742188</course><hAcc>1.180565</hAcc><vAcc>1.078580</vAcc></extensions></trkpt>
      <trkpt lon="-82.145875" lat="33.556854"><ele>98.625969</ele><time>2020-03-22T14:47:04Z</time><extensions><speed>0.305795</speed><course>350.156250</course><hAcc>1.180963</hAcc><vAcc>1.077359</vAcc></extensions></trkpt>
      <trkpt lon="-82.145877" lat="33.556856"><ele>98.663872</ele><time>2020-03-22T14:47:05Z</time><extensions><speed>0.316183</speed><course>350.156250</course><hAcc>1.179806</hAcc><vAcc>1.075943</vAcc></extensions></trkpt>
      <trkpt lon="-82.145878" lat="33.556859"><ele>98.694221</ele><time>2020-03-22T14:47:06Z</time><extensions><speed>0.318018</speed><course>319.570312</course><hAcc>1.177040</hAcc><vAcc>1.074321</vAcc></extensions></trkpt>
      <trkpt lon="-82.145880" lat="33.556861"><ele>98.717537</ele><time>2020-03-22T14:47:07Z</time><extensions><speed>0.312187</speed><course>354.023438</course><hAcc>1.173158</hAcc><vAcc>1.072573</vAcc></extensions></trkpt>
      <trkpt lon="-82.145881" lat="33.556864"><ele>98.734711</ele><time>2020-03-22T14:47:08Z</time><extensions><speed>0.299579</speed><course>202.500000</course><hAcc>1.168768</hAcc><vAcc>1.070796</vAcc></extensions></trkpt>
      <trkpt lon="-82.145883" lat="33.556866"><ele>98.747185</ele><time>2020-03-22T14:47:09Z</time><extensions><speed>0.281062</speed><course>47.109375</course><hAcc>1.164354</hAcc><vAcc>1.069075</vAcc></extensions></trkpt>
      <trkpt lon="-82.145884" lat="33.556869"><ele>98.756836</ele><time>2020-03-22T14:47:10Z</time><extensions><speed>0.259100</speed><course>66.093750</course><hAcc>1.160250</hAcc><vAcc>1.067469</vAcc></extensions></trkpt>
      <trkpt lon="-82.145884" lat="33.556871"><ele>98.765457</ele><time>2020-03-22T14:47:11Z</time><extensions><speed>0.236774</speed><course>61.171875</course><hAcc>1.156655</hAcc><vAcc>1.066021</vAcc></extensions></trkpt>
      <trkpt lon="-82.145885" lat="33.556873"><ele>98.774391</ele><time>2020-03-22T14:47:12Z</time><extensions><speed>0.215486</speed><course>54.843750</course><hAcc>1.153654</hAcc><vAcc>1.064753</vAcc></extensions></trkpt>
      <trkpt lon="-82.145885" lat="33.556875"><ele>98.784508</ele><time>2020-03-22T14:47:13Z</time><extensions><speed>0.195337</speed><course>59.062500</course><hAcc>1.151251</hAcc><vAcc>1.063673</vAcc></extensions></trkpt>
      <trkpt lon="-82.145885" lat="33.556876"><ele>98.796204</ele><time>2020-03-22T14:47:14Z</time><extensions><speed>0.176006</speed><course>159.609375</course><hAcc>1.149400</hAcc><vAcc>1.062777</vAcc></extensions></trkpt>
      <trkpt lon="-82.145885" lat="33.556878"><ele>98.809425</ele><time>2020-03-22T14:47:15Z</time><extensions><speed>0.157176</speed><course>178.593750</course><hAcc>1.148022</hAcc><vAcc>1.062050</vAcc></extensions></trkpt>
      <trkpt lon="-82.145885" lat="33.556879"><ele>98.823814</ele><time>2020-03-22T14:47:16Z</time><extensions><speed>0.138581</speed><course>203.906250</course><hAcc>1.147034</hAcc><vAcc>1.061476</vAcc></extensions></trkpt>
      <trkpt lon="-82.145885" lat="33.556880"><ele>98.838760</ele><time>2020-03-22T14:47:17Z</time><extensions><speed>0.120008</speed><course>178.593750</course><hAcc>1.146350</hAcc><vAcc>1.061033</vAcc></extensions></trkpt>
      <trkpt lon="-82.145884" lat="33.556881"><ele>98.853462</ele><time>2020-03-22T14:47:18Z</time><extensions><speed>0.101320</speed><course>178.593750</course><hAcc>1.145895</hAcc><vAcc>1.060698</vAcc></extensions></trkpt>
      <trkpt lon="-82.145884" lat="33.556882"><ele>98.866966</ele><time>2020-03-22T14:47:19Z</time><extensions><speed>0.082449</speed><course>178.593750</course><hAcc>1.145607</hAcc><vAcc>1.060449</vAcc></extensions></trkpt>
      <trkpt lon="-82.145884" lat="33.556883"><ele>98.878181</ele><time>2020-03-22T14:47:20Z</time><extensions><speed>0.063480</speed><course>178.593750</course><hAcc>1.145436</hAcc><vAcc>1.060269</vAcc></extensions></trkpt>
      <trkpt lon="-82.145883" lat="33.556883"><ele>98.885895</ele><time>2020-03-22T14:47:21Z</time><extensions><speed>0.044963</speed><course>178.593750</course><hAcc>1.145342</hAcc><vAcc>1.060137</vAcc></extensions></trkpt>
      <trkpt lon="-82.145883" lat="33.556883"><ele>98.888885</ele><time>2020-03-22T14:47:22Z</time><extensions><speed>0.029386</speed><course>178.593750</course><hAcc>1.145300</hAcc><vAcc>1.060041</vAcc></extensions></trkpt>
      <trkpt lon="-82.145883" lat="33.556883"><ele>98.885994</ele><time>2020-03-22T14:47:23Z</time><extensions><speed>0.025873</speed><course>178.593750</course><hAcc>1.145287</hAcc><vAcc>1.059968</vAcc></extensions></trkpt>
      <trkpt lon="-82.145883" lat="33.556883"><ele>98.876152</ele><time>2020-03-22T14:47:24Z</time><extensions><speed>0.039730</speed><course>178.593750</course><hAcc>1.145292</hAcc><vAcc>1.059913</vAcc></extensions></trkpt>
      <trkpt lon="-82.145882" lat="33.556883"><ele>98.858452</ele><time>2020-03-22T14:47:25Z</time><extensions><speed>0.061284</speed><course>178.593750</course><hAcc>1.145308</hAcc><vAcc>1.059874</vAcc></extensions></trkpt>
      <trkpt lon="-82.145882" lat="33.556882"><ele>98.832153</ele><time>2020-03-22T14:47:26Z</time><extensions><speed>0.085980</speed><course>178.593750</course><hAcc>1.145332</hAcc><vAcc>1.059854</vAcc></extensions></trkpt>
      <trkpt lon="-82.145882" lat="33.556881"><ele>98.796631</ele><time>2020-03-22T14:47:27Z</time><extensions><speed>0.112711</speed><course>178.593750</course><hAcc>1.145367</hAcc><vAcc>1.059865</vAcc></extensions></trkpt>
      <trkpt lon="-82.145882" lat="33.556880"><ele>98.751434</ele><time>2020-03-22T14:47:28Z</time><extensions><speed>0.141139</speed><course>178.593750</course><hAcc>1.145424</hAcc><vAcc>1.059927</vAcc></extensions></trkpt>
      <trkpt lon="-82.145881" lat="33.556879"><ele>98.696167</ele><time>2020-03-22T14:47:29Z</time><extensions><speed>0.171096</speed><course>178.593750</course><hAcc>1.145521</hAcc><vAcc>1.060069</vAcc></extensions></trkpt>
      <trkpt lon="-82.145881" lat="33.556877"><ele>98.630516</ele><time>2020-03-22T14:47:30Z</time><extensions><speed>0.202390</speed><course>178.593750</course><hAcc>1.145690</hAcc><vAcc>1.060335</vAcc></extensions></trkpt>
      <trkpt lon="-82.145880" lat="33.556875"><ele>98.554337</ele><time>2020-03-22T14:47:31Z</time><extensions><speed>0.234725</speed><course>178.593750</course><hAcc>1.145982</hAcc><vAcc>1.060781</vAcc></extensions></trkpt>
      <trkpt lon="-82.145880" lat="33.556873"><ele>98.467705</ele><time>2020-03-22T14:47:32Z</time><extensions><speed>0.267663</speed><course>178.593750</course><hAcc>1.146473</hAcc><vAcc>1.061481</vAcc></extensions></trkpt>
      <trkpt lon="-82.145879" lat="33.556870"><ele>98.370979</ele><time>2020-03-22T14:47:33Z</time><extensions><speed>0.300592</speed><course>178.593750</course><hAcc>1.147273</hAcc><vAcc>1.062527</vAcc></extensions></trkpt>
      <trkpt lon="-82.145879" lat="33.556868"><ele>98.264755</ele><time>2020-03-22T14:47:34Z</time><extensions><speed>0.332721</speed><course>178.593750</course><hAcc>1.148540</hAcc><vAcc>1.064029</vAcc></extensions></trkpt>
      <trkpt lon="-82.145878" lat="33.556864"><ele>98.149811</ele><time>2020-03-22T14:47:35Z</time><extensions><speed>0.363039</speed><course>178.593750</course><hAcc>1.150489</hAcc><vAcc>1.066118</vAcc></extensions></trkpt>
      <trkpt lon="-82.145877" lat="33.556861"><ele>98.027100</ele><time>2020-03-22T14:47:36Z</time><extensions><speed>0.390279</speed><course>178.593750</course><hAcc>1.153404</hAcc><vAcc>1.068937</vAcc></extensions></trkpt>
      <trkpt lon="-82.145876" lat="33.556858"><ele>97.897781</ele><time>2020-03-22T14:47:37Z</time><extensions><speed>0.412912</speed><course>178.593750</course><hAcc>1.157648</hAcc><vAcc>1.072645</vAcc></extensions></trkpt>
      <trkpt lon="-82.145875" lat="33.556854"><ele>97.763252</ele><time>2020-03-22T14:47:38Z</time><extensions><speed>0.429157</speed><course>178.593750</course><hAcc>1.163660</hAcc><vAcc>1.077401</vAcc></extensions></trkpt>
      <trkpt lon="-82.145874" lat="33.556850"><ele>97.625252</ele><time>2020-03-22T14:47:39Z</time><extensions><speed>0.436998</speed><course>259.453125</course><hAcc>1.171944</hAcc><vAcc>1.083357</vAcc></extensions></trkpt>
      <trkpt lon="-82.145873" lat="33.556846"><ele>97.485970</ele><time>2020-03-22T14:47:40Z</time><extensions><speed>0.435554</speed><course>235.546875</course><hAcc>1.183037</hAcc><vAcc>1.090640</vAcc></extensions></trkpt>
      <trkpt lon="-82.145873" lat="33.556842"><ele>97.348122</ele><time>2020-03-22T14:47:41Z</time><extensions><speed>0.425453</speed><course>162.773438</course><hAcc>1.197453</hAcc><vAcc>1.099333</vAcc></extensions></trkpt>
      <trkpt lon="-82.145872" lat="33.556839"><ele>97.214653</ele><time>2020-03-22T14:47:42Z</time><extensions><speed>0.407855</speed><course>139.218750</course><hAcc>1.215593</hAcc><vAcc>1.109451</vAcc></extensions></trkpt>
      <trkpt lon="-82.145872" lat="33.556835"><ele>97.088501</ele><time>2020-03-22T14:47:43Z</time><extensions><speed>0.384287</speed><course>90.351562</course><hAcc>1.237640</hAcc><vAcc>1.120917</vAcc></extensions></trkpt>
      <trkpt lon="-82.145872" lat="33.556832"><ele>96.972397</ele><time>2020-03-22T14:47:44Z</time><extensions><speed>0.356370</speed><course>151.171875</course><hAcc>1.263424</hAcc><vAcc>1.133537</vAcc></extensions></trkpt>
      <trkpt lon="-82.145873" lat="33.556829"><ele>96.868729</ele><time>2020-03-22T14:47:45Z</time><extensions><speed>0.325724</speed><course>128.671875</course><hAcc>1.292302</hAcc><vAcc>1.146978</vAcc></extensions></trkpt>
      <trkpt lon="-82.145873" lat="33.556826"><ele>96.779495</ele><time>2020-03-22T14:47:46Z</time><extensions><speed>0.293989</speed><course>165.585938</course><hAcc>1.323057</hAcc><vAcc>1.160751</vAcc></extensions></trkpt>
      <trkpt lon="-82.145874" lat="33.556823"><ele>96.706192</ele><time>2020-03-22T14:47:47Z</time><extensions><speed>0.262452</speed><course>195.117188</course><hAcc>1.354074</hAcc><vAcc>1.174244</vAcc></extensions></trkpt>
      <trkpt lon="-82.145875" lat="33.556821"><ele>96.649963</ele><time>2020-03-22T14:47:48Z</time><extensions><speed>0.232145</speed><course>222.187500</course><hAcc>1.383791</hAcc><vAcc>1.186792</vAcc></extensions></trkpt>
      <trkpt lon="-82.145876" lat="33.556820"><ele>96.611671</ele><time>2020-03-22T14:47:49Z</time><extensions><speed>0.203850</speed><course>74.531250</course><hAcc>1.410974</hAcc><vAcc>1.197761</vAcc></extensions></trkpt>
      <trkpt lon="-82.145877" lat="33.556818"><ele>96.591896</ele><time>2020-03-22T14:47:50Z</time><extensions><speed>0.177968</speed><course>52.382812</course><hAcc>1.434762</hAcc><vAcc>1.206637</vAcc></extensions></trkpt>
      <trkpt lon="-82.145878" lat="33.556817"><ele>96.590981</ele><time>2020-03-22T14:47:51Z</time><extensions><speed>0.154736</speed><course>52.382812</course><hAcc>1.454651</hAcc><vAcc>1.213064</vAcc></extensions></trkpt>
      <trkpt lon="-82.145879" lat="33.556816"><ele>96.608925</ele><time>2020-03-22T14:47:52Z</time><extensions><speed>0.134163</speed><course>52.382812</course><hAcc>1.470438</hAcc><vAcc>1.216840</vAcc></extensions></trkpt>
      <trkpt lon="-82.145880" lat="33.556815"><ele>96.645401</ele><time>2020-03-22T14:47:53Z</time><extensions><speed>0.116200</speed><course>52.382812</course><hAcc>1.482159</hAcc><vAcc>1.217909</vAcc></extensions></trkpt>
      <trkpt lon="-82.145881" lat="33.556815"><ele>96.699707</ele><time>2020-03-22T14:47:54Z</time><extensions><speed>0.100820</speed><course>52.382812</course><hAcc>1.490041</hAcc><vAcc>1.216353</vAcc></extensions></trkpt>
      <trkpt lon="-82.145882" lat="33.556814"><ele>96.770721</ele><time>2020-03-22T14:47:55Z</time><extensions><speed>0.087975</speed><course>52.382812</course><hAcc>1.494460</hAcc><vAcc>1.212378</vAcc></extensions></trkpt>
      <trkpt lon="-82.145883" lat="33.556814"><ele>96.856956</ele><time>2020-03-22T14:47:56Z</time><extensions><speed>0.077528</speed><course>52.382812</course><hAcc>1.495903</hAcc><vAcc>1.206304</vAcc></extensions></trkpt>
      <trkpt lon="-82.145884" lat="33.556814"><ele>96.956581</ele><time>2020-03-22T14:47:57Z</time><extensions><speed>0.069195</speed><course>52.382812</course><hAcc>1.494908</hAcc><vAcc>1.198513</vAcc></extensions></trkpt>
      <trkpt lon="-82.145884" lat="33.556814"><ele>97.067421</ele><time>2020-03-22T14:47:58Z</time><extensions><speed>0.062566</speed><course>52.382812</course><hAcc>1.491974</hAcc><vAcc>1.189350</vAcc></extensions></trkpt>
      <trkpt lon="-82.145885" lat="33.556814"><ele>97.186989</ele><time>2020-03-22T14:47:59Z</time><extensions><speed>0.057139</speed><course>52.382812</course><hAcc>1.487517</hAcc><vAcc>1.179078</vAcc></extensions></trkpt>
      <trkpt lon="-82.145886" lat="33.556815"><ele>97.312485</ele><time>2020-03-22T14:48:00Z</time><extensions><speed>0.052379</speed><course>52.382812</course><hAcc>1.481865</hAcc><vAcc>1.167883</vAcc></extensions></trkpt>
      <trkpt lon="-82.145886" lat="33.556815"><ele>97.440941</ele><time>2020-03-22T14:48:01Z</time><extensions><speed>0.047785</speed><course>52.382812</course><hAcc>1.475270</hAcc><vAcc>1.155883</vAcc></extensions></trkpt>
      <trkpt lon="-82.145887" lat="33.556815"><ele>97.569313</ele><time>2020-03-22T14:48:02Z</time><extensions><speed>0.042943</speed><course>52.382812</course><hAcc>1.467915</hAcc><vAcc>1.143145</vAcc></extensions></trkpt>
      <trkpt lon="-82.145887" lat="33.556815"><ele>97.694550</ele><time>2020-03-22T14:48:03Z</time><extensions><speed>0.037549</speed><course>52.382812</course><hAcc>1.459937</hAcc><vAcc>1.129713</vAcc></extensions></trkpt>
      <trkpt lon="-82.145887" lat="33.556815"><ele>97.813660</ele><time>2020-03-22T14:48:04Z</time><extensions><speed>0.031427</speed><course>52.382812</course><hAcc>1.451446</hAcc><vAcc>1.115636</vAcc></extensions></trkpt>
      <trkpt lon="-82.145887" lat="33.556816"><ele>97.923752</ele><time>2020-03-22T14:48:05Z</time><extensions><speed>0.024573</speed><course>52.382812</course><hAcc>1.442554</hAcc><vAcc>1.100999</vAcc></extensions></trkpt>
      <trkpt lon="-82.145888" lat="33.556816"><ele>98.022079</ele><time>2020-03-22T14:48:06Z</time><extensions><speed>0.017391</speed><course>52.382812</course><hAcc>1.433393</hAcc><vAcc>1.085954</vAcc></extensions></trkpt>
      <trkpt lon="-82.145888" lat="33.556816"><ele>98.106026</ele><time>2020-03-22T14:48:07Z</time><extensions><speed>0.011937</speed><course>52.382812</course><hAcc>1.424139</hAcc><vAcc>1.070756</vAcc></extensions></trkpt>
      <trkpt lon="-82.145888" lat="33.556816"><ele>98.173119</ele><time>2020-03-22T14:48:08Z</time><extensions><speed>0.013994</speed><course>52.382812</course><hAcc>1.415031</hAcc><vAcc>1.055788</vAcc></extensions></trkpt>
      <trkpt lon="-82.145888" lat="33.556816"><ele>98.220940</ele><time>2020-03-22T14:48:09Z</time><extensions><speed>0.023350</speed><course>52.382812</course><hAcc>1.406376</hAcc><vAcc>1.041576</vAcc></extensions></trkpt>
      <trkpt lon="-82.145888" lat="33.556815"><ele>98.247162</ele><time>2020-03-22T14:48:10Z</time><extensions><speed>0.035789</speed><course>52.382812</course><hAcc>1.398510</hAcc><vAcc>1.028729</vAcc></extensions></trkpt>
      <trkpt lon="-82.145888" lat="33.556815"><ele>98.249603</ele><time>2020-03-22T14:48:11Z</time><extensions><speed>0.049939</speed><course>52.382812</course><hAcc>1.391702</hAcc><vAcc>1.017789</vAcc></extensions></trkpt>
      <trkpt lon="-82.145888" lat="33.556814"><ele>98.226334</ele><time>2020-03-22T14:48:12Z</time><extensions><speed>0.065347</speed><course>52.382812</course><hAcc>1.386117</hAcc><vAcc>1.009166</vAcc></extensions></trkpt>
      <trkpt lon="-82.145888" lat="33.556814"><ele>98.175705</ele><time>2020-03-22T14:48:13Z</time><extensions><speed>0.081744</speed><course>52.382812</course><hAcc>1.381810</hAcc><vAcc>1.003130</vAcc></extensions></trkpt>
      <trkpt lon="-82.145888" lat="33.556813"><ele>98.096397</ele><time>2020-03-22T14:48:14Z</time><extensions><speed>0.098883</speed><course>52.382812</course><hAcc>1.378739</hAcc><vAcc>0.999827</vAcc></extensions></trkpt>
      <trkpt lon="-82.145888" lat="33.556812"><ele>97.987541</ele><time>2020-03-22T14:48:15Z</time><extensions><speed>0.116489</speed><course>52.382812</course><hAcc>1.376763</hAcc><vAcc>0.999277</vAcc></extensions></trkpt>
      <trkpt lon="-82.145889" lat="33.556811"><ele>97.848763</ele><time>2020-03-22T14:48:16Z</time><extensions><speed>0.134232</speed><course>52.382812</course><hAcc>1.375649</hAcc><vAcc>1.001383</vAcc></extensions></trkpt>
      <trkpt lon="-82.145889" lat="33.556810"><ele>97.680214</ele><time>2020-03-22T14:48:17Z</time><extensions><speed>0.151716</speed><course>52.382812</course><hAcc>1.375073</hAcc><vAcc>1.005931</vAcc></extensions></trkpt>
      <trkpt lon="-82.145889" lat="33.556808"><ele>97.482689</ele><time>2020-03-22T14:48:18Z</time><extensions><speed>0.168468</speed><course>52.382812</course><hAcc>1.374617</hAcc><vAcc>1.012581</vAcc></extensions></trkpt>
      <trkpt lon="-82.145889" lat="33.556807"><ele>97.257820</ele><time>2020-03-22T14:48:19Z</time><extensions><speed>0.183922</speed><course>51.328125</course><hAcc>1.373773</hAcc><vAcc>1.020870</vAcc></extensions></trkpt>
      <trkpt lon="-82.145890" lat="33.556805"><ele>97.008133</ele><time>2020-03-22T14:48:20Z</time><extensions><speed>0.197415</speed><course>132.539062</course><hAcc>1.371947</hAcc><vAcc>1.030198</vAcc></extensions></trkpt>
      <trkpt lon="-82.145890" lat="33.556803"><ele>96.736862</ele><time>2020-03-22T14:48:21Z</time><extensions><speed>0.208494</speed><course>137.109375</course><hAcc>1.368466</hAcc><vAcc>1.039837</vAcc></extensions></trkpt>
      <trkpt lon="-82.145890" lat="33.556801"><ele>96.447716</ele><time>2020-03-22T14:48:22Z</time><extensions><speed>0.217063</speed><course>151.171875</course><hAcc>1.362645</hAcc><vAcc>1.049000</vAcc></extensions></trkpt>
      <trkpt lon="-82.145891" lat="33.556799"><ele>96.144661</ele><time>2020-03-22T14:48:23Z</time><extensions><speed>0.223087</speed><course>196.875000</course><hAcc>1.353906</hAcc><vAcc>1.056992</vAcc></extensions></trkpt>
      <trkpt lon="-82.145891" lat="33.556797"><ele>95.831764</ele><time>2020-03-22T14:48:24Z</time><extensions><speed>0.226470</speed><course>85.078125</course><hAcc>1.341857</hAcc><vAcc>1.063283</vAcc></extensions></trkpt>
      <trkpt lon="-82.145892" lat="33.556795"><ele>95.513023</ele><time>2020-03-22T14:48:25Z</time><extensions><speed>0.227051</speed><course>74.531250</course><hAcc>1.326335</hAcc><vAcc>1.067501</vAcc></extensions></trkpt>
      <trkpt lon="-82.145893" lat="33.556793"><ele>95.192299</ele><time>2020-03-22T14:48:26Z</time><extensions><speed>0.224548</speed><course>154.335938</course><hAcc>1.307451</hAcc><vAcc>1.069420</vAcc></extensions></trkpt>
      <trkpt lon="-82.145893" lat="33.556791"><ele>94.873268</ele><time>2020-03-22T14:48:27Z</time><extensions><speed>0.218616</speed><course>246.796875</course><hAcc>1.285631</hAcc><vAcc>1.068951</vAcc></extensions></trkpt>
      <trkpt lon="-82.145894" lat="33.556790"><ele>94.559380</ele><time>2020-03-22T14:48:28Z</time><extensions><speed>0.209274</speed><course>268.242188</course><hAcc>1.261653</hAcc><vAcc>1.066127</vAcc></extensions></trkpt>
      <trkpt lon="-82.145895" lat="33.556788"><ele>94.253799</ele><time>2020-03-22T14:48:29Z</time><extensions><speed>0.196943</speed><course>292.148438</course><hAcc>1.236661</hAcc><vAcc>1.061094</vAcc></extensions></trkpt>
      <trkpt lon="-82.145895" lat="33.556786"><ele>93.959412</ele><time>2020-03-22T14:48:30Z</time><extensions><speed>0.182254</speed><course>292.148438</course><hAcc>1.211922</hAcc><vAcc>1.054070</vAcc></extensions></trkpt>
      <trkpt lon="-82.145896" lat="33.556785"><ele>93.678879</ele><time>2020-03-22T14:48:31Z</time><extensions><speed>0.165872</speed><course>307.968750</course><hAcc>1.188377</hAcc><vAcc>1.045272</vAcc></extensions></trkpt>
      <trkpt lon="-82.145897" lat="33.556783"><ele>93.414795</ele><time>2020-03-22T14:48:32Z</time><extensions><speed>0.148278</speed><course>342.070312</course><hAcc>1.166493</hAcc><vAcc>1.034900</vAcc></extensions></trkpt>
      <trkpt lon="-82.145897" lat="33.556782"><ele>93.169579</ele><time>2020-03-22T14:48:33Z</time><extensions><speed>0.130030</speed><course>9.492188</course><hAcc>1.146374</hAcc><vAcc>1.023155</vAcc></extensions></trkpt>
      <trkpt lon="-82.145898" lat="33.556781"><ele>92.944954</ele><time>2020-03-22T14:48:34Z</time><extensions><speed>0.111830</speed><course>342.070312</course><hAcc>1.127914</hAcc><vAcc>1.010276</vAcc></extensions></trkpt>
      <trkpt lon="-82.145898" lat="33.556780"><ele>92.741707</ele><time>2020-03-22T14:48:35Z</time><extensions><speed>0.094270</speed><course>342.070312</course><hAcc>1.110940</hAcc><vAcc>0.996578</vAcc></extensions></trkpt>
      <trkpt lon="-82.145898" lat="33.556780"><ele>92.559784</ele><time>2020-03-22T14:48:36Z</time><extensions><speed>0.077804</speed><course>342.070312</course><hAcc>1.095340</hAcc><vAcc>0.982501</vAcc></extensions></trkpt>
      <trkpt lon="-82.145898" lat="33.556779"><ele>92.398445</ele><time>2020-03-22T14:48:37Z</time><extensions><speed>0.062752</speed><course>342.070312</course><hAcc>1.081172</hAcc><vAcc>0.968648</vAcc></extensions></trkpt>
      <trkpt lon="-82.145899" lat="33.556779"><ele>92.256477</ele><time>2020-03-22T14:48:38Z</time><extensions><speed>0.049311</speed><course>342.070312</course><hAcc>1.068730</hAcc><vAcc>0.955819</vAcc></extensions></trkpt>
      <trkpt lon="-82.145899" lat="33.556778"><ele>92.132317</ele><time>2020-03-22T14:48:39Z</time><extensions><speed>0.037592</speed><course>342.070312</course><hAcc>1.058574</hAcc><vAcc>0.945017</vAcc></extensions></trkpt>
      <trkpt lon="-82.145899" lat="33.556778"><ele>92.024162</ele><time>2020-03-22T14:48:40Z</time><extensions><speed>0.027630</speed><course>342.070312</course><hAcc>1.051398</hAcc><vAcc>0.937299</vAcc></extensions></trkpt>
      <trkpt lon="-82.145899" lat="33.556778"><ele>91.930061</ele><time>2020-03-22T14:48:41Z</time><extensions><speed>0.019372</speed><course>342.070312</course><hAcc>1.047755</hAcc><vAcc>0.933491</vAcc></extensions></trkpt>
      <trkpt lon="-82.145899" lat="33.556778"><ele>91.848145</ele><time>2020-03-22T14:48:42Z</time><extensions><speed>0.012729</speed><course>342.070312</course><hAcc>1.047892</hAcc><vAcc>0.934010</vAcc></extensions></trkpt>
      <trkpt lon="-82.145899" lat="33.556777"><ele>91.776711</ele><time>2020-03-22T14:48:43Z</time><extensions><speed>0.007690</speed><course>342.070312</course><hAcc>1.051717</hAcc><vAcc>0.938836</vAcc></extensions></trkpt>
      <trkpt lon="-82.145899" lat="33.556777"><ele>91.714317</ele><time>2020-03-22T14:48:44Z</time><extensions><speed>0.004675</speed><course>342.070312</course><hAcc>1.058794</hAcc><vAcc>0.947509</vAcc></extensions></trkpt>
      <trkpt lon="-82.145899" lat="33.556777"><ele>91.659851</ele><time>2020-03-22T14:48:45Z</time><extensions><speed>0.004628</speed><course>342.070312</course><hAcc>1.068348</hAcc><vAcc>0.959163</vAcc></extensions></trkpt>
      <trkpt lon="-82.145899" lat="33.556777"><ele>91.612396</ele><time>2020-03-22T14:48:46Z</time><extensions><speed>0.006331</speed><course>342.070312</course><hAcc>1.079416</hAcc><vAcc>0.972695</vAcc></extensions></trkpt>
      <trkpt lon="-82.145899" lat="33.556777"><ele>91.571114</ele><time>2020-03-22T14:48:47Z</time><extensions><speed>0.008129</speed><course>342.070312</course><hAcc>1.091108</hAcc><vAcc>0.987057</vAcc></extensions></trkpt>
      <trkpt lon="-82.145899" lat="33.556778"><ele>91.535156</ele><time>2020-03-22T14:48:48Z</time><extensions><speed>0.009558</speed><course>342.070312</course><hAcc>1.102743</hAcc><vAcc>1.001407</vAcc></extensions></trkpt>
      <trkpt lon="-82.145898" lat="33.556778"><ele>91.503662</ele><time>2020-03-22T14:48:49Z</time><extensions><speed>0.010533</speed><course>342.070312</course><hAcc>1.113832</hAcc><vAcc>1.015107</vAcc></extensions></trkpt>
      <trkpt lon="-82.145898" lat="33.556778"><ele>91.475746</ele><time>2020-03-22T14:48:50Z</time><extensions><speed>0.011068</speed><course>342.070312</course><hAcc>1.124054</hAcc><vAcc>1.027703</vAcc></extensions></trkpt>
      <trkpt lon="-82.145898" lat="33.556778"><ele>91.450554</ele><time>2020-03-22T14:48:51Z</time><extensions><speed>0.011224</speed><course>342.070312</course><hAcc>1.133213</hAcc><vAcc>1.038897</vAcc></extensions></trkpt>
      <trkpt lon="-82.145898" lat="33.556778"><ele>91.427338</ele><time>2020-03-22T14:48:52Z</time><extensions><speed>0.011071</speed><course>342.070312</course><hAcc>1.141210</hAcc><vAcc>1.048523</vAcc></extensions></trkpt>
      <trkpt lon="-82.145898" lat="33.556778"><ele>91.405418</ele><time>2020-03-22T14:48:53Z</time><extensions><speed>0.010675</speed><course>342.070312</course><hAcc>1.148014</hAcc><vAcc>1.056536</vAcc></extensions></trkpt>
      <trkpt lon="-82.145898" lat="33.556778"><ele>91.384224</ele><time>2020-03-22T14:48:54Z</time><extensions><speed>0.010088</speed><course>342.070312</course><hAcc>1.153647</hAcc><vAcc>1.063005</vAcc></extensions></trkpt>
      <trkpt lon="-82.145898" lat="33.556778"><ele>91.363213</ele><time>2020-03-22T14:48:55Z</time><extensions><speed>0.009354</speed><course>342.070312</course><hAcc>1.158192</hAcc><vAcc>1.068135</vAcc></extensions></trkpt>
      <trkpt lon="-82.145898" lat="33.556778"><ele>91.341942</ele><time>2020-03-22T14:48:56Z</time><extensions><speed>0.008532</speed><course>342.070312</course><hAcc>1.161814</hAcc><vAcc>1.072299</vAcc></extensions></trkpt>
      <trkpt lon="-82.145898" lat="33.556778"><ele>91.320099</ele><time>2020-03-22T14:48:57Z</time><extensions><speed>0.007679</speed><course>342.070312</course><hAcc>1.164807</hAcc><vAcc>1.076093</vAcc></extensions></trkpt>
      <trkpt lon="-82.145898" lat="33.556778"><ele>91.297424</ele><time>2020-03-22T14:48:58Z</time><extensions><speed>0.006811</speed><course>-1.000000</course><hAcc>1.167679</hAcc><vAcc>1.080411</vAcc></extensions></trkpt>
      <trkpt lon="-82.145898" lat="33.556778"><ele>91.273651</ele><time>2020-03-22T14:48:59Z</time><extensions><speed>0.005924</speed><course>-1.000000</course><hAcc>1.171268</hAcc><vAcc>1.086534</vAcc></extensions></trkpt>
      <trkpt lon="-82.145898" lat="33.556778"><ele>91.248497</ele><time>2020-03-22T14:49:00Z</time><extensions><speed>0.005029</speed><course>-1.000000</course><hAcc>1.176901</hAcc><vAcc>1.096217</vAcc></extensions></trkpt>
      <trkpt lon="-82.145898" lat="33.556779"><ele>91.221657</ele><time>2020-03-22T14:49:01Z</time><extensions><speed>0.004159</speed><course>-1.000000</course><hAcc>1.186593</hAcc><vAcc>1.111763</vAcc></extensions></trkpt>
      <trkpt lon="-82.145898" lat="33.556779"><ele>91.192886</ele><time>2020-03-22T14:49:02Z</time><extensions><speed>0.003395</speed><course>-1.000000</course><hAcc>1.203247</hAcc><vAcc>1.136028</vAcc></extensions></trkpt>
      <trkpt lon="-82.145898" lat="33.556779"><ele>91.162064</ele><time>2020-03-22T14:49:03Z</time><extensions><speed>0.002866</speed><course>-1.000000</course><hAcc>1.230799</hAcc><vAcc>1.172340</vAcc></extensions></trkpt>
      <trkpt lon="-82.145898" lat="33.556779"><ele>91.129257</ele><time>2020-03-22T14:49:04Z</time><extensions><speed>0.002652</speed><course>-1.000000</course><hAcc>1.274217</hAcc><vAcc>1.224275</vAcc></extensions></trkpt>
      <trkpt lon="-82.145898" lat="33.556779"><ele>91.094681</ele><time>2020-03-22T14:49:05Z</time><extensions><speed>0.002698</speed><course>-1.000000</course><hAcc>1.339221</hAcc><vAcc>1.295327</vAcc></extensions></trkpt>
      <trkpt lon="-82.145898" lat="33.556779"><ele>91.058647</ele><time>2020-03-22T14:49:06Z</time><extensions><speed>0.002872</speed><course>-1.000000</course><hAcc>1.431702</hAcc><vAcc>1.388525</vAcc></extensions></trkpt>
      <trkpt lon="-82.145898" lat="33.556779"><ele>91.021484</ele><time>2020-03-22T14:49:07Z</time><extensions><speed>0.003070</speed><course>-1.000000</course><hAcc>1.556933</hAcc><vAcc>1.506115</vAcc></extensions></trkpt>
      <trkpt lon="-82.145898" lat="33.556779"><ele>90.983521</ele><time>2020-03-22T14:49:08Z</time><extensions><speed>0.003225</speed><course>-1.000000</course><hAcc>1.718816</hAcc><vAcc>1.649369</vAcc></extensions></trkpt>
      <trkpt lon="-82.145898" lat="33.556779"><ele>90.945084</ele><time>2020-03-22T14:49:09Z</time><extensions><speed>0.003303</speed><course>-1.000000</course><hAcc>1.919398</hAcc><vAcc>1.818558</vAcc></extensions></trkpt>
      <trkpt lon="-82.145898" lat="33.556779"><ele>90.906464</ele><time>2020-03-22T14:49:10Z</time><extensions><speed>0.003322</speed><course>-1.000000</course><hAcc>2.158688</hAcc><vAcc>2.013006</vAcc></extensions></trkpt>
    </trkseg>
  </trk>
</gpx>