<?xml version="1.0" encoding="UTF-8"?>
<gpx version="1.1" creator="Apple Health Export" xmlns="http://www.topografix.com/GPX/1/1" xmlns:xsi="http://www.w3.org/2001/XMLSchema-instance" xsi:schemaLocation="http://www.topografix.com/GPX/1/1 http://www.topografix.com/GPX/1/1/gpx.xsd">
  <metadata>
    <time>2026-03-14T12:16:18Z</time>
  </metadata>
  <trk>
    <name>Route 2023-06-18 9:30pm</name>
    <trkseg>
      <trkpt lon="-82.148807" lat="33.554281"><ele>95.182199</ele><time>2023-06-19T01:24:16Z</time><extensions><speed>1.601743</speed><course>75.219449</course><hAcc>2.905847</hAcc><vAcc>1.738799</vAcc></extensions></trkpt>
      <trkpt lon="-82.148790" lat="33.554284"><ele>95.231740</ele><time>2023-06-19T01:24:17Z</time><extensions><speed>1.559195</speed><course>74.310551</course><hAcc>2.658238</hAcc><vAcc>1.543679</vAcc></extensions></trkpt>
      <trkpt lon="-82.148774" lat="33.554288"><ele>95.296637</ele><time>2023-06-19T01:24:18Z</time><extensions><speed>1.382298</speed><course>71.403941</course><hAcc>2.459421</hAcc><vAcc>1.388529</vAcc></extensions></trkpt>
      <trkpt lon="-82.148759" lat="33.554293"><ele>95.370973</ele><time>2023-06-19T01:24:19Z</time><extensions><speed>1.346158</speed><course>66.245684</course><hAcc>2.313797</hAcc><vAcc>1.267730</vAcc></extensions></trkpt>
      <trkpt lon="-82.148745" lat="33.554300"><ele>95.450103</ele><time>2023-06-19T01:24:20Z</time><extensions><speed>1.290406</speed><course>56.693738</course><hAcc>2.243712</hAcc><vAcc>1.175988</vAcc></extensions></trkpt>
      <trkpt lon="-82.148732" lat="33.554307"><ele>95.526222</ele><time>2023-06-19T01:24:21Z</time><extensions><speed>1.216067</speed><course>53.301900</course><hAcc>2.152799</hAcc><vAcc>1.108277</vAcc></extensions></trkpt>
      <trkpt lon="-82.148721" lat="33.554314"><ele>95.597770</ele><time>2023-06-19T01:24:22Z</time><extensions><speed>1.184418</speed><course>52.716140</course><hAcc>2.075630</hAcc><vAcc>1.059893</vAcc></extensions></trkpt>
      <trkpt lon="-82.148710" lat="33.554320"><ele>95.665931</ele><time>2023-06-19T01:24:23Z</time><extensions><speed>1.123116</speed><course>52.727768</course><hAcc>2.029152</hAcc><vAcc>1.026557</vAcc></extensions></trkpt>
      <trkpt lon="-82.148699" lat="33.554327"><ele>95.724698</ele><time>2023-06-19T01:24:24Z</time><extensions><speed>1.121014</speed><course>51.918464</course><hAcc>1.996585</hAcc><vAcc>1.004482</vAcc></extensions></trkpt>
      <trkpt lon="-82.148691" lat="33.554334"><ele>95.783288</ele><time>2023-06-19T01:24:25Z</time><extensions><speed>1.104266</speed><course>39.009956</course><hAcc>1.970410</hAcc><vAcc>0.990562</vAcc></extensions></trkpt>
      <trkpt lon="-82.148682" lat="33.554341"><ele>95.838701</ele><time>2023-06-19T01:24:26Z</time><extensions><speed>1.239165</speed><course>44.009277</course><hAcc>1.904567</hAcc><vAcc>0.982367</vAcc></extensions></trkpt>
      <trkpt lon="-82.148671" lat="33.554350"><ele>95.892879</ele><time>2023-06-19T01:24:27Z</time><extensions><speed>1.349658</speed><course>46.233438</course><hAcc>1.870396</hAcc><vAcc>0.978023</vAcc></extensions></trkpt>
      <trkpt lon="-82.148661" lat="33.554358"><ele>95.945024</ele><time>2023-06-19T01:24:28Z</time><extensions><speed>1.335187</speed><course>46.684422</course><hAcc>1.875081</hAcc><vAcc>0.976263</vAcc></extensions></trkpt>
      <trkpt lon="-82.148649" lat="33.554366"><ele>95.993661</ele><time>2023-06-19T01:24:29Z</time><extensions><speed>1.432450</speed><course>50.496676</course><hAcc>1.833538</hAcc><vAcc>0.976056</vAcc></extensions></trkpt>
      <trkpt lon="-82.148637" lat="33.554373"><ele>96.042947</ele><time>2023-06-19T01:24:30Z</time><extensions><speed>1.426548</speed><course>53.611111</course><hAcc>1.837227</hAcc><vAcc>0.976831</vAcc></extensions></trkpt>
      <trkpt lon="-82.148624" lat="33.554381"><ele>96.087838</ele><time>2023-06-19T01:24:31Z</time><extensions><speed>1.554681</speed><course>55.743360</course><hAcc>1.797551</hAcc><vAcc>0.978080</vAcc></extensions></trkpt>
      <trkpt lon="-82.148610" lat="33.554388"><ele>96.129115</ele><time>2023-06-19T01:24:32Z</time><extensions><speed>1.553783</speed><course>58.237624</course><hAcc>1.797790</hAcc><vAcc>0.979510</vAcc></extensions></trkpt>
      <trkpt lon="-82.148595" lat="33.554394"><ele>96.169095</ele><time>2023-06-19T01:24:33Z</time><extensions><speed>1.520402</speed><course>61.372258</course><hAcc>1.784956</hAcc><vAcc>0.980940</vAcc></extensions></trkpt>
      <trkpt lon="-82.148581" lat="33.554400"><ele>96.203304</ele><time>2023-06-19T01:24:34Z</time><extensions><speed>1.484452</speed><course>64.565958</course><hAcc>1.745500</hAcc><vAcc>0.982294</vAcc></extensions></trkpt>
      <trkpt lon="-82.148567" lat="33.554404"><ele>96.233435</ele><time>2023-06-19T01:24:35Z</time><extensions><speed>1.379768</speed><course>67.444179</course><hAcc>1.761550</hAcc><vAcc>0.983473</vAcc></extensions></trkpt>
      <trkpt lon="-82.148554" lat="33.554408"><ele>96.255062</ele><time>2023-06-19T01:24:36Z</time><extensions><speed>1.383698</speed><course>67.858301</course><hAcc>1.761187</hAcc><vAcc>0.984500</vAcc></extensions></trkpt>
      <trkpt lon="-82.148540" lat="33.554412"><ele>96.272143</ele><time>2023-06-19T01:24:37Z</time><extensions><speed>1.377067</speed><course>69.262750</course><hAcc>1.736914</hAcc><vAcc>0.985337</vAcc></extensions></trkpt>
      <trkpt lon="-82.148526" lat="33.554415"><ele>96.286045</ele><time>2023-06-19T01:24:38Z</time><extensions><speed>1.399551</speed><course>73.564249</course><hAcc>1.714662</hAcc><vAcc>0.985972</vAcc></extensions></trkpt>
      <trkpt lon="-82.148512" lat="33.554418"><ele>96.298578</ele><time>2023-06-19T01:24:39Z</time><extensions><speed>1.338118</speed><course>69.146373</course><hAcc>1.715134</hAcc><vAcc>0.986411</vAcc></extensions></trkpt>
      <trkpt lon="-82.148498" lat="33.554422"><ele>96.309863</ele><time>2023-06-19T01:24:40Z</time><extensions><speed>1.350638</speed><course>72.977992</course><hAcc>1.708488</hAcc><vAcc>0.986539</vAcc></extensions></trkpt>
      <trkpt lon="-82.148484" lat="33.554424"><ele>96.326791</ele><time>2023-06-19T01:24:41Z</time><extensions><speed>1.328518</speed><course>81.732083</course><hAcc>1.683751</hAcc><vAcc>0.986378</vAcc></extensions></trkpt>
      <trkpt lon="-82.148470" lat="33.554424"><ele>96.342000</ele><time>2023-06-19T01:24:42Z</time><extensions><speed>1.334508</speed><course>85.622675</course><hAcc>1.669894</hAcc><vAcc>0.985934</vAcc></extensions></trkpt>
      <trkpt lon="-82.148455" lat="33.554424"><ele>96.356253</ele><time>2023-06-19T01:24:43Z</time><extensions><speed>1.351334</speed><course>85.120667</course><hAcc>1.670962</hAcc><vAcc>0.985233</vAcc></extensions></trkpt>
      <trkpt lon="-82.148441" lat="33.554425"><ele>96.374149</ele><time>2023-06-19T01:24:44Z</time><extensions><speed>1.311890</speed><course>84.348851</course><hAcc>1.648216</hAcc><vAcc>0.984313</vAcc></extensions></trkpt>
      <trkpt lon="-82.148427" lat="33.554426"><ele>96.393240</ele><time>2023-06-19T01:24:45Z</time><extensions><speed>1.305119</speed><course>83.609907</course><hAcc>1.641740</hAcc><vAcc>0.983287</vAcc></extensions></trkpt>
      <trkpt lon="-82.148413" lat="33.554426"><ele>96.411353</ele><time>2023-06-19T01:24:46Z</time><extensions><speed>1.300375</speed><course>86.319631</course><hAcc>1.638531</hAcc><vAcc>0.982241</vAcc></extensions></trkpt>
      <trkpt lon="-82.148399" lat="33.554427"><ele>96.430272</ele><time>2023-06-19T01:24:47Z</time><extensions><speed>1.297751</speed><course>87.154191</course><hAcc>1.624051</hAcc><vAcc>0.981309</vAcc></extensions></trkpt>
      <trkpt lon="-82.148385" lat="33.554427"><ele>96.452874</ele><time>2023-06-19T01:24:48Z</time><extensions><speed>1.356534</speed><course>88.337649</course><hAcc>1.627179</hAcc><vAcc>0.980616</vAcc></extensions></trkpt>
      <trkpt lon="-82.148371" lat="33.554427"><ele>96.478975</ele><time>2023-06-19T01:24:49Z</time><extensions><speed>1.324892</speed><course>85.514535</course><hAcc>1.624491</hAcc><vAcc>0.980293</vAcc></extensions></trkpt>
      <trkpt lon="-82.148357" lat="33.554427"><ele>96.506101</ele><time>2023-06-19T01:24:50Z</time><extensions><speed>1.301053</speed><course>86.219873</course><hAcc>1.642510</hAcc><vAcc>0.980406</vAcc></extensions></trkpt>
      <trkpt lon="-82.148344" lat="33.554428"><ele>96.532729</ele><time>2023-06-19T01:24:51Z</time><extensions><speed>1.312037</speed><course>86.368984</course><hAcc>1.675308</hAcc><vAcc>0.981014</vAcc></extensions></trkpt>
      <trkpt lon="-82.148330" lat="33.554429"><ele>96.559611</ele><time>2023-06-19T01:24:52Z</time><extensions><speed>1.305686</speed><course>85.846386</course><hAcc>1.684562</hAcc><vAcc>0.982171</vAcc></extensions></trkpt>
      <trkpt lon="-82.148315" lat="33.554429"><ele>96.588446</ele><time>2023-06-19T01:24:53Z</time><extensions><speed>1.331051</speed><course>87.647664</course><hAcc>1.699084</hAcc><vAcc>0.983966</vAcc></extensions></trkpt>
      <trkpt lon="-82.148301" lat="33.554429"><ele>96.621243</ele><time>2023-06-19T01:24:54Z</time><extensions><speed>1.300817</speed><course>93.228641</course><hAcc>1.680897</hAcc><vAcc>0.986532</vAcc></extensions></trkpt>
      <trkpt lon="-82.148287" lat="33.554428"><ele>96.658111</ele><time>2023-06-19T01:24:55Z</time><extensions><speed>1.259735</speed><course>94.707113</course><hAcc>1.735128</hAcc><vAcc>0.989921</vAcc></extensions></trkpt>
      <trkpt lon="-82.148273" lat="33.554428"><ele>96.703262</ele><time>2023-06-19T01:24:56Z</time><extensions><speed>1.264031</speed><course>93.231425</course><hAcc>1.831118</hAcc><vAcc>0.994025</vAcc></extensions></trkpt>
      <trkpt lon="-82.148259" lat="33.554427"><ele>96.754764</ele><time>2023-06-19T01:24:57Z</time><extensions><speed>1.245530</speed><course>91.596322</course><hAcc>1.851432</hAcc><vAcc>0.998848</vAcc></extensions></trkpt>
      <trkpt lon="-82.148245" lat="33.554427"><ele>96.806158</ele><time>2023-06-19T01:24:58Z</time><extensions><speed>1.256179</speed><course>89.031131</course><hAcc>1.907509</hAcc><vAcc>1.004270</vAcc></extensions></trkpt>
      <trkpt lon="-82.148231" lat="33.554428"><ele>96.866367</ele><time>2023-06-19T01:24:59Z</time><extensions><speed>1.266934</speed><course>87.981144</course><hAcc>1.898055</hAcc><vAcc>1.010050</vAcc></extensions></trkpt>
      <trkpt lon="-82.148218" lat="33.554428"><ele>96.924700</ele><time>2023-06-19T01:25:00Z</time><extensions><speed>1.279058</speed><course>86.801578</course><hAcc>1.902535</hAcc><vAcc>1.015997</vAcc></extensions></trkpt>
      <trkpt lon="-82.148204" lat="33.554429"><ele>96.982778</ele><time>2023-06-19T01:25:01Z</time><extensions><speed>1.264772</speed><course>86.851069</course><hAcc>1.894331</hAcc><vAcc>1.021879</vAcc></extensions></trkpt>
      <trkpt lon="-82.148190" lat="33.554430"><ele>97.039495</ele><time>2023-06-19T01:25:02Z</time><extensions><speed>1.305320</speed><course>86.312330</course><hAcc>1.885703</hAcc><vAcc>1.027556</vAcc></extensions></trkpt>
      <trkpt lon="-82.148176" lat="33.554431"><ele>97.093228</ele><time>2023-06-19T01:25:03Z</time><extensions><speed>1.345273</speed><course>86.339528</course><hAcc>1.939239</hAcc><vAcc>1.032848</vAcc></extensions></trkpt>
      <trkpt lon="-82.148162" lat="33.554432"><ele>97.148869</ele><time>2023-06-19T01:25:04Z</time><extensions><speed>1.365718</speed><course>86.332576</course><hAcc>1.978057</hAcc><vAcc>1.037564</vAcc></extensions></trkpt>
      <trkpt lon="-82.148148" lat="33.554433"><ele>97.203896</ele><time>2023-06-19T01:25:05Z</time><extensions><speed>1.400638</speed><course>86.117926</course><hAcc>1.957143</hAcc><vAcc>1.041574</vAcc></extensions></trkpt>
      <trkpt lon="-82.148134" lat="33.554434"><ele>97.256423</ele><time>2023-06-19T01:25:06Z</time><extensions><speed>1.385537</speed><course>85.573814</course><hAcc>1.956366</hAcc><vAcc>1.044757</vAcc></extensions></trkpt>
      <trkpt lon="-82.148119" lat="33.554435"><ele>97.311253</ele><time>2023-06-19T01:25:07Z</time><extensions><speed>1.382075</speed><course>84.703229</course><hAcc>1.902042</hAcc><vAcc>1.047060</vAcc></extensions></trkpt>
      <trkpt lon="-82.148105" lat="33.554436"><ele>97.363355</ele><time>2023-06-19T01:25:08Z</time><extensions><speed>1.358316</speed><course>84.546370</course><hAcc>1.912476</hAcc><vAcc>1.048482</vAcc></extensions></trkpt>
      <trkpt lon="-82.148091" lat="33.554437"><ele>97.410464</ele><time>2023-06-19T01:25:09Z</time><extensions><speed>1.369373</speed><course>85.949632</course><hAcc>1.962395</hAcc><vAcc>1.049029</vAcc></extensions></trkpt>
      <trkpt lon="-82.148077" lat="33.554438"><ele>97.449109</ele><time>2023-06-19T01:25:10Z</time><extensions><speed>1.330838</speed><course>85.330698</course><hAcc>1.952010</hAcc><vAcc>1.048731</vAcc></extensions></trkpt>
      <trkpt lon="-82.148063" lat="33.554439"><ele>97.484646</ele><time>2023-06-19T01:25:11Z</time><extensions><speed>1.390272</speed><course>84.890871</course><hAcc>1.954957</hAcc><vAcc>1.047577</vAcc></extensions></trkpt>
      <trkpt lon="-82.148050" lat="33.554440"><ele>97.510700</ele><time>2023-06-19T01:25:12Z</time><extensions><speed>1.234306</speed><course>84.387969</course><hAcc>1.912933</hAcc><vAcc>1.045625</vAcc></extensions></trkpt>
      <trkpt lon="-82.148038" lat="33.554441"><ele>97.529957</ele><time>2023-06-19T01:25:13Z</time><extensions><speed>1.207791</speed><course>85.218024</course><hAcc>1.897752</hAcc><vAcc>1.042954</vAcc></extensions></trkpt>
      <trkpt lon="-82.148025" lat="33.554443"><ele>97.544907</ele><time>2023-06-19T01:25:14Z</time><extensions><speed>1.258090</speed><course>85.532734</course><hAcc>1.891979</hAcc><vAcc>1.039693</vAcc></extensions></trkpt>
      <trkpt lon="-82.148013" lat="33.554444"><ele>97.551757</ele><time>2023-06-19T01:25:15Z</time><extensions><speed>1.138807</speed><course>86.234377</course><hAcc>1.837578</hAcc><vAcc>1.035985</vAcc></extensions></trkpt>
      <trkpt lon="-82.148001" lat="33.554445"><ele>97.550262</ele><time>2023-06-19T01:25:16Z</time><extensions><speed>1.119744</speed><course>85.607085</course><hAcc>1.820036</hAcc><vAcc>1.032064</vAcc></extensions></trkpt>
      <trkpt lon="-82.147989" lat="33.554446"><ele>97.541678</ele><time>2023-06-19T01:25:17Z</time><extensions><speed>1.200575</speed><course>84.332369</course><hAcc>1.822790</hAcc><vAcc>1.028097</vAcc></extensions></trkpt>
      <trkpt lon="-82.147977" lat="33.554448"><ele>97.524907</ele><time>2023-06-19T01:25:18Z</time><extensions><speed>1.138930</speed><course>82.788469</course><hAcc>1.805696</hAcc><vAcc>1.024112</vAcc></extensions></trkpt>
      <trkpt lon="-82.147965" lat="33.554450"><ele>97.500135</ele><time>2023-06-19T01:25:19Z</time><extensions><speed>1.178163</speed><course>82.308475</course><hAcc>1.775370</hAcc><vAcc>1.020153</vAcc></extensions></trkpt>
      <trkpt lon="-82.147952" lat="33.554452"><ele>97.465156</ele><time>2023-06-19T01:25:20Z</time><extensions><speed>1.145592</speed><course>77.947080</course><hAcc>1.728691</hAcc><vAcc>1.016291</vAcc></extensions></trkpt>
      <trkpt lon="-82.147940" lat="33.554455"><ele>97.419266</ele><time>2023-06-19T01:25:21Z</time><extensions><speed>1.183099</speed><course>70.985711</course><hAcc>1.735427</hAcc><vAcc>1.012556</vAcc></extensions></trkpt>
      <trkpt lon="-82.147928" lat="33.554460"><ele>97.368273</ele><time>2023-06-19T01:25:22Z</time><extensions><speed>1.220205</speed><course>66.776055</course><hAcc>1.732059</hAcc><vAcc>1.008968</vAcc></extensions></trkpt>
      <trkpt lon="-82.147916" lat="33.554465"><ele>97.313517</ele><time>2023-06-19T01:25:23Z</time><extensions><speed>1.227750</speed><course>65.472969</course><hAcc>1.705238</hAcc><vAcc>1.005573</vAcc></extensions></trkpt>
      <trkpt lon="-82.147903" lat="33.554470"><ele>97.256946</ele><time>2023-06-19T01:25:24Z</time><extensions><speed>1.289734</speed><course>66.750119</course><hAcc>1.694155</hAcc><vAcc>1.002421</vAcc></extensions></trkpt>
      <trkpt lon="-82.147891" lat="33.554475"><ele>97.199078</ele><time>2023-06-19T01:25:25Z</time><extensions><speed>1.306773</speed><course>65.770575</course><hAcc>1.655500</hAcc><vAcc>0.999478</vAcc></extensions></trkpt>
      <trkpt lon="-82.147878" lat="33.554480"><ele>97.139866</ele><time>2023-06-19T01:25:26Z</time><extensions><speed>1.312178</speed><course>65.723108</course><hAcc>1.649325</hAcc><vAcc>0.996713</vAcc></extensions></trkpt>
      <trkpt lon="-82.147865" lat="33.554486"><ele>97.079861</ele><time>2023-06-19T01:25:27Z</time><extensions><speed>1.305563</speed><course>63.310797</course><hAcc>1.652348</hAcc><vAcc>0.994119</vAcc></extensions></trkpt>
      <trkpt lon="-82.147852" lat="33.554492"><ele>97.014288</ele><time>2023-06-19T01:25:28Z</time><extensions><speed>1.349435</speed><course>60.062602</course><hAcc>1.626435</hAcc><vAcc>0.991699</vAcc></extensions></trkpt>
      <trkpt lon="-82.147840" lat="33.554498"><ele>96.945922</ele><time>2023-06-19T01:25:29Z</time><extensions><speed>1.335313</speed><course>59.135868</course><hAcc>1.628561</hAcc><vAcc>0.989491</vAcc></extensions></trkpt>
      <trkpt lon="-82.147827" lat="33.554504"><ele>96.881599</ele><time>2023-06-19T01:25:30Z</time><extensions><speed>1.372445</speed><course>60.238576</course><hAcc>1.615673</hAcc><vAcc>0.987413</vAcc></extensions></trkpt>
      <trkpt lon="-82.147814" lat="33.554511"><ele>96.812396</ele><time>2023-06-19T01:25:31Z</time><extensions><speed>1.391966</speed><course>59.852943</course><hAcc>1.609164</hAcc><vAcc>0.985420</vAcc></extensions></trkpt>
      <trkpt lon="-82.147802" lat="33.554517"><ele>96.738498</ele><time>2023-06-19T01:25:32Z</time><extensions><speed>1.411159</speed><course>60.109487</course><hAcc>1.623301</hAcc><vAcc>0.983494</vAcc></extensions></trkpt>
      <trkpt lon="-82.147788" lat="33.554524"><ele>96.658918</ele><time>2023-06-19T01:25:33Z</time><extensions><speed>1.445286</speed><course>59.411308</course><hAcc>1.602112</hAcc><vAcc>0.981579</vAcc></extensions></trkpt>
      <trkpt lon="-82.147775" lat="33.554531"><ele>96.580658</ele><time>2023-06-19T01:25:34Z</time><extensions><speed>1.429135</speed><course>63.049684</course><hAcc>1.604556</hAcc><vAcc>0.979646</vAcc></extensions></trkpt>
      <trkpt lon="-82.147762" lat="33.554537"><ele>96.505078</ele><time>2023-06-19T01:25:35Z</time><extensions><speed>1.410168</speed><course>64.574281</course><hAcc>1.616287</hAcc><vAcc>0.977725</vAcc></extensions></trkpt>
      <trkpt lon="-82.147748" lat="33.554542"><ele>96.425708</ele><time>2023-06-19T01:25:36Z</time><extensions><speed>1.391446</speed><course>69.087844</course><hAcc>1.593622</hAcc><vAcc>0.975791</vAcc></extensions></trkpt>
      <trkpt lon="-82.147734" lat="33.554546"><ele>96.349406</ele><time>2023-06-19T01:25:37Z</time><extensions><speed>1.396811</speed><course>70.865533</course><hAcc>1.614088</hAcc><vAcc>0.973826</vAcc></extensions></trkpt>
      <trkpt lon="-82.147720" lat="33.554550"><ele>96.271785</ele><time>2023-06-19T01:25:38Z</time><extensions><speed>1.386267</speed><course>73.972856</course><hAcc>1.621849</hAcc><vAcc>0.971801</vAcc></extensions></trkpt>
      <trkpt lon="-82.147706" lat="33.554554"><ele>96.197470</ele><time>2023-06-19T01:25:39Z</time><extensions><speed>1.381789</speed><course>73.631389</course><hAcc>1.634627</hAcc><vAcc>0.969755</vAcc></extensions></trkpt>
      <trkpt lon="-82.147692" lat="33.554558"><ele>96.124810</ele><time>2023-06-19T01:25:40Z</time><extensions><speed>1.374261</speed><course>71.257425</course><hAcc>1.649551</hAcc><vAcc>0.967663</vAcc></extensions></trkpt>
      <trkpt lon="-82.147678" lat="33.554562"><ele>96.055976</ele><time>2023-06-19T01:25:41Z</time><extensions><speed>1.310908</speed><course>74.152764</course><hAcc>1.659457</hAcc><vAcc>0.965505</vAcc></extensions></trkpt>
      <trkpt lon="-82.147665" lat="33.554567"><ele>95.989800</ele><time>2023-06-19T01:25:42Z</time><extensions><speed>1.323746</speed><course>69.572435</course><hAcc>1.654308</hAcc><vAcc>0.963278</vAcc></extensions></trkpt>
      <trkpt lon="-82.147652" lat="33.554572"><ele>95.927838</ele><time>2023-06-19T01:25:43Z</time><extensions><speed>1.315585</speed><course>66.688324</course><hAcc>1.657351</hAcc><vAcc>0.960977</vAcc></extensions></trkpt>
      <trkpt lon="-82.147639" lat="33.554578"><ele>95.865762</ele><time>2023-06-19T01:25:44Z</time><extensions><speed>1.317674</speed><course>64.527002</course><hAcc>1.662741</hAcc><vAcc>0.958657</vAcc></extensions></trkpt>
      <trkpt lon="-82.147626" lat="33.554584"><ele>95.811597</ele><time>2023-06-19T01:25:45Z</time><extensions><speed>1.293769</speed><course>61.500859</course><hAcc>1.661009</hAcc><vAcc>0.956414</vAcc></extensions></trkpt>
      <trkpt lon="-82.147614" lat="33.554592"><ele>95.766351</ele><time>2023-06-19T01:25:46Z</time><extensions><speed>1.337150</speed><course>57.351202</course><hAcc>1.633442</hAcc><vAcc>0.954292</vAcc></extensions></trkpt>
      <trkpt lon="-82.147602" lat="33.554599"><ele>95.718106</ele><time>2023-06-19T01:25:47Z</time><extensions><speed>1.302513</speed><course>56.416644</course><hAcc>1.650316</hAcc><vAcc>0.952347</vAcc></extensions></trkpt>
      <trkpt lon="-82.147590" lat="33.554607"><ele>95.672072</ele><time>2023-06-19T01:25:48Z</time><extensions><speed>1.343890</speed><course>60.180401</course><hAcc>1.632402</hAcc><vAcc>0.950587</vAcc></extensions></trkpt>
      <trkpt lon="-82.147577" lat="33.554614"><ele>95.620519</ele><time>2023-06-19T01:25:49Z</time><extensions><speed>1.344028</speed><course>57.910551</course><hAcc>1.621911</hAcc><vAcc>0.949049</vAcc></extensions></trkpt>
      <trkpt lon="-82.147565" lat="33.554621"><ele>95.567597</ele><time>2023-06-19T01:25:50Z</time><extensions><speed>1.289367</speed><course>62.950523</course><hAcc>1.639848</hAcc><vAcc>0.947761</vAcc></extensions></trkpt>
      <trkpt lon="-82.147552" lat="33.554627"><ele>95.507400</ele><time>2023-06-19T01:25:51Z</time><extensions><speed>1.350543</speed><course>63.334479</course><hAcc>1.612961</hAcc><vAcc>0.946720</vAcc></extensions></trkpt>
      <trkpt lon="-82.147538" lat="33.554633"><ele>95.437755</ele><time>2023-06-19T01:25:52Z</time><extensions><speed>1.383934</speed><course>71.794379</course><hAcc>1.618109</hAcc><vAcc>0.945941</vAcc></extensions></trkpt>
      <trkpt lon="-82.147524" lat="33.554638"><ele>95.361368</ele><time>2023-06-19T01:25:53Z</time><extensions><speed>1.409714</speed><course>67.334207</course><hAcc>1.608785</hAcc><vAcc>0.945404</vAcc></extensions></trkpt>
      <trkpt lon="-82.147510" lat="33.554645"><ele>95.287865</ele><time>2023-06-19T01:25:54Z</time><extensions><speed>1.497913</speed><course>66.336986</course><hAcc>1.590969</hAcc><vAcc>0.945102</vAcc></extensions></trkpt>
      <trkpt lon="-82.147495" lat="33.554650"><ele>95.211726</ele><time>2023-06-19T01:25:55Z</time><extensions><speed>1.459296</speed><course>69.113804</course><hAcc>1.598899</hAcc><vAcc>0.944985</vAcc></extensions></trkpt>
      <trkpt lon="-82.147481" lat="33.554656"><ele>95.128960</ele><time>2023-06-19T01:25:56Z</time><extensions><speed>1.499656</speed><course>66.443291</course><hAcc>1.574701</hAcc><vAcc>0.945057</vAcc></extensions></trkpt>
      <trkpt lon="-82.147467" lat="33.554661"><ele>95.033536</ele><time>2023-06-19T01:25:57Z</time><extensions><speed>1.494371</speed><course>64.236534</course><hAcc>1.569889</hAcc><vAcc>0.945265</vAcc></extensions></trkpt>
      <trkpt lon="-82.147453" lat="33.554667"><ele>94.926899</ele><time>2023-06-19T01:25:58Z</time><extensions><speed>1.458390</speed><course>64.785930</course><hAcc>1.578026</hAcc><vAcc>0.945558</vAcc></extensions></trkpt>
      <trkpt lon="-82.147439" lat="33.554673"><ele>94.811695</ele><time>2023-06-19T01:25:59Z</time><extensions><speed>1.474266</speed><course>65.225978</course><hAcc>1.563736</hAcc><vAcc>0.945905</vAcc></extensions></trkpt>
      <trkpt lon="-82.147426" lat="33.554678"><ele>94.689844</ele><time>2023-06-19T01:26:00Z</time><extensions><speed>1.459218</speed><course>64.808169</course><hAcc>1.567159</hAcc><vAcc>0.946280</vAcc></extensions></trkpt>
      <trkpt lon="-82.147412" lat="33.554684"><ele>94.567125</ele><time>2023-06-19T01:26:01Z</time><extensions><speed>1.449969</speed><course>63.934446</course><hAcc>1.560776</hAcc><vAcc>0.946655</vAcc></extensions></trkpt>
      <trkpt lon="-82.147399" lat="33.554690"><ele>94.446193</ele><time>2023-06-19T01:26:02Z</time><extensions><speed>1.440479</speed><course>62.904306</course><hAcc>1.564309</hAcc><vAcc>0.947006</vAcc></extensions></trkpt>
      <trkpt lon="-82.147386" lat="33.554696"><ele>94.326791</ele><time>2023-06-19T01:26:03Z</time><extensions><speed>1.448403</speed><course>62.849820</course><hAcc>1.566386</hAcc><vAcc>0.947302</vAcc></extensions></trkpt>
      <trkpt lon="-82.147373" lat="33.554702"><ele>94.209438</ele><time>2023-06-19T01:26:04Z</time><extensions><speed>1.437384</speed><course>56.783174</course><hAcc>1.536601</hAcc><vAcc>0.947518</vAcc></extensions></trkpt>
      <trkpt lon="-82.147360" lat="33.554709"><ele>94.096666</ele><time>2023-06-19T01:26:05Z</time><extensions><speed>1.461884</speed><course>56.043524</course><hAcc>1.589080</hAcc><vAcc>0.947626</vAcc></extensions></trkpt>
      <trkpt lon="-82.147348" lat="33.554716"><ele>93.990292</ele><time>2023-06-19T01:26:06Z</time><extensions><speed>1.352722</speed><course>57.312855</course><hAcc>1.622092</hAcc><vAcc>0.947628</vAcc></extensions></trkpt>
      <trkpt lon="-82.147337" lat="33.554723"><ele>93.889328</ele><time>2023-06-19T01:26:07Z</time><extensions><speed>1.307733</speed><course>58.497645</course><hAcc>1.638340</hAcc><vAcc>0.947524</vAcc></extensions></trkpt>
      <trkpt lon="-82.147326" lat="33.554729"><ele>93.795339</ele><time>2023-06-19T01:26:08Z</time><extensions><speed>1.297966</speed><course>58.055215</course><hAcc>1.637567</hAcc><vAcc>0.947326</vAcc></extensions></trkpt>
      <trkpt lon="-82.147315" lat="33.554735"><ele>93.708987</ele><time>2023-06-19T01:26:09Z</time><extensions><speed>1.187578</speed><course>59.098141</course><hAcc>1.615570</hAcc><vAcc>0.947034</vAcc></extensions></trkpt>
      <trkpt lon="-82.147305" lat="33.554741"><ele>93.632062</ele><time>2023-06-19T01:26:10Z</time><extensions><speed>1.164207</speed><course>59.148111</course><hAcc>1.609717</hAcc><vAcc>0.946685</vAcc></extensions></trkpt>
      <trkpt lon="-82.147296" lat="33.554747"><ele>93.562231</ele><time>2023-06-19T01:26:11Z</time><extensions><speed>1.199000</speed><course>58.805019</course><hAcc>1.617045</hAcc><vAcc>0.946312</vAcc></extensions></trkpt>
      <trkpt lon="-82.147287" lat="33.554753"><ele>93.496748</ele><time>2023-06-19T01:26:12Z</time><extensions><speed>1.144295</speed><course>56.448881</course><hAcc>1.591315</hAcc><vAcc>0.945963</vAcc></extensions></trkpt>
      <trkpt lon="-82.147278" lat="33.554759"><ele>93.424933</ele><time>2023-06-19T01:26:13Z</time><extensions><speed>1.209410</speed><course>54.285326</course><hAcc>1.591554</hAcc><vAcc>0.945672</vAcc></extensions></trkpt>
      <trkpt lon="-82.147269" lat="33.554766"><ele>93.357934</ele><time>2023-06-19T01:26:14Z</time><extensions><speed>1.138215</speed><course>50.885387</course><hAcc>1.569645</hAcc><vAcc>0.945590</vAcc></extensions></trkpt>
      <trkpt lon="-82.147261" lat="33.554773"><ele>93.294146</ele><time>2023-06-19T01:26:15Z</time><extensions><speed>1.127185</speed><course>52.110575</course><hAcc>1.576608</hAcc><vAcc>0.945820</vAcc></extensions></trkpt>
      <trkpt lon="-82.147253" lat="33.554779"><ele>93.232894</ele><time>2023-06-19T01:26:16Z</time><extensions><speed>1.198204</speed><course>50.187272</course><hAcc>1.575583</hAcc><vAcc>0.946408</vAcc></extensions></trkpt>
      <trkpt lon="-82.147246" lat="33.554787"><ele>93.175027</ele><time>2023-06-19T01:26:17Z</time><extensions><speed>1.105634</speed><course>43.800483</course><hAcc>1.555520</hAcc><vAcc>0.947444</vAcc></extensions></trkpt>
      <trkpt lon="-82.147239" lat="33.554795"><ele>93.120770</ele><time>2023-06-19T01:26:18Z</time><extensions><speed>1.171539</speed><course>41.181974</course><hAcc>1.559003</hAcc><vAcc>0.948963</vAcc></extensions></trkpt>
      <trkpt lon="-82.147233" lat="33.554803"><ele>93.067438</ele><time>2023-06-19T01:26:19Z</time><extensions><speed>1.056181</speed><course>37.629514</course><hAcc>1.540500</hAcc><vAcc>0.951008</vAcc></extensions></trkpt>
      <trkpt lon="-82.147227" lat="33.554811"><ele>93.018316</ele><time>2023-06-19T01:26:20Z</time><extensions><speed>1.058028</speed><course>35.628355</course><hAcc>1.540938</hAcc><vAcc>0.953579</vAcc></extensions></trkpt>
      <trkpt lon="-82.147222" lat="33.554820"><ele>92.970090</ele><time>2023-06-19T01:26:21Z</time><extensions><speed>1.130448</speed><course>32.495229</course><hAcc>1.544988</hAcc><vAcc>0.956622</vAcc></extensions></trkpt>
      <trkpt lon="-82.147217" lat="33.554829"><ele>92.918347</ele><time>2023-06-19T01:26:22Z</time><extensions><speed>1.081818</speed><course>35.998808</course><hAcc>1.533408</hAcc><vAcc>0.960049</vAcc></extensions></trkpt>
      <trkpt lon="-82.147211" lat="33.554839"><ele>92.868083</ele><time>2023-06-19T01:26:23Z</time><extensions><speed>1.133571</speed><course>29.858193</course><hAcc>1.530233</hAcc><vAcc>0.963751</vAcc></extensions></trkpt>
      <trkpt lon="-82.147207" lat="33.554848"><ele>92.821357</ele><time>2023-06-19T01:26:24Z</time><extensions><speed>1.101421</speed><course>29.010947</course><hAcc>1.516951</hAcc><vAcc>0.967657</vAcc></extensions></trkpt>
      <trkpt lon="-82.147202" lat="33.554857"><ele>92.775235</ele><time>2023-06-19T01:26:25Z</time><extensions><speed>1.099098</speed><course>30.016031</course><hAcc>1.528321</hAcc><vAcc>0.971773</vAcc></extensions></trkpt>
      <trkpt lon="-82.147197" lat="33.554867"><ele>92.729711</ele><time>2023-06-19T01:26:26Z</time><extensions><speed>1.107307</speed><course>28.183985</course><hAcc>1.541702</hAcc><vAcc>0.975940</vAcc></extensions></trkpt>
      <trkpt lon="-82.147193" lat="33.554876"><ele>92.686015</ele><time>2023-06-19T01:26:27Z</time><extensions><speed>1.106774</speed><course>28.000499</course><hAcc>1.527697</hAcc><vAcc>0.980059</vAcc></extensions></trkpt>
      <trkpt lon="-82.147188" lat="33.554885"><ele>92.648538</ele><time>2023-06-19T01:26:28Z</time><extensions><speed>1.134456</speed><course>26.031786</course><hAcc>1.530273</hAcc><vAcc>0.983898</vAcc></extensions></trkpt>
      <trkpt lon="-82.147184" lat="33.554895"><ele>92.605136</ele><time>2023-06-19T01:26:29Z</time><extensions><speed>1.165472</speed><course>25.892918</course><hAcc>1.539684</hAcc><vAcc>0.987313</vAcc></extensions></trkpt>
      <trkpt lon="-82.147180" lat="33.554905"><ele>92.562419</ele><time>2023-06-19T01:26:30Z</time><extensions><speed>1.202844</speed><course>20.255540</course><hAcc>1.543511</hAcc><vAcc>0.990270</vAcc></extensions></trkpt>
      <trkpt lon="-82.147176" lat="33.554916"><ele>92.521908</ele><time>2023-06-19T01:26:31Z</time><extensions><speed>1.186547</speed><course>20.849300</course><hAcc>1.564954</hAcc><vAcc>0.992866</vAcc></extensions></trkpt>
      <trkpt lon="-82.147173" lat="33.554926"><ele>92.479317</ele><time>2023-06-19T01:26:32Z</time><extensions><speed>1.284536</speed><course>20.520217</course><hAcc>1.548490</hAcc><vAcc>0.995140</vAcc></extensions></trkpt>
      <trkpt lon="-82.147169" lat="33.554938"><ele>92.437095</ele><time>2023-06-19T01:26:33Z</time><extensions><speed>1.327088</speed><course>19.594400</course><hAcc>1.552864</hAcc><vAcc>0.997122</vAcc></extensions></trkpt>
      <trkpt lon="-82.147165" lat="33.554950"><ele>92.393758</ele><time>2023-06-19T01:26:34Z</time><extensions><speed>1.324180</speed><course>19.425993</course><hAcc>1.559785</hAcc><vAcc>0.998857</vAcc></extensions></trkpt>
      <trkpt lon="-82.147162" lat="33.554962"><ele>92.354940</ele><time>2023-06-19T01:26:35Z</time><extensions><speed>1.335227</speed><course>7.627735</course><hAcc>1.565866</hAcc><vAcc>1.000422</vAcc></extensions></trkpt>
      <trkpt lon="-82.147160" lat="33.554974"><ele>92.318657</ele><time>2023-06-19T01:26:36Z</time><extensions><speed>1.212400</speed><course>17.270381</course><hAcc>1.637497</hAcc><vAcc>1.001874</vAcc></extensions></trkpt>
      <trkpt lon="-82.147157" lat="33.554986"><ele>92.280039</ele><time>2023-06-19T01:26:37Z</time><extensions><speed>1.273902</speed><course>9.250389</course><hAcc>1.611373</hAcc><vAcc>1.003255</vAcc></extensions></trkpt>
      <trkpt lon="-82.147155" lat="33.554997"><ele>92.238819</ele><time>2023-06-19T01:26:38Z</time><extensions><speed>1.217268</speed><course>17.931474</course><hAcc>1.652607</hAcc><vAcc>1.004694</vAcc></extensions></trkpt>
      <trkpt lon="-82.147151" lat="33.555008"><ele>92.198449</ele><time>2023-06-19T01:26:39Z</time><extensions><speed>1.180136</speed><course>17.656632</course><hAcc>1.664002</hAcc><vAcc>1.006200</vAcc></extensions></trkpt>
      <trkpt lon="-82.147148" lat="33.555020"><ele>92.154819</ele><time>2023-06-19T01:26:40Z</time><extensions><speed>1.237999</speed><course>15.789153</course><hAcc>1.639337</hAcc><vAcc>1.007881</vAcc></extensions></trkpt>
      <trkpt lon="-82.147146" lat="33.555031"><ele>92.110785</ele><time>2023-06-19T01:26:41Z</time><extensions><speed>1.312707</speed><course>9.596239</course><hAcc>1.635065</hAcc><vAcc>1.009727</vAcc></extensions></trkpt>
      <trkpt lon="-82.147143" lat="33.555043"><ele>92.065674</ele><time>2023-06-19T01:26:42Z</time><extensions><speed>1.214089</speed><course>17.387238</course><hAcc>1.682696</hAcc><vAcc>1.011747</vAcc></extensions></trkpt>
      <trkpt lon="-82.147140" lat="33.555055"><ele>92.027774</ele><time>2023-06-19T01:26:43Z</time><extensions><speed>1.366478</speed><course>10.664828</course><hAcc>1.653061</hAcc><vAcc>1.013968</vAcc></extensions></trkpt>
      <trkpt lon="-82.147138" lat="33.555068"><ele>91.987506</ele><time>2023-06-19T01:26:44Z</time><extensions><speed>1.288749</speed><course>17.669954</course><hAcc>1.694108</hAcc><vAcc>1.016119</vAcc></extensions></trkpt>
      <trkpt lon="-82.147135" lat="33.555081"><ele>91.956311</ele><time>2023-06-19T01:26:45Z</time><extensions><speed>1.437613</speed><course>13.616893</course><hAcc>1.664066</hAcc><vAcc>1.018189</vAcc></extensions></trkpt>
      <trkpt lon="-82.147133" lat="33.555095"><ele>91.926020</ele><time>2023-06-19T01:26:46Z</time><extensions><speed>1.499153</speed><course>13.189449</course><hAcc>1.687813</hAcc><vAcc>1.020115</vAcc></extensions></trkpt>
      <trkpt lon="-82.147129" lat="33.555108"><ele>91.887162</ele><time>2023-06-19T01:26:47Z</time><extensions><speed>1.374718</speed><course>18.951126</course><hAcc>1.736325</hAcc><vAcc>1.021803</vAcc></extensions></trkpt>
      <trkpt lon="-82.147126" lat="33.555122"><ele>91.857061</ele><time>2023-06-19T01:26:48Z</time><extensions><speed>1.522092</speed><course>12.814214</course><hAcc>1.711142</hAcc><vAcc>1.023169</vAcc></extensions></trkpt>
      <trkpt lon="-82.147123" lat="33.555136"><ele>91.831647</ele><time>2023-06-19T01:26:49Z</time><extensions><speed>1.420368</speed><course>17.721212</course><hAcc>1.742546</hAcc><vAcc>1.024162</vAcc></extensions></trkpt>
      <trkpt lon="-82.147120" lat="33.555149"><ele>91.795149</ele><time>2023-06-19T01:26:50Z</time><extensions><speed>1.606234</speed><course>8.251932</course><hAcc>1.697386</hAcc><vAcc>1.024687</vAcc></extensions></trkpt>
      <trkpt lon="-82.147119" lat="33.555165"><ele>91.761410</ele><time>2023-06-19T01:26:51Z</time><extensions><speed>1.624938</speed><course>5.665537</course><hAcc>1.714327</hAcc><vAcc>1.024760</vAcc></extensions></trkpt>
      <trkpt lon="-82.147118" lat="33.555179"><ele>91.724436</ele><time>2023-06-19T01:26:52Z</time><extensions><speed>1.445199</speed><course>7.875416</course><hAcc>1.754485</hAcc><vAcc>1.024378</vAcc></extensions></trkpt>
      <trkpt lon="-82.147117" lat="33.555194"><ele>91.689828</ele><time>2023-06-19T01:26:53Z</time><extensions><speed>1.613218</speed><course>1.934191</course><hAcc>1.715710</hAcc><vAcc>1.023647</vAcc></extensions></trkpt>
      <trkpt lon="-82.147118" lat="33.555208"><ele>91.663085</ele><time>2023-06-19T01:26:54Z</time><extensions><speed>1.467177</speed><course>0.518855</course><hAcc>1.732203</hAcc><vAcc>1.022704</vAcc></extensions></trkpt>
      <trkpt lon="-82.147117" lat="33.555222"><ele>91.630251</ele><time>2023-06-19T01:26:55Z</time><extensions><speed>1.458437</speed><course>8.931005</course><hAcc>1.727153</hAcc><vAcc>1.021607</vAcc></extensions></trkpt>
      <trkpt lon="-82.147115" lat="33.555235"><ele>91.600772</ele><time>2023-06-19T01:26:56Z</time><extensions><speed>1.366078</speed><course>14.256932</course><hAcc>1.716937</hAcc><vAcc>1.020495</vAcc></extensions></trkpt>
      <trkpt lon="-82.147112" lat="33.555247"><ele>91.566422</ele><time>2023-06-19T01:26:57Z</time><extensions><speed>1.254076</speed><course>16.396863</course><hAcc>1.714720</hAcc><vAcc>1.019391</vAcc></extensions></trkpt>
      <trkpt lon="-82.147109" lat="33.555258"><ele>91.528642</ele><time>2023-06-19T01:26:58Z</time><extensions><speed>1.333299</speed><course>15.626872</course><hAcc>1.689167</hAcc><vAcc>1.018371</vAcc></extensions></trkpt>
      <trkpt lon="-82.147107" lat="33.555270"><ele>91.487358</ele><time>2023-06-19T01:26:59Z</time><extensions><speed>1.328915</speed><course>12.553798</course><hAcc>1.674393</hAcc><vAcc>1.017526</vAcc></extensions></trkpt>
      <trkpt lon="-82.147104" lat="33.555281"><ele>91.443987</ele><time>2023-06-19T01:27:00Z</time><extensions><speed>1.230501</speed><course>13.374841</course><hAcc>1.682958</hAcc><vAcc>1.016831</vAcc></extensions></trkpt>
      <trkpt lon="-82.147103" lat="33.555292"><ele>91.400988</ele><time>2023-06-19T01:27:01Z</time><extensions><speed>1.254601</speed><course>10.218301</course><hAcc>1.656839</hAcc><vAcc>1.016287</vAcc></extensions></trkpt>
      <trkpt lon="-82.147102" lat="33.555304"><ele>91.372451</ele><time>2023-06-19T01:27:02Z</time><extensions><speed>1.233036</speed><course>1.436528</course><hAcc>1.652659</hAcc><vAcc>1.015886</vAcc></extensions></trkpt>
      <trkpt lon="-82.147102" lat="33.555315"><ele>91.352618</ele><time>2023-06-19T01:27:03Z</time><extensions><speed>1.248653</speed><course>10.849726</course><hAcc>1.668700</hAcc><vAcc>1.015601</vAcc></extensions></trkpt>
      <trkpt lon="-82.147100" lat="33.555326"><ele>91.342270</ele><time>2023-06-19T01:27:04Z</time><extensions><speed>1.245208</speed><course>8.722630</course><hAcc>1.654649</hAcc><vAcc>1.015411</vAcc></extensions></trkpt>
      <trkpt lon="-82.147099" lat="33.555337"><ele>91.335449</ele><time>2023-06-19T01:27:05Z</time><extensions><speed>1.218288</speed><course>12.253036</course><hAcc>1.667436</hAcc><vAcc>1.015364</vAcc></extensions></trkpt>
      <trkpt lon="-82.147097" lat="33.555348"><ele>91.331219</ele><time>2023-06-19T01:27:06Z</time><extensions><speed>1.215932</speed><course>9.319656</course><hAcc>1.638759</hAcc><vAcc>1.015383</vAcc></extensions></trkpt>
      <trkpt lon="-82.147096" lat="33.555359"><ele>91.328317</ele><time>2023-06-19T01:27:07Z</time><extensions><speed>1.205956</speed><course>4.888502</course><hAcc>1.631760</hAcc><vAcc>1.015413</vAcc></extensions></trkpt>
      <trkpt lon="-82.147096" lat="33.555370"><ele>91.324749</ele><time>2023-06-19T01:27:08Z</time><extensions><speed>1.152806</speed><course>6.994389</course><hAcc>1.617608</hAcc><vAcc>1.015380</vAcc></extensions></trkpt>
      <trkpt lon="-82.147095" lat="33.555381"><ele>91.325560</ele><time>2023-06-19T01:27:09Z</time><extensions><speed>1.141992</speed><course>5.105566</course><hAcc>1.614209</hAcc><vAcc>1.015170</vAcc></extensions></trkpt>
      <trkpt lon="-82.147095" lat="33.555391"><ele>91.330839</ele><time>2023-06-19T01:27:10Z</time><extensions><speed>1.092938</speed><course>7.898200</course><hAcc>1.632805</hAcc><vAcc>1.014797</vAcc></extensions></trkpt>
      <trkpt lon="-82.147094" lat="33.555401"><ele>91.339145</ele><time>2023-06-19T01:27:11Z</time><extensions><speed>1.110596</speed><course>4.159139</course><hAcc>1.612582</hAcc><vAcc>1.014434</vAcc></extensions></trkpt>
      <trkpt lon="-82.147095" lat="33.555412"><ele>91.353654</ele><time>2023-06-19T01:27:12Z</time><extensions><speed>1.100235</speed><course>1.171473</course><hAcc>1.611254</hAcc><vAcc>1.014030</vAcc></extensions></trkpt>
      <trkpt lon="-82.147096" lat="33.555423"><ele>91.365129</ele><time>2023-06-19T01:27:13Z</time><extensions><speed>1.167286</speed><course>355.282227</course><hAcc>1.587361</hAcc><vAcc>1.013805</vAcc></extensions></trkpt>
      <trkpt lon="-82.147097" lat="33.555434"><ele>91.381961</ele><time>2023-06-19T01:27:14Z</time><extensions><speed>1.163530</speed><course>352.775174</course><hAcc>1.604242</hAcc><vAcc>1.013842</vAcc></extensions></trkpt>
      <trkpt lon="-82.147100" lat="33.555444"><ele>91.410215</ele><time>2023-06-19T01:27:15Z</time><extensions><speed>1.109505</speed><course>350.132927</course><hAcc>1.620953</hAcc><vAcc>1.014128</vAcc></extensions></trkpt>
      <trkpt lon="-82.147102" lat="33.555455"><ele>91.442682</ele><time>2023-06-19T01:27:16Z</time><extensions><speed>1.259744</speed><course>345.649772</course><hAcc>1.595218</hAcc><vAcc>1.014677</vAcc></extensions></trkpt>
      <trkpt lon="-82.147106" lat="33.555467"><ele>91.481165</ele><time>2023-06-19T01:27:17Z</time><extensions><speed>1.297733</speed><course>345.833220</course><hAcc>1.635373</hAcc><vAcc>1.015518</vAcc></extensions></trkpt>
      <trkpt lon="-82.147109" lat="33.555478"><ele>91.518161</ele><time>2023-06-19T01:27:18Z</time><extensions><speed>1.195129</speed><course>348.010950</course><hAcc>1.690920</hAcc><vAcc>1.016624</vAcc></extensions></trkpt>
      <trkpt lon="-82.147112" lat="33.555489"><ele>91.554055</ele><time>2023-06-19T01:27:19Z</time><extensions><speed>1.306990</speed><course>344.848763</course><hAcc>1.683245</hAcc><vAcc>1.017971</vAcc></extensions></trkpt>
      <trkpt lon="-82.147115" lat="33.555501"><ele>91.591227</ele><time>2023-06-19T01:27:20Z</time><extensions><speed>1.248781</speed><course>347.505682</course><hAcc>1.714549</hAcc><vAcc>1.019245</vAcc></extensions></trkpt>
      <trkpt lon="-82.147119" lat="33.555512"><ele>91.621317</ele><time>2023-06-19T01:27:21Z</time><extensions><speed>1.421682</speed><course>345.723262</course><hAcc>1.670087</hAcc><vAcc>1.020424</vAcc></extensions></trkpt>
      <trkpt lon="-82.147122" lat="33.555524"><ele>91.652623</ele><time>2023-06-19T01:27:22Z</time><extensions><speed>1.369813</speed><course>348.487507</course><hAcc>1.705771</hAcc><vAcc>1.021455</vAcc></extensions></trkpt>
      <trkpt lon="-82.147125" lat="33.555535"><ele>91.675895</ele><time>2023-06-19T01:27:23Z</time><extensions><speed>1.301792</speed><course>349.173788</course><hAcc>1.717630</hAcc><vAcc>1.022226</vAcc></extensions></trkpt>
      <trkpt lon="-82.147127" lat="33.555547"><ele>91.700605</ele><time>2023-06-19T01:27:24Z</time><extensions><speed>1.349521</speed><course>350.537134</course><hAcc>1.682480</hAcc><vAcc>1.022643</vAcc></extensions></trkpt>
      <trkpt lon="-82.147129" lat="33.555559"><ele>91.724732</ele><time>2023-06-19T01:27:25Z</time><extensions><speed>1.337816</speed><course>351.987325</course><hAcc>1.710705</hAcc><vAcc>1.022684</vAcc></extensions></trkpt>
      <trkpt lon="-82.147131" lat="33.555571"><ele>91.747452</ele><time>2023-06-19T01:27:26Z</time><extensions><speed>1.330765</speed><course>353.712609</course><hAcc>1.662672</hAcc><vAcc>1.022253</vAcc></extensions></trkpt>
      <trkpt lon="-82.147132" lat="33.555583"><ele>91.777459</ele><time>2023-06-19T01:27:27Z</time><extensions><speed>1.315943</speed><course>354.632570</course><hAcc>1.674713</hAcc><vAcc>1.021351</vAcc></extensions></trkpt>
      <trkpt lon="-82.147134" lat="33.555594"><ele>91.820108</ele><time>2023-06-19T01:27:28Z</time><extensions><speed>1.305337</speed><course>355.007521</course><hAcc>1.719545</hAcc><vAcc>1.019873</vAcc></extensions></trkpt>
      <trkpt lon="-82.147135" lat="33.555606"><ele>91.868302</ele><time>2023-06-19T01:27:29Z</time><extensions><speed>1.278194</speed><course>356.330880</course><hAcc>1.681364</hAcc><vAcc>1.017854</vAcc></extensions></trkpt>
      <trkpt lon="-82.147136" lat="33.555618"><ele>91.921237</ele><time>2023-06-19T01:27:30Z</time><extensions><speed>1.285544</speed><course>355.935871</course><hAcc>1.684029</hAcc><vAcc>1.015315</vAcc></extensions></trkpt>
      <trkpt lon="-82.147138" lat="33.555630"><ele>91.974854</ele><time>2023-06-19T01:27:31Z</time><extensions><speed>1.210993</speed><course>355.788046</course><hAcc>1.650657</hAcc><vAcc>1.012280</vAcc></extensions></trkpt>
      <trkpt lon="-82.147139" lat="33.555641"><ele>92.031301</ele><time>2023-06-19T01:27:32Z</time><extensions><speed>1.195889</speed><course>355.439589</course><hAcc>1.648409</hAcc><vAcc>1.008887</vAcc></extensions></trkpt>
      <trkpt lon="-82.147140" lat="33.555651"><ele>92.088394</ele><time>2023-06-19T01:27:33Z</time><extensions><speed>1.143411</speed><course>355.308128</course><hAcc>1.638094</hAcc><vAcc>1.005310</vAcc></extensions></trkpt>
      <trkpt lon="-82.147141" lat="33.555661"><ele>92.146147</ele><time>2023-06-19T01:27:34Z</time><extensions><speed>1.141454</speed><course>355.248252</course><hAcc>1.614056</hAcc><vAcc>1.001671</vAcc></extensions></trkpt>
      <trkpt lon="-82.147142" lat="33.555671"><ele>92.204756</ele><time>2023-06-19T01:27:35Z</time><extensions><speed>1.152775</speed><course>355.391113</course><hAcc>1.602519</hAcc><vAcc>0.998066</vAcc></extensions></trkpt>
      <trkpt lon="-82.147143" lat="33.555682"><ele>92.262914</ele><time>2023-06-19T01:27:36Z</time><extensions><speed>1.212832</speed><course>354.991350</course><hAcc>1.600916</hAcc><vAcc>0.994581</vAcc></extensions></trkpt>
      <trkpt lon="-82.147144" lat="33.555693"><ele>92.322224</ele><time>2023-06-19T01:27:37Z</time><extensions><speed>1.259914</speed><course>355.335343</course><hAcc>1.579703</hAcc><vAcc>0.991267</vAcc></extensions></trkpt>
      <trkpt lon="-82.147145" lat="33.555704"><ele>92.380700</ele><time>2023-06-19T01:27:38Z</time><extensions><speed>1.256684</speed><course>355.073034</course><hAcc>1.582604</hAcc><vAcc>0.988212</vAcc></extensions></trkpt>
      <trkpt lon="-82.147146" lat="33.555716"><ele>92.434118</ele><time>2023-06-19T01:27:39Z</time><extensions><speed>1.282009</speed><course>355.858804</course><hAcc>1.567089</hAcc><vAcc>0.985566</vAcc></extensions></trkpt>
      <trkpt lon="-82.147147" lat="33.555727"><ele>92.482453</ele><time>2023-06-19T01:27:40Z</time><extensions><speed>1.324099</speed><course>355.941447</course><hAcc>1.577404</hAcc><vAcc>0.983409</vAcc></extensions></trkpt>
      <trkpt lon="-82.147148" lat="33.555739"><ele>92.522963</ele><time>2023-06-19T01:27:41Z</time><extensions><speed>1.327050</speed><course>354.973768</course><hAcc>1.587155</hAcc><vAcc>0.981757</vAcc></extensions></trkpt>
      <trkpt lon="-82.147149" lat="33.555751"><ele>92.559790</ele><time>2023-06-19T01:27:42Z</time><extensions><speed>1.308382</speed><course>354.155134</course><hAcc>1.593950</hAcc><vAcc>0.980617</vAcc></extensions></trkpt>
      <trkpt lon="-82.147150" lat="33.555764"><ele>92.592335</ele><time>2023-06-19T01:27:43Z</time><extensions><speed>1.285725</speed><course>355.296064</course><hAcc>1.584673</hAcc><vAcc>0.979976</vAcc></extensions></trkpt>
      <trkpt lon="-82.147151" lat="33.555775"><ele>92.615594</ele><time>2023-06-19T01:27:44Z</time><extensions><speed>1.264664</speed><course>356.221545</course><hAcc>1.618762</hAcc><vAcc>0.979781</vAcc></extensions></trkpt>
      <trkpt lon="-82.147151" lat="33.555788"><ele>92.628126</ele><time>2023-06-19T01:27:45Z</time><extensions><speed>1.264917</speed><course>356.664376</course><hAcc>1.673948</hAcc><vAcc>0.979956</vAcc></extensions></trkpt>
      <trkpt lon="-82.147152" lat="33.555799"><ele>92.630782</ele><time>2023-06-19T01:27:46Z</time><extensions><speed>1.215522</speed><course>353.733918</course><hAcc>1.739705</hAcc><vAcc>0.980415</vAcc></extensions></trkpt>
      <trkpt lon="-82.147153" lat="33.555811"><ele>92.626736</ele><time>2023-06-19T01:27:47Z</time><extensions><speed>1.256783</speed><course>354.624124</course><hAcc>1.706994</hAcc><vAcc>0.981080</vAcc></extensions></trkpt>
      <trkpt lon="-82.147154" lat="33.555822"><ele>92.611197</ele><time>2023-06-19T01:27:48Z</time><extensions><speed>1.217787</speed><course>351.950798</course><hAcc>1.738003</hAcc><vAcc>0.981860</vAcc></extensions></trkpt>
      <trkpt lon="-82.147155" lat="33.555834"><ele>92.581814</ele><time>2023-06-19T01:27:49Z</time><extensions><speed>1.335601</speed><course>355.491508</course><hAcc>1.691202</hAcc><vAcc>0.982674</vAcc></extensions></trkpt>
      <trkpt lon="-82.147156" lat="33.555847"><ele>92.543710</ele><time>2023-06-19T01:27:50Z</time><extensions><speed>1.358136</speed><course>355.464904</course><hAcc>1.712131</hAcc><vAcc>0.983500</vAcc></extensions></trkpt>
      <trkpt lon="-82.147157" lat="33.555859"><ele>92.499032</ele><time>2023-06-19T01:27:51Z</time><extensions><speed>1.269597</speed><course>351.907098</course><hAcc>1.761151</hAcc><vAcc>0.984285</vAcc></extensions></trkpt>
      <trkpt lon="-82.147158" lat="33.555872"><ele>92.445832</ele><time>2023-06-19T01:27:52Z</time><extensions><speed>1.419411</speed><course>355.812480</course><hAcc>1.712975</hAcc><vAcc>0.984959</vAcc></extensions></trkpt>
      <trkpt lon="-82.147158" lat="33.555886"><ele>92.385618</ele><time>2023-06-19T01:27:53Z</time><extensions><speed>1.491857</speed><course>356.630728</course><hAcc>1.717770</hAcc><vAcc>0.985501</vAcc></extensions></trkpt>
      <trkpt lon="-82.147159" lat="33.555899"><ele>92.316592</ele><time>2023-06-19T01:27:54Z</time><extensions><speed>1.409779</speed><course>353.986810</course><hAcc>1.758111</hAcc><vAcc>0.985843</vAcc></extensions></trkpt>
      <trkpt lon="-82.147160" lat="33.555912"><ele>92.241420</ele><time>2023-06-19T01:27:55Z</time><extensions><speed>1.492235</speed><course>353.217828</course><hAcc>1.732935</hAcc><vAcc>0.985970</vAcc></extensions></trkpt>
      <trkpt lon="-82.147161" lat="33.555926"><ele>92.161656</ele><time>2023-06-19T01:27:56Z</time><extensions><speed>1.455494</speed><course>353.987684</course><hAcc>1.734950</hAcc><vAcc>0.985873</vAcc></extensions></trkpt>
      <trkpt lon="-82.147161" lat="33.555939"><ele>92.078616</ele><time>2023-06-19T01:27:57Z</time><extensions><speed>1.534465</speed><course>357.781127</course><hAcc>1.692633</hAcc><vAcc>0.985539</vAcc></extensions></trkpt>
      <trkpt lon="-82.147161" lat="33.555953"><ele>91.992222</ele><time>2023-06-19T01:27:58Z</time><extensions><speed>1.516369</speed><course>355.914328</course><hAcc>1.717452</hAcc><vAcc>0.985002</vAcc></extensions></trkpt>
      <trkpt lon="-82.147161" lat="33.555966"><ele>91.902274</ele><time>2023-06-19T01:27:59Z</time><extensions><speed>1.441565</speed><course>358.779335</course><hAcc>1.731740</hAcc><vAcc>0.984296</vAcc></extensions></trkpt>
      <trkpt lon="-82.147160" lat="33.555980"><ele>91.811129</ele><time>2023-06-19T01:28:00Z</time><extensions><speed>1.511196</speed><course>1.392527</course><hAcc>1.714916</hAcc><vAcc>0.983452</vAcc></extensions></trkpt>
      <trkpt lon="-82.147159" lat="33.555994"><ele>91.720455</ele><time>2023-06-19T01:28:01Z</time><extensions><speed>1.467387</speed><course>357.058523</course><hAcc>1.753870</hAcc><vAcc>0.982489</vAcc></extensions></trkpt>
      <trkpt lon="-82.147159" lat="33.556007"><ele>91.632360</ele><time>2023-06-19T01:28:02Z</time><extensions><speed>1.513250</speed><course>358.177372</course><hAcc>1.716918</hAcc><vAcc>0.981419</vAcc></extensions></trkpt>
      <trkpt lon="-82.147159" lat="33.556021"><ele>91.546918</ele><time>2023-06-19T01:28:03Z</time><extensions><speed>1.500190</speed><course>359.692477</course><hAcc>1.718916</hAcc><vAcc>0.980256</vAcc></extensions></trkpt>
      <trkpt lon="-82.147159" lat="33.556034"><ele>91.463204</ele><time>2023-06-19T01:28:04Z</time><extensions><speed>1.443916</speed><course>354.608837</course><hAcc>1.760110</hAcc><vAcc>0.978994</vAcc></extensions></trkpt>
      <trkpt lon="-82.147159" lat="33.556047"><ele>91.384529</ele><time>2023-06-19T01:28:05Z</time><extensions><speed>1.441729</speed><course>359.363818</course><hAcc>1.712191</hAcc><vAcc>0.977643</vAcc></extensions></trkpt>
      <trkpt lon="-82.147159" lat="33.556060"><ele>91.312789</ele><time>2023-06-19T01:28:06Z</time><extensions><speed>1.412058</speed><course>359.621634</course><hAcc>1.719636</hAcc><vAcc>0.976213</vAcc></extensions></trkpt>
      <trkpt lon="-82.147160" lat="33.556073"><ele>91.244329</ele><time>2023-06-19T01:28:07Z</time><extensions><speed>1.381106</speed><course>355.514867</course><hAcc>1.753495</hAcc><vAcc>0.974707</vAcc></extensions></trkpt>
      <trkpt lon="-82.147161" lat="33.556086"><ele>91.177070</ele><time>2023-06-19T01:28:08Z</time><extensions><speed>1.401631</speed><course>357.544381</course><hAcc>1.715810</hAcc><vAcc>0.973149</vAcc></extensions></trkpt>
      <trkpt lon="-82.147162" lat="33.556098"><ele>91.112648</ele><time>2023-06-19T01:28:09Z</time><extensions><speed>1.391086</speed><course>353.269079</course><hAcc>1.738450</hAcc><vAcc>0.971540</vAcc></extensions></trkpt>
      <trkpt lon="-82.147164" lat="33.556111"><ele>91.051700</ele><time>2023-06-19T01:28:10Z</time><extensions><speed>1.435005</speed><course>352.021260</course><hAcc>1.706923</hAcc><vAcc>0.969929</vAcc></extensions></trkpt>
      <trkpt lon="-82.147166" lat="33.556124"><ele>90.996107</ele><time>2023-06-19T01:28:11Z</time><extensions><speed>1.439042</speed><course>352.449399</course><hAcc>1.703989</hAcc><vAcc>0.968325</vAcc></extensions></trkpt>
      <trkpt lon="-82.147168" lat="33.556138"><ele>90.946454</ele><time>2023-06-19T01:28:12Z</time><extensions><speed>1.385755</speed><course>352.227010</course><hAcc>1.714563</hAcc><vAcc>0.966755</vAcc></extensions></trkpt>
      <trkpt lon="-82.147170" lat="33.556151"><ele>90.901990</ele><time>2023-06-19T01:28:13Z</time><extensions><speed>1.405823</speed><course>354.261877</course><hAcc>1.681550</hAcc><vAcc>0.965251</vAcc></extensions></trkpt>
      <trkpt lon="-82.147171" lat="33.556164"><ele>90.863187</ele><time>2023-06-19T01:28:14Z</time><extensions><speed>1.363799</speed><course>354.294279</course><hAcc>1.709430</hAcc><vAcc>0.963839</vAcc></extensions></trkpt>
      <trkpt lon="-82.147172" lat="33.556176"><ele>90.831777</ele><time>2023-06-19T01:28:15Z</time><extensions><speed>1.383377</speed><course>354.181045</course><hAcc>1.675799</hAcc><vAcc>0.962554</vAcc></extensions></trkpt>
      <trkpt lon="-82.147173" lat="33.556189"><ele>90.807181</ele><time>2023-06-19T01:28:16Z</time><extensions><speed>1.369094</speed><course>353.899318</course><hAcc>1.696971</hAcc><vAcc>0.961485</vAcc></extensions></trkpt>
      <trkpt lon="-82.147175" lat="33.556201"><ele>90.785410</ele><time>2023-06-19T01:28:17Z</time><extensions><speed>1.260208</speed><course>351.151731</course><hAcc>1.744128</hAcc><vAcc>0.960684</vAcc></extensions></trkpt>
      <trkpt lon="-82.147176" lat="33.556213"><ele>90.764427</ele><time>2023-06-19T01:28:18Z</time><extensions><speed>1.311983</speed><course>351.887399</course><hAcc>1.715010</hAcc><vAcc>0.960189</vAcc></extensions></trkpt>
      <trkpt lon="-82.147177" lat="33.556225"><ele>90.744049</ele><time>2023-06-19T01:28:19Z</time><extensions><speed>1.265064</speed><course>350.269549</course><hAcc>1.748246</hAcc><vAcc>0.960022</vAcc></extensions></trkpt>
      <trkpt lon="-82.147179" lat="33.556237"><ele>90.723117</ele><time>2023-06-19T01:28:20Z</time><extensions><speed>1.409147</speed><course>353.397399</course><hAcc>1.710460</hAcc><vAcc>0.960207</vAcc></extensions></trkpt>
      <trkpt lon="-82.147180" lat="33.556250"><ele>90.699253</ele><time>2023-06-19T01:28:21Z</time><extensions><speed>1.436657</speed><course>353.926287</course><hAcc>1.745942</hAcc><vAcc>0.960871</vAcc></extensions></trkpt>
      <trkpt lon="-82.147181" lat="33.556263"><ele>90.669694</ele><time>2023-06-19T01:28:22Z</time><extensions><speed>1.438702</speed><course>352.233319</course><hAcc>1.798362</hAcc><vAcc>0.962082</vAcc></extensions></trkpt>
      <trkpt lon="-82.147181" lat="33.556277"><ele>90.632866</ele><time>2023-06-19T01:28:23Z</time><extensions><speed>1.593041</speed><course>358.368549</course><hAcc>1.750403</hAcc><vAcc>0.963948</vAcc></extensions></trkpt>
      <trkpt lon="-82.147180" lat="33.556291"><ele>90.588375</ele><time>2023-06-19T01:28:24Z</time><extensions><speed>1.610769</speed><course>2.381877</course><hAcc>1.776027</hAcc><vAcc>0.966540</vAcc></extensions></trkpt>
      <trkpt lon="-82.147178" lat="33.556304"><ele>90.548388</ele><time>2023-06-19T01:28:25Z</time><extensions><speed>1.537070</speed><course>4.647317</course><hAcc>1.842718</hAcc><vAcc>0.969881</vAcc></extensions></trkpt>
      <trkpt lon="-82.147174" lat="33.556317"><ele>90.502100</ele><time>2023-06-19T01:28:26Z</time><extensions><speed>1.575231</speed><course>12.621417</course><hAcc>1.835063</hAcc><vAcc>0.974007</vAcc></extensions></trkpt>
      <trkpt lon="-82.147167" lat="33.556330"><ele>90.442182</ele><time>2023-06-19T01:28:27Z</time><extensions><speed>1.583832</speed><course>21.904898</course><hAcc>1.861115</hAcc><vAcc>0.978833</vAcc></extensions></trkpt>
      <trkpt lon="-82.147157" lat="33.556342"><ele>90.376754</ele><time>2023-06-19T01:28:28Z</time><extensions><speed>1.673066</speed><course>33.825378</course><hAcc>1.829459</hAcc><vAcc>0.984316</vAcc></extensions></trkpt>
      <trkpt lon="-82.147144" lat="33.556354"><ele>90.309197</ele><time>2023-06-19T01:28:29Z</time><extensions><speed>1.710955</speed><course>41.786043</course><hAcc>1.832653</hAcc><vAcc>0.990360</vAcc></extensions></trkpt>
      <trkpt lon="-82.147130" lat="33.556364"><ele>90.236323</ele><time>2023-06-19T01:28:30Z</time><extensions><speed>1.629799</speed><course>41.508597</course><hAcc>1.874513</hAcc><vAcc>0.996807</vAcc></extensions></trkpt>
      <trkpt lon="-82.147117" lat="33.556374"><ele>90.154909</ele><time>2023-06-19T01:28:31Z</time><extensions><speed>1.664507</speed><course>43.648982</course><hAcc>1.862147</hAcc><vAcc>1.003546</vAcc></extensions></trkpt>
      <trkpt lon="-82.147104" lat="33.556384"><ele>90.065187</ele><time>2023-06-19T01:28:32Z</time><extensions><speed>1.620617</speed><course>39.397994</course><hAcc>1.899653</hAcc><vAcc>1.010480</vAcc></extensions></trkpt>
      <trkpt lon="-82.147091" lat="33.556394"><ele>89.965747</ele><time>2023-06-19T01:28:33Z</time><extensions><speed>1.652293</speed><course>44.009351</course><hAcc>1.866209</hAcc><vAcc>1.017441</vAcc></extensions></trkpt>
      <trkpt lon="-82.147077" lat="33.556402"><ele>89.855189</ele><time>2023-06-19T01:28:34Z</time><extensions><speed>1.723702</speed><course>58.712510</course><hAcc>1.846920</hAcc><vAcc>1.024213</vAcc></extensions></trkpt>
      <trkpt lon="-82.147060" lat="33.556408"><ele>89.742559</ele><time>2023-06-19T01:28:35Z</time><extensions><speed>1.741594</speed><course>62.829304</course><hAcc>1.893679</hAcc><vAcc>1.030595</vAcc></extensions></trkpt>
      <trkpt lon="-82.147044" lat="33.556415"><ele>89.620756</ele><time>2023-06-19T01:28:36Z</time><extensions><speed>1.627813</speed><course>48.121579</course><hAcc>1.922764</hAcc><vAcc>1.036410</vAcc></extensions></trkpt>
      <trkpt lon="-82.147028" lat="33.556422"><ele>89.494626</ele><time>2023-06-19T01:28:37Z</time><extensions><speed>1.728616</speed><course>63.230518</course><hAcc>1.920667</hAcc><vAcc>1.041435</vAcc></extensions></trkpt>
      <trkpt lon="-82.147010" lat="33.556428"><ele>89.369466</ele><time>2023-06-19T01:28:38Z</time><extensions><speed>1.790026</speed><course>70.745732</course><hAcc>1.890860</hAcc><vAcc>1.045556</vAcc></extensions></trkpt>
      <trkpt lon="-82.146990" lat="33.556431"><ele>89.243300</ele><time>2023-06-19T01:28:39Z</time><extensions><speed>1.828249</speed><course>76.475867</course><hAcc>1.900116</hAcc><vAcc>1.048731</vAcc></extensions></trkpt>
      <trkpt lon="-82.146971" lat="33.556433"><ele>89.118668</ele><time>2023-06-19T01:28:40Z</time><extensions><speed>1.780687</speed><course>75.709632</course><hAcc>1.940454</hAcc><vAcc>1.050981</vAcc></extensions></trkpt>
      <trkpt lon="-82.146951" lat="33.556436"><ele>88.998128</ele><time>2023-06-19T01:28:41Z</time><extensions><speed>1.775651</speed><course>78.822188</course><hAcc>1.951248</hAcc><vAcc>1.052350</vAcc></extensions></trkpt>
      <trkpt lon="-82.146932" lat="33.556437"><ele>88.878234</ele><time>2023-06-19T01:28:42Z</time><extensions><speed>1.688048</speed><course>78.586373</course><hAcc>1.943624</hAcc><vAcc>1.052903</vAcc></extensions></trkpt>
      <trkpt lon="-82.146914" lat="33.556439"><ele>88.755914</ele><time>2023-06-19T01:28:43Z</time><extensions><speed>1.588990</speed><course>75.096732</course><hAcc>1.947488</hAcc><vAcc>1.052710</vAcc></extensions></trkpt>
      <trkpt lon="-82.146898" lat="33.556442"><ele>88.638498</ele><time>2023-06-19T01:28:44Z</time><extensions><speed>1.541201</speed><course>67.410935</course><hAcc>1.957932</hAcc><vAcc>1.051883</vAcc></extensions></trkpt>
      <trkpt lon="-82.146882" lat="33.556447"><ele>88.526426</ele><time>2023-06-19T01:28:45Z</time><extensions><speed>1.554825</speed><course>63.734501</course><hAcc>1.957270</hAcc><vAcc>1.050622</vAcc></extensions></trkpt>
      <trkpt lon="-82.146867" lat="33.556452"><ele>88.425543</ele><time>2023-06-19T01:28:46Z</time><extensions><speed>1.550684</speed><course>63.295975</course><hAcc>1.914189</hAcc><vAcc>1.049046</vAcc></extensions></trkpt>
      <trkpt lon="-82.146851" lat="33.556457"><ele>88.331275</ele><time>2023-06-19T01:28:47Z</time><extensions><speed>1.637569</speed><course>70.705336</course><hAcc>1.876540</hAcc><vAcc>1.047438</vAcc></extensions></trkpt>
      <trkpt lon="-82.146834" lat="33.556461"><ele>88.242719</ele><time>2023-06-19T01:28:48Z</time><extensions><speed>1.696795</speed><course>71.729887</course><hAcc>1.881810</hAcc><vAcc>1.045931</vAcc></extensions></trkpt>
      <trkpt lon="-82.146817" lat="33.556465"><ele>88.157580</ele><time>2023-06-19T01:28:49Z</time><extensions><speed>1.589192</speed><course>60.581894</course><hAcc>1.882702</hAcc><vAcc>1.044653</vAcc></extensions></trkpt>
      <trkpt lon="-82.146801" lat="33.556472"><ele>88.070367</ele><time>2023-06-19T01:28:50Z</time><extensions><speed>1.613984</speed><course>62.614500</course><hAcc>1.875377</hAcc><vAcc>1.043636</vAcc></extensions></trkpt>
      <trkpt lon="-82.146785" lat="33.556477"><ele>87.979507</ele><time>2023-06-19T01:28:51Z</time><extensions><speed>1.563796</speed><course>67.162413</course><hAcc>1.835495</hAcc><vAcc>1.042935</vAcc></extensions></trkpt>
      <trkpt lon="-82.146770" lat="33.556482"><ele>87.885740</ele><time>2023-06-19T01:28:52Z</time><extensions><speed>1.523510</speed><course>63.154120</course><hAcc>1.850525</hAcc><vAcc>1.042568</vAcc></extensions></trkpt>
      <trkpt lon="-82.146755" lat="33.556488"><ele>87.793470</ele><time>2023-06-19T01:28:53Z</time><extensions><speed>1.568416</speed><course>56.930357</course><hAcc>1.881376</hAcc><vAcc>1.042521</vAcc></extensions></trkpt>
      <trkpt lon="-82.146741" lat="33.556494"><ele>87.704558</ele><time>2023-06-19T01:28:54Z</time><extensions><speed>1.476250</speed><course>63.225816</course><hAcc>1.835883</hAcc><vAcc>1.042819</vAcc></extensions></trkpt>
      <trkpt lon="-82.146726" lat="33.556500"><ele>87.616347</ele><time>2023-06-19T01:28:55Z</time><extensions><speed>1.521422</speed><course>58.221910</course><hAcc>1.878130</hAcc><vAcc>1.043446</vAcc></extensions></trkpt>
      <trkpt lon="-82.146713" lat="33.556507"><ele>87.526956</ele><time>2023-06-19T01:28:56Z</time><extensions><speed>1.428537</speed><course>51.189421</course><hAcc>1.885206</hAcc><vAcc>1.044307</vAcc></extensions></trkpt>
      <trkpt lon="-82.146700" lat="33.556514"><ele>87.436386</ele><time>2023-06-19T01:28:57Z</time><extensions><speed>1.443643</speed><course>60.997606</course><hAcc>1.857088</hAcc><vAcc>1.045304</vAcc></extensions></trkpt>
      <trkpt lon="-82.146685" lat="33.556519"><ele>87.345524</ele><time>2023-06-19T01:28:58Z</time><extensions><speed>1.530326</speed><course>66.114560</course><hAcc>1.854413</hAcc><vAcc>1.046295</vAcc></extensions></trkpt>
      <trkpt lon="-82.146670" lat="33.556524"><ele>87.253791</ele><time>2023-06-19T01:28:59Z</time><extensions><speed>1.482003</speed><course>64.596451</course><hAcc>1.828399</hAcc><vAcc>1.047191</vAcc></extensions></trkpt>
      <trkpt lon="-82.146656" lat="33.556530"><ele>87.164623</ele><time>2023-06-19T01:29:00Z</time><extensions><speed>1.459300</speed><course>59.802326</course><hAcc>1.849311</hAcc><vAcc>1.047910</vAcc></extensions></trkpt>
      <trkpt lon="-82.146643" lat="33.556537"><ele>87.073870</ele><time>2023-06-19T01:29:01Z</time><extensions><speed>1.450852</speed><course>56.874960</course><hAcc>1.870586</hAcc><vAcc>1.048523</vAcc></extensions></trkpt>
      <trkpt lon="-82.146630" lat="33.556544"><ele>86.978820</ele><time>2023-06-19T01:29:02Z</time><extensions><speed>1.435026</speed><course>54.027949</course><hAcc>1.884122</hAcc><vAcc>1.049064</vAcc></extensions></trkpt>
      <trkpt lon="-82.146617" lat="33.556551"><ele>86.885578</ele><time>2023-06-19T01:29:03Z</time><extensions><speed>1.457500</speed><course>52.702836</course><hAcc>1.906571</hAcc><vAcc>1.049514</vAcc></extensions></trkpt>
      <trkpt lon="-82.146605" lat="33.556559"><ele>86.793149</ele><time>2023-06-19T01:29:04Z</time><extensions><speed>1.427416</speed><course>50.263088</course><hAcc>1.881007</hAcc><vAcc>1.049846</vAcc></extensions></trkpt>
      <trkpt lon="-82.146592" lat="33.556567"><ele>86.700779</ele><time>2023-06-19T01:29:05Z</time><extensions><speed>1.433124</speed><course>53.340507</course><hAcc>1.884892</hAcc><vAcc>1.050035</vAcc></extensions></trkpt>
      <trkpt lon="-82.146579" lat="33.556575"><ele>86.605068</ele><time>2023-06-19T01:29:06Z</time><extensions><speed>1.462376</speed><course>50.168222</course><hAcc>1.936602</hAcc><vAcc>1.050129</vAcc></extensions></trkpt>
      <trkpt lon="-82.146567" lat="33.556583"><ele>86.511908</ele><time>2023-06-19T01:29:07Z</time><extensions><speed>1.436551</speed><course>53.301017</course><hAcc>1.923690</hAcc><vAcc>1.050151</vAcc></extensions></trkpt>
      <trkpt lon="-82.146554" lat="33.556590"><ele>86.412010</ele><time>2023-06-19T01:29:08Z</time><extensions><speed>1.419240</speed><course>51.592764</course><hAcc>1.969352</hAcc><vAcc>1.050156</vAcc></extensions></trkpt>
      <trkpt lon="-82.146541" lat="33.556597"><ele>86.309914</ele><time>2023-06-19T01:29:09Z</time><extensions><speed>1.415984</speed><course>55.359892</course><hAcc>1.951832</hAcc><vAcc>1.050128</vAcc></extensions></trkpt>
      <trkpt lon="-82.146528" lat="33.556603"><ele>86.209347</ele><time>2023-06-19T01:29:10Z</time><extensions><speed>1.411437</speed><course>57.045613</course><hAcc>2.025273</hAcc><vAcc>1.050194</vAcc></extensions></trkpt>
      <trkpt lon="-82.146516" lat="33.556610"><ele>86.112814</ele><time>2023-06-19T01:29:11Z</time><extensions><speed>1.405198</speed><course>51.295051</course><hAcc>2.139779</hAcc><vAcc>1.050333</vAcc></extensions></trkpt>
      <trkpt lon="-82.146504" lat="33.556617"><ele>86.015590</ele><time>2023-06-19T01:29:12Z</time><extensions><speed>1.444688</speed><course>49.525370</course><hAcc>2.149296</hAcc><vAcc>1.050524</vAcc></extensions></trkpt>
      <trkpt lon="-82.146491" lat="33.556625"><ele>85.913686</ele><time>2023-06-19T01:29:13Z</time><extensions><speed>1.477689</speed><course>47.824018</course><hAcc>2.174244</hAcc><vAcc>1.050668</vAcc></extensions></trkpt>
      <trkpt lon="-82.146479" lat="33.556633"><ele>85.813649</ele><time>2023-06-19T01:29:14Z</time><extensions><speed>1.473504</speed><course>54.167633</course><hAcc>2.150995</hAcc><vAcc>1.050731</vAcc></extensions></trkpt>
      <trkpt lon="-82.146465" lat="33.556640"><ele>85.712830</ele><time>2023-06-19T01:29:15Z</time><extensions><speed>1.492783</speed><course>55.889240</course><hAcc>2.205778</hAcc><vAcc>1.050704</vAcc></extensions></trkpt>
      <trkpt lon="-82.146452" lat="33.556647"><ele>85.610075</ele><time>2023-06-19T01:29:16Z</time><extensions><speed>1.529306</speed><course>52.559346</course><hAcc>2.269152</hAcc><vAcc>1.050565</vAcc></extensions></trkpt>
      <trkpt lon="-82.146438" lat="33.556655"><ele>85.507197</ele><time>2023-06-19T01:29:17Z</time><extensions><speed>1.515111</speed><course>58.655226</course><hAcc>2.241265</hAcc><vAcc>1.050264</vAcc></extensions></trkpt>
      <trkpt lon="-82.146423" lat="33.556661"><ele>85.404294</ele><time>2023-06-19T01:29:18Z</time><extensions><speed>1.500733</speed><course>61.491297</course><hAcc>2.271489</hAcc><vAcc>1.049736</vAcc></extensions></trkpt>
      <trkpt lon="-82.146409" lat="33.556667"><ele>85.303669</ele><time>2023-06-19T01:29:19Z</time><extensions><speed>1.480846</speed><course>62.434670</course><hAcc>2.329431</hAcc><vAcc>1.048938</vAcc></extensions></trkpt>
      <trkpt lon="-82.146395" lat="33.556672"><ele>85.207581</ele><time>2023-06-19T01:29:20Z</time><extensions><speed>1.424505</speed><course>61.516506</course><hAcc>2.387158</hAcc><vAcc>1.047842</vAcc></extensions></trkpt>
      <trkpt lon="-82.146382" lat="33.556678"><ele>85.108412</ele><time>2023-06-19T01:29:21Z</time><extensions><speed>1.437109</speed><course>58.228332</course><hAcc>2.431443</hAcc><vAcc>1.046431</vAcc></extensions></trkpt>
      <trkpt lon="-82.146370" lat="33.556684"><ele>85.007556</ele><time>2023-06-19T01:29:22Z</time><extensions><speed>1.372195</speed><course>53.301929</course><hAcc>2.440340</hAcc><vAcc>1.044788</vAcc></extensions></trkpt>
      <trkpt lon="-82.146359" lat="33.556691"><ele>84.909112</ele><time>2023-06-19T01:29:23Z</time><extensions><speed>1.372187</speed><course>50.422673</course><hAcc>2.462596</hAcc><vAcc>1.042962</vAcc></extensions></trkpt>
      <trkpt lon="-82.146348" lat="33.556698"><ele>84.811522</ele><time>2023-06-19T01:29:24Z</time><extensions><speed>1.465400</speed><course>47.252223</course><hAcc>2.486851</hAcc><vAcc>1.040977</vAcc></extensions></trkpt>
      <trkpt lon="-82.146337" lat="33.556706"><ele>84.714852</ele><time>2023-06-19T01:29:25Z</time><extensions><speed>1.410273</speed><course>45.803147</course><hAcc>2.498256</hAcc><vAcc>1.038940</vAcc></extensions></trkpt>
      <trkpt lon="-82.146327" lat="33.556715"><ele>84.614986</ele><time>2023-06-19T01:29:26Z</time><extensions><speed>1.462912</speed><course>42.033828</course><hAcc>2.534862</hAcc><vAcc>1.036833</vAcc></extensions></trkpt>
      <trkpt lon="-82.146317" lat="33.556723"><ele>84.513218</ele><time>2023-06-19T01:29:27Z</time><extensions><speed>1.339201</speed><course>44.068610</course><hAcc>2.484901</hAcc><vAcc>1.034681</vAcc></extensions></trkpt>
      <trkpt lon="-82.146307" lat="33.556731"><ele>84.410878</ele><time>2023-06-19T01:29:28Z</time><extensions><speed>1.272241</speed><course>44.498791</course><hAcc>2.482297</hAcc><vAcc>1.032568</vAcc></extensions></trkpt>
      <trkpt lon="-82.146298" lat="33.556738"><ele>84.315230</ele><time>2023-06-19T01:29:29Z</time><extensions><speed>1.222127</speed><course>44.268270</course><hAcc>2.510091</hAcc><vAcc>1.030600</vAcc></extensions></trkpt>
      <trkpt lon="-82.146289" lat="33.556746"><ele>84.223155</ele><time>2023-06-19T01:29:30Z</time><extensions><speed>1.199884</speed><course>43.230287</course><hAcc>2.547002</hAcc><vAcc>1.028875</vAcc></extensions></trkpt>
      <trkpt lon="-82.146281" lat="33.556753"><ele>84.130667</ele><time>2023-06-19T01:29:31Z</time><extensions><speed>1.148455</speed><course>42.783179</course><hAcc>2.568900</hAcc><vAcc>1.027458</vAcc></extensions></trkpt>
      <trkpt lon="-82.146273" lat="33.556760"><ele>84.037454</ele><time>2023-06-19T01:29:32Z</time><extensions><speed>1.077882</speed><course>42.241458</course><hAcc>2.582536</hAcc><vAcc>1.026475</vAcc></extensions></trkpt>
      <trkpt lon="-82.146265" lat="33.556766"><ele>83.941319</ele><time>2023-06-19T01:29:33Z</time><extensions><speed>1.093782</speed><course>42.614629</course><hAcc>2.599594</hAcc><vAcc>1.025990</vAcc></extensions></trkpt>
      <trkpt lon="-82.146258" lat="33.556773"><ele>83.847210</ele><time>2023-06-19T01:29:34Z</time><extensions><speed>1.163065</speed><course>38.501366</course><hAcc>2.609404</hAcc><vAcc>1.026146</vAcc></extensions></trkpt>
      <trkpt lon="-82.146250" lat="33.556780"><ele>83.756232</ele><time>2023-06-19T01:29:35Z</time><extensions><speed>1.054998</speed><course>37.618746</course><hAcc>2.548168</hAcc><vAcc>1.027071</vAcc></extensions></trkpt>
      <trkpt lon="-82.146243" lat="33.556787"><ele>83.670779</ele><time>2023-06-19T01:29:36Z</time><extensions><speed>1.053840</speed><course>35.314034</course><hAcc>2.536872</hAcc><vAcc>1.028751</vAcc></extensions></trkpt>
      <trkpt lon="-82.146236" lat="33.556794"><ele>83.584832</ele><time>2023-06-19T01:29:37Z</time><extensions><speed>1.161438</speed><course>31.894072</course><hAcc>2.554353</hAcc><vAcc>1.031153</vAcc></extensions></trkpt>
      <trkpt lon="-82.146230" lat="33.556801"><ele>83.503223</ele><time>2023-06-19T01:29:38Z</time><extensions><speed>1.117740</speed><course>33.907465</course><hAcc>2.505351</hAcc><vAcc>1.034235</vAcc></extensions></trkpt>
      <trkpt lon="-82.146222" lat="33.556808"><ele>83.422871</ele><time>2023-06-19T01:29:39Z</time><extensions><speed>1.187996</speed><course>31.927988</course><hAcc>2.505438</hAcc><vAcc>1.037945</vAcc></extensions></trkpt>
      <trkpt lon="-82.146215" lat="33.556814"><ele>83.345540</ele><time>2023-06-19T01:29:40Z</time><extensions><speed>1.081005</speed><course>37.237108</course><hAcc>2.453063</hAcc><vAcc>1.042192</vAcc></extensions></trkpt>
      <trkpt lon="-82.146207" lat="33.556819"><ele>83.265295</ele><time>2023-06-19T01:29:41Z</time><extensions><speed>1.085996</speed><course>40.493686</course><hAcc>2.466719</hAcc><vAcc>1.046795</vAcc></extensions></trkpt>
      <trkpt lon="-82.146199" lat="33.556824"><ele>83.184419</ele><time>2023-06-19T01:29:42Z</time><extensions><speed>1.170340</speed><course>38.366014</course><hAcc>2.498972</hAcc><vAcc>1.051563</vAcc></extensions></trkpt>
      <trkpt lon="-82.146190" lat="33.556830"><ele>83.100270</ele><time>2023-06-19T01:29:43Z</time><extensions><speed>1.081242</speed><course>38.506148</course><hAcc>2.486241</hAcc><vAcc>1.056314</vAcc></extensions></trkpt>
      <trkpt lon="-82.146182" lat="33.556836"><ele>83.015561</ele><time>2023-06-19T01:29:44Z</time><extensions><speed>1.173052</speed><course>30.528669</course><hAcc>2.506298</hAcc><vAcc>1.060875</vAcc></extensions></trkpt>
      <trkpt lon="-82.146175" lat="33.556842"><ele>82.929496</ele><time>2023-06-19T01:29:45Z</time><extensions><speed>0.989366</speed><course>41.375998</course><hAcc>2.458505</hAcc><vAcc>1.065131</vAcc></extensions></trkpt>
      <trkpt lon="-82.146166" lat="33.556846"><ele>82.840280</ele><time>2023-06-19T01:29:46Z</time><extensions><speed>0.940775</speed><course>48.525476</course><hAcc>2.459473</hAcc><vAcc>1.068947</vAcc></extensions></trkpt>
      <trkpt lon="-82.146157" lat="33.556850"><ele>82.752035</ele><time>2023-06-19T01:29:47Z</time><extensions><speed>0.950442</speed><course>54.941746</course><hAcc>2.487749</hAcc><vAcc>1.072202</vAcc></extensions></trkpt>
      <trkpt lon="-82.146147" lat="33.556853"><ele>82.664426</ele><time>2023-06-19T01:29:48Z</time><extensions><speed>0.956561</speed><course>57.422377</course><hAcc>2.514847</hAcc><vAcc>1.074764</vAcc></extensions></trkpt>
      <trkpt lon="-82.146138" lat="33.556855"><ele>82.578717</ele><time>2023-06-19T01:29:49Z</time><extensions><speed>0.955600</speed><course>60.994613</course><hAcc>2.530800</hAcc><vAcc>1.076655</vAcc></extensions></trkpt>
      <trkpt lon="-82.146128" lat="33.556858"><ele>82.493065</ele><time>2023-06-19T01:29:50Z</time><extensions><speed>0.972848</speed><course>62.661583</course><hAcc>2.548995</hAcc><vAcc>1.077836</vAcc></extensions></trkpt>
      <trkpt lon="-82.146118" lat="33.556860"><ele>82.402496</ele><time>2023-06-19T01:29:51Z</time><extensions><speed>1.038110</speed><course>57.925664</course><hAcc>2.577249</hAcc><vAcc>1.078322</vAcc></extensions></trkpt>
      <trkpt lon="-82.146108" lat="33.556864"><ele>82.314589</ele><time>2023-06-19T01:29:52Z</time><extensions><speed>1.205373</speed><course>52.014078</course><hAcc>2.591123</hAcc><vAcc>1.078159</vAcc></extensions></trkpt>
      <trkpt lon="-82.146098" lat="33.556869"><ele>82.227910</ele><time>2023-06-19T01:29:53Z</time><extensions><speed>1.062170</speed><course>54.801073</course><hAcc>2.555667</hAcc><vAcc>1.077436</vAcc></extensions></trkpt>
      <trkpt lon="-82.146089" lat="33.556873"><ele>82.146618</ele><time>2023-06-19T01:29:54Z</time><extensions><speed>1.051544</speed><course>49.343282</course><hAcc>2.563704</hAcc><vAcc>1.076293</vAcc></extensions></trkpt>
      <trkpt lon="-82.146081" lat="33.556878"><ele>82.065972</ele><time>2023-06-19T01:29:55Z</time><extensions><speed>1.198632</speed><course>33.479095</course><hAcc>2.589324</hAcc><vAcc>1.074991</vAcc></extensions></trkpt>
      <trkpt lon="-82.146073" lat="33.556885"><ele>81.985104</ele><time>2023-06-19T01:29:56Z</time><extensions><speed>1.131228</speed><course>43.069738</course><hAcc>2.541434</hAcc><vAcc>1.073758</vAcc></extensions></trkpt>
      <trkpt lon="-82.146065" lat="33.556892"><ele>81.907719</ele><time>2023-06-19T01:29:57Z</time><extensions><speed>1.292298</speed><course>43.662610</course><hAcc>2.538054</hAcc><vAcc>1.072786</vAcc></extensions></trkpt>
      <trkpt lon="-82.146056" lat="33.556898"><ele>81.831844</ele><time>2023-06-19T01:29:58Z</time><extensions><speed>1.108825</speed><course>43.077775</course><hAcc>2.531831</hAcc><vAcc>1.072401</vAcc></extensions></trkpt>
      <trkpt lon="-82.146048" lat="33.556905"><ele>81.759839</ele><time>2023-06-19T01:29:59Z</time><extensions><speed>1.081150</speed><course>39.283537</course><hAcc>2.582461</hAcc><vAcc>1.072845</vAcc></extensions></trkpt>
      <trkpt lon="-82.146041" lat="33.556913"><ele>81.692043</ele><time>2023-06-19T01:30:00Z</time><extensions><speed>1.242438</speed><course>28.219018</course><hAcc>2.652179</hAcc><vAcc>1.074216</vAcc></extensions></trkpt>
      <trkpt lon="-82.146035" lat="33.556922"><ele>81.627298</ele><time>2023-06-19T01:30:01Z</time><extensions><speed>1.098125</speed><course>29.227330</course><hAcc>2.643699</hAcc><vAcc>1.076508</vAcc></extensions></trkpt>
      <trkpt lon="-82.146029" lat="33.556931"><ele>81.565337</ele><time>2023-06-19T01:30:02Z</time><extensions><speed>1.167493</speed><course>25.826983</course><hAcc>2.684701</hAcc><vAcc>1.079655</vAcc></extensions></trkpt>
      <trkpt lon="-82.146024" lat="33.556940"><ele>81.506865</ele><time>2023-06-19T01:30:03Z</time><extensions><speed>0.894803</speed><course>25.206109</course><hAcc>2.696212</hAcc><vAcc>1.083536</vAcc></extensions></trkpt>
      <trkpt lon="-82.146021" lat="33.556946"><ele>81.451415</ele><time>2023-06-19T01:30:04Z</time><extensions><speed>0.697983</speed><course>23.779313</course><hAcc>2.753257</hAcc><vAcc>1.087990</vAcc></extensions></trkpt>
      <trkpt lon="-82.146018" lat="33.556951"><ele>81.396936</ele><time>2023-06-19T01:30:05Z</time><extensions><speed>0.544498</speed><course>25.512403</course><hAcc>2.863923</hAcc><vAcc>1.092812</vAcc></extensions></trkpt>
      <trkpt lon="-82.146016" lat="33.556955"><ele>81.343231</ele><time>2023-06-19T01:30:06Z</time><extensions><speed>0.459737</speed><course>27.649485</course><hAcc>3.033797</hAcc><vAcc>1.097775</vAcc></extensions></trkpt>
      <trkpt lon="-82.146013" lat="33.556959"><ele>81.287706</ele><time>2023-06-19T01:30:07Z</time><extensions><speed>0.445844</speed><course>28.643394</course><hAcc>3.252225</hAcc><vAcc>1.102593</vAcc></extensions></trkpt>
      <trkpt lon="-82.146011" lat="33.556962"><ele>81.235540</ele><time>2023-06-19T01:30:08Z</time><extensions><speed>0.484013</speed><course>26.326320</course><hAcc>3.508535</hAcc><vAcc>1.107018</vAcc></extensions></trkpt>
      <trkpt lon="-82.146009" lat="33.556966"><ele>81.187137</ele><time>2023-06-19T01:30:09Z</time><extensions><speed>0.558026</speed><course>22.387693</course><hAcc>3.799663</hAcc><vAcc>1.110815</vAcc></extensions></trkpt>
      <trkpt lon="-82.146006" lat="33.556971"><ele>81.138597</ele><time>2023-06-19T01:30:10Z</time><extensions><speed>0.668323</speed><course>18.985135</course><hAcc>4.101842</hAcc><vAcc>1.113763</vAcc></extensions></trkpt>
      <trkpt lon="-82.146004" lat="33.556977"><ele>81.096722</ele><time>2023-06-19T01:30:11Z</time><extensions><speed>0.754084</speed><course>19.003068</course><hAcc>4.393499</hAcc><vAcc>1.136991</vAcc></extensions></trkpt>
      <trkpt lon="-82.146001" lat="33.556984"><ele>81.056304</ele><time>2023-06-19T01:30:12Z</time><extensions><speed>0.822288</speed><course>21.996604</course><hAcc>4.687791</hAcc><vAcc>1.166788</vAcc></extensions></trkpt>
      <trkpt lon="-82.145997" lat="33.556991"><ele>81.017187</ele><time>2023-06-19T01:30:13Z</time><extensions><speed>0.885298</speed><course>27.885237</course><hAcc>5.013652</hAcc><vAcc>1.205004</vAcc></extensions></trkpt>
      <trkpt lon="-82.145992" lat="33.556998"><ele>80.979230</ele><time>2023-06-19T01:30:14Z</time><extensions><speed>0.955382</speed><course>34.835137</course><hAcc>5.385643</hAcc><vAcc>1.253761</vAcc></extensions></trkpt>
      <trkpt lon="-82.145986" lat="33.557005"><ele>80.942311</ele><time>2023-06-19T01:30:15Z</time><extensions><speed>1.026615</speed><course>39.015439</course><hAcc>5.801915</hAcc><vAcc>1.315361</vAcc></extensions></trkpt>
      <trkpt lon="-82.145978" lat="33.557013"><ele>80.906326</ele><time>2023-06-19T01:30:16Z</time><extensions><speed>1.113888</speed><course>38.745696</course><hAcc>6.260202</hAcc><vAcc>1.392148</vAcc></extensions></trkpt>
      <trkpt lon="-82.145971" lat="33.557021"><ele>80.871173</ele><time>2023-06-19T01:30:17Z</time><extensions><speed>1.146486</speed><course>37.442248</course><hAcc>6.774645</hAcc><vAcc>1.486352</vAcc></extensions></trkpt>
      <trkpt lon="-82.145963" lat="33.557029"><ele>80.836732</ele><time>2023-06-19T01:30:18Z</time><extensions><speed>1.157109</speed><course>35.947887</course><hAcc>7.366094</hAcc><vAcc>1.599941</vAcc></extensions></trkpt>
      <trkpt lon="-82.145956" lat="33.557037"><ele>80.802843</ele><time>2023-06-19T01:30:19Z</time><extensions><speed>1.144422</speed><course>35.519510</course><hAcc>8.068472</hAcc><vAcc>1.734514</vAcc></extensions></trkpt>
      <trkpt lon="-82.145949" lat="33.557046"><ele>80.769307</ele><time>2023-06-19T01:30:20Z</time><extensions><speed>1.123003</speed><course>36.229744</course><hAcc>8.946650</hAcc><vAcc>1.891227</vAcc></extensions></trkpt>
    </trkseg>
  </trk>
</gpx>