<?xml version="1.0" encoding="UTF-8"?>
<gpx version="1.1" creator="Apple Health Export" xmlns="http://www.topografix.com/GPX/1/1" xmlns:xsi="http://www.w3.org/2001/XMLSchema-instance" xsi:schemaLocation="http://www.topografix.com/GPX/1/1 http://www.topografix.com/GPX/1/1/gpx.xsd">
  <metadata>
    <time>2026-03-14T12:15:39Z</time>
  </metadata>
  <trk>
    <name>Route 2021-06-06 10:14am</name>
    <trkseg>
      <trkpt lon="-82.146128" lat="33.556700"><ele>85.828308</ele><time>2021-06-06T14:12:21Z</time><extensions><speed>0.509812</speed><course>-1.000000</course><hAcc>7.063510</hAcc><vAcc>6.570014</vAcc></extensions></trkpt>
      <trkpt lon="-82.146126" lat="33.556691"><ele>85.889557</ele><time>2021-06-06T14:12:23Z</time><extensions><speed>0.510047</speed><course>-1.000000</course><hAcc>6.190356</hAcc><vAcc>5.854124</vAcc></extensions></trkpt>
      <trkpt lon="-82.146124" lat="33.556687"><ele>85.920288</ele><time>2021-06-06T14:12:24Z</time><extensions><speed>0.510204</speed><course>-1.000000</course><hAcc>5.784810</hAcc><vAcc>5.514630</vAcc></extensions></trkpt>
      <trkpt lon="-82.146123" lat="33.556682"><ele>85.951111</ele><time>2021-06-06T14:12:25Z</time><extensions><speed>0.510455</speed><course>-1.000000</course><hAcc>5.400167</hAcc><vAcc>5.187468</vAcc></extensions></trkpt>
      <trkpt lon="-82.146121" lat="33.556678"><ele>85.982033</ele><time>2021-06-06T14:12:26Z</time><extensions><speed>0.510827</speed><course>-1.000000</course><hAcc>5.037193</hAcc><vAcc>4.873037</vAcc></extensions></trkpt>
      <trkpt lon="-82.146120" lat="33.556674"><ele>86.013062</ele><time>2021-06-06T14:12:27Z</time><extensions><speed>0.511385</speed><course>-1.000000</course><hAcc>4.696209</hAcc><vAcc>4.571404</vAcc></extensions></trkpt>
      <trkpt lon="-82.146119" lat="33.556669"><ele>86.044014</ele><time>2021-06-06T14:12:28Z</time><extensions><speed>0.512194</speed><course>-1.000000</course><hAcc>4.378283</hAcc><vAcc>4.283441</vAcc></extensions></trkpt>
      <trkpt lon="-82.146117" lat="33.556665"><ele>86.074593</ele><time>2021-06-06T14:12:29Z</time><extensions><speed>0.513101</speed><course>-1.000000</course><hAcc>4.082933</hAcc><vAcc>4.008932</vAcc></extensions></trkpt>
      <trkpt lon="-82.146116" lat="33.556660"><ele>86.104156</ele><time>2021-06-06T14:12:30Z</time><extensions><speed>0.513754</speed><course>-1.000000</course><hAcc>3.809281</hAcc><vAcc>3.747695</vAcc></extensions></trkpt>
      <trkpt lon="-82.146115" lat="33.556656"><ele>86.131775</ele><time>2021-06-06T14:12:31Z</time><extensions><speed>0.513900</speed><course>-1.000000</course><hAcc>3.555904</hAcc><vAcc>3.499346</vAcc></extensions></trkpt>
      <trkpt lon="-82.146113" lat="33.556651"><ele>86.156387</ele><time>2021-06-06T14:12:32Z</time><extensions><speed>0.513563</speed><course>-1.000000</course><hAcc>3.321216</hAcc><vAcc>3.263448</vAcc></extensions></trkpt>
      <trkpt lon="-82.146112" lat="33.556647"><ele>86.176888</ele><time>2021-06-06T14:12:33Z</time><extensions><speed>0.512997</speed><course>-1.000000</course><hAcc>3.103671</hAcc><vAcc>3.039583</vAcc></extensions></trkpt>
      <trkpt lon="-82.146111" lat="33.556642"><ele>86.192116</ele><time>2021-06-06T14:12:34Z</time><extensions><speed>0.512583</speed><course>-1.000000</course><hAcc>2.901849</hAcc><vAcc>2.827382</vAcc></extensions></trkpt>
      <trkpt lon="-82.146111" lat="33.556637"><ele>86.200897</ele><time>2021-06-06T14:12:35Z</time><extensions><speed>0.512849</speed><course>-1.000000</course><hAcc>2.714495</hAcc><vAcc>2.626541</vAcc></extensions></trkpt>
      <trkpt lon="-82.146111" lat="33.556633"><ele>86.202042</ele><time>2021-06-06T14:12:36Z</time><extensions><speed>0.514485</speed><course>-1.000000</course><hAcc>2.540540</hAcc><vAcc>2.436871</vAcc></extensions></trkpt>
      <trkpt lon="-82.146111" lat="33.556628"><ele>86.194344</ele><time>2021-06-06T14:12:37Z</time><extensions><speed>0.518226</speed><course>-1.000000</course><hAcc>2.378958</hAcc><vAcc>2.258172</vAcc></extensions></trkpt>
      <trkpt lon="-82.146111" lat="33.556624"><ele>86.176628</ele><time>2021-06-06T14:12:38Z</time><extensions><speed>0.524552</speed><course>-1.000000</course><hAcc>2.229460</hAcc><vAcc>2.090974</vAcc></extensions></trkpt>
      <trkpt lon="-82.146112" lat="33.556619"><ele>86.147758</ele><time>2021-06-06T14:12:39Z</time><extensions><speed>0.533681</speed><course>242.929993</course><hAcc>2.091599</hAcc><vAcc>1.935531</vAcc></extensions></trkpt>
      <trkpt lon="-82.146114" lat="33.556614"><ele>86.106689</ele><time>2021-06-06T14:12:40Z</time><extensions><speed>0.545389</speed><course>228.725525</course><hAcc>1.965346</hAcc><vAcc>1.792491</vAcc></extensions></trkpt>
      <trkpt lon="-82.146115" lat="33.556610"><ele>86.060059</ele><time>2021-06-06T14:12:40Z</time><extensions><speed>0.555983</speed><course>224.802521</course><hAcc>1.864551</hAcc><vAcc>1.677407</vAcc></extensions></trkpt>
      <trkpt lon="-82.146117" lat="33.556605"><ele>85.995995</ele><time>2021-06-06T14:12:41Z</time><extensions><speed>0.570468</speed><course>229.702545</course><hAcc>1.765534</hAcc><vAcc>1.563241</vAcc></extensions></trkpt>
      <trkpt lon="-82.146120" lat="33.556600"><ele>85.919006</ele><time>2021-06-06T14:12:42Z</time><extensions><speed>0.585556</speed><course>230.789551</course><hAcc>1.682693</hAcc><vAcc>1.466804</vAcc></extensions></trkpt>
      <trkpt lon="-82.146123" lat="33.556596"><ele>85.829330</ele><time>2021-06-06T14:12:43Z</time><extensions><speed>0.600287</speed><course>228.398102</course><hAcc>1.619227</hAcc><vAcc>1.390878</vAcc></extensions></trkpt>
      <trkpt lon="-82.146126" lat="33.556591"><ele>85.727180</ele><time>2021-06-06T14:12:44Z</time><extensions><speed>0.613540</speed><course>222.788666</course><hAcc>1.578894</hAcc><vAcc>1.338469</vAcc></extensions></trkpt>
      <trkpt lon="-82.146130" lat="33.556586"><ele>85.612450</ele><time>2021-06-06T14:12:45Z</time><extensions><speed>0.624626</speed><course>221.854416</course><hAcc>1.565585</hAcc><vAcc>1.312378</vAcc></extensions></trkpt>
      <trkpt lon="-82.146134" lat="33.556582"><ele>85.484856</ele><time>2021-06-06T14:12:46Z</time><extensions><speed>0.633315</speed><course>220.605545</course><hAcc>1.583031</hAcc><vAcc>1.314929</vAcc></extensions></trkpt>
      <trkpt lon="-82.146138" lat="33.556577"><ele>85.344444</ele><time>2021-06-06T14:12:47Z</time><extensions><speed>0.639558</speed><course>224.003510</course><hAcc>1.634053</hAcc><vAcc>1.347350</vAcc></extensions></trkpt>
      <trkpt lon="-82.146142" lat="33.556572"><ele>85.190956</ele><time>2021-06-06T14:12:48Z</time><extensions><speed>0.643362</speed><course>223.813110</course><hAcc>1.720137</hAcc><vAcc>1.409505</vAcc></extensions></trkpt>
      <trkpt lon="-82.146146" lat="33.556567"><ele>85.024345</ele><time>2021-06-06T14:12:49Z</time><extensions><speed>0.644739</speed><course>224.315063</course><hAcc>1.841142</hAcc><vAcc>1.499954</vAcc></extensions></trkpt>
      <trkpt lon="-82.146150" lat="33.556563"><ele>84.844734</ele><time>2021-06-06T14:12:50Z</time><extensions><speed>0.643881</speed><course>230.706146</course><hAcc>1.995404</hAcc><vAcc>1.616260</vAcc></extensions></trkpt>
      <trkpt lon="-82.146154" lat="33.556558"><ele>84.652443</ele><time>2021-06-06T14:12:51Z</time><extensions><speed>0.641344</speed><course>243.677414</course><hAcc>2.179996</hAcc><vAcc>1.755364</vAcc></extensions></trkpt>
      <trkpt lon="-82.146582" lat="33.556343"><ele>91.096260</ele><time>2021-06-06T14:13:27Z</time><extensions><speed>2.012272</speed><course>241.687195</course><hAcc>2.322791</hAcc><vAcc>1.917735</vAcc></extensions></trkpt>
      <trkpt lon="-82.146602" lat="33.556336"><ele>91.658669</ele><time>2021-06-06T14:13:28Z</time><extensions><speed>2.021118</speed><course>240.407471</course><hAcc>2.220354</hAcc><vAcc>1.853672</vAcc></extensions></trkpt>
      <trkpt lon="-82.146701" lat="33.556311"><ele>94.420105</ele><time>2021-06-06T14:13:33Z</time><extensions><speed>1.963611</speed><course>276.679688</course><hAcc>1.774770</hAcc><vAcc>1.567792</vAcc></extensions></trkpt>
      <trkpt lon="-82.146722" lat="33.556308"><ele>94.987122</ele><time>2021-06-06T14:13:34Z</time><extensions><speed>1.949615</speed><course>228.515625</course><hAcc>1.641709</hAcc><vAcc>1.474457</vAcc></extensions></trkpt>
      <trkpt lon="-82.146724" lat="33.556308"><ele>95.049294</ele><time>2021-06-06T14:13:34Z</time><extensions><speed>1.949387</speed><course>260.859375</course><hAcc>1.628234</hAcc><vAcc>1.464878</vAcc></extensions></trkpt>
      <trkpt lon="-82.146745" lat="33.556305"><ele>95.591492</ele><time>2021-06-06T14:13:35Z</time><extensions><speed>1.924484</speed><course>242.578125</course><hAcc>1.520684</hAcc><vAcc>1.387056</vAcc></extensions></trkpt>
      <trkpt lon="-82.146765" lat="33.556303"><ele>96.117813</ele><time>2021-06-06T14:13:36Z</time><extensions><speed>1.884403</speed><course>251.718750</course><hAcc>1.431222</hAcc><vAcc>1.319704</vAcc></extensions></trkpt>
      <trkpt lon="-82.146785" lat="33.556301"><ele>96.628319</ele><time>2021-06-06T14:13:37Z</time><extensions><speed>1.824692</speed><course>257.695312</course><hAcc>1.357881</hAcc><vAcc>1.261691</vAcc></extensions></trkpt>
      <trkpt lon="-82.146804" lat="33.556300"><ele>97.107475</ele><time>2021-06-06T14:13:38Z</time><extensions><speed>1.746860</speed><course>250.664062</course><hAcc>1.300429</hAcc><vAcc>1.213601</vAcc></extensions></trkpt>
      <trkpt lon="-82.146823" lat="33.556299"><ele>97.558128</ele><time>2021-06-06T14:13:39Z</time><extensions><speed>1.649786</speed><course>249.609375</course><hAcc>1.255908</hAcc><vAcc>1.173975</vAcc></extensions></trkpt>
      <trkpt lon="-82.146840" lat="33.556299"><ele>97.981750</ele><time>2021-06-06T14:13:40Z</time><extensions><speed>1.531924</speed><course>250.312500</course><hAcc>1.221622</hAcc><vAcc>1.141490</vAcc></extensions></trkpt>
      <trkpt lon="-82.146856" lat="33.556299"><ele>98.371887</ele><time>2021-06-06T14:13:41Z</time><extensions><speed>1.396616</speed><course>275.625000</course><hAcc>1.195729</hAcc><vAcc>1.115481</vAcc></extensions></trkpt>
      <trkpt lon="-82.146870" lat="33.556299"><ele>98.719193</ele><time>2021-06-06T14:13:42Z</time><extensions><speed>1.253939</speed><course>291.445312</course><hAcc>1.177160</hAcc><vAcc>1.095713</vAcc></extensions></trkpt>
      <trkpt lon="-82.146882" lat="33.556300"><ele>99.041153</ele><time>2021-06-06T14:13:43Z</time><extensions><speed>1.091899</speed><course>301.289062</course><hAcc>1.163492</hAcc><vAcc>1.080330</vAcc></extensions></trkpt>
      <trkpt lon="-82.146893" lat="33.556301"><ele>99.324089</ele><time>2021-06-06T14:13:44Z</time><extensions><speed>0.925929</speed><course>307.968750</course><hAcc>1.153998</hAcc><vAcc>1.069129</vAcc></extensions></trkpt>
      <trkpt lon="-82.146902" lat="33.556302"><ele>99.570183</ele><time>2021-06-06T14:13:45Z</time><extensions><speed>0.758359</speed><course>325.898438</course><hAcc>1.147823</hAcc><vAcc>1.061345</vAcc></extensions></trkpt>
      <trkpt lon="-82.146909" lat="33.556304"><ele>99.783951</ele><time>2021-06-06T14:13:46Z</time><extensions><speed>0.585030</speed><course>332.226562</course><hAcc>1.143570</hAcc><vAcc>1.055692</vAcc></extensions></trkpt>
      <trkpt lon="-82.146914" lat="33.556305"><ele>99.953659</ele><time>2021-06-06T14:13:47Z</time><extensions><speed>0.432244</speed><course>340.312500</course><hAcc>1.140731</hAcc><vAcc>1.051621</vAcc></extensions></trkpt>
      <trkpt lon="-82.146917" lat="33.556307"><ele>100.089935</ele><time>2021-06-06T14:13:48Z</time><extensions><speed>0.298034</speed><course>348.398438</course><hAcc>1.138644</hAcc><vAcc>1.048198</vAcc></extensions></trkpt>
      <trkpt lon="-82.146919" lat="33.556309"><ele>100.189407</ele><time>2021-06-06T14:13:49Z</time><extensions><speed>0.229311</speed><course>343.125000</course><hAcc>1.136464</hAcc><vAcc>1.044568</vAcc></extensions></trkpt>
      <trkpt lon="-82.146918" lat="33.556311"><ele>100.253304</ele><time>2021-06-06T14:13:50Z</time><extensions><speed>0.268720</speed><course>326.250000</course><hAcc>1.133728</hAcc><vAcc>1.040114</vAcc></extensions></trkpt>
      <trkpt lon="-82.146916" lat="33.556313"><ele>100.283035</ele><time>2021-06-06T14:13:51Z</time><extensions><speed>0.375944</speed><course>318.515625</course><hAcc>1.129845</hAcc><vAcc>1.034142</vAcc></extensions></trkpt>
      <trkpt lon="-82.146912" lat="33.556315"><ele>100.279800</ele><time>2021-06-06T14:13:52Z</time><extensions><speed>0.495042</speed><course>332.578125</course><hAcc>1.124730</hAcc><vAcc>1.026483</vAcc></extensions></trkpt>
      <trkpt lon="-82.146907" lat="33.556318"><ele>100.245514</ele><time>2021-06-06T14:13:53Z</time><extensions><speed>0.612593</speed><course>86.132812</course><hAcc>1.118120</hAcc><vAcc>1.016710</vAcc></extensions></trkpt>
      <trkpt lon="-82.146900" lat="33.556320"><ele>100.181587</ele><time>2021-06-06T14:13:54Z</time><extensions><speed>0.716933</speed><course>91.054688</course><hAcc>1.109714</hAcc><vAcc>1.004578</vAcc></extensions></trkpt>
      <trkpt lon="-82.146892" lat="33.556322"><ele>100.089806</ele><time>2021-06-06T14:13:55Z</time><extensions><speed>0.801767</speed><course>91.406250</course><hAcc>1.099479</hAcc><vAcc>0.990088</vAcc></extensions></trkpt>
      <trkpt lon="-82.146884" lat="33.556324"><ele>99.969421</ele><time>2021-06-06T14:13:56Z</time><extensions><speed>0.865455</speed><course>83.320312</course><hAcc>1.087011</hAcc><vAcc>0.972951</vAcc></extensions></trkpt>
      <trkpt lon="-82.146875" lat="33.556326"><ele>99.829323</ele><time>2021-06-06T14:13:57Z</time><extensions><speed>0.901209</speed><course>84.375000</course><hAcc>1.073657</hAcc><vAcc>0.954845</vAcc></extensions></trkpt>
      <trkpt lon="-82.146865" lat="33.556328"><ele>99.663612</ele><time>2021-06-06T14:13:58Z</time><extensions><speed>0.914581</speed><course>79.453125</course><hAcc>1.059551</hAcc><vAcc>0.935826</vAcc></extensions></trkpt>
      <trkpt lon="-82.146856" lat="33.556330"><ele>99.475357</ele><time>2021-06-06T14:13:59Z</time><extensions><speed>0.905313</speed><course>91.054688</course><hAcc>1.045396</hAcc><vAcc>0.917194</vAcc></extensions></trkpt>
      <trkpt lon="-82.146846" lat="33.556332"><ele>99.267174</ele><time>2021-06-06T14:14:00Z</time><extensions><speed>0.876279</speed><course>68.906250</course><hAcc>1.032494</hAcc><vAcc>0.900721</vAcc></extensions></trkpt>
      <trkpt lon="-82.146837" lat="33.556334"><ele>99.035393</ele><time>2021-06-06T14:14:01Z</time><extensions><speed>0.829346</speed><course>58.359375</course><hAcc>1.022025</hAcc><vAcc>0.888043</vAcc></extensions></trkpt>
      <trkpt lon="-82.146829" lat="33.556336"><ele>98.792152</ele><time>2021-06-06T14:14:02Z</time><extensions><speed>0.773013</speed><course>102.304688</course><hAcc>1.016985</hAcc><vAcc>0.882397</vAcc></extensions></trkpt>
      <trkpt lon="-82.146821" lat="33.556337"><ele>98.532288</ele><time>2021-06-06T14:14:03Z</time><extensions><speed>0.708670</speed><course>94.218750</course><hAcc>1.020992</hAcc><vAcc>0.887006</vAcc></extensions></trkpt>
      <trkpt lon="-82.146814" lat="33.556339"><ele>98.258469</ele><time>2021-06-06T14:14:04Z</time><extensions><speed>0.641328</speed><course>110.039062</course><hAcc>1.039104</hAcc><vAcc>0.906046</vAcc></extensions></trkpt>
      <trkpt lon="-82.146808" lat="33.556340"><ele>97.973503</ele><time>2021-06-06T14:14:05Z</time><extensions><speed>0.576452</speed><course>69.960938</course><hAcc>1.077884</hAcc><vAcc>0.944125</vAcc></extensions></trkpt>
      <trkpt lon="-82.146807" lat="33.556339"><ele>97.668167</ele><time>2021-06-06T14:14:06Z</time><extensions><speed>0.509829</speed><course>-1.000000</course><hAcc>1.022223</hAcc><vAcc>0.883652</vAcc></extensions></trkpt>
      <trkpt lon="-82.146812" lat="33.556337"><ele>97.587212</ele><time>2021-06-06T14:14:07Z</time><extensions><speed>0.570678</speed><course>-1.000000</course><hAcc>0.994106</hAcc><vAcc>0.850366</vAcc></extensions></trkpt>
      <trkpt lon="-82.146818" lat="33.556335"><ele>97.510590</ele><time>2021-06-06T14:14:08Z</time><extensions><speed>0.636166</speed><course>-1.000000</course><hAcc>0.978502</hAcc><vAcc>0.828677</vAcc></extensions></trkpt>
      <trkpt lon="-82.146825" lat="33.556333"><ele>97.441200</ele><time>2021-06-06T14:14:09Z</time><extensions><speed>0.698681</speed><course>-1.000000</course><hAcc>0.970148</hAcc><vAcc>0.814880</vAcc></extensions></trkpt>
      <trkpt lon="-82.146833" lat="33.556332"><ele>97.378532</ele><time>2021-06-06T14:14:10Z</time><extensions><speed>0.757011</speed><course>-1.000000</course><hAcc>0.965069</hAcc><vAcc>0.805398</vAcc></extensions></trkpt>
      <trkpt lon="-82.146841" lat="33.556330"><ele>97.322304</ele><time>2021-06-06T14:14:11Z</time><extensions><speed>0.810426</speed><course>-1.000000</course><hAcc>0.960420</hAcc><vAcc>0.797504</vAcc></extensions></trkpt>
      <trkpt lon="-82.146850" lat="33.556329"><ele>97.274925</ele><time>2021-06-06T14:14:12Z</time><extensions><speed>0.852209</speed><course>-1.000000</course><hAcc>0.955502</hAcc><vAcc>0.790296</vAcc></extensions></trkpt>
      <trkpt lon="-82.146859" lat="33.556327"><ele>97.232338</ele><time>2021-06-06T14:14:13Z</time><extensions><speed>0.887039</speed><course>-1.000000</course><hAcc>0.949567</hAcc><vAcc>0.782530</vAcc></extensions></trkpt>
      <trkpt lon="-82.146868" lat="33.556326"><ele>97.196594</ele><time>2021-06-06T14:14:14Z</time><extensions><speed>0.909793</speed><course>-1.000000</course><hAcc>0.942992</hAcc><vAcc>0.774414</vAcc></extensions></trkpt>
      <trkpt lon="-82.146878" lat="33.556325"><ele>97.164726</ele><time>2021-06-06T14:14:15Z</time><extensions><speed>0.923817</speed><course>-1.000000</course><hAcc>0.935973</hAcc><vAcc>0.765704</vAcc></extensions></trkpt>
      <trkpt lon="-82.146888" lat="33.556324"><ele>97.135941</ele><time>2021-06-06T14:14:16Z</time><extensions><speed>0.930085</speed><course>-1.000000</course><hAcc>0.928317</hAcc><vAcc>0.756207</vAcc></extensions></trkpt>
      <trkpt lon="-82.146898" lat="33.556324"><ele>97.109573</ele><time>2021-06-06T14:14:17Z</time><extensions><speed>0.930478</speed><course>-1.000000</course><hAcc>0.920718</hAcc><vAcc>0.746617</vAcc></extensions></trkpt>
      <trkpt lon="-82.146908" lat="33.556324"><ele>97.083946</ele><time>2021-06-06T14:14:18Z</time><extensions><speed>0.927244</speed><course>242.929993</course><hAcc>0.914020</hAcc><vAcc>0.737704</vAcc></extensions></trkpt>
      <trkpt lon="-82.146918" lat="33.556325"><ele>97.057411</ele><time>2021-06-06T14:14:19Z</time><extensions><speed>0.921526</speed><course>228.725525</course><hAcc>0.908526</hAcc><vAcc>0.729831</vAcc></extensions></trkpt>
      <trkpt lon="-82.146928" lat="33.556325"><ele>97.029091</ele><time>2021-06-06T14:14:20Z</time><extensions><speed>0.913675</speed><course>224.802521</course><hAcc>0.904421</hAcc><vAcc>0.723302</vAcc></extensions></trkpt>
      <trkpt lon="-82.146938" lat="33.556327"><ele>96.996872</ele><time>2021-06-06T14:14:22Z</time><extensions><speed>0.902436</speed><course>229.702545</course><hAcc>0.901013</hAcc><vAcc>0.717598</vAcc></extensions></trkpt>
      <trkpt lon="-82.146947" lat="33.556329"><ele>96.963387</ele><time>2021-06-06T14:14:22Z</time><extensions><speed>0.889286</speed><course>230.789551</course><hAcc>0.898852</hAcc><vAcc>0.713378</vAcc></extensions></trkpt>
      <trkpt lon="-82.146956" lat="33.556331"><ele>96.925766</ele><time>2021-06-06T14:14:23Z</time><extensions><speed>0.871694</speed><course>228.398102</course><hAcc>0.897990</hAcc><vAcc>0.710370</vAcc></extensions></trkpt>
      <trkpt lon="-82.146965" lat="33.556334"><ele>96.885246</ele><time>2021-06-06T14:14:24Z</time><extensions><speed>0.850826</speed><course>222.788666</course><hAcc>0.897606</hAcc><vAcc>0.708057</vAcc></extensions></trkpt>
      <trkpt lon="-82.146973" lat="33.556338"><ele>96.842484</ele><time>2021-06-06T14:14:25Z</time><extensions><speed>0.827881</speed><course>221.854416</course><hAcc>0.897312</hAcc><vAcc>0.706166</vAcc></extensions></trkpt>
      <trkpt lon="-82.146980" lat="33.556341"><ele>96.797661</ele><time>2021-06-06T14:14:26Z</time><extensions><speed>0.803766</speed><course>220.605545</course><hAcc>0.896682</hAcc><vAcc>0.704455</vAcc></extensions></trkpt>
      <trkpt lon="-82.146987" lat="33.556345"><ele>96.752663</ele><time>2021-06-06T14:14:27Z</time><extensions><speed>0.780613</speed><course>224.003510</course><hAcc>0.896036</hAcc><vAcc>0.703339</vAcc></extensions></trkpt>
      <trkpt lon="-82.146994" lat="33.556349"><ele>96.706467</ele><time>2021-06-06T14:14:28Z</time><extensions><speed>0.757378</speed><course>223.813110</course><hAcc>0.896281</hAcc><vAcc>0.703686</vAcc></extensions></trkpt>
      <trkpt lon="-82.147000" lat="33.556354"><ele>96.658844</ele><time>2021-06-06T14:14:29Z</time><extensions><speed>0.734308</speed><course>224.315063</course><hAcc>0.898723</hAcc><vAcc>0.706818</vAcc></extensions></trkpt>
      <trkpt lon="-82.147006" lat="33.556358"><ele>96.610023</ele><time>2021-06-06T14:14:30Z</time><extensions><speed>0.712564</speed><course>230.706146</course><hAcc>0.906150</hAcc><vAcc>0.715148</vAcc></extensions></trkpt>
      <trkpt lon="-82.147011" lat="33.556362"><ele>96.560364</ele><time>2021-06-06T14:14:31Z</time><extensions><speed>0.693663</speed><course>243.677414</course><hAcc>0.923365</hAcc><vAcc>0.732399</vAcc></extensions></trkpt>
      <trkpt lon="-82.147017" lat="33.556367"><ele>96.509956</ele><time>2021-06-06T14:14:32Z</time><extensions><speed>0.678584</speed><course>241.687195</course><hAcc>0.957292</hAcc><vAcc>0.763539</vAcc></extensions></trkpt>
      <trkpt lon="-82.147021" lat="33.556371"><ele>96.459587</ele><time>2021-06-06T14:14:33Z</time><extensions><speed>0.667641</speed><course>240.407471</course><hAcc>1.015842</hAcc><vAcc>0.813700</vAcc></extensions></trkpt>
      <trkpt lon="-82.147026" lat="33.556376"><ele>96.409035</ele><time>2021-06-06T14:14:34Z</time><extensions><speed>0.659890</speed><course>276.679688</course><hAcc>1.107908</hAcc><vAcc>0.888469</vAcc></extensions></trkpt>
      <trkpt lon="-82.147031" lat="33.556380"><ele>96.358917</ele><time>2021-06-06T14:14:35Z</time><extensions><speed>0.654773</speed><course>228.515625</course><hAcc>1.239152</hAcc><vAcc>0.990847</vAcc></extensions></trkpt>
      <trkpt lon="-82.147036" lat="33.556384"><ele>96.308479</ele><time>2021-06-06T14:14:36Z</time><extensions><speed>0.651856</speed><course>260.859375</course><hAcc>1.415380</hAcc><vAcc>1.124371</vAcc></extensions></trkpt>
      <trkpt lon="-82.147041" lat="33.556389"><ele>96.258636</ele><time>2021-06-06T14:14:37Z</time><extensions><speed>0.650983</speed><course>242.578125</course><hAcc>1.633242</hAcc><vAcc>1.286166</vAcc></extensions></trkpt>
    </trkseg>
  </trk>
</gpx>